TRIFID,LONGITUDE,LATITUDE,ESTIMATE,STATEFP,COUNTYFP,TRACTCE,STATEGEOID,COUNTYGEOID,TRACTGEOID,AFFGEOID,FACILITY_NAME,STREET,CITY,STUSPS,ZIP_CODE,FACILITY,FAC_CLOSED_IND,ASGN_FEDERAL_IND,BIA_CODE,EPA_REGISTRY_ID
80002NDLCH4711W,-105.04799999999999,39.803000000000004,False,08,001,009751,08,08001,08001009751,1400000US08001009751,INDUSTRIAL CHEMICALS CORP,4711 W 58TH AVE,ARVADA,CO,80002,"INDUSTRIAL CHEMICALS CORP.4711 W 58TH AVE, ARVADA COLORADO 80002 (ADAMS)",0,C,,110000906495
80002RDYMX555SH,-105.053,39.799,False,08,001,009751,08,08001,08001009751,1400000US08001009751,READY MIXED CONCRETE PLANT 11,5550 SHERIDAN BLVD,ARVADA,CO,80002,"READY MIXED CONCRETE PLANT 11.5550 SHERIDAN BLVD, ARVADA COLORADO 80002 (ADAMS)",0,C,,110025334038
80004CBLBR14401,-105.162,39.815,False,08,059,009839,08,08059,08059009839,1400000US08059009839,COBE CARDIOVASCULAR INC,14401 W 65TH WAY,ARVADA,CO,80004,"COBE CARDIOVASCULAR INC.14401 W 65TH WAY, ARVADA COLORADO 80004 (JEFFERSON)",0,C,,
80004DNVRN6542F,-105.15799999999999,39.815,False,08,059,009839,08,08059,08059009839,1400000US08059009839,DENVER INSTRUMENT CO,6542 FIG ST,ARVADA,CO,80004,"DENVER INSTRUMENT CO.6542 FIG ST, ARVADA COLORADO 80004 (JEFFERSON)",0,C,,
80010STNLY2501D,-104.876,39.753,False,08,001,007900,08,08001,08001007900,1400000US08001007900,STANLEY AVIATION CORP,2501 DALLAS ST,AURORA,CO,80010,"STANLEY AVIATION CORP.2501 DALLAS ST, AURORA COLORADO 80010 (ADAMS)",0,C,,
80011WHRLP3550O,-104.741,39.765,False,08,001,008353,08,08001,08001008353,1400000US08001008353,WJ WHATLEY INC,"3550 ODESSA WAY, STE A",AURORA,CO,80011,"WJ WHATLEY INC.3550 ODESSA WAY, STE A, AURORA COLORADO 80011 (ADAMS)",0,C,,110000466530
80011JHNHH21100,-104.742,39.758,False,08,001,008353,08,08001,08001008353,1400000US08001008353,ADVANCED CIRCUITS INC,21101 E 32ND PKWY,AURORA,CO,80011,"ADVANCED CIRCUITS INC.21101 E 32ND PKWY, AURORA COLORADO 80011 (ADAMS)",0,C,,110064107121
80011FRSTN2125E,-104.73899999999999,39.766999999999996,False,08,001,008353,08,08001,08001008353,1400000US08001008353,FIRESTONE BUILDING PRODUCTS CO,21250 E 36TH DR,AURORA,CO,80011,"FIRESTONE BUILDING PRODUCTS CO.21250 E 36TH DR, AURORA COLORADO 80011 (ADAMS)",1,C,,110013729215
80019MSTRC23655,-104.711,39.744,False,08,001,008353,08,08001,08001008353,1400000US08001008353,ELKAY WOOD PRODUCTS CO,23655 E 19TH AVE,AURORA,CO,80019,"ELKAY WOOD PRODUCTS CO.23655 E 19TH AVE, AURORA COLORADO 80019 (ADAMS)",0,C,,110030489077
8001WMRTNM241PI,-104.735,39.753,False,08,001,008353,08,08001,08001008353,1400000US08001008353,MARTIN MARIETTA - PICADILLY READY MIX,2401 PICADILLY RD,AURORA,CO,80014,"MARTIN MARIETTA - PICADILLY READY MIX.2401 PICADILLY RD, AURORA COLORADO 80014 (ADAMS)",0,C,,110038615406
80020CRDLB2555W,-105.102,39.924,False,08,014,031200,08,08014,08014031200,1400000US08014031200,SANDOZ INC,2555 W MIDWAY BLVD,BROOMFIELD,CO,80020,"SANDOZ INC.2555 W MIDWAY BLVD, BROOMFIELD COLORADO 80020 (BROOMFIELD)",0,C,,110000466558
80028STRGT2270S,-105.12799999999999,39.941,False,08,014,031200,08,08013,08014031200,1400000US08014031200,STORAGE TECH CORP,ONE STORAGETEK DR,LOUISVILLE,CO,80028,"STORAGE TECH CORP.ONE STORAGETEK DR, LOUISVILLE COLORADO 80028 (BOULDER)",0,C,,
80020VLCRC555AL,-105.09200000000001,39.925,False,08,014,031200,08,08013,08014031200,1400000US08014031200,VELIE CIRCUITS OF CO INC,555 ALTER ST UNIT 19,BROOMFIELD,CO,80020,"VELIE CIRCUITS OF CO INC.555 ALTER ST UNIT 19, BROOMFIELD COLORADO 80020 (BOULDER)",1,C,,
80020FSNSP2400I,-105.09700000000001,39.921,False,08,014,031200,08,08014,08014031200,1400000US08014031200,FUSION SPECIALTIES INC,2400 INDUSTRIAL LN,BROOMFIELD,CO,80020,"FUSION SPECIALTIES INC.2400 INDUSTRIAL LN, BROOMFIELD COLORADO 80020 (BROOMFIELD)",0,C,,110000466567
80020MCRSM800HO,-105.104,39.927,False,08,014,031200,08,08014,08014031200,1400000US08014031200,MICROSEMI CORP COLORADO,800 HOYT ST,BROOMFIELD,CO,80020,"MICROSEMI CORP COLORADO.800 HOYT ST, BROOMFIELD COLORADO 80020 (BROOMFIELD)",0,C,,110000466576
80020HNTRDNEDUE,-105.11,39.928000000000004,False,08,014,031200,08,08014,08014031200,1400000US08014031200,HUNTER DOUGLAS WINDOW FASHIONS INC,ONE DUETTE WAY,BROOMFIELD,CO,80020,"HUNTER DOUGLAS WINDOW FASHIONS INC.ONE DUETTE WAY, BROOMFIELD COLORADO 80020 (BROOMFIELD)",0,C,,110011683776
80020WLLTC2750I,-105.1,39.921,False,08,014,031200,08,08013,08014031200,1400000US08014031200,WALL TECHNOLOGY INC,2750 INDUSTRIAL LN,BROOMFIELD,CO,80020,"WALL TECHNOLOGY INC.2750 INDUSTRIAL LN, BROOMFIELD COLORADO 80020 (BOULDER)",0,C,,
80020GGRGT845CM,-105.09899999999999,39.928000000000004,False,08,014,031200,08,08014,08014031200,1400000US08014031200,AGGREGATE INDUSTRIES WCR INC BROOMFIELD READY MIX PLANT,845 COMPTON ST,BROOMFIELD,CO,80020,"AGGREGATE INDUSTRIES WCR INC BROOMFIELD READY MIX PLANT.845 COMPTON ST, BROOMFIELD COLORADO 80020 (BROOMFIELD)",0,C,,110001437703
8002WRMSTR64CMP,-105.09899999999999,39.927,False,08,014,031200,08,08014,08014031200,1400000US08014031200,CHECKERS INDUSTRIAL SAFETY PRODUCTS,640 COMPTON STREET,BROOMFIELD,CO,80020,"CHECKERS INDUSTRIAL SAFETY PRODUCTS.640 COMPTON STREET, BROOMFIELD COLORADO 80020 (BROOMFIELD)",0,C,,110060258698
80022BYLSG4400E,-104.93700000000001,39.806999999999995,False,08,001,008901,08,08001,08001008901,1400000US08001008901,AZZ GALVANIZING -DENVER,4400 E 61ST AVE,COMMERCE CITY,CO,80022,"AZZ GALVANIZING -DENVER.4400 E 61ST AVE, COMMERCE CITY COLORADO 80022 (ADAMS)",0,C,,110000466585
80022CLRDR5800B,-104.943,39.805,False,08,001,008901,08,08001,08001008901,1400000US08001008901,COLORADO REFINING CO,5800 BRIGHTON BLVD,COMMERCE CITY,CO,80022,"COLORADO REFINING CO.5800 BRIGHTON BLVD, COMMERCE CITY COLORADO 80022 (ADAMS)",1,C,,
80022CNCDN5801B,-104.944,39.806,False,08,001,008901,08,08001,08001008901,1400000US08001008901,SUNCOR ENERGY COMMERCE CITY REFINERY,5801 BRIGHTON BLVD,COMMERCE CITY,CO,80022,"SUNCOR ENERGY COMMERCE CITY REFINERY.5801 BRIGHTON BLVD, COMMERCE CITY COLORADO 80022 (ADAMS)",0,C,,110032913024
80022DXPTR6330C,-104.94,39.812,False,08,001,008901,08,08001,08001008901,1400000US08001008901,DPC INDUSTRIES INC,6330 COLORADO,COMMERCE CITY,CO,80022,"DPC INDUSTRIES INC.6330 COLORADO, COMMERCE CITY COLORADO 80022 (ADAMS)",0,C,,
80022RPBLC5501B,-104.95200000000001,39.798,False,08,001,008901,08,08001,08001008901,1400000US08001008901,REPUBLIC PAPERBOARD CO,5501 BRIGHTON BLVD,COMMERCE CITY,CO,80022,"REPUBLIC PAPERBOARD CO.5501 BRIGHTON BLVD, COMMERCE CITY COLORADO 80022 (ADAMS)",0,C,,
80022SSCHN3900E,-104.94200000000001,39.82,False,08,001,008901,08,08001,08001008901,1400000US08001008901,SASHCO INC,3900 E 68TH AVE,COMMERCE CITY,CO,80022,"SASHCO INC.3900 E 68TH AVE, COMMERCE CITY COLORADO 80022 (ADAMS)",1,C,,
80022SNDCR4150E,-104.93799999999999,39.803000000000004,False,08,001,008901,08,08001,08001008901,1400000US08001008901,SAND CREEK CHEMICAL LP,4150 E 60TH AVE,COMMERCE CITY,CO,800223110,"SAND CREEK CHEMICAL LP.4150 E 60TH AVE, COMMERCE CITY COLORADO 80022 (ADAMS)",0,C,,
80022DNVRR3601E,-104.944,39.798,False,08,001,008901,08,08001,08001008901,1400000US08001008901,DENVER REFINED PRODUCTS TERMINAL,3601 E 56TH AVE,COMMERCE CITY,CO,80022,"DENVER REFINED PRODUCTS TERMINAL.3601 E 56TH AVE, COMMERCE CITY COLORADO 80022 (ADAMS)",0,C,,110002398780
80022PHLLP3960E,-104.939,39.798,False,08,001,008901,08,08001,08001008901,1400000US08001008901,PHILLIPS 66 CO DENVER TERMINAL,3960 E 56TH AVE,COMMERCE CITY,CO,80022,"PHILLIPS 66 CO DENVER TERMINAL.3960 E 56TH AVE, COMMERCE CITY COLORADO 80022 (ADAMS)",0,C,,110000466638
80022KCHPR4310E,-104.93799999999999,39.804,False,08,001,008901,08,08001,08001008901,1400000US08001008901,BKEP MATERIALS LLC-DENVER,4310 E 60TH AVE,COMMERCE CITY,CO,80022,"BKEP MATERIALS LLC-DENVER.4310 E 60TH AVE, COMMERCE CITY COLORADO 80022 (ADAMS)",0,C,,110001430531
80022HYDRG6101D,-104.932,39.808,False,08,001,008901,08,08001,08001008901,1400000US08001008901,HYDROGATE ACQUISITION CORP,6101 DEXTER ST,COMMERCE CITY,CO,80022,"HYDROGATE ACQUISITION CORP.6101 DEXTER ST, COMMERCE CITY COLORADO 80022 (ADAMS)",0,C,,
8002WPRNML6151B,-104.939,39.809,False,08,001,008901,08,08001,08001008901,1400000US08001008901,PURINA ANIMAL NUTRITION LLC - COMMERCE CITY,6151 BRIGHTON BLVD,COMMERCE CITY,CO,80022,"PURINA ANIMAL NUTRITION LLC - COMMERCE CITY.6151 BRIGHTON BLVD, COMMERCE CITY COLORADO 80022 (ADAMS)",0,C,,110060260355
8002WBRNNN7271C,-104.94,39.828,False,08,001,008901,08,08001,08001008901,1400000US08001008901,BRANNAN SAND & GRAVEL,7271 COLORADO BLVD,COMMERCE CITY,CO,80022,"BRANNAN SAND & GRAVEL.7271 COLORADO BLVD, COMMERCE CITY COLORADO 80022 (ADAMS)",0,C,,110030489068
80022MSFBR6471E,-104.913,39.785,False,08,001,008709,08,08001,08001008709,1400000US08001008709,MESA FIBERGLASS INC,6471 E 49TH DR,COMMERCE CITY,CO,80022,"MESA FIBERGLASS INC.6471 E 49TH DR, COMMERCE CITY COLORADO 80022 (ADAMS)",1,C,,
80022RXNRD6120E,-104.917,39.802,False,08,001,008709,08,08001,08001008709,1400000US08001008709,LOCTITE CORP,6120 E 58TH AVE,COMMERCE CITY,CO,80022,"LOCTITE CORP.6120 E 58TH AVE, COMMERCE CITY COLORADO 80022 (ADAMS)",0,C,,
80022WJWHT6980E,-104.90700000000001,39.796,False,08,001,008709,08,08001,08001008709,1400000US08001008709,W.J. WHATLEY INC.,6980 E 54TH PL.,COMMERCE CITY,CO,80022,"W.J. WHATLEY INC..6980 E 54TH PL., COMMERCE CITY COLORADO 80022 (ADAMS)",0,C,,110000466656
80022FVSTR6731E,-104.911,39.787,False,08,001,008709,08,08001,08001008709,1400000US08001008709,FIVE STAR AFFILIATES,6731 E 50TH AVE,COMMERCE CITY,CO,80022,"FIVE STAR AFFILIATES.6731 E 50TH AVE, COMMERCE CITY COLORADO 80022 (ADAMS)",0,C,,
8002WRWLFL587E5,-104.92,39.798,False,08,001,008709,08,08001,08001008709,1400000US08001008709,A R WILFLEY & SONS INC,5870 E 56TH AVE,COMMERCE CITY,CO,80022,"A R WILFLEY & SONS INC.5870 E 56TH AVE, COMMERCE CITY COLORADO 80022 (ADAMS)",0,C,,110067046066
8002WTHRMF4845F,-104.927,39.785,False,08,001,008709,08,08001,08001008709,1400000US08001008709,THERMO FLUIDS DENVER,4845 FOREST ST,COMMERCE CITY,CO,80022,"THERMO FLUIDS DENVER.4845 FOREST ST, COMMERCE CITY COLORADO 80022 (ADAMS)",0,C,,110046325071
80027XPLSV1301C,-105.12799999999999,39.983000000000004,False,08,013,013005,08,08013,08013013005,1400000US08013013005,DYNAMIC MATERIALS CORP EXPLOSIVE FABRICATORS DIV,1301 COURTESY RD,LOUISVILLE,CO,80027,"DYNAMIC MATERIALS CORP EXPLOSIVE FABRICATORS DIV.1301 COURTESY RD, LOUISVILLE COLORADO 80027 (BOULDER)",0,C,,
80030BRKCR6815G,-104.884,39.863,False,08,001,008802,08,08001,08001008802,1400000US08001008802,BIRKO CORP,9152 YOSEMITE ST,HENDERSON,CO,80640,"BIRKO CORP.9152 YOSEMITE ST, HENDERSON COLORADO 80640 (ADAMS)",0,C,,110000466683
80640DLTRC9155B,-104.87899999999999,39.863,False,08,001,008802,08,08001,08001008802,1400000US08001008802,ROCKY MOUNTAIN PETROLEUM CORP,9155 BOSTON ST,HENDERSON,CO,80640,"ROCKY MOUNTAIN PETROLEUM CORP.9155 BOSTON ST, HENDERSON COLORADO 80640 (ADAMS)",0,C,,110000467575
80022RCHTC6401E,-104.914,39.842,False,08,001,008802,08,08001,08001008802,1400000US08001008802,"ARCHITECTURAL DESIGN PRECAST, CONCRETE INC",6401 E 80TH AVE,COMMERCE CITY,CO,80022,"ARCHITECTURAL DESIGN PRECAST, CONCRETE INC.6401 E 80TH AVE, COMMERCE CITY COLORADO 80022 (ADAMS)",1,C,,
80640PRNML9200E,-104.881,39.86,False,08,001,008802,08,08001,08001008802,1400000US08001008802,LAND O'LAKES PURINA FEED LLC - DENVER,9200 E 90TH AVE,HENDERSON,CO,80640,"LAND O'LAKES PURINA FEED LLC - DENVER.9200 E 90TH AVE, HENDERSON COLORADO 80640 (ADAMS)",0,C,,110000467593
80640GGRGT952QU,-104.902,39.858000000000004,False,08,001,008802,08,08001,08001008802,1400000US08001008802,AGGREGATE INDUSTRIES WCR INC COMMERCE CITY READY MIX PLANT,9052 QUINCE ST,HENDERSON,CO,80640,"AGGREGATE INDUSTRIES WCR INC COMMERCE CITY READY MIX PLANT.9052 QUINCE ST, HENDERSON COLORADO 80640 (ADAMS)",0,C,,110002369142
8064WCNYNS952YS,-104.884,39.861,False,08,001,008802,08,08001,08001008802,1400000US08001008802,WEST DIRECT OIL #15 HEN,9052 YOSEMITE STREET,HENDERSON,CO,80640,"WEST DIRECT OIL #15 HEN.9052 YOSEMITE STREET, HENDERSON COLORADO 80640 (ADAMS)",0,C,,110003002376
8064WFRTRR945AL,-104.882,39.868,False,08,001,008802,08,08001,08001008802,1400000US08001008802,FORTERRA PRECAST CONCEPTS INC,9405 ALTON CT,HENDERSON,CO,80640,"FORTERRA PRECAST CONCEPTS INC.9405 ALTON CT, HENDERSON COLORADO 80640 (ADAMS)",0,C,,110070071330
80033DLPHC10619,-105.116,39.787,False,08,059,010402,08,08059,08059010402,1400000US08059010402,ROCKY MOUNTAIN BOTTLE CO,10619 W 50TH AVE,WHEAT RIDGE,CO,80033,"ROCKY MOUNTAIN BOTTLE CO.10619 W 50TH AVE, WHEAT RIDGE COLORADO 80033 (JEFFERSON)",0,C,,110000844999
80033NLNDC5000O,-105.119,39.787,False,08,059,010402,08,08059,08059010402,1400000US08059010402,INLAND CONTAINER CORP,5000 OAK ST,WHEAT RIDGE,CO,80033,"INLAND CONTAINER CORP.5000 OAK ST, WHEAT RIDGE COLORADO 80033 (JEFFERSON)",0,C,,
80033DCLSN4850W,-105.13799999999999,39.785,False,08,059,010402,08,08059,08059010402,1400000US08059010402,DECALS INC,4850 WARD RD,WHEAT RIDGE,CO,80034,"DECALS INC.4850 WARD RD, WHEAT RIDGE COLORADO 80034 (JEFFERSON)",0,C,,
80104DNVRB401SA,-104.866,39.375,False,08,035,014403,08,08035,08035014403,1400000US08035014403,ACME BRICK DENVER PLANT,401 PRAIRIE HAWK DR,CASTLE ROCK,CO,80109,"ACME BRICK DENVER PLANT.401 PRAIRIE HAWK DR, CASTLE ROCK COLORADO 80109 (DOUGLAS)",0,C,,110000466692
8010WGGRGT112TP,-104.876,39.372,False,08,035,014403,08,08035,08035014403,1400000US08035014403,AGGREGATE INDUSTRIES WCR INC CASTLE ROCK READY MIX PLANT,1120 TOPEKA WAY,CASTLE ROCK,CO,80109,"AGGREGATE INDUSTRIES WCR INC CASTLE ROCK READY MIX PLANT.1120 TOPEKA WAY, CASTLE ROCK COLORADO 80109 (DOUGLAS)",0,C,,110030748074
80110BRDNN1325W,-105.00299999999999,39.641999999999996,False,08,005,006200,08,08005,08005006200,1400000US08005006200,SOUTHERN FOODS GROUP LLC D/B/A MEADOW GOLD DAIRIES,1325 W OXFORD AVE,ENGLEWOOD,CO,80110,"SOUTHERN FOODS GROUP LLC D/B/A MEADOW GOLD DAIRIES.1325 W OXFORD AVE, ENGLEWOOD COLORADO 80110 (ARAPAHOE)",0,C,,110000495321
80110FRNTR4500S,-105.005,39.635,False,08,005,006200,08,08005,08005006200,1400000US08005006200,FRONT RANGE INVESTORS INC (DBA FRONT RANGE PLATING),4500 S NAVAJO ST,ENGLEWOOD,CO,801105530,"FRONT RANGE INVESTORS INC (DBA FRONT RANGE PLATING).4500 S NAVAJO ST, ENGLEWOOD COLORADO 80110 (ARAPAHOE)",0,C,,
80110WNDSR1351W,-105.00399999999999,39.635,False,08,005,006200,08,08005,08005006200,1400000US08005006200,WINDSOR INDUSTRIES INC,1351 W STANFORD AVE,ENGLEWOOD,CO,80110,"WINDSOR INDUSTRIES INC.1351 W STANFORD AVE, ENGLEWOOD COLORADO 80110 (ARAPAHOE)",0,C,,110000770005
80110GDDCL1495W,-105.005,39.632,False,08,005,006400,08,08005,08005006400,1400000US08005006400,GOOD DECAL CO,1495 W THOMAS AVE,ENGLEWOOD,CO,80110,"GOOD DECAL CO.1495 W THOMAS AVE, ENGLEWOOD COLORADO 80110 (ARAPAHOE)",0,C,,
80110THMSP4695S,-105.007,39.631,False,08,005,006400,08,08005,08005006400,1400000US08005006400,THOMAS PLATING CO INC,4695 S WINDERMERE ST,ENGLEWOOD,CO,80110,"THOMAS PLATING CO INC.4695 S WINDERMERE ST, ENGLEWOOD COLORADO 80110 (ARAPAHOE)",0,C,,
80110THVRT4607S,-105.006,39.633,False,08,005,006400,08,08005,08005006400,1400000US08005006400,VERTICAL INC,4607 S WINDEMERE,ENGLEWOOD,CO,80110,"VERTICAL INC.4607 S WINDEMERE, ENGLEWOOD COLORADO 80110 (ARAPAHOE)",0,C,,
80120THLCT5101S,-105.01100000000001,39.625,False,08,005,006400,08,08005,08005006400,1400000US08005006400,ELECTRON CORP,5101 S RIO GRANDE AVE,LITTLETON,CO,801600318,"ELECTRON CORP.5101 S RIO GRANDE AVE, LITTLETON COLORADO 80160 (ARAPAHOE)",0,C,,
80110KLPPN2627W,-105.01899999999999,39.641999999999996,False,08,005,005553,08,08005,08005005553,1400000US08005005553,KLOPPENBERG & CO,2627 W OXFORD AVE,SHERIDAN,CO,80110,"KLOPPENBERG & CO.2627 W OXFORD AVE, SHERIDAN COLORADO 80110 (ARAPAHOE)",0,C,,110000769981
8011WBRNNN26WUN,-105.01799999999999,39.631,False,08,005,005553,08,08005,08005005553,1400000US08005005553,BRANNAN READY MIX - SOUTH READY MIX,2600 W UNION AVE,ENGLEWOOD,CO,80110,"BRANNAN READY MIX - SOUTH READY MIX.2600 W UNION AVE, ENGLEWOOD COLORADO 80110 (ARAPAHOE)",0,C,,110001431102
80110KLYTB3211W,-105.029,39.650999999999996,False,08,005,005552,08,08005,08005005552,1400000US08005005552,OAKLEY INDUSTRIES,3211 W. BEAR CREEK DR,ENGLEWOOD,CO,80110,"OAKLEY INDUSTRIES.3211 W. BEAR CREEK DR, ENGLEWOOD COLORADO 80110 (ARAPAHOE)",0,C,,110000466718
80110MDRNP2750S,-105.009,39.667,False,08,005,005551,08,08005,08005005551,1400000US08005005551,MODERN PLASTICS INC,2750 S RARITAN ST,ENGLEWOOD,CO,80110,"MODERN PLASTICS INC.2750 S RARITAN ST, ENGLEWOOD COLORADO 80110 (ARAPAHOE)",0,C,,
80110STRLN1400W,-105.005,39.66,False,08,005,005551,08,08005,08005005551,1400000US08005005551,STERLING STAINLESS TUBE,1400 W DARTMOUTH AVE,ENGLEWOOD,CO,80110,"STERLING STAINLESS TUBE.1400 W DARTMOUTH AVE, ENGLEWOOD COLORADO 80110 (ARAPAHOE)",0,C,,
80110MRCNS2300S,-105.01100000000001,39.675,False,08,005,005551,08,08005,08005005551,1400000US08005005551,AMERICAN STAINLESS STEEL CORP,2300 S TEJON,ENGLEWOOD,CO,80110,"AMERICAN STAINLESS STEEL CORP.2300 S TEJON, ENGLEWOOD COLORADO 80110 (ARAPAHOE)",0,C,,
80217RBNSN1845W,-105.008,39.66,False,08,005,005551,08,08031,08005005551,1400000US08005005551,GENERAL SHALE BRICK INC,3001 S PLATTE RIVER DR,DENVER,CO,80223,"GENERAL SHALE BRICK INC.3001 S PLATTE RIVER DR, DENVER COLORADO 80223 (DENVER)",0,C,,110022513289
80110MRCNS1600W,-105.007,39.668,False,08,005,005551,08,08005,08005005551,1400000US08005005551,AMERICAN STAINLESS STEEL CORP,1600 W YALE AVE,ENGLEWOOD,CO,80110,"AMERICAN STAINLESS STEEL CORP.1600 W YALE AVE, ENGLEWOOD COLORADO 80110 (ARAPAHOE)",0,C,,110000466727
80110RSMFG2250S,-105.01100000000001,39.676,False,08,005,005551,08,08005,08005005551,1400000US08005005551,ROSE MANUFACTURING CO,2250 S TEJON ST,ENGLEWOOD,CO,801101000,"ROSE MANUFACTURING CO.2250 S TEJON ST, ENGLEWOOD COLORADO 80110 (ARAPAHOE)",0,C,,
80110CCLLN281SV,-105.01299999999999,39.666,False,08,005,005551,08,08005,08005005551,1400000US08005005551,NATIONAL WIRE & STAMPING INC DBA ACCELLENT,2801 S VALLEJO,ENGLEWOOD,CO,80110,"NATIONAL WIRE & STAMPING INC DBA ACCELLENT.2801 S VALLEJO, ENGLEWOOD COLORADO 80110 (ARAPAHOE)",1,C,,110037147897
80110WHTCP288SR,-105.009,39.665,False,08,005,005551,08,08005,08005005551,1400000US08005005551,HD SUPPLY CONSTRUCTION SUPPLY LTD. (CO019-6141),2880 S RARITAN,ENGLEWOOD,CO,80110,"HD SUPPLY CONSTRUCTION SUPPLY LTD. (CO019-6141).2880 S RARITAN, ENGLEWOOD COLORADO 80110 (ARAPAHOE)",0,C,,110002969262
8011WSFTYK281SU,-105.01100000000001,39.666,False,08,005,005551,08,08005,08005005551,1400000US08005005551,SAFETY-KLEEN SYSTEMS ENGLEWOOD (ECO),2801 S TEJON,ENGLEWOOD,CO,80110,"SAFETY-KLEEN SYSTEMS ENGLEWOOD (ECO).2801 S TEJON, ENGLEWOOD COLORADO 80110 (ARAPAHOE)",0,C,,110000621480
80110WLKRS1201W,-105.00200000000001,39.646,False,08,005,006000,08,08005,08005006000,1400000US08005006000,PARKER HANNIFIN CORP WILKERSON,1201 W MANSFIELD AVE,ENGLEWOOD,CO,801103453,"PARKER HANNIFIN CORP WILKERSON.1201 W MANSFIELD AVE, ENGLEWOOD COLORADO 80110 (ARAPAHOE)",0,C,,
80110STLLM373SK,-105.001,39.649,False,08,005,006000,08,08005,08005006000,1400000US08005006000,STOLLE MACHINERYCO ENGLEWOOD,3730 S KALAMATH,ENGLEWOOD,CO,80110,"STOLLE MACHINERYCO ENGLEWOOD.3730 S KALAMATH, ENGLEWOOD COLORADO 80110 (ARAPAHOE)",0,C,,110002992129
80112HMTCN7103S,-104.84200000000001,39.588,False,08,005,006856,08,08005,08005006856,1400000US08005006856,MEDTRONIC HEMOTEC INC,7103 S REVERE PKY,ENGLEWOOD,CO,801123992,"MEDTRONIC HEMOTEC INC.7103 S REVERE PKY, ENGLEWOOD COLORADO 80112 (ARAPAHOE)",1,C,,
80112LCTRM7337S,-104.84100000000001,39.583,False,08,005,006856,08,08005,08005006856,1400000US08005006856,MEDTRONIC ELECTROMEDICS INC,7337 S REVERE PKWY,ENGLEWOOD,CO,80112,"MEDTRONIC ELECTROMEDICS INC.7337 S REVERE PKWY, ENGLEWOOD COLORADO 80112 (ARAPAHOE)",0,C,,
80112TLCTR7400S,-104.836,39.584,False,08,005,006856,08,08005,08005006856,1400000US08005006856,TELECTRONICS PACING SYSTEMS INC,7400 S TUCSON WAY,ENGLEWOOD,CO,80112,"TELECTRONICS PACING SYSTEMS INC.7400 S TUCSON WAY, ENGLEWOOD COLORADO 80112 (ARAPAHOE)",0,C,,
80112STLLM6949S,-104.831,39.59,False,08,005,006856,08,08005,08005006856,1400000US08005006856,STOLLE MACHINERYCO CENTENNIAL,6949 S POTOMAC ST,CENTENNIAL,CO,80112,"STOLLE MACHINERYCO CENTENNIAL.6949 S POTOMAC ST, CENTENNIAL COLORADO 80112 (ARAPAHOE)",0,C,,110037147913
80120NRGRN5400S,-104.993,39.618,False,08,005,006601,08,08005,08005006601,1400000US08005006601,IMI NORGREN INC,5400 S DELAWARE ST,LITTLETON,CO,80120,"IMI NORGREN INC.5400 S DELAWARE ST, LITTLETON COLORADO 80120 (ARAPAHOE)",0,C,,110000466736
80122HNYWL4800E,-104.927,39.580999999999996,False,08,005,005628,08,08005,08005005628,1400000US08005005628,METRUM INC,4800 E DRY CREEK RD,LITTLETON,CO,80122,"METRUM INC.4800 E DRY CREEK RD, LITTLETON COLORADO 80122 (ARAPAHOE)",0,C,,
80125NCLML9481N,-105.009,39.5,False,08,035,014135,08,08035,08035014135,1400000US08035014135,MOLYCORP INC,9481 N HWY 85,LOUVIERS,CO,80131,"MOLYCORP INC.9481 N HWY 85, LOUVIERS COLORADO 80131 (DOUGLAS)",0,C,,
80125ZMKRN7011T,-105.01799999999999,39.507,False,08,035,014135,08,08035,08035014135,1400000US08035014135,ZIMKOR IND INC,7011 TITAN RD,LITTLETON,CO,80125,"ZIMKOR IND INC.7011 TITAN RD, LITTLETON COLORADO 80125 (DOUGLAS)",0,C,,
8012WMRTNM9511T,-105.01799999999999,39.501,False,08,035,014135,08,08035,08035014135,1400000US08035014135,MARTIN MARIETTA TITAN READY MIX,9511 TITAN PARK CIR,LITTLETON,CO,80125,"MARTIN MARIETTA TITAN READY MIX.9511 TITAN PARK CIR, LITTLETON COLORADO 80125 (DOUGLAS)",0,C,,110060257902
8012WBSTWY9681T,-105.021,39.501999999999995,False,08,035,014135,08,08035,08035014135,1400000US08035014135,BESTWAY CONCRETE CO TITAN,9681 TITAN PARK CIRCLE,LITTLETON,CO,80125,"BESTWAY CONCRETE CO TITAN.9681 TITAN PARK CIRCLE, LITTLETON COLORADO 80125 (DOUGLAS)",0,C,,110060261032
8013WRDYMX5775A,-104.993,39.471,False,08,035,014135,08,08035,08035014135,1400000US08035014135,READY MIXED CONCRETE - PLANT 13,5775 AIRPORT ROAD,SEDALIA,CO,80135,"READY MIXED CONCRETE - PLANT 13.5775 AIRPORT ROAD, SEDALIA COLORADO 80135 (DOUGLAS)",0,C,,110060258126
80127DLXCH8420S,-105.11399999999999,39.567,False,08,059,012024,08,08059,08059012024,1400000US08059012024,DELUXE CHECK PRINTERS INC,8420 S SANGRE DE CRISTO RD,LITTLETON,CO,80127,"DELUXE CHECK PRINTERS INC.8420 S SANGRE DE CRISTO RD, LITTLETON COLORADO 80127 (JEFFERSON)",0,C,,
80127SSCRC10570,-105.117,39.569,False,08,059,012024,08,08059,08059012024,1400000US08059012024,TTM TECHNOLOGIES,10570 BRADFORD RD,LITTLETON,CO,80127,"TTM TECHNOLOGIES.10570 BRADFORD RD, LITTLETON COLORADO 80127 (JEFFERSON)",0,C,,110041961801
80127MRTNM12257,-105.10799999999999,39.496,False,08,059,012036,08,08059,08059012036,1400000US08059012036,LOCKHEED MARTIN SPACE,12257 S WADSWORTH BLVD M/S I9080,LITTLETON,CO,80125,"LOCKHEED MARTIN SPACE.12257 S WADSWORTH BLVD M/S I9080, LITTLETON COLORADO 80125 (JEFFERSON)",0,C,,110000610429
80131LVRSW12835,-105.015,39.483000000000004,False,08,035,014202,08,08035,08035014202,1400000US08035014202,EXPLOSIVES TECH INTERNATIONAL,12835 MAIN ST,LOUVIERS,CO,80131,"EXPLOSIVES TECH INTERNATIONAL.12835 MAIN ST, LOUVIERS COLORADO 80131 (DOUGLAS)",0,C,,
80131NSGNB7800N,-105.027,39.471,False,08,035,014202,08,08035,08035014202,1400000US08035014202,ENSIGN-BICKFORD INDUSTRIES INC,7800 N MOORE RD,LOUVIERS,CO,80131,"ENSIGN-BICKFORD INDUSTRIES INC.7800 N MOORE RD, LOUVIERS COLORADO 80131 (DOUGLAS)",0,C,,
80201THMPS6030N,-104.978,39.806999999999995,False,08,001,015000,08,08001,08001015000,1400000US08001015000,NORTHWEST PIPE CO,6030 WASHINGTON ST,DENVER,CO,80216,"NORTHWEST PIPE CO.6030 WASHINGTON ST, DENVER COLORADO 80216 (ADAMS)",1,C,,110007350268
80229CRYNC6533N,-104.978,39.815,False,08,001,015000,08,08001,08001015000,1400000US08001015000,CRYENCO INC,6533 N WASHINGTON,DENVER,CO,80229,"CRYENCO INC.6533 N WASHINGTON, DENVER COLORADO 80229 (ADAMS)",0,C,,
80229MRCNW6700N,-104.969,39.818000000000005,False,08,001,015000,08,08001,08001015000,1400000US08001015000,ATLAS ROOFING CORP,6700 N FRANKLIN ST,DENVER,CO,80229,"ATLAS ROOFING CORP.6700 N FRANKLIN ST, DENVER COLORADO 80229 (ADAMS)",0,C,,
80216NTNLB5800Y,-104.959,39.803000000000004,False,08,001,015000,08,08001,08001015000,1400000US08001015000,NATIONAL BY-PRODUCTS INC,5701 YORK ST,DENVER,CO,80216,"NATIONAL BY-PRODUCTS INC.5701 YORK ST, DENVER COLORADO 80216 (ADAMS)",0,C,,
80229MJSTC1400E,-104.978,39.836,False,08,001,015000,08,08031,08001015000,1400000US08001015000,MAJESTIC METALS INC,1400 E 66TH AVE,DENVER,CO,80229,"MAJESTIC METALS INC.1400 E 66TH AVE, DENVER COLORADO 80229 (DENVER)",0,C,,
80229MTLTR1680E,-104.96799999999999,39.821999999999996,False,08,001,015000,08,08001,08001015000,1400000US08001015000,METAL TREATING & RESEARCH CO,1680 E 69TH AVE,DENVER,CO,80229,"METAL TREATING & RESEARCH CO.1680 E 69TH AVE, DENVER COLORADO 80229 (ADAMS)",0,C,,
80229CHRLS500E7,-104.98100000000001,39.834,False,08,001,015000,08,08001,08001015000,1400000US08001015000,CHARLES HUGHES & CO,500 E 76TH AVE,DENVER,CO,80229,"CHARLES HUGHES & CO.500 E 76TH AVE, DENVER COLORADO 80229 (ADAMS)",0,C,,
80229CRDNL1195E,-104.97399999999999,39.813,False,08,001,015000,08,08001,08001015000,1400000US08001015000,CARDINAL INDL FINISHES INC,1195 E 64TH AVE,DENVER,CO,80229,"CARDINAL INDL FINISHES INC.1195 E 64TH AVE, DENVER COLORADO 80229 (ADAMS)",0,C,,
80216PBLCS6198F,-104.965,39.808,False,08,001,015000,08,08001,08001015000,1400000US08001015000,PUBLIC SERVICE CO OF COLORADO CHEROKEE STATION,6198 FRANKLIN ST,DENVER,CO,80216,"PUBLIC SERVICE CO OF COLORADO CHEROKEE STATION.6198 FRANKLIN ST, DENVER COLORADO 80216 (ADAMS)",0,C,,110000859679
80216CHRTN5995N,-104.978,39.805,False,08,001,015000,08,08001,08001015000,1400000US08001015000,CHART INC DENVER,5995 N WASHINGTON ST,DENVER,CO,80216,"CHART INC DENVER.5995 N WASHINGTON ST, DENVER COLORADO 80216 (ADAMS)",0,C,,110031001948
80229RNKRM86NWE,-104.954,39.854,False,08,001,015000,08,08001,08001015000,1400000US08001015000,RINKER MATERIALS HYDRO CONDUIT,8600 N WELBY RD,DENVER,CO,80229,"RINKER MATERIALS HYDRO CONDUIT.8600 N WELBY RD, DENVER COLORADO 80229 (ADAMS)",0,C,,
8021WBSTWY591YR,-104.961,39.805,False,08,001,015000,08,08001,08001015000,1400000US08001015000,BESTWAY CONCRETE CO-DENVER,5901 YORK ST,DENVER,CO,80216,"BESTWAY CONCRETE CO-DENVER.5901 YORK ST, DENVER COLORADO 80216 (ADAMS)",0,C,,110060259205
8021WRDYMX5775F,-104.969,39.801,False,08,001,015000,08,08001,08001015000,1400000US08001015000,READY MIXED CONCRETE CO - FRANKLIN STREET PLANT,5775 FRANKLIN ST,DENVER,CO,80216,"READY MIXED CONCRETE CO - FRANKLIN STREET PLANT.5775 FRANKLIN ST, DENVER COLORADO 80216 (ADAMS)",0,C,,110070070587
8021WCLSSC1299E,-104.97200000000001,39.802,False,08,001,015000,08,08001,08001015000,1400000US08001015000,CLASSIC METALS,1299 E 58TH AVE,DENVER,CO,80216,"CLASSIC METALS.1299 E 58TH AVE, DENVER COLORADO 80216 (ADAMS)",0,C,,110070244438
80204JCKSN400YU,-105.015,39.723,False,08,031,001000,08,08031,08031001000,1400000US08031001000,JACKSON ICE CREAM,400 YUMA ST,DENVER,CO,80204,"JACKSON ICE CREAM.400 YUMA ST, DENVER COLORADO 80204 (DENVER)",0,C,,
80223MDNWS2390W,-105.015,39.722,False,08,031,001000,08,08031,08031001000,1400000US08031001000,THERMAL SOLUTIONS MANUFACTURING INC.,2390 W 4TH AVE UNIT 1,DENVER,CO,80223,"THERMAL SOLUTIONS MANUFACTURING INC..2390 W 4TH AVE UNIT 1, DENVER COLORADO 80223 (DENVER)",1,C,,110000467110
80223KNGSS65YUM,-105.015,39.717,False,08,031,001000,08,08031,08031001000,1400000US08031001000,KING SOOPERS MEAT PROCESSING  PLANT,65 YUMA ST,DENVER,CO,80223,"KING SOOPERS MEAT PROCESSING  PLANT.65 YUMA ST, DENVER COLORADO 80223 (DENVER)",0,C,,
80223KNGSP60YUM,-105.015,39.718,False,08,031,001000,08,08031,08031001000,1400000US08031001000,KING SOOPERS  BAKERY PLANT,60 YUMA ST,DENVER,CO,80223,"KING SOOPERS  BAKERY PLANT.60 YUMA ST, DENVER COLORADO 80223 (DENVER)",0,C,,
80204RMNCX650WE,-104.99600000000001,39.739000000000004,False,08,031,002000,08,08031,08031002000,1400000US08031002000,RMO INC,1450 GALAPAGO ST,DENVER,CO,80204,"RMO INC.1450 GALAPAGO ST, DENVER COLORADO 80204 (DENVER)",0,C,,110000466825
80204NTDST320WE,-104.992,39.74,False,08,031,002000,08,08031,08031002000,1400000US08031002000,US DEPARTMENT OF THE TREASURY US MINT DENVER,320 W COLFAX AVE,DENVER,CO,80204,"US DEPARTMENT OF THE TREASURY US MINT DENVER.320 W COLFAX AVE, DENVER COLORADO 80204 (DENVER)",0,F,,110000466816
80205BNJMN2500W,-104.98700000000001,39.758,False,08,031,001600,08,08031,08031001600,1400000US08031001600,BENJAMIN MOORE & CO DENVER,2500 WALNUT ST,DENVER,CO,802052136,"BENJAMIN MOORE & CO DENVER.2500 WALNUT ST, DENVER COLORADO 80205 (DENVER)",0,C,,
80205PLTNG3031B,-104.98200000000001,39.764,False,08,031,001600,08,08031,08031001600,1400000US08031001600,AAA PLATING INC,3031 BLAKE ST,DENVER,CO,80205,"AAA PLATING INC.3031 BLAKE ST, DENVER COLORADO 80205 (DENVER)",1,C,,
80205RWLFL2763B,-104.985,39.762,False,08,031,001600,08,08031,08031001600,1400000US08031001600,A R WILFLEY & SONS INC,2763 BLAKE ST,DENVER,CO,80205,"A R WILFLEY & SONS INC.2763 BLAKE ST, DENVER COLORADO 80205 (DENVER)",0,C,,110000466843
80216CNGRF3750W,-104.975,39.772,False,08,031,001600,08,08031,08031001600,1400000US08031001600,ARDENT MILLS LLC,3750 WYNKOOP,DENVER,CO,80216,"ARDENT MILLS LLC.3750 WYNKOOP, DENVER COLORADO 80216 (DENVER)",0,C,,110041050778
80205WHTCP3585B,-104.976,39.769,False,08,031,001600,08,08031,08031001600,1400000US08031001600,WHITE CAP CONSTRUCTION SUPPLY (WC0041),3585 BLAKE ST,DENVER,CO,80205,"WHITE CAP CONSTRUCTION SUPPLY (WC0041).3585 BLAKE ST, DENVER COLORADO 80205 (DENVER)",0,C,,110018870578
80205CCCLB3825Y,-104.96,39.77,False,08,031,003601,08,08031,08031003601,1400000US08031003601,DENVER COCA-COLA BOTTLING CO,3825 YORK ST,DENVER,CO,802053594,"DENVER COCA-COLA BOTTLING CO.3825 YORK ST, DENVER COLORADO 80205 (DENVER)",0,C,,
80207PLLWK3950K,-104.917,39.771,False,08,031,004102,08,08031,08031004102,1400000US08031004102,PILLOW KINGDOM MANUFACTURING,3950 KEARNEY ST,DENVER,CO,80207,"PILLOW KINGDOM MANUFACTURING.3950 KEARNEY ST, DENVER COLORADO 80207 (DENVER)",0,C,,
80207WHTTK3850O,-104.90700000000001,39.77,False,08,031,004102,08,08031,08031004102,1400000US08031004102,WHITTAKER POWER STORAGE SYSTEMS,3850 OLIVE ST,DENVER,CO,802071528,"WHITTAKER POWER STORAGE SYSTEMS.3850 OLIVE ST, DENVER COLORADO 80207 (DENVER)",0,C,,
80216CLRDP4747H,-104.92200000000001,39.782,False,08,031,004102,08,08031,08031004102,1400000US08031004102,COLORADO PAINT CO,4747 HOLLY ST,DENVER,CO,80216,"COLORADO PAINT CO.4747 HOLLY ST, DENVER COLORADO 80216 (DENVER)",0,C,,110011800220
80216RDSLS4300O,-104.90799999999999,39.778,False,08,031,004102,08,08031,08031004102,1400000US08031004102,RED SEAL SNACKS,4300 ONEIDA ST,DENVER,CO,80216,"RED SEAL SNACKS.4300 ONEIDA ST, DENVER COLORADO 80216 (DENVER)",0,C,,
80216THRML4670H,-104.92200000000001,39.781,False,08,031,004102,08,08031,08031004102,1400000US08031004102,FIRESTONE BUILDING PRODUCTS CO,4670 HOLLY ST,DENVER,CO,80216,"FIRESTONE BUILDING PRODUCTS CO.4670 HOLLY ST, DENVER COLORADO 80216 (DENVER)",0,C,,
80216SFWYB6405S,-104.914,39.779,False,08,031,004102,08,08031,08031004102,1400000US08031004102,DENVER SAFEWAY BEVERAGE,6405 STAPLETON N DR,DENVER,CO,80216,"DENVER SAFEWAY BEVERAGE.6405 STAPLETON N DR, DENVER COLORADO 80216 (DENVER)",0,C,,
80207BRSSS3880H,-104.92200000000001,39.77,False,08,031,004102,08,08005,08031004102,1400000US08031004102,BRASS SMITH,3880 HOLLY ST,DENVER,CO,80207,"BRASS SMITH.3880 HOLLY ST, DENVER COLORADO 80207 (ARAPAHOE)",0,C,,
80216VNWTR4300H,-104.92200000000001,39.775999999999996,False,08,031,004102,08,08031,08031004102,1400000US08031004102,UNIVAR USA INC DENVER,4300 HOLLY ST,DENVER,CO,80216,"UNIVAR USA INC DENVER.4300 HOLLY ST, DENVER COLORADO 80216 (DENVER)",0,C,,110000467067
80216FPLYM46HLL,-104.92200000000001,39.78,False,08,031,004102,08,08031,08031004102,1400000US08031004102,EFI POLYMERS,4600 HOLLY ST,DENVER,CO,80216,"EFI POLYMERS.4600 HOLLY ST, DENVER COLORADO 80216 (DENVER)",0,C,,110018871639
80216SGRNF435KE,-104.91799999999999,39.777,False,08,031,004102,08,08031,08031004102,1400000US08031004102,US GREENFIBER LLC,4350 KEARNEY ST UNIT J,DENVER,CO,80216,"US GREENFIBER LLC.4350 KEARNEY ST UNIT J, DENVER COLORADO 80216 (DENVER)",0,C,,110024942696
80207RDCCR8250E,-104.89200000000001,39.773,False,08,031,004107,08,08031,08031004107,1400000US08031004107,ARDCO CORP,8250 E 40TH AVE,DENVER,CO,80207,"ARDCO CORP.8250 E 40TH AVE, DENVER COLORADO 80207 (DENVER)",0,C,,
80207PLTNG7777E,-104.898,39.773,False,08,031,004107,08,08031,08031004107,1400000US08031004107,FINTECH INC,7777 EAST 40TH AVE,DENVER,CO,802071704,"FINTECH INC.7777 EAST 40TH AVE, DENVER COLORADO 80207 (DENVER)",0,C,,
80209GTSRB990SB,-104.988,39.7,False,08,031,002100,08,08031,08031002100,1400000US08031002100,GATES CORP,990 S BROADWAY,DENVER,CO,80209,"GATES CORP.990 S BROADWAY, DENVER COLORADO 80209 (DENVER)",0,C,,
80209GTSRB990SO,-104.988,39.7,False,08,031,002100,08,08031,08031002100,1400000US08031002100,GATES RUBBER CO AUTO BATTERY,990 S BROADWAY,DENVER,CO,80209,"GATES RUBBER CO AUTO BATTERY.990 S BROADWAY, DENVER COLORADO 80209 (DENVER)",2,C,,
80204CLFRN49SAG,-105.006,39.723,False,08,031,002100,08,08031,08031002100,1400000US08031002100,CALIFORNIA EXPANDED METALS CO,490 OSAGE ST,DENVER,CO,80204,"CALIFORNIA EXPANDED METALS CO.490 OSAGE ST, DENVER COLORADO 80204 (DENVER)",0,C,,110022448270
80223RMNDR95SSA,-104.992,39.699,False,08,031,002100,08,08031,08031002100,1400000US08031002100,AGGREGATE INDUSTRIES - WCR INC. SANTA FE READY MIX PLANT,950 S SANTE FE DR,DENVER,CO,80223,"AGGREGATE INDUSTRIES - WCR INC. SANTA FE READY MIX PLANT.950 S SANTE FE DR, DENVER COLORADO 80223 (DENVER)",0,C,,110022411576
80211TRNGR25351,-105.009,39.76,False,08,031,001102,08,08031,08031001102,1400000US08031001102,T & R ENGRAVING INC,2535 17TH ST,DENVER,CO,80211,"T & R ENGRAVING INC.2535 17TH ST, DENVER COLORADO 80211 (DENVER)",0,C,,
80215CBLBR1201O,-105.12100000000001,39.735,False,08,059,010902,08,08059,08059010902,1400000US08059010902,GAMBRO BCT INC,10810 W COLLINS AVE,LAKEWOOD,CO,80215,"GAMBRO BCT INC.10810 W COLLINS AVE, LAKEWOOD COLORADO 80215 (JEFFERSON)",0,C,,
80215QLTYM11500,-105.126,39.736999999999995,False,08,059,010902,08,08059,08059010902,1400000US08059010902,QUALITY METAL PRODUCTS INC,11500 W 13TH AVE,LAKEWOOD,CO,802154491,"QUALITY METAL PRODUCTS INC.11500 W 13TH AVE, LAKEWOOD COLORADO 80215 (JEFFERSON)",0,C,,
80215NTVRX1215Q,-105.124,39.735,False,08,059,010902,08,08059,08059010902,1400000US08059010902,PLASTRON LAKEWOOD,1215 QUAIL ST,LAKEWOOD,CO,80215,"PLASTRON LAKEWOOD.1215 QUAIL ST, LAKEWOOD COLORADO 80215 (JEFFERSON)",1,C,,
80215CBSTR11308,-105.12700000000001,39.734,False,08,059,010902,08,08059,08059010902,1400000US08059010902,TERUMO BCT STERILIZATION SERVICES INC,11308 W COLLINS AVE,LAKEWOOD,CO,80215,"TERUMO BCT STERILIZATION SERVICES INC.11308 W COLLINS AVE, LAKEWOOD COLORADO 80215 (JEFFERSON)",0,C,,110041229694
80216BHRSC5200S,-104.927,39.775,False,08,031,004101,08,08031,08031004101,1400000US08031004101,A B HIRSCHFIELD PRESS INC,5200 SMITH RD,DENVER,CO,80216,"A B HIRSCHFIELD PRESS INC.5200 SMITH RD, DENVER COLORADO 80216 (DENVER)",0,C,,
80216CHMCL4701D,-104.932,39.782,False,08,031,004101,08,08031,08031004101,1400000US08031004101,CHEMICAL & METAL INDUSTRIES INC,4701 DAHLIA ST,DENVER,CO,80216,"CHEMICAL & METAL INDUSTRIES INC.4701 DAHLIA ST, DENVER COLORADO 80216 (DENVER)",0,C,,
80216PLLWK4000F,-104.927,39.773,False,08,031,004101,08,08031,08031004101,1400000US08031004101,PILLOW KINGDOM MANUFACTURING,4000 FOREST ST,DENVER,CO,80216,"PILLOW KINGDOM MANUFACTURING.4000 FOREST ST, DENVER COLORADO 80216 (DENVER)",0,C,,
80216RCRPN5585E,-104.92299999999999,39.781,False,08,031,004101,08,08031,08031004101,1400000US08031004101,CARPENTER CO,5585 E 47TH AVE,DENVER,CO,80216,"CARPENTER CO.5585 E 47TH AVE, DENVER COLORADO 80216 (DENVER)",0,C,,
80216SFWYM4301F,-104.927,39.777,False,08,031,004101,08,08031,08031004101,1400000US08031004101,SAFEWAY MILK PLANT,4301 FOREST ST,DENVER,CO,80216,"SAFEWAY MILK PLANT.4301 FOREST ST, DENVER COLORADO 80216 (DENVER)",0,C,,
80216SHFRC4101E,-104.939,39.784,False,08,031,004101,08,08031,08031004101,1400000US08031004101,SHAFER COMMERCIAL SEATING,4101 E 48TH AVE,DENVER,CO,80216,"SHAFER COMMERCIAL SEATING.4101 E 48TH AVE, DENVER COLORADO 80216 (DENVER)",0,C,,110000467030
80216WRGHT4245E,-104.939,39.781,False,08,031,004101,08,08031,08031004101,1400000US08031004101,WRIGHT & MCGILL CO,4245 E 46TH AVE,DENVER,CO,80216,"WRIGHT & MCGILL CO.4245 E 46TH AVE, DENVER COLORADO 80216 (DENVER)",0,C,,110000467076
80216SFWYD4600S,-104.935,39.78,False,08,031,004101,08,08031,08031004101,1400000US08031004101,SAFEWAY DISTRIBUTION CENTER,4600 STAPLETON DR SOUTH,DENVER,CO,80216,"SAFEWAY DISTRIBUTION CENTER.4600 STAPLETON DR SOUTH, DENVER COLORADO 80216 (DENVER)",0,C,,
80216STCMD4275F,-104.927,39.775999999999996,False,08,031,004101,08,08031,08031004101,1400000US08031004101,BRYANT ELECTRIC INC STEMCO DEPT,4275 FOREST ST,DENVER,CO,80216,"BRYANT ELECTRIC INC STEMCO DEPT.4275 FOREST ST, DENVER COLORADO 80216 (DENVER)",0,C,,
80207THDLC4941E,-104.93,39.772,False,08,031,004101,08,08031,08031004101,1400000US08031004101,KIK (DENVER) LLC,4941 E 39TH AVE,DENVER,CO,80207,"KIK (DENVER) LLC.4941 E 39TH AVE, DENVER COLORADO 80207 (DENVER)",0,C,,110000466861
80216SFWYB4500D,-104.932,39.78,False,08,031,004101,08,08031,08031004101,1400000US08031004101,SAFEWAY BAKERY,4500 DAHLIA ST,DENVER,CO,80216,"SAFEWAY BAKERY.4500 DAHLIA ST, DENVER COLORADO 80216 (DENVER)",0,C,,
8021WBNDTD4799D,-104.931,39.783,False,08,031,004101,08,08031,08031004101,1400000US08031004101,BAND IT IDEX INC,4799 DAHLIA ST,DENVER,CO,80216,"BAND IT IDEX INC.4799 DAHLIA ST, DENVER COLORADO 80216 (DENVER)",0,C,,110015849055
80216CBTCN5301N,-104.98899999999999,39.792,False,08,001,009553,08,08001,08001009553,1400000US08001009553,COBITCO INC,5301 BANNOCK ST,DENVER,CO,80216,"COBITCO INC.5301 BANNOCK ST, DENVER COLORADO 80216 (ADAMS)",0,C,,110000859526
80216KPPRS5601F,-104.994,39.798,False,08,001,009553,08,08001,08001009553,1400000US08001009553,KOPPERS INC (DENVER CO),465 W 56TH AVE,DENVER,CO,80216,"KOPPERS INC (DENVER CO).465 W 56TH AVE, DENVER COLORADO 80216 (ADAMS)",0,C,,110013817325
80216ZMMRM201EA,-104.985,39.803000000000004,False,08,001,009553,08,08001,08001009553,1400000US08001009553,ZIMMERMAN METALS INC,201 E 58TH AVE,DENVER,CO,80216,"ZIMMERMAN METALS INC.201 E 58TH AVE, DENVER COLORADO 80216 (ADAMS)",0,C,,110002461522
80221RCKYM301WE,-104.99,39.806,False,08,001,009553,08,08001,08001009553,1400000US08001009553,ROCKY MOUNTAIN PRESTRESS LLC (ARCHITECTURAL PLANT),301 W 60TH PL,DENVER,CO,80221,"ROCKY MOUNTAIN PRESTRESS LLC (ARCHITECTURAL PLANT).301 W 60TH PL, DENVER COLORADO 80221 (ADAMS)",0,C,,110002135779
80216SPMDN5330F,-104.995,39.794000000000004,False,08,001,009553,08,08001,08001009553,1400000US08001009553,SPM/DENVER,5330 FOX ST,DENVER,CO,80216,"SPM/DENVER.5330 FOX ST, DENVER COLORADO 80216 (ADAMS)",0,C,,
80216SHLND156W5,-104.99,39.798,False,08,001,009553,08,08001,08001009553,1400000US08001009553,NEXEO SOLUTIONS LLC,156 W 56TH AVE,DENVER,CO,80216,"NEXEO SOLUTIONS LLC.156 W 56TH AVE, DENVER COLORADO 80216 (ADAMS)",0,C,,110000859438
80216WRGRC5943B,-104.98700000000001,39.805,False,08,001,009553,08,08031,08001009553,1400000US08001009553,WR GRACE & CO CONN GRACE CONSTRUCTION PRODUCTS,5943 BROADWAY UNIT 2,DENVER,CO,80216,"WR GRACE & CO CONN GRACE CONSTRUCTION PRODUCTS.5943 BROADWAY UNIT 2, DENVER COLORADO 80216 (DENVER)",0,C,,
80216WNSCR5201B,-104.98899999999999,39.792,False,08,001,009553,08,08001,08001009553,1400000US08001009553,OWENS CORNING ROOFING & ASPHALT LLC,5201 BANNOCK ST,DENVER,CO,80216,"OWENS CORNING ROOFING & ASPHALT LLC.5201 BANNOCK ST, DENVER COLORADO 80216 (ADAMS)",0,C,,110011372184
80216WNSCR5201F,-104.995,39.793,False,08,001,009553,08,08001,08001009553,1400000US08001009553,OWENS CORNING ROOFING & ASPHALT LLC,5201 FOX ST,DENVER,CO,80216,"OWENS CORNING ROOFING & ASPHALT LLC.5201 FOX ST, DENVER COLORADO 80216 (ADAMS)",0,C,,110007350231
80221SLCTM1161W,-105.00200000000001,39.813,False,08,001,009553,08,08001,08001009553,1400000US08001009553,SELECT-A-MIX ASPHALT PLANT,1161 W 64TH AVE,DENVER,CO,80221,"SELECT-A-MIX ASPHALT PLANT.1161 W 64TH AVE, DENVER COLORADO 80221 (ADAMS)",0,C,,
8022WLFRGG6395P,-105.006,39.812,False,08,001,009553,08,08001,08001009553,1400000US08001009553,LAFARGE GORDON ASPHALT,6395 PECOS ST,DENVER,CO,80221,"LAFARGE GORDON ASPHALT.6395 PECOS ST, DENVER COLORADO 80221 (ADAMS)",0,C,,110067041560
8022WRCKYM581PE,-105.006,39.802,False,08,001,009553,08,08001,08001009553,1400000US08001009553,ROCKY MOUNTAIN PRESTRESS LLC (STRUCTURAL PLANT),5801 PECOS ST,DENVER,CO,80221,"ROCKY MOUNTAIN PRESTRESS LLC (STRUCTURAL PLANT).5801 PECOS ST, DENVER COLORADO 80221 (ADAMS)",0,C,,110001436928
80216VNCBR38W62,-104.991,39.809,False,08,001,009553,08,08001,08001009553,1400000US08001009553,VANCE BROTHERS INC,380 WEST 62ND AVENUE,DENVER,CO,80216,"VANCE BROTHERS INC.380 WEST 62ND AVENUE, DENVER COLORADO 80216 (ADAMS)",0,C,,110043694785
8021WBRNNN655W6,-104.994,39.809,False,08,001,009553,08,08001,08001009553,1400000US08001009553,BRANNAN READY MIX WEST PLANT,655 W 62ND AVE,DENVER,CO,80216,"BRANNAN READY MIX WEST PLANT.655 W 62ND AVE, DENVER COLORADO 80216 (ADAMS)",0,C,,110070557814
8022WGGRGT2E64T,-104.985,39.812,False,08,001,009553,08,08001,08001009553,1400000US08001009553,AGGREGATE INDUSTRIES WCR INC DENVER READY MIX PLANT,200 E 64TH AVE - 282 E 64TH AVE,DENVER,CO,80221,"AGGREGATE INDUSTRIES WCR INC DENVER READY MIX PLANT.200 E 64TH AVE - 282 E 64TH AVE, DENVER COLORADO 80221 (ADAMS)",0,C,,110046289164
80216DNLRD5000C,-104.977,39.787,False,08,031,001500,08,08031,08031001500,1400000US08031001500,GO/DAN INDUSTRIES,5000 CLARKSON,DENVER,CO,80216,"GO/DAN INDUSTRIES.5000 CLARKSON, DENVER COLORADO 80216 (DENVER)",0,C,,
80216SRCNC495EA,-104.98,39.789,False,08,031,001500,08,08031,08031001500,1400000US08031001500,ASARCO GLOBE PLANT,495 E 51ST AVE,DENVER,CO,80216,"ASARCO GLOBE PLANT.495 E 51ST AVE, DENVER COLORADO 80216 (DENVER)",0,C,,110011681625
80216CTYCC21013,-104.988,39.77,False,08,031,001500,08,08031,08031001500,1400000US08031001500,REDDY ICE-DENVER (368),2101 31ST ST,DENVER,CO,80216,"REDDY ICE-DENVER (368).2101 31ST ST, DENVER COLORADO 80216 (DENVER)",0,C,,110000466941
80216LCTRC40W49,-104.98899999999999,39.786,False,08,031,001500,08,08031,08031001500,1400000US08031001500,ELECTRIC EQUIPMENT & ENGINEERING,40 W 49TH AVE,DENVER,CO,80216,"ELECTRIC EQUIPMENT & ENGINEERING.40 W 49TH AVE, DENVER COLORADO 80216 (DENVER)",0,C,,
80216RDYMX4395W,-104.979,39.775999999999996,False,08,031,001500,08,08031,08031001500,1400000US08031001500,READY MIXED CONCRETE CO - PLANT 1,4395 WASHINGTON ST,DENVER,CO,80216,"READY MIXED CONCRETE CO - PLANT 1.4395 WASHINGTON ST, DENVER COLORADO 80216 (DENVER)",0,C,,110001430700
80216TRNSP850E5,-104.976,39.788000000000004,False,08,031,001500,08,08031,08031001500,1400000US08031001500,PROLIANCE INTERNATIONAL INC,850 E 50TH ST,DENVER,CO,80216,"PROLIANCE INTERNATIONAL INC.850 E 50TH ST, DENVER COLORADO 80216 (DENVER)",0,C,,110012703093
80216CLRDP48GLB,-104.98899999999999,39.773,False,08,031,001500,08,08031,08031001500,1400000US08031001500,COLORADO PETROLEUM,4080 GLOBEVILLE RD,DENVER,CO,80216,"COLORADO PETROLEUM.4080 GLOBEVILLE RD, DENVER COLORADO 80216 (DENVER)",0,C,,110001436768
80216CMCBN5353F,-104.969,39.794000000000004,False,08,031,001500,08,08031,08031001500,1400000US08031001500,CMC REBAR DENVER,5353 FRANKLIN ST,DENVER,CO,80216,"CMC REBAR DENVER.5353 FRANKLIN ST, DENVER COLORADO 80216 (DENVER)",0,C,,110031106755
80216DNVRM3100E,-104.95,39.775999999999996,False,08,031,003500,08,08031,08031003500,1400000US08031003500,DENVER METAL FINISHING,3100 E 43RD AVE,DENVER,CO,80216,"DENVER METAL FINISHING.3100 E 43RD AVE, DENVER COLORADO 80216 (DENVER)",0,C,,110000466950
80216MDMRC4877N,-104.96799999999999,39.788000000000004,False,08,031,003500,08,08031,08031003500,1400000US08031003500,MID AMERICA PLATING INC,4877 NATIONAL WESTERN DR,DENVER,CO,80216,"MID AMERICA PLATING INC.4877 NATIONAL WESTERN DR, DENVER COLORADO 80216 (DENVER)",0,C,,
80216MRSND4650S,-104.95,39.781,False,08,031,003500,08,08031,08031003500,1400000US08031003500,EMERSON POWER TRANSMISSION MORSE,4650 STEELE ST,DENVER,CO,80216,"EMERSON POWER TRANSMISSION MORSE.4650 STEELE ST, DENVER COLORADO 80216 (DENVER)",0,C,,
80216NRDTP5125R,-104.96600000000001,39.789,False,08,031,003500,08,08031,08031003500,1400000US08031003500,NER DATA PRODUCTS INC,5125 RACE CT,DENVER,CO,80216,"NER DATA PRODUCTS INC.5125 RACE CT, DENVER COLORADO 80216 (DENVER)",0,C,,
80216PPSCL3801B,-104.975,39.774,False,08,031,003500,08,08031,08031003500,1400000US08031003500,PEPSI BOTTLING GROUP,3801 BRIGHTON BLVD,DENVER,CO,802163693,"PEPSI BOTTLING GROUP.3801 BRIGHTON BLVD, DENVER COLORADO 80216 (DENVER)",0,C,,
80216RLSTN4555Y,-104.959,39.779,False,08,031,003500,08,08031,08031003500,1400000US08031003500,NESTLE PURINA PETCARE CO,4555 YORK ST,DENVER,CO,80216,"NESTLE PURINA PETCARE CO.4555 YORK ST, DENVER COLORADO 80216 (DENVER)",0,C,,110000467003
80216PPCLM4647N,-104.97399999999999,39.781,False,08,031,003500,08,08031,08031003500,1400000US08031003500,PEPCOL MANUFACTURING CO,4647 NATIONAL WESTERN DR,DENVER,CO,80216,"PEPCOL MANUFACTURING CO.4647 NATIONAL WESTERN DR, DENVER COLORADO 80216 (DENVER)",0,C,,
80216KBPCL3600E,-104.945,39.778,False,08,031,003500,08,08031,08031003500,1400000US08031003500,KBP COIL COATERS INC,3600 E 44TH AVE,DENVER,CO,80216,"KBP COIL COATERS INC.3600 E 44TH AVE, DENVER COLORADO 80216 (DENVER)",0,C,,110011372647
80216TNMTL4800Y,-104.959,39.785,False,08,031,003500,08,08031,08031003500,1400000US08031003500,EATON METAL PRODUCTS CO INC,4800 YORK ST,DENVER,CO,80216,"EATON METAL PRODUCTS CO INC.4800 YORK ST, DENVER COLORADO 80216 (DENVER)",0,C,,
80216CHRST5120R,-104.96600000000001,39.789,False,08,031,003500,08,08031,08031003500,1400000US08031003500,ATLAS COLD STORAGE,5120 RACE CT,DENVER,CO,80216,"ATLAS COLD STORAGE.5120 RACE CT, DENVER COLORADO 80216 (DENVER)",0,C,,
80216CRYST5185N,-104.97,39.787,False,08,031,003500,08,08031,08031003500,1400000US08031003500,CRYSTAL PACKAGING INC,5185 NATIONAL WESTERN DR,DENVER,CO,80216,"CRYSTAL PACKAGING INC.5185 NATIONAL WESTERN DR, DENVER COLORADO 80216 (DENVER)",0,C,,110001136128
8021WBSLTX49RAC,-104.964,39.786,False,08,031,003500,08,08031,08031003500,1400000US08031003500,BASALITE,4900 RACE ST,DENVER,CO,80216,"BASALITE.4900 RACE ST, DENVER COLORADO 80216 (DENVER)",0,C,,110040366804
80221SNDST2480W,-105.016,39.821999999999996,False,08,001,009502,08,08001,08001009502,1400000US08001009502,HAMILTON SUNDSTRAND,2480 W 70TH AVE,DENVER,CO,80221,"HAMILTON SUNDSTRAND.2480 W 70TH AVE, DENVER COLORADO 80221 (ADAMS)",1,C,,
80301LFRGW6395P,-105.008,39.813,False,08,001,009502,08,08013,08001009502,1400000US08001009502,LAFARGE WEST INC,6395 PECOS ST,BOULDER,CO,80301,"LAFARGE WEST INC.6395 PECOS ST, BOULDER COLORADO 80301 (BOULDER)",0,C,,
80223PRTCT2255S,-104.992,39.676,False,08,031,001403,08,08031,08031001403,1400000US08031001403,PROTECTO WRAP CO,2255 S DELAWARE ST,DENVER,CO,80223,"PROTECTO WRAP CO.2255 S DELAWARE ST, DENVER COLORADO 80223 (DENVER)",0,C,,
80223SSHCN1395S,-104.98899999999999,39.692,False,08,031,001403,08,08031,08031001403,1400000US08031001403,SASHCO INC,1395 S ACOMA,DENVER,CO,80223,"SASHCO INC.1395 S ACOMA, DENVER COLORADO 80223 (DENVER)",0,C,,
80223WDWRK1475S,-104.98899999999999,39.69,False,08,031,001403,08,08031,08031001403,1400000US08031001403,WOODWORKERS OF DENVER INC,1475 S ACOMA ST,DENVER,CO,802233222,"WOODWORKERS OF DENVER INC.1475 S ACOMA ST, DENVER COLORADO 80223 (DENVER)",0,C,,
80223CYCLM1438S,-104.991,39.69,False,08,031,001403,08,08031,08031001403,1400000US08031001403,CYCLO MANUFACTURING CO,1438 SOUTH CHEROKEE ST,DENVER,CO,80223,"CYCLO MANUFACTURING CO.1438 SOUTH CHEROKEE ST, DENVER COLORADO 80223 (DENVER)",0,C,,
80223PBLCS2601S,-104.999,39.669000000000004,False,08,031,001403,08,08031,08031001403,1400000US08031001403,PUBLIC SERVICE COMPANY OF COLORADO ARAPAHOE STATION,2601 S PLATTE RIVER DR,DENVER,CO,80223,"PUBLIC SERVICE COMPANY OF COLORADO ARAPAHOE STATION.2601 S PLATTE RIVER DR, DENVER COLORADO 80223 (DENVER)",0,C,,110000467129
80223RJRCR183SB,-104.99,39.683,False,08,031,001403,08,08031,08031001403,1400000US08031001403,RJR CIRCUITS INC,1830 S BANNOCK ST,DENVER,CO,80223,"RJR CIRCUITS INC.1830 S BANNOCK ST, DENVER COLORADO 80223 (DENVER)",0,C,,110040922428
80223GGRGT1751S,-104.99,39.685,False,08,031,001403,08,08031,08031001403,1400000US08031001403,AGGREGATE INDUSTRIES WCR INC BANNOCK READY MIX PLANT,1751 S BANNOCK ST,DENVER,CO,80223,"AGGREGATE INDUSTRIES WCR INC BANNOCK READY MIX PLANT.1751 S BANNOCK ST, DENVER COLORADO 80223 (DENVER)",0,C,,110022411567
80223PWRNG2525S,-104.993,39.67,False,08,031,001403,08,08031,08031001403,1400000US08031001403,POWER ENGINEERING CO,2525 S DELAWARE ST,DENVER,CO,80223,"POWER ENGINEERING CO.2525 S DELAWARE ST, DENVER COLORADO 80223 (DENVER)",0,C,,110054142067
80224RDFLD5800E,-104.919,39.681999999999995,False,08,031,005200,08,08031,08031005200,1400000US08031005200,REDFIELD RIFLESCOPES INC,5800 E JEWELL AVE,DENVER,CO,80224,"REDFIELD RIFLESCOPES INC.5800 E JEWELL AVE, DENVER COLORADO 80224 (DENVER)",0,C,,
80233FTRFM11020,-104.964,39.895,False,08,001,008533,08,08001,08001008533,1400000US08001008533,ATLAS ROOFING CORP,11020 LEROY DR,NORTHGLENN,CO,80233,"ATLAS ROOFING CORP.11020 LEROY DR, NORTHGLENN COLORADO 80233 (ADAMS)",0,C,,110010291727
80234TTNCX1200W,-105.0,39.914,False,08,001,009325,08,08001,08001009325,1400000US08001009325,CELESTICA,1200 W 120TH AVE,WESTMINSTER,CO,80234,"CELESTICA.1200 W 120TH AVE, WESTMINSTER COLORADO 80234 (ADAMS)",0,C,,
80239KWLHW3900J,-104.861,39.771,False,08,031,004106,08,08031,08031004106,1400000US08031004106,KWAL-HOWELLS INC ( DBA KWAL PAINT INC),3900 JOLIET ST,DENVER,CO,80239,"KWAL-HOWELLS INC ( DBA KWAL PAINT INC).3900 JOLIET ST, DENVER COLORADO 80239 (DENVER)",0,C,,110000467192
80239PRKRT3990H,-104.866,39.774,False,08,031,004106,08,08031,08031004106,1400000US08031004106,"PROKRETE IND PROCHEM TECH, INC",3990 HAVANA ST,DENVER,CO,80239,"PROKRETE IND PROCHEM TECH, INC.3990 HAVANA ST, DENVER COLORADO 80239 (DENVER)",0,C,,
80239CTCHN12555,-104.84299999999999,39.768,False,08,031,004106,08,08031,08031004106,1400000US08031004106,CAI TECHNOLOGIES,12555 E 37TH AVE,DENVER,CO,80239,"CAI TECHNOLOGIES.12555 E 37TH AVE, DENVER COLORADO 80239 (DENVER)",1,C,,
80239CRYNC3811J,-104.861,39.77,False,08,031,004106,08,08031,08031004106,1400000US08031004106,CHART INC,3811 JOLIET ST,DENVER,CO,80239,"CHART INC.3811 JOLIET ST, DENVER COLORADO 80239 (DENVER)",0,C,,
8023WFSTRV391JL,-104.861,39.772,False,08,031,004106,08,08031,08031004106,1400000US08031004106,COLORADO SALT PRODUCTS LLC,3910 JOLIET STREET,DENVER,CO,80239,"COLORADO SALT PRODUCTS LLC.3910 JOLIET STREET, DENVER COLORADO 80239 (DENVER)",0,C,,110059361505
8023WKRGRM1241E,-104.87200000000001,39.79,False,08,031,004106,08,08031,08031004106,1400000US08031004106,KROGER MOUNTAIN VIEW FOODS,10241 E 51ST AVE,DENVER,CO,80239,"KROGER MOUNTAIN VIEW FOODS.10241 E 51ST AVE, DENVER COLORADO 80239 (DENVER)",0,C,,110056394272
8023WRDDYC1E4TH,-104.875,39.773,False,08,031,004106,08,08031,08031004106,1400000US08031004106,REDDY ICE - DENVER (206),9670 E 40TH AVE,DENVER,CO,80238,"REDDY ICE - DENVER (206).9670 E 40TH AVE, DENVER COLORADO 80238 (DENVER)",0,C,,110067669464
80239SCTTS4880H,-104.866,39.795,False,08,031,980100,08,08031,08031980100,1400000US08031980100,SCOTT'S LIQUID GOLD INC,4880 HAVANA ST,DENVER,CO,80239,"SCOTT'S LIQUID GOLD INC.4880 HAVANA ST, DENVER COLORADO 80239 (DENVER)",0,C,,
80239SMSNT11200,-104.853,39.777,False,08,031,980100,08,08031,08031980100,1400000US08031980100,SAMSONITE CORP,11200 E 45TH AVE,DENVER,CO,80239,"SAMSONITE CORP.11200 E 45TH AVE, DENVER COLORADO 80239 (DENVER)",0,C,,
80239MLHGH11100,-104.859,39.779,False,08,031,980100,08,08031,08031980100,1400000US08031980100,MILE HIGH EQUIPMENT LLC,11100 E 45TH AVE,DENVER,CO,80239,"MILE HIGH EQUIPMENT LLC.11100 E 45TH AVE, DENVER COLORADO 80239 (DENVER)",0,C,,110000467209
80239PSNDS5000L,-104.85700000000001,39.788000000000004,False,08,031,980100,08,08031,08031980100,1400000US08031980100,PEASE INDUSTRIES INC,5000 LIMA ST,DENVER,CO,80239,"PEASE INDUSTRIES INC.5000 LIMA ST, DENVER COLORADO 80239 (DENVER)",0,C,,
80239CHMCL10865,-104.863,39.79,False,08,031,980100,08,08031,08031980100,1400000US08031980100,CHEMICAL SYSTEMS TECHNOLOGY INC,10685 E  51ST AVE,DENVER,CO,80239,"CHEMICAL SYSTEMS TECHNOLOGY INC.10685 E  51ST AVE, DENVER COLORADO 80239 (DENVER)",0,C,,
80239BRTLN10660,-104.86399999999999,39.79,False,08,031,980100,08,08031,08031980100,1400000US08031980100,BRITE-LINE TECHNOLOGIES,10660 E 51ST AVE,DENVER,CO,80239,"BRITE-LINE TECHNOLOGIES.10660 E 51ST AVE, DENVER COLORADO 80239 (DENVER)",0,C,,110000859474
80239GNC004965K,-104.859,39.786,False,08,031,980100,08,08031,08031980100,1400000US08031980100,POLYONE CORP,4965 KINGSTON ST,DENVER,CO,80239,"POLYONE CORP.4965 KINGSTON ST, DENVER COLORADO 80239 (DENVER)",1,C,,
80239HNRYC11155,-104.85799999999999,39.782,False,08,031,980100,08,08031,08031980100,1400000US08031980100,HENRY CO GRUNDY INDUSTRIES,11155 E 47TH AVE,DENVER,CO,802393009,"HENRY CO GRUNDY INDUSTRIES.11155 E 47TH AVE, DENVER COLORADO 80239 (DENVER)",0,C,,
80239CRGLL11170,-104.85799999999999,39.782,False,08,031,980100,08,08031,08031980100,1400000US08031980100,CARGILL HEALTH & FOOD TECHS,11170 E 47TH AVE,DENVER,CO,80239,"CARGILL HEALTH & FOOD TECHS.11170 E 47TH AVE, DENVER COLORADO 80239 (DENVER)",0,C,,
8023WJPLMB11955,-104.86,39.79,False,08,031,980100,08,08031,08031980100,1400000US08031980100,JP LAMBORN CO,11095 51ST AVE,DENVER,CO,802392511,"JP LAMBORN CO.11095 51ST AVE, DENVER COLORADO 80239 (DENVER)",0,C,,110055499802
8023WCHMST515PA,-104.84899999999999,39.789,False,08,031,980100,08,08031,08031980100,1400000US08031980100,CHEMSTATION DENVER,5015 PARIS ST,DENVER,CO,80239,"CHEMSTATION DENVER.5015 PARIS ST, DENVER COLORADO 80239 (DENVER)",0,C,,110070070746
80301BLLRS1600C,-105.23200000000001,40.015,False,08,013,012203,08,08013,08013012203,1400000US08013012203,BALL AEROSPACE & TECHNOLOGIES CORP,1600 COMMERCE ST,BOULDER,CO,803018031,"BALL AEROSPACE & TECHNOLOGIES CORP.1600 COMMERCE ST, BOULDER COLORADO 80301 (BOULDER)",0,C,,
80301CRCTM3155B,-105.251,40.028,False,08,013,012203,08,08013,08013012203,1400000US08013012203,CIRCUIT IMAGES INC,3155 BLUFF ST,BOULDER,CO,80301,"CIRCUIT IMAGES INC.3155 BLUFF ST, BOULDER COLORADO 80301 (BOULDER)",0,C,,110000786338
80301CRSPC3825W,-105.24600000000001,40.019,False,08,013,012203,08,08013,08013012203,1400000US08013012203,GRAPHIC PACKAGING CORP BOULDER DIV,3825 WALNUT ST,BOULDER,CO,803012525,"GRAPHIC PACKAGING CORP BOULDER DIV.3825 WALNUT ST, BOULDER COLORADO 80301 (BOULDER)",0,C,,
80301SYNTX2075N,-105.227,40.02,False,08,013,012203,08,08013,08013012203,1400000US08013012203,CORDEN PHARMA COLORADO INC,2075 N 55TH ST,BOULDER,CO,80301,"CORDEN PHARMA COLORADO INC.2075 N 55TH ST, BOULDER COLORADO 80301 (BOULDER)",0,C,,110000467281
80301MKSNS5330S,-105.229,40.028,False,08,013,012203,08,08013,08013012203,1400000US08013012203,MKS INSTRUMENTS INC HPS PRO DUCTS DIV,5330 STERLING DR,BOULDER,CO,80301,"MKS INSTRUMENTS INC HPS PRO DUCTS DIV.5330 STERLING DR, BOULDER COLORADO 80301 (BOULDER)",0,C,,110000467245
80301HSRCH4747P,-105.243,40.025,False,08,013,012203,08,08013,08013012203,1400000US08013012203,HAUSER CHEMICAL RESEARCH INC,4747 PEARL ST 4,BOULDER,CO,80301,"HAUSER CHEMICAL RESEARCH INC.4747 PEARL ST 4, BOULDER COLORADO 80301 (BOULDER)",0,C,,
80301NPRBT4884S,-105.24,40.027,False,08,013,012203,08,08013,08013012203,1400000US08013012203,CORDEN PHARMA BOULDER,4884 STERLING DR,BOULDER,CO,80301,"CORDEN PHARMA BOULDER.4884 STERLING DR, BOULDER COLORADO 80301 (BOULDER)",0,C,,110022512805
80301JYMDC4745W,-105.241,40.019,False,08,013,012203,08,08013,08013012203,1400000US08013012203,JAY MEDICAL LTD,4745 WALNUT ST,BOULDER,CO,80301,"JAY MEDICAL LTD.4745 WALNUT ST, BOULDER COLORADO 80301 (BOULDER)",0,C,,
80301BMXXX6300D,-105.20700000000001,40.074,False,08,013,012701,08,08013,08013012701,1400000US08013012701,IBM,6300 DIAGONAL HWY,BOULDER,CO,80301,"IBM.6300 DIAGONAL HWY, BOULDER COLORADO 80301 (BOULDER)",0,C,,
80301LXMRK6555M,-105.20100000000001,40.093,False,08,013,012701,08,08013,08013012701,1400000US08013012701,LEXMARK INTERNATIONAL INC,6555 MONARCH RD,LONGMONT,CO,80503,"LEXMARK INTERNATIONAL INC.6555 MONARCH RD, LONGMONT COLORADO 80503 (BOULDER)",0,C,,110000467236
80301HSRCH4750N,-105.204,40.06,False,08,013,012705,08,08013,08013012705,1400000US08013012705,HAUSER INC,4750 NAUTILUS CT SOUTH,BOULDER,CO,80301,"HAUSER INC.4750 NAUTILUS CT SOUTH, BOULDER COLORADO 80301 (BOULDER)",0,C,,
80301VLLYL5920L,-105.213,40.064,False,08,013,012705,08,08013,08013012705,1400000US08013012705,TYCO HEALTHCARE GROUP L.P.,5920 LONGBOW DR,BOULDER,CO,80301,"TYCO HEALTHCARE GROUP L.P..5920 LONGBOW DR, BOULDER COLORADO 80301 (BOULDER)",0,C,,110001745577
80301PRLGL4699N,-105.205,40.06,False,08,013,012705,08,08013,08013012705,1400000US08013012705,PROLIGO LLC,4699 NAUTILUS CT,BOULDER,CO,80301,"PROLIGO LLC.4699 NAUTILUS CT, BOULDER COLORADO 80301 (BOULDER)",0,C,,
80301NPRBT6304S,-105.205,40.067,False,08,013,012705,08,08013,08013012705,1400000US08013012705,NAPRO BIOTHERAPEUTICS INC,6304 SPINE RD UNIT A,BOULDER,CO,80301,"NAPRO BIOTHERAPEUTICS INC.6304 SPINE RD UNIT A, BOULDER COLORADO 80301 (BOULDER)",0,C,,
80301KRYPT5660C,-105.22200000000001,40.02,False,08,013,012707,08,08013,08013012707,1400000US08013012707,KRYPTONICS INC,5660 CENTRAL AVE,BOULDER,CO,80301,"KRYPTONICS INC.5660 CENTRAL AVE, BOULDER COLORADO 80301 (BOULDER)",0,C,,
80301STNFR4840N,-105.211,40.028,False,08,013,012707,08,08013,08013012707,1400000US08013012707,SAE CIRCUITS COLORADO INC,4820 N 63RD ST,BOULDER,CO,80301,"SAE CIRCUITS COLORADO INC.4820 N 63RD ST, BOULDER COLORADO 80301 (BOULDER)",0,C,,110000467263
80302CMPTR6287A,-105.208,40.015,False,08,013,012707,08,08013,08013012707,1400000US08013012707,TECNETICS INC,6287 ARAPAHOE AVE,BOULDER,CO,80306,"TECNETICS INC.6287 ARAPAHOE AVE, BOULDER COLORADO 80306 (BOULDER)",0,C,,
80301HSRCH5555A,-105.22399999999999,40.037,False,08,013,012707,08,08013,08013012707,1400000US08013012707,AGILENT TECHNOLOGIES BOULDER CO,5555 AIRPORT BLVD,BOULDER,CO,80301,"AGILENT TECHNOLOGIES BOULDER CO.5555 AIRPORT BLVD, BOULDER COLORADO 80301 (BOULDER)",0,C,,110014375853
80301SYNRG5550A,-105.223,40.037,False,08,013,012707,08,08013,08013012707,1400000US08013012707,AMGEN INC,5550 AIRPORT BLVD,BOULDER,CO,80301,"AMGEN INC.5550 AIRPORT BLVD, BOULDER COLORADO 80301 (BOULDER)",0,C,,
80302PBLCS1800N,-105.20200000000001,40.02,False,08,013,012707,08,08013,08013012707,1400000US08013012707,PUBLIC SERVICE CO OF COLORADO VALMONT STATION,1800 N 63RD ST,BOULDER,CO,80301,"PUBLIC SERVICE CO OF COLORADO VALMONT STATION.1800 N 63RD ST, BOULDER COLORADO 80301 (BOULDER)",1,C,,110000467290
80301LFRGW5959V,-105.214,40.029,False,08,013,012707,08,08013,08013012707,1400000US08013012707,MARTIN MARIETTA VALMONT READY MIX,5959 VALMONT DR,BOULDER,CO,80301,"MARTIN MARIETTA VALMONT READY MIX.5959 VALMONT DR, BOULDER COLORADO 80301 (BOULDER)",0,C,,110012702673
80301SPCTR5755C,-105.221,40.025,False,08,013,012707,08,08013,08013012707,1400000US08013012707,SPECTRALINK CORP,5755 CENTRAL AVE,BOULDER,CO,80301,"SPECTRALINK CORP.5755 CENTRAL AVE, BOULDER COLORADO 80301 (BOULDER)",0,C,,
80301PXSPH5555A,-105.22399999999999,40.037,False,08,013,012707,08,08013,08013012707,1400000US08013012707,INB: PAXIS PHARMACEUTICALS,5555 AIRPORT BLVD,BOULDER,CO,80301,"INB: PAXIS PHARMACEUTICALS.5555 AIRPORT BLVD, BOULDER COLORADO 80301 (BOULDER)",1,C,,110014375853
8030WBLDRR31861,-105.211,40.033,False,08,013,012707,08,08013,08013012707,1400000US08013012707,BOULDER READY-MIX,3180 61ST ST,BOULDER,CO,80301,"BOULDER READY-MIX.3180 61ST ST, BOULDER COLORADO 80301 (BOULDER)",0,C,,110007350561
80301MCRMT7070W,-105.19,40.079,False,08,013,012708,08,08013,08013012708,1400000US08013012708,MICRO MOTION INC,7070 WINCHESTER CIR,BOULDER,CO,80301,"MICRO MOTION INC.7070 WINCHESTER CIR, BOULDER COLORADO 80301 (BOULDER)",0,C,,110000738257
80301DSGNF6930W,-105.194,40.079,False,08,013,012708,08,08013,08013012708,1400000US08013012708,DESIGN FABRICATORS INC,6930 WINCHESTER CIRCLE,BOULDER,CO,80301,"DESIGN FABRICATORS INC.6930 WINCHESTER CIRCLE, BOULDER COLORADO 80301 (BOULDER)",0,C,,
80401CRSCR6009T,-105.223,39.759,False,08,059,009843,08,08059,08059009843,1400000US08059009843,COORSTEK,600 9TH ST,GOLDEN,CO,80401,"COORSTEK.600 9TH ST, GOLDEN COLORADO 80401 (JEFFERSON)",0,C,,
80401TRGNN2510T,-105.215,39.760999999999996,False,08,059,009843,08,08059,08059009843,1400000US08059009843,COLORADO ENERGY NATIONS CO LLC,1003-VASQUEZ ST,GOLDEN,CO,80401,"COLORADO ENERGY NATIONS CO LLC.1003-VASQUEZ ST, GOLDEN COLORADO 80401 (JEFFERSON)",0,C,,110059602899
80401DLPHC12THF,-105.219,39.757,False,08,059,009900,08,08059,08059009900,1400000US08059009900,MILLERCOORS USA LLC - GOLDEN BREWERY,12TH AND FORD STREETS,GOLDEN,CO,80401,"MILLERCOORS USA LLC - GOLDEN BREWERY.12TH AND FORD STREETS, GOLDEN COLORADO 80401 (JEFFERSON)",0,C,,110033145736
80401CRSCR17750,-105.20100000000001,39.765,False,08,059,009900,08,08059,08059009900,1400000US08059009900,COORSTEK INC CLEAR CREEK VALLEY OPERATIONS,17750 W 32ND AVE,GOLDEN,CO,80401,"COORSTEK INC CLEAR CREEK VALLEY OPERATIONS.17750 W 32ND AVE, GOLDEN COLORADO 80401 (JEFFERSON)",0,C,,110000467307
80401VLLYM17755,-105.195,39.766999999999996,False,08,059,009900,08,08059,08059009900,1400000US08059009900,ROCKY MOUNTAIN METAL CONTAINER,17755 W 32ND AVE,GOLDEN,CO,80401,"ROCKY MOUNTAIN METAL CONTAINER.17755 W 32ND AVE, GOLDEN COLORADO 80401 (JEFFERSON)",0,C,,110033145745
80401DLPHC4625M,-105.175,39.781,False,08,059,009842,08,08059,08059009842,1400000US08059009842,COORS BREWING CO ENDLINE BUILDING,4625 MCINTYRE ST,GOLDEN,CO,80401,"COORS BREWING CO ENDLINE BUILDING.4625 MCINTYRE ST, GOLDEN COLORADO 80401 (JEFFERSON)",0,C,,
80403MXRSR5950M,-105.175,39.806,False,08,059,009842,08,08059,08059009842,1400000US08059009842,AMAX RESEARCH & DEVELOPMENT  CENTER,5950 MCINTYRE ST,GOLDEN,CO,804037499,"AMAX RESEARCH & DEVELOPMENT  CENTER.5950 MCINTYRE ST, GOLDEN COLORADO 80403 (JEFFERSON)",0,C,,
80403CRSCR4545M,-105.176,39.78,False,08,059,009842,08,08059,08059009842,1400000US08059009842,COORSTEK INC,4545 MCINTYRE ST,GOLDEN,CO,80403,"COORSTEK INC.4545 MCINTYRE ST, GOLDEN COLORADO 80403 (JEFFERSON)",0,C,,
80403BPKNC4545M,-105.175,39.78,False,08,059,009842,08,08059,08059009842,1400000US08059009842,CHRONOPOL INC,4545 MCINTYRE ST,GOLDEN,CO,80403,"CHRONOPOL INC.4545 MCINTYRE ST, GOLDEN COLORADO 80403 (JEFFERSON)",1,C,,
80403BLDRT4403T,-105.179,39.777,False,08,059,009842,08,08059,08059009842,1400000US08059009842,BOLDER TECHNOLOGIES CORP,4403 TABLE MOUNTAIN DR,GOLDEN,CO,80403,"BOLDER TECHNOLOGIES CORP.4403 TABLE MOUNTAIN DR, GOLDEN COLORADO 80403 (JEFFERSON)",0,C,,
80403CFMRC16351,-105.185,39.782,False,08,059,009842,08,08059,08059009842,1400000US08059009842,CF MAIER COMPOSITES INC,16351 TABLE MOUNTAIN PKWY COORS TECHNOLOGY CENTER,GOLDEN,CO,80403,"CF MAIER COMPOSITES INC.16351 TABLE MOUNTAIN PKWY COORS TECHNOLOGY CENTER, GOLDEN COLORADO 80403 (JEFFERSON)",0,C,,110022524142
80403HRCRS454TA,-105.179,39.781,False,08,059,009842,08,08059,08059009842,1400000US08059009842,HARCROS CHEMICALS INC,4504 TABLE MOUNTAIN DR,GOLDEN,CO,80403,"HARCROS CHEMICALS INC.4504 TABLE MOUNTAIN DR, GOLDEN COLORADO 80403 (JEFFERSON)",0,C,,110000899065
80402SDPRTSECTI,-105.20200000000001,39.894,False,08,059,060500,08,08059,08059060500,1400000US08059060500,US DOE ROCKY FLATS ENVIRONMENTAL TECH SITE - KAISER-HILL OPS,SEC 1-4 9-16 TOWNSHIP 2 S RANGE 70 W 6TH PRIN MERI,GOLDEN,CO,804038200,"US DOE ROCKY FLATS ENVIRONMENTAL TECH SITE - KAISER-HILL OPS.SEC 1-4 9-16 TOWNSHIP 2 S RANGE 70 W 6TH PRIN MERI, GOLDEN COLORADO 80403 (JEFFERSON)",2,G,,
80021RSPCM9675W,-105.10600000000001,39.894,False,08,059,060500,08,08059,08059060500,1400000US08059060500,BALL AEROSPACE MANUFACTURING CENTER COMMUNICATIONS SYSTEMS D,9675 W 108TH CIR,WESTMINSTER,CO,800213682,"BALL AEROSPACE MANUFACTURING CENTER COMMUNICATIONS SYSTEMS D.9675 W 108TH CIR, WESTMINSTER COLORADO 80021 (JEFFERSON)",0,C,,
80403GRTWS17400,-105.196,39.861,False,08,059,060500,08,08059,08059060500,1400000US08059060500,GREAT WESTERN INORGANICS INC,17400 HWY 72,ARVADA,CO,80007,"GREAT WESTERN INORGANICS INC.17400 HWY 72, ARVADA COLORADO 80007 (JEFFERSON)",0,C,,
80402SDRCKSEC14,-105.2,39.893,False,08,059,060500,08,08059,08059060500,1400000US08059060500,US DOE ROCKY FLATS ENVIRONMENTAL TECHNOLOGY SITE,SEC 1-4 9-16 TOWNSHIP 2 S RANGE 70 W  6TH PRIN MER,GOLDEN,CO,804038200,"US DOE ROCKY FLATS ENVIRONMENTAL TECHNOLOGY SITE.SEC 1-4 9-16 TOWNSHIP 2 S RANGE 70 W  6TH PRIN MER, GOLDEN COLORADO 80403 (JEFFERSON)",2,F,,
80303LFRGW11658,-105.241,39.905,False,08,059,060500,08,08013,08059060500,1400000US08059060500,LAFARGE WEST INC,11658 HWY 93,BOULDER,CO,80303,"LAFARGE WEST INC.11658 HWY 93, BOULDER COLORADO 80303 (BOULDER)",0,C,,
80021SDJFF10900,-105.12100000000001,39.914,False,08,059,060500,08,08059,08059060500,1400000US08059060500,USDA JEFFCO AIRTANKER BASE,10900 W 120TH AVE,BROOMFIELD,CO,80021,"USDA JEFFCO AIRTANKER BASE.10900 W 120TH AVE, BROOMFIELD COLORADO 80021 (JEFFERSON)",0,F,,
8040WBSTWY1888H,-105.241,39.888000000000005,False,08,059,060500,08,08059,08059060500,1400000US08059060500,BESTWAY CONCRETE CO -JEFFCO,10888 HIGHWAY 93,GOLDEN,CO,80403,"BESTWAY CONCRETE CO -JEFFCO.10888 HIGHWAY 93, GOLDEN COLORADO 80403 (JEFFERSON)",0,C,,110060260569
80403BLLPC4525I,-105.165,39.777,False,08,059,009852,08,08059,08059009852,1400000US08059009852,BALL METAL BEVERAGE CONTAINER CORP,4525 INDIANA ST,GOLDEN,CO,80403,"BALL METAL BEVERAGE CONTAINER CORP.4525 INDIANA ST, GOLDEN COLORADO 80403 (JEFFERSON)",0,C,,110000495330
80403RFPMN4370K,-105.17,39.775999999999996,False,08,059,009852,08,08059,08059009852,1400000US08059009852,RFP MANUFACTURING,4370 KENDRICK ST,GOLDEN,CO,80403,"RFP MANUFACTURING.4370 KENDRICK ST, GOLDEN COLORADO 80403 (JEFFERSON)",0,C,,
80033BLDRT5181W,-105.13799999999999,39.791,False,08,059,009852,08,08059,08059009852,1400000US08059009852,BOLDER TECHNOLOGIES CORP,5181 WARD RD,WHEAT RIDGE,CO,80033,"BOLDER TECHNOLOGIES CORP.5181 WARD RD, WHEAT RIDGE COLORADO 80033 (JEFFERSON)",0,C,,
80403SPCLP15W44,-105.169,39.775999999999996,False,08,059,009852,08,08059,08059009852,1400000US08059009852,SPECIAL PRODUCTS CO,15000 W 44TH AVE,GOLDEN,CO,80403,"SPECIAL PRODUCTS CO.15000 W 44TH AVE, GOLDEN COLORADO 80403 (JEFFERSON)",0,C,,
80459LSNPC1509H,-106.375,40.052,False,08,049,000100,08,08049,08049000100,1400000US08049000100,LOUISIANA-PACIFIC CORP,1509 S HWY 9,KREMMLING,CO,80459,"LOUISIANA-PACIFIC CORP.1509 S HWY 9, KREMMLING COLORADO 80459 (GRAND)",1,C,,
80468CLMXM19302,-106.083,39.858000000000004,False,08,049,000100,08,08049,08049000100,1400000US08049000100,CLIMAX MOLYBDENUM CO HENDERSON MILL,19302 COUNTY RD 3,PARSHALL,CO,80468,"CLIMAX MOLYBDENUM CO HENDERSON MILL.19302 COUNTY RD 3, PARSHALL COLORADO 80468 (GRAND)",0,C,,110000600190
80459LSNPCHWY50,-107.994,38.655,False,08,085,966201,08,08085,08085966201,1400000US08085966201,LOUISIANA-PACIFIC MONTROSE OSB,58482 US HWY 50 N,OLATHE,CO,81425,"LOUISIANA-PACIFIC MONTROSE OSB.58482 US HWY 50 N, OLATHE COLORADO 81425 (MONTROSE)",0,C,,
80501CNTRL1820I,-105.124,40.148,False,08,013,013210,08,08013,08013013210,1400000US08013013210,C-LINE CCC (DBA CENTERLINE CIRCUITS INC),1820 INDUSTRIAL CIR,LONGMONT,CO,80501,"C-LINE CCC (DBA CENTERLINE CIRCUITS INC).1820 INDUSTRIAL CIR, LONGMONT COLORADO 80501 (BOULDER)",0,C,,
80501MNSCR1861L,-105.125,40.141,False,08,013,013210,08,08013,08013013210,1400000US08013013210,MATHESON TRIGAS LONGMONT CO BRANCH,1861 LEFTHAND CIR,LONGMONT,CO,80501,"MATHESON TRIGAS LONGMONT CO BRANCH.1861 LEFTHAND CIR, LONGMONT COLORADO 80501 (BOULDER)",0,C,,110002446835
80501MNSCR345SF,-105.117,40.155,False,08,013,013210,08,08013,08013013210,1400000US08013013210,MAXTOR COLORADO CORP,"345 S FRANCIS, 410 S SUNSET",LONGMONT,CO,80501,"MAXTOR COLORADO CORP.345 S FRANCIS, 410 S SUNSET, LONGMONT COLORADO 80501 (BOULDER)",1,C,,
80501PCKGN1800P,-105.12299999999999,40.138000000000005,False,08,013,013210,08,08013,08013013210,1400000US08013013210,PACKAGING RESOURCES COLORADO LLC,1800 PIKE RD,LONGMONT,CO,80501,"PACKAGING RESOURCES COLORADO LLC.1800 PIKE RD, LONGMONT COLORADO 80501 (BOULDER)",0,C,,
80501DRSSL1301I,-105.11399999999999,40.149,False,08,013,013210,08,08013,08013013210,1400000US08013013210,"HUVEPHARMA,INC",1301 IOWA AVE,LONGMONT,CO,80501,"HUVEPHARMA,INC.1301 IOWA AVE, LONGMONT COLORADO 80501 (BOULDER)",0,C,,110000467361
80501MXTRC1851L,-105.125,40.141999999999996,False,08,013,013210,08,08013,08013013210,1400000US08013013210,MAXTOR COLORADO CORP,1851 LEFTHAND CIR,LONGMONT,CO,80501,"MAXTOR COLORADO CORP.1851 LEFTHAND CIR, LONGMONT COLORADO 80501 (BOULDER)",0,C,,
80501DVNCD2150M,-105.12899999999999,40.139,False,08,013,013210,08,08013,08013013210,1400000US08013013210,ADVANCED FORMING TECH INC,2150 MILLER DR,LONGMONT,CO,80501,"ADVANCED FORMING TECH INC.2150 MILLER DR, LONGMONT COLORADO 80501 (BOULDER)",0,C,,
80501VDNNG711SL,-105.113,40.150999999999996,False,08,013,013210,08,08013,08013013210,1400000US08013013210,AVEDON ENGINEERING INC,811 S SHERMAN ST,LONGMONT,CO,80501,"AVEDON ENGINEERING INC.811 S SHERMAN ST, LONGMONT COLORADO 80501 (BOULDER)",0,C,,
80501LFRGW9736N,-105.125,40.152,False,08,013,013210,08,08013,08013013210,1400000US08013013210,LAFARGE WEST INC,9736 NELSON RD,LONGMONT,CO,80501,"LAFARGE WEST INC.9736 NELSON RD, LONGMONT COLORADO 80501 (BOULDER)",1,C,,
80501GGRGT15SFR,-105.117,40.158,False,08,013,013210,08,08013,08013013210,1400000US08013013210,AGGREGATE INDUSTRIES WCR INC LONGMONT EAST READY MIX PLANT,15 S FRANCIS ST,LONGMONT,CO,80501,"AGGREGATE INDUSTRIES WCR INC LONGMONT EAST READY MIX PLANT.15 S FRANCIS ST, LONGMONT COLORADO 80501 (BOULDER)",0,C,,110025331558
8050WCRCTS41SSU,-105.12100000000001,40.154,False,08,013,013210,08,08013,08013013210,1400000US08013013210,CIRCUITS WEST INC,410 S SUNSET ST STE D,LONGMONT,CO,80501,"CIRCUITS WEST INC.410 S SUNSET ST STE D, LONGMONT COLORADO 80501 (BOULDER)",0,C,,110035442955
80501LNGMN150MA,-105.101,40.161,False,08,013,013401,08,08013,08013013401,1400000US08013013401,CONAGRA FOODS,150 MAIN ST,LONGMONT,CO,80501,"CONAGRA FOODS.150 MAIN ST, LONGMONT COLORADO 80501 (BOULDER)",0,C,,110009559085
80521WSTRN100MA,-105.09299999999999,40.16,False,08,013,013401,08,08013,08013013401,1400000US08013013401,WESTERN FOUNDRIES INC,100 MARTIN ST,LONGMONT,CO,80501,"WESTERN FOUNDRIES INC.100 MARTIN ST, LONGMONT COLORADO 80501 (BOULDER)",0,C,,110000467405
80517RCKRB2050B,-105.48700000000001,40.378,False,08,069,002801,08,08069,08069002801,1400000US08069002801,RICKER BARTLETT INC (DBA) COLORADO CASTINGS,2050 BIG THOMPSON AVE HWY 34,ESTES PARK,CO,80517,"RICKER BARTLETT INC (DBA) COLORADO CASTINGS.2050 BIG THOMPSON AVE HWY 34, ESTES PARK COLORADO 80517 (LARIMER)",0,C,,
80524NHSRB2351B,-105.006,40.62,False,08,069,001308,08,08069,08069001308,1400000US08069001308,ANHEUSER-BUSCH LLC,2351 BUSCH DR,FORT COLLINS,CO,80524,"ANHEUSER-BUSCH LLC.2351 BUSCH DR, FORT COLLINS COLORADO 80524 (LARIMER)",0,C,,110057414070
80525HWLTT3404E,-105.015,40.523,False,08,069,001605,08,08069,08069001605,1400000US08069001605,HEWLETT-PACKARD CO,3404 EAST HARMONY RD,FORT COLLINS,CO,805289599,"HEWLETT-PACKARD CO.3404 EAST HARMONY RD, FORT COLLINS COLORADO 80528 (LARIMER)",0,C,,
80525GLNTT4380S,-105.02,40.524,False,08,069,001605,08,08069,08069001605,1400000US08069001605,AVAGO TECHNOLOGIES INC FORT COLLINS COLORADO,4380 ZIEGLER RD,FORT COLLINS,CO,80525,"AVAGO TECHNOLOGIES INC FORT COLLINS COLORADO.4380 ZIEGLER RD, FORT COLLINS COLORADO 80525 (LARIMER)",0,C,,110008062577
80528CLSTC4701T,-105.02,40.521,False,08,069,001605,08,08069,08069001605,1400000US08069001605,CELESTICA CORP,4701 TECHNOLOGY PKWY,FORT COLLINS,CO,80528,"CELESTICA CORP.4701 TECHNOLOGY PKWY, FORT COLLINS COLORADO 80528 (LARIMER)",0,C,,110008304058
80525LFRGW3000S,-105.02,40.556,False,08,069,001605,08,08069,08069001605,1400000US08069001605,MARTIN MARIETTA RIGDEN READY MIX,3000 S CR 9,FORT COLLINS,CO,80525,"MARTIN MARIETTA RIGDEN READY MIX.3000 S CR 9, FORT COLLINS COLORADO 80525 (LARIMER)",0,C,,110064162178
80525DVNCD16PRS,-105.03399999999999,40.567,False,08,069,001605,08,08069,08069001605,1400000US08069001605,ADVANCED ENERGY INDUSTRIES,1600 PROSPECT PKWY,FORT COLLINS,CO,80525,"ADVANCED ENERGY INDUSTRIES.1600 PROSPECT PKWY, FORT COLLINS COLORADO 80525 (LARIMER)",0,C,,110002964310
8052WDVNCD2424M,-105.03200000000001,40.564,False,08,069,001605,08,08069,08069001605,1400000US08069001605,ADVANCED ENERGY INDUSTRIES INC,2424 MIDPOINT DR,FORT COLLINS,CO,80525,"ADVANCED ENERGY INDUSTRIES INC.2424 MIDPOINT DR, FORT COLLINS COLORADO 80525 (LARIMER)",0,C,,110039498013
80525NCRMC2001D,-105.039,40.541,False,08,069,001602,08,08069,08069001602,1400000US08069001602,SYMBIOS LOGIC INC,2001 DANFIELD CT,FORT COLLINS,CO,805252905,"SYMBIOS LOGIC INC.2001 DANFIELD CT, FORT COLLINS COLORADO 80525 (LARIMER)",0,C,,
80525WDWRD1000E,-105.059,40.552,False,08,069,001003,08,08069,08069001003,1400000US08069001003,WOODWARD INC,1000 E DRAKE RD,FORT COLLINS,CO,80525,"WOODWARD INC.1000 E DRAKE RD, FORT COLLINS COLORADO 80525 (LARIMER)",0,C,,110000887933
80534CRSBT8714H,-104.988,40.335,False,08,123,002103,08,08123,08123002103,1400000US08123002103,COLORADO SWEET GOLD LLC,8714 HWY 60,JOHNSTOWN,CO,80534,"COLORADO SWEET GOLD LLC.8714 HWY 60, JOHNSTOWN COLORADO 80534 (WELD)",0,C,,
80542BLDRS5983R,-104.99799999999999,40.238,False,08,123,002103,08,08123,08123002103,1400000US08123002103,BOULDER SCIENTIFIC CO LLC - MEAD FACILITY,598 3RD ST,MEAD,CO,80542,"BOULDER SCIENTIFIC CO LLC - MEAD FACILITY.598 3RD ST, MEAD COLORADO 80542 (WELD)",0,C,,110000467469
80534CHRNP8714H,-104.988,40.335,False,08,123,002103,08,08123,08123002103,1400000US08123002103,CHRONOPOL INC,8714 HWY 60,JOHNSTOWN,CO,80534,"CHRONOPOL INC.8714 HWY 60, JOHNSTOWN COLORADO 80534 (WELD)",1,C,,
8065WRRRGN6788S,-104.927,40.201,False,08,123,002103,08,08123,08123002103,1400000US08123002103,AURORA ORGANIC DAIRY,6788 SH66,PLATTEVILLE,CO,80651,"AURORA ORGANIC DAIRY.6788 SH66, PLATTEVILLE COLORADO 80651 (WELD)",0,C,,110064762074
80537HWLTT81514,-105.089,40.379,False,08,069,002007,08,08069,08069002007,1400000US08069002007,HEWLETT-PACKARD CO LOVELAND SITE,815 14TH ST SW,LOVELAND,CO,80537,"HEWLETT-PACKARD CO LOVELAND SITE.815 14TH ST SW, LOVELAND COLORADO 80537 (LARIMER)",0,C,,
80537LVLND20512,-105.081,40.38,False,08,069,002007,08,08069,08069002007,1400000US08069002007,LOVELAND SCULPTURE WORKS,205 12TH ST SW,LOVELAND,CO,80537,"LOVELAND SCULPTURE WORKS.205 12TH ST SW, LOVELAND COLORADO 80537 (LARIMER)",0,C,,
80537MTLCS5118T,-105.069,40.385999999999996,False,08,069,001704,08,08069,08069001704,1400000US08069001704,METAL CASTINGS OF COLORADO INC,511 8TH ST SE,LOVELAND,CO,80537,"METAL CASTINGS OF COLORADO INC.511 8TH ST SE, LOVELAND COLORADO 80537 (LARIMER)",0,C,,110000749398
80537CNTNN1000S,-105.073,40.381,False,08,069,001704,08,08069,08069001704,1400000US08069001704,CONTINENTAL GRAIN LOVELAND FOODS,1000 S LINCOLN AVE,LOVELAND,CO,80537,"CONTINENTAL GRAIN LOVELAND FOODS.1000 S LINCOLN AVE, LOVELAND COLORADO 80537 (LARIMER)",0,C,,
80537LLWTH715DE,-105.045,40.398,False,08,069,001704,08,08069,08069001704,1400000US08069001704,ALLWEATER WOOD LLC,715 DENVER AVE,LOVELAND,CO,80537,"ALLWEATER WOOD LLC.715 DENVER AVE, LOVELAND COLORADO 80537 (LARIMER)",0,C,,110002135939
80537LFRGW1209S,-105.066,40.38,False,08,069,001704,08,08069,08069001704,1400000US08069001704,LAFARGE WEST INC. LOVELAND PL ANT,1209 S COUNTY RD 13C,LOVELAND,CO,80537,"LAFARGE WEST INC. LOVELAND PL ANT.1209 S COUNTY RD 13C, LOVELAND COLORADO 80537 (LARIMER)",0,C,,110010132873
80540STHWS5134U,-105.23700000000001,40.202,False,08,013,013601,08,08013,08013013601,1400000US08013013601,CEMEX CONSTRUCTION MATERIALS SOUTH LLC,5134 UTE HWY,LONGMONT,CO,80503,"CEMEX CONSTRUCTION MATERIALS SOUTH LLC.5134 UTE HWY, LONGMONT COLORADO 80503 (BOULDER)",0,C,,110000467450
80305NTNLN325BR,-105.26799999999999,40.224000000000004,False,08,013,013601,08,08013,08013013601,1400000US08013013601,NATIONAL INSTITUTE OF STANDARD&TECHNOLOGY BOULDER,"325 BROADWAY, MC 173.02",BOULDER,CO,80305,"NATIONAL INSTITUTE OF STANDARD&TECHNOLOGY BOULDER.325 BROADWAY, MC 173.02, BOULDER COLORADO 80305 (BOULDER)",0,F,,110002962072
80547LPNCB4125M,-104.98200000000001,40.53,False,08,069,002501,08,08069,08069002501,1400000US08069002501,ALPINE CABINET CO,4125 MAIN ST,TIMNATH,CO,80547,"ALPINE CABINET CO.4125 MAIN ST, TIMNATH COLORADO 80547 (LARIMER)",0,C,,
80550MTLCN12011,-104.86200000000001,40.467,False,08,123,002203,08,08123,08123002203,1400000US08123002203,METAL CONTAINER CORPORTION - WINDSOR CAN PLANT,1201 METAL CONTAINER COURT,WINDSOR,CO,80550,"METAL CONTAINER CORPORTION - WINDSOR CAN PLANT.1201 METAL CONTAINER COURT, WINDSOR COLORADO 80550 (WELD)",0,C,,110000467487
80551KDKCLCOUNT,-104.87,40.465,False,08,123,002203,08,08123,08123002203,1400000US08123002203,KODAK ALARIS COLORADO,9952 EASTMAN PARK DR,WINDSOR,CO,80550,"KODAK ALARIS COLORADO.9952 EASTMAN PARK DR, WINDSOR COLORADO 80550 (WELD)",0,C,,110000467502
80550KDKPL1LITH,-104.86200000000001,40.455,False,08,123,002203,08,08123,08123002203,1400000US08123002203,KODAK POLYCHROME GRAPHICS,1 LITHO PLATE DR,WINDSOR,CO,80550,"KODAK POLYCHROME GRAPHICS.1 LITHO PLATE DR, WINDSOR COLORADO 80550 (WELD)",0,C,,
80550FRNTR31375,-104.85799999999999,40.455999999999996,False,08,123,002203,08,08123,08123002203,1400000US08123002203,FRONT RANGE ENERGY,31375 GREAT WESTERN DR,WINDSOR,CO,80550,"FRONT RANGE ENERGY.31375 GREAT WESTERN DR, WINDSOR COLORADO 80550 (WELD)",0,C,,110024579204
80550CRSTR2HWAR,-104.874,40.458,False,08,123,002203,08,08123,08123002203,1400000US08123002203,CARESTREAM HEALTH COLORADO,2000 HOWARD SMITH AVE W C42,WINDSOR,CO,80550,"CARESTREAM HEALTH COLORADO.2000 HOWARD SMITH AVE W C42, WINDSOR COLORADO 80550 (WELD)",0,C,,110031306272
8055WHXCLW31815,-104.85600000000001,40.464,False,08,123,002203,08,08123,08123002203,1400000US08123002203,HEXCEL CORP,31815 GREAT WESTERN DRIVE,WINDSOR,CO,80550,"HEXCEL CORP.31815 GREAT WESTERN DRIVE, WINDSOR COLORADO 80550 (WELD)",0,C,,110038895283
80528MSKTW23HWA,-104.867,40.455,False,08,123,002203,08,08123,08123002203,1400000US08123002203,MUSKET WINDSOR TRANSLOADING FACILITY,2030 HOWARD SMITH AVE E,WINDSOR,CO,80528,"MUSKET WINDSOR TRANSLOADING FACILITY.2030 HOWARD SMITH AVE E, WINDSOR COLORADO 80528 (WELD)",0,C,,110054120134
80601LLTCC1095S,-104.819,39.969,False,08,001,008523,08,08001,08001008523,1400000US08001008523,INTERTAPE POLYMER GROUP BRIGHTON FACILITY,1095 S FOURTH AVE,BRIGHTON,CO,80601,"INTERTAPE POLYMER GROUP BRIGHTON FACILITY.1095 S FOURTH AVE, BRIGHTON COLORADO 80601 (ADAMS)",0,C,,110000467511
80601RDYMX14585,-104.838,39.96,False,08,001,008523,08,08001,08001008523,1400000US08001008523,READY MIXED CONCRETE PLANT 3,14585 BRIGHTON RD,BRIGHTON,CO,80601,"READY MIXED CONCRETE PLANT 3.14585 BRIGHTON RD, BRIGHTON COLORADO 80601 (ADAMS)",0,C,,110001399362
80621GLDNL1405E,-104.803,40.096,False,08,123,001905,08,08123,08123001905,1400000US08123001905,GOLDEN ALUMINUM,1405 E 14TH ST,FORT LUPTON,CO,80621,"GOLDEN ALUMINUM.1405 E 14TH ST, FORT LUPTON COLORADO 80621 (WELD)",0,C,,110000467539
80631BRDNN45025,-104.685,40.397,False,08,123,000800,08,08123,08123000800,1400000US08123000800,SOUTHERN FOODS GROUP LLC D/B/A MEADOW GOLD DAIRIES,450 25TH ST,GREELEY,CO,80631,"SOUTHERN FOODS GROUP LLC D/B/A MEADOW GOLD DAIRIES.450 25TH ST, GREELEY COLORADO 80631 (WELD)",0,C,,110000495358
80631SNCFD26268,-104.691,40.395,False,08,123,000800,08,08123,08123000800,1400000US08123000800,SUNCOA SNACKS,2626 8TH AVE,GREELEY,CO,80631,"SUNCOA SNACKS.2626 8TH AVE, GREELEY COLORADO 80631 (WELD)",0,C,,
8063WTHMSP23494,-104.684,40.4,False,08,123,000800,08,08123,08123000800,1400000US08123000800,THOMAS PETROLEUM LLC GREELEY,2349 4 AVE,GREELEY,CO,80631,"THOMAS PETROLEUM LLC GREELEY.2349 4 AVE, GREELEY COLORADO 80631 (WELD)",0,C,,110064436267
80631BRRSC331E8,-104.67399999999999,40.425,False,08,123,000705,08,08123,08123000705,1400000US08123000705,BURRIS CO INC,331 E 8TH ST,GREELEY,CO,80631,"BURRIS CO INC.331 E 8TH ST, GREELEY COLORADO 80631 (WELD)",0,C,,
80631WSTRN13021,-104.676,40.417,False,08,123,000705,08,08123,08123000705,1400000US08123000705,LEPRINO FOODS CO - GREELEY,1302 1ST AVE,GREELEY,CO,80631,"LEPRINO FOODS CO - GREELEY.1302 1ST AVE, GREELEY COLORADO 80631 (WELD)",0,C,,110000467557
80631VRRCS1431E,-104.65700000000001,40.414,False,08,123,000705,08,08123,08123000705,1400000US08123000705,VARRA COS INC GREELEY BATCH PLANT 1,1431 E 16TH ST,GREELEY,CO,80631,"VARRA COS INC GREELEY BATCH PLANT 1.1431 E 16TH ST, GREELEY COLORADO 80631 (WELD)",0,C,,
8063WCSTLC122E4,-104.676,40.429,False,08,123,000705,08,08123,08123000705,1400000US08123000705,COASTAL CHEMICAL CO LLC,122 E 4TH STREET RD,GREELEY,CO,80631,"COASTAL CHEMICAL CO LLC.122 E 4TH STREET RD, GREELEY COLORADO 80631 (WELD)",0,C,,110070069426
80631MNFRT20352,-104.68,40.405,False,08,123,000701,08,08123,08123000701,1400000US08123000701,MONFORT PORTION FOODS,2035 2ND AVE,GREELEY,CO,80631,"MONFORT PORTION FOODS.2035 2ND AVE, GREELEY COLORADO 80631 (WELD)",0,C,,
80631RGLFB4555T,-104.685,40.429,False,08,123,000701,08,08123,08123000701,1400000US08123000701,REGAL FIBERGLASS INC,455 5TH AVE,GREELEY,CO,80631,"REGAL FIBERGLASS INC.455 5TH AVE, GREELEY COLORADO 80631 (WELD)",0,C,,
80632PLTTC50018,-104.68299999999999,40.41,False,08,123,000701,08,08123,08123000701,1400000US08123000701,PLATTE CHEMICAL CO,500 18TH ST,GREELEY,CO,80631,"PLATTE CHEMICAL CO.500 18TH ST, GREELEY COLORADO 80631 (WELD)",0,C,,
80631MNFRT920N7,-104.69,40.445,False,08,123,000701,08,08123,08123000701,1400000US08123000701,MONFORT LAMB INC,920 N 7TH AVE,GREELEY,CO,80631,"MONFORT LAMB INC.920 N 7TH AVE, GREELEY COLORADO 80631 (WELD)",0,C,,
80633BSTWY131N3,-104.735,40.436,False,08,123,001417,08,08123,08123001417,1400000US08123001417,BESTWAY CONCRETE,131 N 35TH AVE,GREELEY,CO,80633,"BESTWAY CONCRETE.131 N 35TH AVE, GREELEY COLORADO 80633 (WELD)",0,C,,
80634HWLTT70071,-104.794,40.425,False,08,123,001416,08,08123,08123001416,1400000US08123001416,HEWLETT-PACKARD CO,700 71ST AVE,GREELEY,CO,80634,"HEWLETT-PACKARD CO.700 71ST AVE, GREELEY COLORADO 80634 (WELD)",0,C,,
80634LVLND14520,-104.78,40.45,False,08,123,001416,08,08123,08123001416,1400000US08123001416,LOVELAND INDS INC,14520 WELD COUNTY RD 64,GREELEY,CO,80631,"LOVELAND INDS INC.14520 WELD COUNTY RD 64, GREELEY COLORADO 80631 (WELD)",0,C,,
80631LFRGW925N3,-104.735,40.444,False,08,123,001416,08,08123,08123001416,1400000US08123001416,MARTIN MARIETTA GREELEY 35TH AVE,925 N 35TH AVE,GREELEY,CO,80631,"MARTIN MARIETTA GREELEY 35TH AVE.925 N 35TH AVE, GREELEY COLORADO 80631 (WELD)",0,C,,110001722645
80634GRLYS4509F,-104.74700000000001,40.443000000000005,False,08,123,001416,08,08123,08123001416,1400000US08123001416,GREELEY ASPHALT PLANT,4509 F ST,GREELEY,CO,80634,"GREELEY ASPHALT PLANT.4509 F ST, GREELEY COLORADO 80634 (WELD)",0,C,,
80631GGRGT37168,-104.81,40.449,False,08,123,001416,08,08123,08123001416,1400000US08123001416,AGGREGATE INDUSTRIES WCR INC GREELEY ASPHALT FACILITY,30716 WELD COUNTY RD 27,GREELEY,CO,80634,"AGGREGATE INDUSTRIES WCR INC GREELEY ASPHALT FACILITY.30716 WELD COUNTY RD 27, GREELEY COLORADO 80634 (WELD)",0,C,,110020515995
80644FRRBT5001S,-104.564,40.385,False,08,123,001600,08,08123,08123001600,1400000US08123001600,FARR BETTER FEEDS,500 1ST ST,KERSEY,CO,80644,"FARR BETTER FEEDS.500 1ST ST, KERSEY COLORADO 80644 (WELD)",0,C,,
80701WSTRN18317,-103.806,40.263000000000005,False,08,087,000300,08,08087,08087000300,1400000US08087000300,WESTERN SUGAR COOPERATIVE,18317 HWY 144,FORT MORGAN,CO,80701,"WESTERN SUGAR COOPERATIVE.18317 HWY 144, FORT MORGAN COLORADO 80701 (MORGAN)",0,C,,110015762824
80701XCLCR1505E,-103.77600000000001,40.247,False,08,087,000600,08,08087,08087000600,1400000US08087000600,CARGILL MEAT SOLUTIONS CORP,1505 E BURLINGTON AVE,FORT MORGAN,CO,80701,"CARGILL MEAT SOLUTIONS CORP.1505 E BURLINGTON AVE, FORT MORGAN COLORADO 80701 (MORGAN)",0,C,,110000467637
80701LPRNF2400E,-103.765,40.25,False,08,087,000600,08,08087,08087000600,1400000US08087000600,LEPRINO FOODS CO,2400 E BEAVER AVE,FORT MORGAN,CO,80701,"LEPRINO FOODS CO.2400 E BEAVER AVE, FORT MORGAN COLORADO 80701 (MORGAN)",0,C,,110011372335
80701DRYFR2301E,-103.76700000000001,40.251999999999995,False,08,087,000600,08,08087,08087000600,1400000US08087000600,DAIRY FARMERS OF AMERICA INC,2301 E BIJOU AVE,FORT MORGAN,CO,80701,"DAIRY FARMERS OF AMERICA INC.2301 E BIJOU AVE, FORT MORGAN COLORADO 80701 (MORGAN)",0,C,,110015583028
80734PHLLP220NB,-102.304,40.586999999999996,False,08,095,967600,08,08095,08095967600,1400000US08095967600,PHILLIPS COUNTY GRAIN CO,220 N BAXTER ST,HOLYOKE,CO,80734,"PHILLIPS COUNTY GRAIN CO.220 N BAXTER ST, HOLYOKE COLORADO 80734 (PHILLIPS)",0,C,,
80751FRRBT219RI,-103.1,40.583,False,08,075,966400,08,08075,08075966400,1400000US08075966400,CARGILL FEED & NUTRITION STERLING,219 RIGHT-OF-WAY RD,STERLING,CO,80751,"CARGILL FEED & NUTRITION STERLING.219 RIGHT-OF-WAY RD, STERLING COLORADO 80751 (LOGAN)",0,C,,110000497873
80751XCLCR1500R,-103.193,40.64,False,08,075,966200,08,08075,08075966200,1400000US08075966200,EXCEL CORP,1500 RIGHT OF WAY RD,STERLING,CO,80751,"EXCEL CORP.1500 RIGHT OF WAY RD, STERLING COLORADO 80751 (LOGAN)",0,C,,
80751KGLRLPOBOX,-103.196,40.628,False,08,075,966200,08,08075,08075966200,1400000US08075966200,KUGLER OIL CO - SDF,20313 RIVERSIDE DR,STERLING,CO,80751,"KUGLER OIL CO - SDF.20313 RIVERSIDE DR, STERLING COLORADO 80751 (LOGAN)",0,C,,110000507871
80751STRLN45ANG,-103.191,40.638000000000005,False,08,075,966200,08,08075,08075966200,1400000US08075966200,STERLING ETHANOL LLC,450 ANGUS AVE,STERLING,CO,80751,"STERLING ETHANOL LLC.450 ANGUS AVE, STERLING COLORADO 80751 (LOGAN)",0,C,,110022421912
80829PKVWQ2001B,-104.9,38.861999999999995,False,08,041,006700,08,08041,08041006700,1400000US08041006700,SNYDER QUARRY,2001 BLACK CANYON RD,MANITOU SPRINGS,CO,80829,"SNYDER QUARRY.2001 BLACK CANYON RD, MANITOU SPRINGS COLORADO 80829 (EL PASO)",0,C,,
80901HWLTT1900G,-104.86200000000001,38.897,False,08,041,003708,08,08041,08041003708,1400000US08041003708,KEYSIGHT TECHNOLOGIES (FORMER HEWLETT-PACKARD CO & AGILENT),1900 GARDEN OF THE GODS RD,COLORADO SPRINGS,CO,80907,"KEYSIGHT TECHNOLOGIES (FORMER HEWLETT-PACKARD CO & AGILENT).1900 GARDEN OF THE GODS RD, COLORADO SPRINGS COLORADO 80907 (EL PASO)",0,C,,110056905443
80903DNVRQ621SS,-104.83,38.825,False,08,041,002300,08,08041,08041002300,1400000US08041002300,METSO MINERALS INDUSTRIES INC,621 S SIERRA MADRE ST,COLORADO SPRINGS,CO,80903,"METSO MINERALS INDUSTRIES INC.621 S SIERRA MADRE ST, COLORADO SPRINGS COLORADO 80903 (EL PASO)",0,C,,
80903MRTND700SC,-104.833,38.824,False,08,041,002300,08,08041,08041002300,1400000US08041002300,COLORADO SPRINGS UTILITIES MARTIN DRAKE POWER PLANT,700 S CONEJOS ST,COLORADO SPRINGS,CO,80903,"COLORADO SPRINGS UTILITIES MARTIN DRAKE POWER PLANT.700 S CONEJOS ST, COLORADO SPRINGS COLORADO 80903 (EL PASO)",0,C,,110009559637
80904PKVWQ3820N,-104.875,38.891999999999996,False,08,041,007900,08,08041,08041007900,1400000US08041007900,QUEENS QUARRY,3820 N 30TH ST,COLORADO SPRINGS,CO,80904,"QUEENS QUARRY.3820 N 30TH ST, COLORADO SPRINGS COLORADO 80904 (EL PASO)",1,C,,
80907NTDTC1575G,-104.85700000000001,38.896,False,08,041,007900,08,08041,08041007900,1400000US08041007900,INTEL CORP (F23),1575 GARDEN OF THE GODS RD,COLORADO SPRINGS,CO,80907,"INTEL CORP (F23).1575 GARDEN OF THE GODS RD, COLORADO SPRINGS COLORADO 80907 (EL PASO)",0,C,,110000600252
80907RFLXT4350C,-104.852,38.894,False,08,041,007900,08,08041,08041007900,1400000US08041007900,COBHAM COLORADO SPRINGS,4350 CENTENNIAL BLVD,COLORADO SPRINGS,CO,80907,"COBHAM COLORADO SPRINGS.4350 CENTENNIAL BLVD, COLORADO SPRINGS COLORADO 80907 (EL PASO)",0,C,,110001743720
80906HNYWL1150E,-104.806,38.789,False,08,041,003303,08,08041,08041003303,1400000US08041003303,ATMEL CORP,1150 E CHEYENNE MOUNTAIN BLVD,COLORADO SPRINGS,CO,80906,"ATMEL CORP.1150 E CHEYENNE MOUNTAIN BLVD, COLORADO SPRINGS COLORADO 80906 (EL PASO)",0,C,,110000467673
80906VXCRP2435E,-104.791,38.79,False,08,041,004501,08,08041,08041004501,1400000US08041004501,AVX CORP,2435 EXECUTIVE CIR,COLORADO SPRINGS,CO,80906,"AVX CORP.2435 EXECUTIVE CIR, COLORADO SPRINGS COLORADO 80906 (EL PASO)",1,C,,110002136046
80910STRSS3210A,-104.766,38.782,False,08,041,004501,08,08041,08041004501,1400000US08041004501,STRESSCON/ENCON,3210 ASTROZON BLVD,COLORADO SPRINGS,CO,80910,"STRESSCON/ENCON.3210 ASTROZON BLVD, COLORADO SPRINGS COLORADO 80910 (EL PASO)",0,C,,110001430924
80906LCTRN3025J,-104.791,38.788000000000004,False,08,041,004501,08,08041,08041004501,1400000US08041004501,ELECTRONICS METAL FINISHING CORP,3025 JANITELL RD,COLORADO SPRINGS,CO,80906,"ELECTRONICS METAL FINISHING CORP.3025 JANITELL RD, COLORADO SPRINGS COLORADO 80906 (EL PASO)",0,C,,110000467682
80906NMSCR2150E,-104.788,38.792,False,08,041,004501,08,08041,08041004501,1400000US08041004501,"INMOS CORP, DIV/ SGS-THOMSON MICRO INC",2150 EXECUTIVE CIRCLE,COLORADO SPRINGS,CO,80906,"INMOS CORP, DIV/ SGS-THOMSON MICRO INC.2150 EXECUTIVE CIRCLE, COLORADO SPRINGS COLORADO 80906 (EL PASO)",1,C,,
80907LFRGW3390D,-104.766,38.782,False,08,041,004501,08,08041,08041004501,1400000US08041004501,LAFARGE WEST INC. DRENNAN PLA NT,3390 DRENNAN S INDUSTRIAL,COLORADO SPRINGS,CO,80907,"LAFARGE WEST INC. DRENNAN PLA NT.3390 DRENNAN S INDUSTRIAL, COLORADO SPRINGS COLORADO 80907 (EL PASO)",0,C,,110012702931
8090WRCKYMHWY85,-104.771,38.779,False,08,041,004501,08,08041,08041004501,1400000US08041004501,MARTIN MARIETTA - HWY 85 FACILITY,3895 WABASH ST,COLORADO SPRINGS,CO,80906,"MARTIN MARIETTA - HWY 85 FACILITY.3895 WABASH ST, COLORADO SPRINGS COLORADO 80906 (EL PASO)",0,C,,110038628027
8091WBSLTC3255D,-104.77,38.782,False,08,041,004501,08,08041,08041004501,1400000US08041004501,BASALITE CONCRETE PRODUCTS LLC,3255 DRENNAN RD,COLORADO SPRINGS,CO,80910,"BASALITE CONCRETE PRODUCTS LLC.3255 DRENNAN RD, COLORADO SPRINGS COLORADO 80910 (EL PASO)",0,C,,110070244786
80907CRRNT3525N,-104.816,38.881,False,08,041,000302,08,08041,08041000302,1400000US08041000302,CURRENT INC,3525 N STONE,COLORADO SPRINGS,CO,80907,"CURRENT INC.3525 N STONE, COLORADO SPRINGS COLORADO 80907 (EL PASO)",0,C,,
80907MNDST3200N,-104.819,38.878,False,08,041,000302,08,08041,08041000302,1400000US08041000302,AMI INDUSTRIES INC,3200 N NEVADA AVE,COLORADO SPRINGS,CO,80907,"AMI INDUSTRIES INC.3200 N NEVADA AVE, COLORADO SPRINGS COLORADO 80907 (EL PASO)",1,C,,
80907MXCRM3020N,-104.816,38.875,False,08,041,000302,08,08041,08041000302,1400000US08041000302,MAXCOR MANUFACTURING INC,3020 N STONE AVE,COLORADO SPRINGS,CO,809075304,"MAXCOR MANUFACTURING INC.3020 N STONE AVE, COLORADO SPRINGS COLORADO 80907 (EL PASO)",0,C,,
80907RTHNS4045S,-104.833,38.889,False,08,041,000302,08,08041,08041000302,1400000US08041000302,IRATHANE SYSTEMS INC,4045 SINTON RD,COLORADO SPRINGS,CO,80907,"IRATHANE SYSTEMS INC.4045 SINTON RD, COLORADO SPRINGS COLORADO 80907 (EL PASO)",0,C,,
80907SNTND3801N,-104.833,38.885999999999996,False,08,041,000302,08,08041,08041000302,1400000US08041000302,LALA BRANDED PRODUCTS - SINTON DAIRY FOODS CO,3801 N SINTON RD,COLORADO SPRINGS,CO,80907,"LALA BRANDED PRODUCTS - SINTON DAIRY FOODS CO.3801 N SINTON RD, COLORADO SPRINGS COLORADO 80907 (EL PASO)",0,C,,110000467726
80907TRWLC3650N,-104.819,38.884,False,08,041,000302,08,08041,08041000302,1400000US08041000302,TRW INC ELECTRONIC PRODUCTS INC,3650 N NEVADA AVE,COLORADO SPRINGS,CO,80907,"TRW INC ELECTRONIC PRODUCTS INC.3650 N NEVADA AVE, COLORADO SPRINGS COLORADO 80907 (EL PASO)",0,C,,
80907VSNRN3525N,-104.823,38.882,False,08,041,000302,08,08041,08041000302,1400000US08041000302,VISIONEERING INDUSTRIES INC (DBA ROCKY MT METAL FINISHER),3525 N CASCADE AVE,COLORADO SPRINGS,CO,809075211,"VISIONEERING INDUSTRIES INC (DBA ROCKY MT METAL FINISHER).3525 N CASCADE AVE, COLORADO SPRINGS COLORADO 80907 (EL PASO)",0,C,,
80907CLLLR3407N,-104.81299999999999,38.883,False,08,041,000302,08,08041,08041000302,1400000US08041000302,CELLULAR PRODUCT SERVICES INC,3407 NORTH EL PASO,COLORADO SPRINGS,CO,809075420,"CELLULAR PRODUCT SERVICES INC.3407 NORTH EL PASO, COLORADO SPRINGS COLORADO 80907 (EL PASO)",0,C,,
80918SPRNG4829N,-104.82600000000001,38.902,False,08,041,000302,08,08041,08041000302,1400000US08041000302,"SPRINGFIELD PLATING, & ANODIZING",4829 NORTHPARK DR,COLORADO SPRINGS,CO,80918,"SPRINGFIELD PLATING, & ANODIZING.4829 NORTHPARK DR, COLORADO SPRINGS COLORADO 80918 (EL PASO)",0,C,,
80907MXCRM4230N,-104.82799999999999,38.891999999999996,False,08,041,000302,08,08041,08041000302,1400000US08041000302,QUALTEK MANUFACTURING INC,4230 N NEVADA AVE,COLORADO SPRINGS,CO,80907,"QUALTEK MANUFACTURING INC.4230 N NEVADA AVE, COLORADO SPRINGS COLORADO 80907 (EL PASO)",0,C,,110000467708
80933PPSCL3605N,-104.816,38.883,False,08,041,000302,08,08041,08041000302,1400000US08041000302,PEPSI-COLA BOTTLING CO,3605 N STONE,COLORADO SPRINGS,CO,80933,"PEPSI-COLA BOTTLING CO.3605 N STONE, COLORADO SPRINGS COLORADO 80933 (EL PASO)",0,C,,
80907MNSTN115TA,-104.824,38.88,False,08,041,000302,08,08041,08041000302,1400000US08041000302,MANSTONE LLC,105 TALAMINE CT,COLORADO SPRINGS,CO,80907,"MANSTONE LLC.105 TALAMINE CT, COLORADO SPRINGS COLORADO 80907 (EL PASO)",0,C,,110001390334
8090WDMNDM355NS,-104.816,38.881,False,08,041,000302,08,08041,08041000302,1400000US08041000302,DIAMOND MATERIALSTECHNOLOGY INC,3505 N. STONE AVE.,COLORADO SPRINGS,CO,80907,"DIAMOND MATERIALSTECHNOLOGY INC.3505 N. STONE AVE., COLORADO SPRINGS COLORADO 80907 (EL PASO)",0,C,,110041658006
8090WGGRGT3749N,-104.819,38.888000000000005,False,08,041,000302,08,08041,08041000302,1400000US08041000302,AGGREGATE INDUSTRIES WCR INC CS-NORTH READY MIX PLANT,3749 N NEVADA AVE,COLORADO SPRINGS,CO,80907,"AGGREGATE INDUSTRIES WCR INC CS-NORTH READY MIX PLANT.3749 N NEVADA AVE, COLORADO SPRINGS COLORADO 80907 (EL PASO)",0,C,,110001430853
80907DGTLQ4755F,-104.84100000000001,38.9,False,08,041,003709,08,08041,08041003709,1400000US08041003709,DIGITAL EQUIPMENT CORP,4755 FORGE RD,COLORADO SPRINGS,CO,809073519,"DIGITAL EQUIPMENT CORP.4755 FORGE RD, COLORADO SPRINGS COLORADO 80907 (EL PASO)",0,C,,
80907RVRCB618WG,-104.836,38.897,False,08,041,003709,08,08041,08041003709,1400000US08041003709,RIVIERA CABINETS INC,618 W GARDEN OF THE GODS RD,COLORADO SPRINGS,CO,809073593,"RIVIERA CABINETS INC.618 W GARDEN OF THE GODS RD, COLORADO SPRINGS COLORADO 80907 (EL PASO)",0,C,,
80907WGNDC850EL,-104.84200000000001,38.900999999999996,False,08,041,003709,08,08041,08041003709,1400000US08041003709,WIGAND CORP,850 ELKTON DR,COLORADO SPRINGS,CO,80907,"WIGAND CORP.850 ELKTON DR, COLORADO SPRINGS COLORADO 80907 (EL PASO)",0,C,,
80907WSTRN4607F,-104.84100000000001,38.899,False,08,041,003709,08,08041,08041003709,1400000US08041003709,WESTERN FORGE CORP,4607 FORGE RD,COLORADO SPRINGS,CO,80907,"WESTERN FORGE CORP.4607 FORGE RD, COLORADO SPRINGS COLORADO 80907 (EL PASO)",0,C,,110000467735
80919DGTLQ301RO,-104.831,38.915,False,08,041,003709,08,08041,08041003709,1400000US08041003709,DIGITAL EQUIPMENT CORP,301 ROCKRIMMON BLVD S,COLORADO SPRINGS,CO,809192398,"DIGITAL EQUIPMENT CORP.301 ROCKRIMMON BLVD S, COLORADO SPRINGS COLORADO 80919 (EL PASO)",0,C,,
80919SCMNF4835C,-104.855,38.902,False,08,041,003709,08,08041,08041003709,1400000US08041003709,SCI SYS INC,4835 CENTENNIAL BLVD,COLORADO SPRINGS,CO,809193308,"SCI SYS INC.4835 CENTENNIAL BLVD, COLORADO SPRINGS COLORADO 80919 (EL PASO)",0,C,,
80907RBMPR720GA,-104.839,38.897,False,08,041,003709,08,08041,08041003709,1400000US08041003709,RBM PRECISION METAL PRODUCTS INC,720 GARDEN OF THE GODS RD,COLORADO SPRINGS,CO,809073506,"RBM PRECISION METAL PRODUCTS INC.720 GARDEN OF THE GODS RD, COLORADO SPRINGS COLORADO 80907 (EL PASO)",0,C,,
80907LTTND425EF,-104.81299999999999,38.874,False,08,041,000400,08,08041,08041000400,1400000US08041000400,LITTON DATA SYSTEMS,425 E FILLMORE ST,COLORADO SPRINGS,CO,809076390,"LITTON DATA SYSTEMS.425 E FILLMORE ST, COLORADO SPRINGS COLORADO 80907 (EL PASO)",1,C,,
80907PKTLG4205H,-104.81700000000001,38.891999999999996,False,08,041,000203,08,08041,08041000203,1400000US08041000203,PIKE TOOL & GRINDING INC,4205 HIGH COUNTRY RD,COLORADO SPRINGS,CO,80907,"PIKE TOOL & GRINDING INC.4205 HIGH COUNTRY RD, COLORADO SPRINGS COLORADO 80907 (EL PASO)",0,C,,
80907PNRMN3410N,-104.811,38.884,False,08,041,000301,08,08041,08041000301,1400000US08041000301,PIONEER MANUFACTURING CO.,3410 N PROSPECT ST,COLORADO SPRINGS,CO,80907,"PIONEER MANUFACTURING CO..3410 N PROSPECT ST, COLORADO SPRINGS COLORADO 80907 (EL PASO)",0,C,,110002136064
80911GLPCH3820S,-104.73899999999999,38.775999999999996,False,08,041,004502,08,08041,08041004502,1400000US08041004502,EAGLE-PICHER TECHNOLOGIES LLC,3820 S HANCOCK EXPRESSWAY,COLORADO SPRINGS,CO,80911,"EAGLE-PICHER TECHNOLOGIES LLC.3820 S HANCOCK EXPRESSWAY, COLORADO SPRINGS COLORADO 80911 (EL PASO)",0,C,,
80911SCHLG3899H,-104.73899999999999,38.775999999999996,False,08,041,004502,08,08041,08041004502,1400000US08041004502,SCHLAGE LOCK CO LLC,3899 HANCOCK EXPRESSWAY,SECURITY,CO,80911,"SCHLAGE LOCK CO LLC.3899 HANCOCK EXPRESSWAY, SECURITY COLORADO 80911 (EL PASO)",0,C,,110000467753
80915LTTND2460W,-104.71799999999999,38.867,False,08,041,005000,08,08041,08041005000,1400000US08041005000,LITTON DATA SYSTEMS,2460 WAYNOKA PL,COLORADO SPRINGS,CO,80915,"LITTON DATA SYSTEMS.2460 WAYNOKA PL, COLORADO SPRINGS COLORADO 80915 (EL PASO)",0,C,,
80915NTDBL6035G,-104.714,38.846,False,08,041,005000,08,08041,08041005000,1400000US08041005000,DYNAMIC DETAILS INC,6035 GALLERY RD,COLORADO SPRINGS,CO,80915,"DYNAMIC DETAILS INC.6035 GALLERY RD, COLORADO SPRINGS COLORADO 80915 (EL PASO)",0,C,,
80915MPXCR600WO,-104.73899999999999,38.842,False,08,041,006000,08,08041,08041006000,1400000US08041006000,AMPEX CORP RSD,600 WOOTEN RD,COLORADO SPRINGS,CO,80915,"AMPEX CORP RSD.600 WOOTEN RD, COLORADO SPRINGS COLORADO 80915 (EL PASO)",0,C,,
80915CMPTR5015E,-104.73899999999999,38.843,False,08,041,006000,08,08041,08041006000,1400000US08041006000,COMPTRONIX CORP,725 WOOTEN RD,COLORADO SPRINGS,CO,809153517,"COMPTRONIX CORP.725 WOOTEN RD, COLORADO SPRINGS COLORADO 80915 (EL PASO)",1,C,,
80915CLRDS835EM,-104.74600000000001,38.845,False,08,041,006000,08,08041,08041006000,1400000US08041006000,COLORADO SINTERED METALS INC,835 EMORY CIR,COLORADO SPRINGS,CO,80915,"COLORADO SINTERED METALS INC.835 EMORY CIR, COLORADO SPRINGS COLORADO 80915 (EL PASO)",0,C,,
80916NCRMD1635A,-104.734,38.81,False,08,041,006301,08,08041,08041006301,1400000US08041006301,DPIX LLC,1635 AEROPLAZA DR,COLORADO SPRINGS,CO,80916,"DPIX LLC.1635 AEROPLAZA DR, COLORADO SPRINGS COLORADO 80916 (EL PASO)",0,C,,110000467780
80916NRTND1225A,-104.73200000000001,38.815,False,08,041,006301,08,08041,08041006301,1400000US08041006301,NORTON ADVANCED CERAMICS,1225 AEROP PLAZA DR,COLORADO SPRINGS,CO,80916,"NORTON ADVANCED CERAMICS.1225 AEROP PLAZA DR, COLORADO SPRINGS COLORADO 80916 (EL PASO)",0,C,,
80919PKVWQ7250A,-104.881,38.935,False,08,041,003707,08,08041,08041003707,1400000US08041003707,PIKE VIEW QUARRY,7250 ALLEGHENY,COLORADO SPRINGS,CO,80919,"PIKE VIEW QUARRY.7250 ALLEGHENY, COLORADO SPRINGS COLORADO 80919 (EL PASO)",0,C,,
80919TXSNS5825M,-104.821,38.919000000000004,False,08,041,003705,08,08041,08041003705,1400000US08041003705,"TEXAS INSTRUMENTS INC, COLORADO SPRINGS",5825 MARK DABLING BLVD,COLORADO SPRINGS,CO,80919,"TEXAS INSTRUMENTS INC, COLORADO SPRINGS.5825 MARK DABLING BLVD, COLORADO SPRINGS COLORADO 80919 (EL PASO)",1,C,,
81001NSYSM15WIL,-104.509,38.28,False,08,101,003600,08,08101,08101003600,1400000US08101003600,UNISYS MANUFACTURING & MATERIAL CENTER OPERATIONS,1 & 5 WILLIAM WHITE BLVD,PUEBLO,CO,81001,"UNISYS MANUFACTURING & MATERIAL CENTER OPERATIONS.1 & 5 WILLIAM WHITE BLVD, PUEBLO COLORADO 81001 (PUEBLO)",0,C,,
81001SMMTP13THE,-104.556,38.281,False,08,101,003600,08,08101,08101003600,1400000US08101003600,SUMMIT PRESSED BRICK & TILE CO,601 E 13TH ST,PUEBLO,CO,81001,"SUMMIT PRESSED BRICK & TILE CO.601 E 13TH ST, PUEBLO COLORADO 81001 (PUEBLO)",0,C,,110010291692
81001TRNCX101WI,-104.51700000000001,38.279,False,08,101,003600,08,08101,08101003600,1400000US08101003600,TRANE CO,101 WILLIAM WHITE BLVD,PUEBLO,CO,81001,"TRANE CO.101 WILLIAM WHITE BLVD, PUEBLO COLORADO 81001 (PUEBLO)",0,C,,110000467815
81001KSRSP110WI,-104.51700000000001,38.279,False,08,101,003600,08,08101,08101003600,1400000US08101003600,KAISER SPACE PRODUCTS,110 WILLIAM WHITE BLVD,PUEBLO,CO,81001,"KAISER SPACE PRODUCTS.110 WILLIAM WHITE BLVD, PUEBLO COLORADO 81001 (PUEBLO)",0,C,,
81001THPRY33163,-104.484,38.28,False,08,101,003600,08,08101,08101003600,1400000US08101003600,PRYOR-GIGGEY CO,33163 BRANIFF,PUEBLO,CO,81001,"PRYOR-GIGGEY CO.33163 BRANIFF, PUEBLO COLORADO 81001 (PUEBLO)",0,C,,
81001BFGDR50WIL,-104.515,38.279,False,08,101,003600,08,08101,08101003600,1400000US08101003600,GOODRICH CARBON OPERATIONS,50 WILLIAM WHITE BLVD,PUEBLO,CO,81001,"GOODRICH CARBON OPERATIONS.50 WILLIAM WHITE BLVD, PUEBLO COLORADO 81001 (PUEBLO)",0,C,,110041165093
81001FLXBL33625,-104.49799999999999,38.275999999999996,False,08,101,003600,08,08101,08101003600,1400000US08101003600,FLEXIBLE FOAM PRODUCTS INC.,33625 UNITED AVE,PUEBLO,CO,81001,"FLEXIBLE FOAM PRODUCTS INC..33625 UNITED AVE, PUEBLO COLORADO 81001 (PUEBLO)",0,C,,110001402170
81001SHLND250WI,-104.524,38.277,False,08,101,003600,08,08101,08101003600,1400000US08101003600,KMG ELECTRONIC CHEMICALS INC,250 WILLIAM WHITE BLVD,PUEBLO,CO,81001,"KMG ELECTRONIC CHEMICALS INC.250 WILLIAM WHITE BLVD, PUEBLO COLORADO 81001 (PUEBLO)",0,C,,110043786356
81001DNPTC1DANE,-104.475,38.28,False,08,101,003600,08,08101,08101003600,1400000US08101003600,MARS PETCARE US INC.,1 DOANE PL,PUEBLO,CO,81001,"MARS PETCARE US INC..1 DOANE PL, PUEBLO COLORADO 81001 (PUEBLO)",0,C,,110001390842
81001LDRDS33645,-104.49799999999999,38.275999999999996,False,08,101,003600,08,08101,08101003600,1400000US08101003600,ELDORADO STONE LLC - PUEBLO FACILITY,33645 UNITED AVE,PUEBLO,CO,81001,"ELDORADO STONE LLC - PUEBLO FACILITY.33645 UNITED AVE, PUEBLO COLORADO 81001 (PUEBLO)",0,C,,110018912211
8100WNLSTL319LC,-104.48299999999999,38.28,False,08,101,003600,08,08101,08101003600,1400000US08101003600,O'NEAL MANUFACTURING SERVICES,319 LOCKHEED ST,PUEBLO,CO,81001,"O'NEAL MANUFACTURING SERVICES.319 LOCKHEED ST, PUEBLO COLORADO 81001 (PUEBLO)",0,C,,110043671256
8100WSRMYP45825,-104.32799999999999,38.32,False,08,101,003600,08,08101,08101003600,1400000US08101003600,US ARMY PUEBLO CHEMICAL DEPOT,"45825 HWY 96 E.  ATTN: EMO, BLDG 49N",PUEBLO,CO,81006,"US ARMY PUEBLO CHEMICAL DEPOT.45825 HWY 96 E.  ATTN: EMO, BLDG 49N, PUEBLO COLORADO 81006 (PUEBLO)",0,F,,110000912665
81002BCRLC2300S,-104.61200000000001,38.229,False,08,101,003103,08,08101,08101003103,1400000US08101003103,ABC-NACO,2300 S FWY,PUEBLO,CO,81004,"ABC-NACO.2300 S FWY, PUEBLO COLORADO 81004 (PUEBLO)",0,C,,
81004CFSTL225CA,-104.60700000000001,38.233000000000004,False,08,101,003103,08,08101,08101003103,1400000US08101003103,EVRAZ ROCKY MOUNTAIN STEEL,2100 S FWY,PUEBLO,CO,81004,"EVRAZ ROCKY MOUNTAIN STEEL.2100 S FWY, PUEBLO COLORADO 81004 (PUEBLO)",0,C,,110000467833
81004PPSCL1900S,-104.613,38.233000000000004,False,08,101,003103,08,08101,08101003103,1400000US08101003103,PEPSI-COLA BOTTLING CO,1900 S FREEWAY,PUEBLO,CO,81004,"PEPSI-COLA BOTTLING CO.1900 S FREEWAY, PUEBLO COLORADO 81004 (PUEBLO)",0,C,,
81004DVSWR2100S,-104.613,38.231,False,08,101,003103,08,08101,08101003103,1400000US08101003103,DAVIS WIRE PUEBLO LLC,2100 S FWY BLDG 14,PUEBLO,CO,81004,"DAVIS WIRE PUEBLO LLC.2100 S FWY BLDG 14, PUEBLO COLORADO 81004 (PUEBLO)",1,C,,110050071415
81006MSSNF2110S,-104.572,38.246,False,08,101,003103,08,08101,08101003103,1400000US08101003103,MISSION FOODS PUEBLO,2110 SANTA FE DR,PUEBLO,CO,81006,"MISSION FOODS PUEBLO.2110 SANTA FE DR, PUEBLO COLORADO 81006 (PUEBLO)",0,C,,
81002HRSHC11HAR,-104.601,38.24,False,08,101,003103,08,08101,08101003103,1400000US08101003103,HARSCO METALS - PUEBLO,1100 HARLEM CO ROCKY MOUNTAIN STEEL,PUEBLO,CO,81002,"HARSCO METALS - PUEBLO.1100 HARLEM CO ROCKY MOUNTAIN STEEL, PUEBLO COLORADO 81002 (PUEBLO)",0,C,,110038034132
81052FBRGL800ST,-102.609,38.1,False,08,099,000200,08,08099,08099000200,1400000US08099000200,SUTRAK,800 STONE TREE DR,LAMAR,CO,81052,"SUTRAK.800 STONE TREE DR, LAMAR COLORADO 81052 (PROWERS)",0,C,,110000467888
81052RNCHM700EA,-102.611,38.099000000000004,False,08,099,000200,08,08099,08099000200,1400000US08099000200,DRAGON ESP LLC,700 AVENIDA COLONIA,LAMAR,CO,81052,"DRAGON ESP LLC.700 AVENIDA COLONIA, LAMAR COLORADO 81052 (PROWERS)",0,C,,110057858876
81052NPLNS700GO,-102.611,38.096,False,08,099,000200,08,08099,08099000200,1400000US08099000200,NEOPLAN USA CORP,700 GOTTLOB AUWAERTER DR,LAMAR,CO,81052,"NEOPLAN USA CORP.700 GOTTLOB AUWAERTER DR, LAMAR COLORADO 81052 (PROWERS)",0,C,,
81052CFMRC500EC,-102.613,38.101,False,08,099,000200,08,08099,08099000200,1400000US08099000200,CF MAIER COMPOSITES INC,500 E CRYSTAL ST,LAMAR,CO,81052,"CF MAIER COMPOSITES INC.500 E CRYSTAL ST, LAMAR COLORADO 81052 (PROWERS)",0,C,,110000467879
81067FRZNF20094,-103.729,37.954,False,08,089,968200,08,08089,08089968200,1400000US08089968200,FROZEN FOODS INC,20094 HWY 50 E,ROCKY FORD,CO,81067,"FROZEN FOODS INC.20094 HWY 50 E, ROCKY FORD COLORADO 81067 (OTERO)",0,C,,
81144STLYM1001N,-106.094,37.586999999999996,False,08,105,977000,08,00000,08105977000,1400000US08105977000,A E STALEY MANUFACTURING CO,1001 N RD 3 E,MONTE VISTA,CO,81144,"A E STALEY MANUFACTURING CO.1001 N RD 3 E, MONTE VISTA COLORADO 81144 (RIO GRANDE MUNICIPIO)",0,C,,
81132SPFNDSUMMI,-106.585,37.43,False,08,105,977000,08,00000,08105977000,1400000US08105977000,US EPA FUND-LEAD SUPERFUND SITE/SUMMITVILLE MINE,SUMMITVILLE,SUMMITVILLE,CO,811329714,"US EPA FUND-LEAD SUPERFUND SITE/SUMMITVILLE MINE.SUMMITVILLE, SUMMITVILLE COLORADO 81132 (RIO GRANDE MUNICIPIO)",0,F,,
81144WLBRL271ER,-106.1,37.561,False,08,105,977000,08,00000,08105977000,1400000US08105977000,WILBUR-ELLIS CO,2701 E RD 1 S,MONTE VISTA,CO,81144,"WILBUR-ELLIS CO.2701 E RD 1 S, MONTE VISTA COLORADO 81144 (RIO GRANDE MUNICIPIO)",0,C,,110038229592
81201CZNCN100WL,-106.021,38.549,False,08,015,000200,08,08015,08015000200,1400000US08015000200,COZINCO INC,100 W ZINC ST,SALIDA,CO,81201,"COZINCO INC.100 W ZINC ST, SALIDA COLORADO 81201 (CHAFFEE)",0,C,,
81212CLRDR309SO,-105.23100000000001,38.441,False,08,043,978600,08,08043,08043978600,1400000US08043978600,PREMIER REFRACTORIES INC,309 SOUTH 11TH ST,CANON CITY,CO,81212,"PREMIER REFRACTORIES INC.309 SOUTH 11TH ST, CANON CITY COLORADO 81212 (FREMONT)",0,C,,
81212DFCCR515SO,-105.23200000000001,38.439,False,08,043,978800,08,08043,08043978800,1400000US08043978800,DFC CERAMICS  INC,515 S 9TH ST,CANON CITY,CO,81212,"DFC CERAMICS  INC.515 S 9TH ST, CANON CITY COLORADO 81212 (FREMONT)",0,C,,
81226DMTRNPOBOX,-105.02600000000001,38.391999999999996,False,08,043,979400,08,08043,08043979400,1400000US08043979400,DOMTAR GYPSUM,1173 STATE HWY 120,FLORENCE,CO,81226,"DOMTAR GYPSUM.1173 STATE HWY 120, FLORENCE COLORADO 81226 (FREMONT)",1,C,,
81226HLNMN3500S,-105.039,38.387,False,08,043,979400,08,08043,08043979400,1400000US08043979400,HOLCIM (US) INC PORTLAND PLANT,3500 STATE HWY 120,FLORENCE,CO,81226,"HOLCIM (US) INC PORTLAND PLANT.3500 STATE HWY 120, FLORENCE COLORADO 81226 (FREMONT)",0,C,,110000600289
81416WSTRN1454H,-108.09100000000001,38.763000000000005,False,08,029,964800,08,08029,08029964800,1400000US08029964800,WESTERN TANNING INC,1454 HWY 50,DELTA,CO,81416,"WESTERN TANNING INC.1454 HWY 50, DELTA COLORADO 81416 (DELTA)",0,C,,
81501CSTNG8604T,-108.56,39.059,False,08,077,000800,08,08077,08077000800,1400000US08077000800,CASTINGS INC,860 4TH AVE,GRAND JUNCTION,CO,81501,"CASTINGS INC.860 4TH AVE, GRAND JUNCTION COLORADO 81501 (MESA)",0,C,,
81501GRNDJ11013,-108.554,39.06,False,08,077,000800,08,08077,08077000800,1400000US08077000800,GRAND JUNCTION STEEL LLC,1101 3RD AVE,GRAND JUNCTION,CO,81501,"GRAND JUNCTION STEEL LLC.1101 3RD AVE, GRAND JUNCTION COLORADO 81501 (MESA)",1,C,,110000467940
81501PBDYB610S1,-108.552,39.062,False,08,077,000800,08,08077,08077000800,1400000US08077000800,ABC INDUSTRIES INC,610 S 12TH ST,GRAND JUNCTION,CO,81501,"ABC INDUSTRIES INC.610 S 12TH ST, GRAND JUNCTION COLORADO 81501 (MESA)",0,C,,110000467968
81502CLTTN1440W,-108.54799999999999,39.058,False,08,077,000800,08,08077,08077000800,1400000US08077000800,CELTITE TECHNIK,1440 WINTERS AVE,GRAND JUNCTION,CO,81502,"CELTITE TECHNIK.1440 WINTERS AVE, GRAND JUNCTION COLORADO 81502 (MESA)",1,C,,
81501LXRYW1440W,-108.54899999999999,39.059,False,08,077,000800,08,08077,08077000800,1400000US08077000800,LUXURY WHEELS OE PLATING,1440 WINTERS AVE,GRAND JUNCTION,CO,81501,"LUXURY WHEELS OE PLATING.1440 WINTERS AVE, GRAND JUNCTION COLORADO 81501 (MESA)",0,C,,110000467959
81501SFTYK368BO,-108.544,39.059,False,08,077,000800,08,08077,08077000800,1400000US08077000800,SAFETY-KLEEN SYS (605201),368 BONNY,GRAND JUNCTION,CO,81501,"SAFETY-KLEEN SYS (605201).368 BONNY, GRAND JUNCTION COLORADO 81501 (MESA)",0,C,,
81501CPCNC1328W,-108.55,39.058,False,08,077,000800,08,08077,08077000800,1400000US08077000800,CAPCO LLC,1328 WINTERS AVE,GRAND JUNCTION,CO,81501,"CAPCO LLC.1328 WINTERS AVE, GRAND JUNCTION COLORADO 81501 (MESA)",0,C,,110001728275
81503CLRDC56924,-108.604,39.086999999999996,False,08,077,000900,08,08077,08077000900,1400000US08077000900,TOTAL PETROCHEMICALS & REFINING USA INC (TOTAL CRAY VALLEY),569  24 1/4  RD,GRAND JUNCTION,CO,81505,"TOTAL PETROCHEMICALS & REFINING USA INC (TOTAL CRAY VALLEY).569  24 1/4  RD, GRAND JUNCTION COLORADO 81505 (MESA)",0,C,,110007237533
81505CRSCR2449R,-108.598,39.083,False,08,077,000900,08,08077,08077000900,1400000US08077000900,COORSTEK,2449 RIVERSIDE PARKWAY,GRAND JUNCTION,CO,815051383,"COORSTEK.2449 RIVERSIDE PARKWAY, GRAND JUNCTION COLORADO 81505 (MESA)",0,C,,110000467995
81505CLTTT2306H,-108.625,39.098,False,08,077,000900,08,08077,08077000900,1400000US08077000900,MINOVA USA INC,2306 HWY 6 & 50,GRAND JUNCTION,CO,81505,"MINOVA USA INC.2306 HWY 6 & 50, GRAND JUNCTION COLORADO 81505 (MESA)",0,C,,110000600298
81505GRNDJ680RA,-108.637,39.104,False,08,077,000900,08,08077,08077000900,1400000US08077000900,GRAND JUNCTION REFINED PRODUCTS TERMINAL,680 RAILROAD BLVD,GRAND JUNCTION,CO,81505,"GRAND JUNCTION REFINED PRODUCTS TERMINAL.680 RAILROAD BLVD, GRAND JUNCTION COLORADO 81505 (MESA)",0,C,,
81501KCHPR202FO,-108.568,39.059,False,08,077,000900,08,08077,08077000900,1400000US08077000900,"SEMMATERIALS, L.P. - GRAND JUNCTION CO",202 FOURTH AVE,GRAND JUNCTION,CO,81501,"SEMMATERIALS, L.P. - GRAND JUNCTION CO.202 FOURTH AVE, GRAND JUNCTION COLORADO 81501 (MESA)",0,C,,110001399898
81505WHTCP2382L,-108.611,39.097,False,08,077,000900,08,08077,08077000900,1400000US08077000900,HD SUPPLY CONSTRUCTION SUPPLY LTD (CO025-6143),2382 LELAND AVE,GRAND JUNCTION,CO,81505,"HD SUPPLY CONSTRUCTION SUPPLY LTD (CO025-6143).2382 LELAND AVE, GRAND JUNCTION COLORADO 81505 (MESA)",0,C,,110018871540
81503LDCST2273R,-108.633,39.103,False,08,077,000900,08,08077,08077000900,1400000US08077000900,OLDCASTLE SW GROUP INC (DBA UNITED COS)READY MIX,2273 RIVER RD,GRAND JUNCTION,CO,81503,"OLDCASTLE SW GROUP INC (DBA UNITED COS)READY MIX.2273 RIVER RD, GRAND JUNCTION COLORADO 81503 (MESA)",0,C,,110001723724
8150WMLTCH73123,-108.62299999999999,39.111,False,08,077,000900,08,08077,08077000900,1400000US08077000900,MULTI-CHEM GROUP GRAND JUNCTION CO FACILITY,731 23 1/4 ROAD BLG B,GRAND JUNCTION,CO,81501,"MULTI-CHEM GROUP GRAND JUNCTION CO FACILITY.731 23 1/4 ROAD BLG B, GRAND JUNCTION COLORADO 81501 (MESA)",0,C,,110045534409
8150WSNCRN223RA,-108.641,39.105,False,08,077,000900,08,08077,08077000900,1400000US08077000900,"SUNCOR ENERGY U.S.A, INC. - GRAND JUNCTION PRODUCTS TERMINAL",2230 RAILROAD AVENUE,GRAND JUNCTION,CO,81505,"SUNCOR ENERGY U.S.A, INC. - GRAND JUNCTION PRODUCTS TERMINAL.2230 RAILROAD AVENUE, GRAND JUNCTION COLORADO 81505 (MESA)",0,C,,110014461064
8150WFRTRR2311R,-108.625,39.099000000000004,False,08,077,000900,08,08077,08077000900,1400000US08077000900,FORTERRA PRECAST CONCEPTS INC,2311 RIVER RD,GRAND JUNCTION,CO,81505,"FORTERRA PRECAST CONCEPTS INC.2311 RIVER RD, GRAND JUNCTION COLORADO 81505 (MESA)",0,C,,110070071329
8150WLMRLN2353R,-108.615,39.094,False,08,077,000900,08,08077,08077000900,1400000US08077000900,ELAM ROLAND HMA PLANT,2353 RIVER RD,GRAND JUNCTION,CO,81505,"ELAM ROLAND HMA PLANT.2353 RIVER RD, GRAND JUNCTION COLORADO 81505 (MESA)",0,C,,110070247454
81506SNDST2800S,-108.535,39.117,False,08,077,001600,08,08077,08077001600,1400000US08077001600,HAMILTON SUNDSTRAND,2800 SUNDSTRAND AVE,GRAND JUNCTION,CO,81506,"HAMILTON SUNDSTRAND.2800 SUNDSTRAND AVE, GRAND JUNCTION COLORADO 81506 (MESA)",0,C,,110001720308
80215SBRFL2850Y,-108.539,39.128,False,08,077,001600,08,08077,08077001600,1400000US08077001600,US BLM GRAND JUNCTION AIR CENTER,2774 LANDING VIEW LN,GRAND JUNCTION,CO,81506,"US BLM GRAND JUNCTION AIR CENTER.2774 LANDING VIEW LN, GRAND JUNCTION COLORADO 81506 (MESA)",0,C,,
81521PBCMN11101,-108.757,39.169000000000004,False,08,077,001502,08,08077,08077001502,1400000US08077001502,PABCO,1110 16TH RD,FRUITA,CO,815212031,"PABCO.1110 16TH RD, FRUITA COLORADO 81521 (MESA)",0,C,,
81521WSTRN1193H,-108.694,39.135999999999996,False,08,077,001502,08,08077,08077001502,1400000US08077001502,WESTERN SLOPE REFINING CO,1193 HWY 6 & 50,FRUITA,CO,81521,"WESTERN SLOPE REFINING CO.1193 HWY 6 & 50, FRUITA COLORADO 81521 (MESA)",1,C,,
81521LNDMR1493H,-108.79799999999999,39.176,False,08,077,001502,08,08077,08077001502,1400000US08077001502,LANDMARK PETROLEUM INC,1493 HWY 6 & 50,FRUITA,CO,81521,"LANDMARK PETROLEUM INC.1493 HWY 6 & 50, FRUITA COLORADO 81521 (MESA)",0,C,,
81635NCLPR2717C,-108.113,39.491,False,08,045,952100,08,08045,08045952100,1400000US08045952100,UNOCAL CORP PARACHUTE CREEK SHALE OIL,10735 COUNTY RD 215,PARACHUTE,CO,81635,"UNOCAL CORP PARACHUTE CREEK SHALE OIL.10735 COUNTY RD 215, PARACHUTE COLORADO 81635 (GARFIELD)",0,C,,
80010DWCHM3555M,-104.855,39.766999999999996,False,08,001,008200,08,08001,08001008200,1400000US08001008200,DOW CHEMICAL CO DENVER SITE,3555 MOLINE ST,AURORA,CO,80010,"DOW CHEMICAL CO DENVER SITE.3555 MOLINE ST, AURORA COLORADO 80010 (ADAMS)",0,C,,
80010VNCBR3313M,-104.855,39.764,False,08,001,008200,08,08001,08001008200,1400000US08001008200,VANCE BROTHERS INC,3313 MOLINE ST,AURORA,CO,80011,"VANCE BROTHERS INC.3313 MOLINE ST, AURORA COLORADO 80011 (ADAMS)",1,C,,110000466497
80504GGRGT114E3,-104.855,39.764,False,08,001,008200,08,08001,08001008200,1400000US08001008200,AGGREGATE INDUSTRIES WCR INC SAND CREEK READY MIX PLANT,11400 E 33RD AVE,AURORA,CO,80010,"AGGREGATE INDUSTRIES WCR INC SAND CREEK READY MIX PLANT.11400 E 33RD AVE, AURORA COLORADO 80010 (ADAMS)",0,C,,110022411013
8023WFRTLY11645,-104.854,39.768,False,08,001,008200,08,08031,08001008200,1400000US08001008200,FRITO-LAY INC DENVER,11645 E 37TH AVE,DENVER,CO,80239,"FRITO-LAY INC DENVER.11645 E 37TH AVE, DENVER COLORADO 80239 (DENVER)",0,C,,110001427858
80011SLVRN14800,-104.814,39.763000000000005,False,08,001,008308,08,08001,08001008308,1400000US08001008308,SILVER WEIBULL,14800 E MONCRIEFF PL,AURORA,CO,800111211,"SILVER WEIBULL.14800 E MONCRIEFF PL, AURORA COLORADO 80011 (ADAMS)",0,C,,
80011BNKMS15480,-104.816,39.763000000000005,False,08,001,008308,08,08001,08001008308,1400000US08001008308,BONAKEMI USA INC.,14805 E MONCRIEFF PL.,AURORA,CO,80011,"BONAKEMI USA INC..14805 E MONCRIEFF PL., AURORA COLORADO 80011 (ADAMS)",0,C,,110000466503
80011CTLRH14101,-104.823,39.766999999999996,False,08,001,008308,08,08001,08001008308,1400000US08001008308,EATON ELECTRICAL,14101 E 33RD PL SUITE F,AURORA,CO,80011,"EATON ELECTRICAL.14101 E 33RD PL SUITE F, AURORA COLORADO 80011 (ADAMS)",0,C,,
80011NVRSL14002,-104.824,39.768,False,08,001,008308,08,08001,08001008308,1400000US08001008308,SPG INTERNATIONAL LLC BR #X032 UNIVERSAL BRAND,14002 E 33RD PL,AURORA,CO,80011,"SPG INTERNATIONAL LLC BR #X032 UNIVERSAL BRAND.14002 E 33RD PL, AURORA COLORADO 80011 (ADAMS)",0,C,,110000859722
80011QLNCH15000,-104.814,39.76,False,08,001,008308,08,08001,08001008308,1400000US08001008308,EQUILON CHASE TERMINAL CO AURORA TERMINAL,15000 E SMITH RD,AURORA,CO,80011,"EQUILON CHASE TERMINAL CO AURORA TERMINAL.15000 E SMITH RD, AURORA COLORADO 80011 (ADAMS)",0,C,,
80110DNVRF2829S,-104.99700000000001,39.665,False,08,005,005700,08,08005,08005005700,1400000US08005005700,DENVER FORMS CO,2829 S SANTA FE DR,ENGLEWOOD,CO,80110,"DENVER FORMS CO.2829 S SANTA FE DR, ENGLEWOOD COLORADO 80110 (ARAPAHOE)",0,C,,
80132SYNTH1051S,-104.87,39.073,False,08,041,003701,08,08041,08041003701,1400000US08041003701,DEPUY SYNTHES,1051 SYNTHES AVE,MONUMENT,CO,80132,"DEPUY SYNTHES.1051 SYNTHES AVE, MONUMENT COLORADO 80132 (EL PASO)",0,C,,110000466781
80204CTCHN777UM,-105.012,39.728,False,08,031,001901,08,08031,08031001901,1400000US08031001901,LINCOLN PLATING CO - DENVER CENTRAL,777 UMATILLA ST,DENVER,CO,80204,"LINCOLN PLATING CO - DENVER CENTRAL.777 UMATILLA ST, DENVER COLORADO 80204 (DENVER)",0,C,,
80204LFRGW1151Q,-105.008,39.735,False,08,031,001901,08,08031,08031001901,1400000US08031001901,MARTIN MARIETTA - QUIVAS READY MIX,1151 QUIVAS ST,DENVER,CO,80204,"MARTIN MARIETTA - QUIVAS READY MIX.1151 QUIVAS ST, DENVER COLORADO 80204 (DENVER)",0,C,,110001428848
80204PBLCS1335Z,-105.01700000000001,39.736999999999995,False,08,031,001901,08,08031,08031001901,1400000US08031001901,PUBLIC SERVICE COMPANY OF COLORADO ZUNI STATION,1335 ZUNI ST,DENVER,CO,80204,"PUBLIC SERVICE COMPANY OF COLORADO ZUNI STATION.1335 ZUNI ST, DENVER COLORADO 80204 (DENVER)",0,C,,110000759457
80214LKWDB1325J,-105.064,39.738,False,08,059,011550,08,08059,08059011550,1400000US08059011550,LAKEWOOD BRICK & TILE CO,1325 JAY ST,LAKEWOOD,CO,80214,"LAKEWOOD BRICK & TILE CO.1325 JAY ST, LAKEWOOD COLORADO 80214 (JEFFERSON)",0,C,,110000466889
80214KNNCX6000W,-105.06299999999999,39.736999999999995,False,08,059,011550,08,08059,08059011550,1400000US08059011550,OKON INC,6000 W 13TH AVE,LAKEWOOD,CO,80214,"OKON INC.6000 W 13TH AVE, LAKEWOOD COLORADO 80214 (JEFFERSON)",0,C,,
80222NTNMN5050E,-104.929,39.678000000000004,False,08,031,006901,08,08031,08031006901,1400000US08031006901,ENTENMANN'S INC,5050 E EVANS,DENVER,CO,80222,"ENTENMANN'S INC.5050 E EVANS, DENVER COLORADO 80222 (DENVER)",0,C,,
80403CNTRY6250J,-105.167,39.809,False,08,059,009851,08,08059,08059009851,1400000US08059009851,AMF CENTURY,6250 JOYCE DR,GOLDEN,CO,80403,"AMF CENTURY.6250 JOYCE DR, GOLDEN COLORADO 80403 (JEFFERSON)",0,C,,
80501CCRTP105GA,-105.11,40.162,False,08,013,013302,08,08013,08013013302,1400000US08013013302,ACCURATE PLASTICS INC,105 GAY ST,LONGMONT,CO,80501,"ACCURATE PLASTICS INC.105 GAY ST, LONGMONT COLORADO 80501 (BOULDER)",0,C,,
80501DVTRN1198B,-105.111,40.157,False,08,013,013302,08,08013,08013013302,1400000US08013013302,DOVATRON MANUFACTURING W,1198 BOSTON AVE,LONGMONT,CO,80501,"DOVATRON MANUFACTURING W.1198 BOSTON AVE, LONGMONT COLORADO 80501 (BOULDER)",0,C,,
80550NVRSL15WAL,-104.896,40.478,False,08,123,002205,08,08123,08123002205,1400000US08123002205,UFP WINDSOR LLC,15 WALNUT ST,WINDSOR,CO,80550,"UFP WINDSOR LLC.15 WALNUT ST, WINDSOR COLORADO 80550 (WELD)",0,C,,110000467496
80631MNFRT100NO,-104.69200000000001,40.443000000000005,False,08,123,000600,08,08123,08123000600,1400000US08123000600,SWIFT BEEF CO,800 N 8TH AVE,GREELEY,CO,80631,"SWIFT BEEF CO.800 N 8TH AVE, GREELEY COLORADO 80631 (WELD)",0,C,,110037942616
8063WFLRDC139N1,-104.699,40.449,False,08,123,000600,08,08123,08123000600,1400000US08123000600,FCT COS INC,1309 N 17TH AVE,GREELEY,CO,80631,"FCT COS INC.1309 N 17TH AVE, GREELEY COLORADO 80631 (WELD)",0,C,,110023151088
80920CRRNT7125D,-104.75299999999999,38.937,False,08,041,006902,08,08041,08041006902,1400000US08041006902,CURRENT INC CHECKSTAR,7125 DISC DR,COLORADO SPRINGS,CO,80920,"CURRENT INC CHECKSTAR.7125 DISC DR, COLORADO SPRINGS COLORADO 80920 (EL PASO)",0,C,,
81062FRRBT115SH,-103.755,38.216,False,08,025,969600,08,08025,08025969600,1400000US08025969600,FARR BETTER FEEDS,115 SHERMAN ST,ORDWAY,CO,81062,"FARR BETTER FEEDS.115 SHERMAN ST, ORDWAY COLORADO 81062 (CROWLEY)",0,C,,
81401SMFDB2210L,-107.902,38.499,False,08,085,966300,08,08085,08085966300,1400000US08085966300,SMFI DBA FOUR SEASONS LEISURE PRODS,2210 INDUSTRIAL,MONTROSE,CO,81401,"SMFI DBA FOUR SEASONS LEISURE PRODS.2210 INDUSTRIAL, MONTROSE COLORADO 81401 (MONTROSE)",1,C,,
81401LDCST6316W,-107.90700000000001,38.504,False,08,085,966300,08,08085,08085966300,1400000US08085966300,OLDCASTLE SW GROUP INC DBA (UNITED COS),63160 W LASALLE RD,MONTROSE,CO,81401,"OLDCASTLE SW GROUP INC DBA (UNITED COS).63160 W LASALLE RD, MONTROSE COLORADO 81401 (MONTROSE)",0,C,,110001727016
80403CLMXL6945I,-105.166,39.823,False,08,059,009838,08,08059,08059009838,1400000US08059009838,HONEYWELL GOLDEN OPERATIONS,6945 INDIANA CT,ARVADA,CO,800077577,"HONEYWELL GOLDEN OPERATIONS.6945 INDIANA CT, ARVADA COLORADO 80007 (JEFFERSON)",0,C,,
80007SNDYN14845,-105.167,39.813,False,08,059,009838,08,08059,08059009838,1400000US08059009838,SUNDYNE LLC,14845 W 64TH AVE,ARVADA,CO,80007,"SUNDYNE LLC.14845 W 64TH AVE, ARVADA COLORADO 80007 (JEFFERSON)",0,C,,110001431790
80502LNGMN450FR,-104.82,40.227,False,08,123,001800,08,08123,08123001800,1400000US08123001800,LONGMONT FOODS MILL,450 FRONT ST,LONGMONT,CO,80502,"LONGMONT FOODS MILL.450 FRONT ST, LONGMONT COLORADO 80502 (WELD)",0,C,,
80651BTTRB45NFR,-104.82,40.227,False,08,123,001800,08,08123,08123001800,1400000US08123001800,JD HEISKELL & CO,450N FRONT ST,PLATTEVILLE,CO,80651,"JD HEISKELL & CO.450N FRONT ST, PLATTEVILLE COLORADO 80651 (WELD)",0,C,,110031018262
8065WLDCST427NF,-104.819,40.225,False,08,123,001800,08,08123,08123001800,1400000US08123001800,OLDCASTLE PRECAST INC,427 N. FRONT STREET,PLATTEVILLE,CO,80651,"OLDCASTLE PRECAST INC.427 N. FRONT STREET, PLATTEVILLE COLORADO 80651 (WELD)",0,C,,110039495524
80915XLSNN3445N,-104.678,38.88,False,08,041,005104,08,08041,08041005104,1400000US08041005104,WEATHERFORD ARTIFICIAL LIFT SYSTEMS LLC,3285 CAPITAL DR,COLORADO SPRINGS,CO,80922,"WEATHERFORD ARTIFICIAL LIFT SYSTEMS LLC.3285 CAPITAL DR, COLORADO SPRINGS COLORADO 80922 (EL PASO)",0,C,,110064129704
8090WRCKYM2725C,-104.676,38.871,False,08,041,005104,08,08041,08041005104,1400000US08041005104,MARTIN MARIETTA - CAPITAL FACILITY,2725 CAPITAL DR,COLORADO SPRINGS,CO,80939,"MARTIN MARIETTA - CAPITAL FACILITY.2725 CAPITAL DR, COLORADO SPRINGS COLORADO 80939 (EL PASO)",0,C,,110001966141
81321RCXXX14207,-108.788,37.334,False,08,083,969200,08,08083,08083969200,1400000US08083969200,BOC GASES NO 927,14207 COUNTY RD G,CORTEZ,CO,81321,"BOC GASES NO 927.14207 COUNTY RD G, CORTEZ COLORADO 81321 (MONTEZUMA)",0,C,,
81503PPSCL140PO,-108.588,39.067,False,08,077,001403,08,08077,08077001403,1400000US08077001403,PEPSI-COLA BOTTLING CO,140 POWER RD,GRAND JUNCTION,CO,81503,"PEPSI-COLA BOTTLING CO.140 POWER RD, GRAND JUNCTION COLORADO 81503 (MESA)",0,C,,
80002THSGM6000W,-105.06200000000001,39.794000000000004,False,08,059,010406,08,08059,08059010406,1400000US08059010406,SIGMAN MEAT CO INC,6000 W 54TH AVE,ARVADA,CO,80002,"SIGMAN MEAT CO INC.6000 W 54TH AVE, ARVADA COLORADO 80002 (JEFFERSON)",0,C,,
80002MYMFG5400M,-105.069,39.795,False,08,059,010406,08,08059,08059010406,1400000US08059010406,MAY MFG CO  WASTEQUIP MFG CO,5400 MARSHALL ST,ARVADA,CO,80002,"MAY MFG CO  WASTEQUIP MFG CO.5400 MARSHALL ST, ARVADA COLORADO 80002 (JEFFERSON)",0,C,,
80002FRNTR6155W,-105.065,39.794000000000004,False,08,059,010406,08,08059,08059010406,1400000US08059010406,ADVANCED SURFACE TECHNOLOGIES INC,6155 W 54TH AVE,ARVADA,CO,80002,"ADVANCED SURFACE TECHNOLOGIES INC.6155 W 54TH AVE, ARVADA COLORADO 80002 (JEFFERSON)",0,C,,110001728710
8000WMRTNM54FEN,-105.059,39.798,False,08,059,010406,08,08059,08059010406,1400000US08059010406,MARTIN MARIETTA ARVADA READY MIX,5400 FENTON ST,ARVADA,CO,80002,"MARTIN MARIETTA ARVADA READY MIX.5400 FENTON ST, ARVADA COLORADO 80002 (JEFFERSON)",0,C,,110060260854
80003MRKVQ5981T,-105.044,39.805,False,08,001,009607,08,08001,08001009607,1400000US08001009607,MARK VII EQUIPMENT LLC,5981 TENNYSON ST,ARVADA,CO,80003,"MARK VII EQUIPMENT LLC.5981 TENNYSON ST, ARVADA COLORADO 80003 (ADAMS)",0,C,,
80015DNCXX34501,-104.584,39.639,False,08,005,007103,08,08005,08005007103,1400000US08005007103,OEA INC,34501 E QUINCY AVE,AURORA,CO,80015,"OEA INC.34501 E QUINCY AVE, AURORA COLORADO 80015 (ARAPAHOE)",0,C,,
80125GRCMM8101W,-105.039,39.548,False,08,035,014131,08,08035,08035014131,1400000US08035014131,UOP LLC LITTLETON MEMBRANES,8101 W MIDWAY DR,LITTLETON,CO,80125,"UOP LLC LITTLETON MEMBRANES.8101 W MIDWAY DR, LITTLETON COLORADO 80125 (DOUGLAS)",0,C,,110010304857
80125WSTLN8382W,-105.045,39.56,False,08,035,014131,08,08035,08035014131,1400000US08035014131,OLDCASTLE PRECAST,8382 W RIVERVIEW PKWY,LITTLETON,CO,80125,"OLDCASTLE PRECAST.8382 W RIVERVIEW PKWY, LITTLETON COLORADO 80125 (DOUGLAS)",0,C,,110001132603
80125LFRGW11255,-105.037,39.538000000000004,False,08,035,014131,08,08035,08035014131,1400000US08035014131,LAFARGE PARK-85 READY MIX,11255 DUMONT WAY,LITTLETON,CO,80125,"LAFARGE PARK-85 READY MIX.11255 DUMONT WAY, LITTLETON COLORADO 80125 (DOUGLAS)",0,C,,110012702441
80125RVRVW8420W,-105.046,39.561,False,08,035,014131,08,08035,08035014131,1400000US08035014131,AGGREGATE INDUSTRIES WCR INC RIVERVIEW READY MIX PLANT,8420 W RIVERVIEW PKWY,LITTLETON,CO,80125,"AGGREGATE INDUSTRIES WCR INC RIVERVIEW READY MIX PLANT.8420 W RIVERVIEW PKWY, LITTLETON COLORADO 80125 (DOUGLAS)",0,C,,110009562516
80125LDCST8392R,-105.046,39.561,False,08,035,014131,08,08035,08035014131,1400000US08035014131,OLDCASTLE INFRASTRUCTURE,8392 RIVERVIEW PKWY,LITTLETON,CO,80125,"OLDCASTLE INFRASTRUCTURE.8392 RIVERVIEW PKWY, LITTLETON COLORADO 80125 (DOUGLAS)",0,C,,110041098718
80125BRLBS8227B,-105.041,39.56,False,08,035,014131,08,08035,08035014131,1400000US08035014131,BEST BLOCK DENB,8227 BLAKELAND DR,LITTLETON,CO,80125,"BEST BLOCK DENB.8227 BLAKELAND DR, LITTLETON COLORADO 80125 (DOUGLAS)",0,C,,110002004731
80127SCHLL10100,-105.111,39.558,False,08,059,012057,08,08059,08059012057,1400000US08059012057,JOHNS MANVILLE TECHNICAL CENTER,10100 W UTE AVE,LITTLETON,CO,80127,"JOHNS MANVILLE TECHNICAL CENTER.10100 W UTE AVE, LITTLETON COLORADO 80127 (JEFFERSON)",0,C,,
80204PHNXP1041G,-104.99600000000001,39.733000000000004,False,08,031,001800,08,08031,08031001800,1400000US08031001800,PHOENIX PRESS,1041 GALAPAGO ST,DENVER,CO,80204,"PHOENIX PRESS.1041 GALAPAGO ST, DENVER COLORADO 80204 (DENVER)",0,C,,
80525NNVTV4401I,-105.046,40.525,False,08,069,001008,08,08069,08069001008,1400000US08069001008,INNOVATIVE COMPANIES,4401 INNOVATION DR,FORT COLLINS,CO,80525,"INNOVATIVE COMPANIES.4401 INNOVATION DR, FORT COLLINS COLORADO 80525 (LARIMER)",0,C,,
80525DVNCD4424I,-105.046,40.525,False,08,069,001008,08,08069,08069001008,1400000US08069001008,ADVANCED ENERGY INDUSTRIES,4424 INNOVATION DR,FORT COLLINS,CO,80525,"ADVANCED ENERGY INDUSTRIES.4424 INNOVATION DR, FORT COLLINS COLORADO 80525 (LARIMER)",0,C,,
80530MDMRC7171W,-104.94200000000001,40.105,False,08,123,002016,08,08123,08123002016,1400000US08123002016,MID-AMERICA ENGINEERING & FABRICATION CO,7171 WELD COUNTY RD #13,FREDERICK,CO,80530,"MID-AMERICA ENGINEERING & FABRICATION CO.7171 WELD COUNTY RD #13, FREDERICK COLORADO 80530 (WELD)",0,C,,
80504PRCSN74WEL,-104.92200000000001,40.13,False,08,123,002016,08,08123,08123002016,1400000US08123002016,ARC COLORADO INC,7040 WELD COUNTY RD 20,LONGMONT,CO,80504,"ARC COLORADO INC.7040 WELD COUNTY RD 20, LONGMONT COLORADO 80504 (WELD)",0,C,,110009564998
80642DPCND23500,-104.60799999999999,40.094,False,08,123,002502,08,08123,08123002502,1400000US08123002502,DPC INDUSTRIES INC,I-76 FRONTAGE RD,HUDSON,CO,80642,"DPC INDUSTRIES INC.I-76 FRONTAGE RD, HUDSON COLORADO 80642 (WELD)",0,C,,110000467619
80642CHMCLHUDSO,-104.61200000000001,40.09,False,08,123,002502,08,08123,08123002502,1400000US08123002502,CHEMICAL & METAL INDUSTRIES INC,23465 CHEM TECH AVE,HUDSON,CO,80642,"CHEMICAL & METAL INDUSTRIES INC.23465 CHEM TECH AVE, HUDSON COLORADO 80642 (WELD)",0,C,,110012141798
81050GRNBYSECON,-103.557,37.988,False,08,089,968300,08,08089,08089968300,1400000US08089968300,GREEN BAY FOOD CO,2ND & GRANT,LA JUNTA,CO,81050,"GREEN BAY FOOD CO.2ND & GRANT, LA JUNTA COLORADO 81050 (OTERO)",0,C,,
81050PHLLP31601,-103.49700000000001,37.992,False,08,089,968300,08,08089,08089968300,1400000US08089968300,PHILLIPS 66 CO LA JUNTA TERMINAL,31601 E HWY 50,LA JUNTA,CO,81050,"PHILLIPS 66 CO LA JUNTA TERMINAL.31601 E HWY 50, LA JUNTA COLORADO 81050 (OTERO)",0,C,,110010420749
80210PTMBT5EMIS,-104.98700000000001,39.696999999999996,False,08,031,002901,08,08031,08031002901,1400000US08031002901,OPTIMA BATTERIES INC,5 E MISSISSIPPI,DENVER,CO,80210,"OPTIMA BATTERIES INC.5 E MISSISSIPPI, DENVER COLORADO 80210 (DENVER)",0,C,,
80916MNDST1275N,-104.728,38.813,False,08,041,004008,08,08041,08041004008,1400000US08041004008,GOODRICH AIRCRAFT INTERIOR PRODUCTS,1275 NEWPORT RD N,COLORADO SPRINGS,CO,809162779,"GOODRICH AIRCRAFT INTERIOR PRODUCTS.1275 NEWPORT RD N, COLORADO SPRINGS COLORADO 80916 (EL PASO)",0,C,,
80916SCSYS5525A,-104.728,38.799,False,08,041,004008,08,08041,08041004008,1400000US08041004008,SANMINA-SCI CORP PLANT 12,5525 ASTROZON BLVD,COLORADO SPRINGS,CO,80916,"SANMINA-SCI CORP PLANT 12.5525 ASTROZON BLVD, COLORADO SPRINGS COLORADO 80916 (EL PASO)",0,C,,
80925CLRDS7810D,-104.675,38.781,False,08,041,004008,08,08041,08041004008,1400000US08041004008,COLORADO SPRINGS REFINED PRODUCTS TERMINAL,7810 DRENNAN RD,COLORADO SPRINGS,CO,80925,"COLORADO SPRINGS REFINED PRODUCTS TERMINAL.7810 DRENNAN RD, COLORADO SPRINGS COLORADO 80925 (EL PASO)",0,C,,110000467799
80920CRRNT8245N,-104.765,38.952,False,08,041,003906,08,08041,08041003906,1400000US08041003906,CURRENT INC CHECK BUSINESS UNIT,8245 N UNION BLVD,COLORADO SPRINGS,CO,80920,"CURRENT INC CHECK BUSINESS UNIT.8245 N UNION BLVD, COLORADO SPRINGS COLORADO 80920 (EL PASO)",0,C,,
81152CLRDG04MIL,-105.55,37.188,False,08,023,972700,08,08023,08023972700,1400000US08023972700,COLORADO AGGREGATE CO,13387 COUNTY RD 12,SAN ACACIO,CO,81151,"COLORADO AGGREGATE CO.13387 COUNTY RD 12, SAN ACACIO COLORADO 81151 (COSTILLA)",0,C,,110032632051
80027KRYPT740SP,-105.12100000000001,39.958,False,08,013,060700,08,08013,08013060700,1400000US08013060700,KRYPTANE SYSTEMS,740 S PIERCE AVE SUITE 5,LOUISVILLE,CO,80027,"KRYPTANE SYSTEMS.740 S PIERCE AVE SUITE 5, LOUISVILLE COLORADO 80027 (BOULDER)",0,C,,110000495312
80028QNTMP2270S,-105.147,39.946999999999996,False,08,013,060700,08,08013,08013060700,1400000US08013060700,MKE - QUANTUM COMPONENTS,2270 S 88TH ST,LOUISVILLE,CO,80028,"MKE - QUANTUM COMPONENTS.2270 S 88TH ST, LOUISVILLE COLORADO 80028 (BOULDER)",1,C,,
80401GLTRC501MC,-105.175,39.723,False,08,059,011720,08,08059,08059011720,1400000US08059011720,GOLTRA CASTINGS CO INC,501 MCINTYRE ST,GOLDEN,CO,80401,"GOLTRA CASTINGS CO INC.501 MCINTYRE ST, GOLDEN COLORADO 80401 (JEFFERSON)",0,C,,
80501STRGT2345C,-105.132,40.144,False,08,013,013212,08,08013,08013013212,1400000US08013013212,STORAGE TECH CORP,2345 CLOVER BASIN DR,LONGMONT,CO,80501,"STORAGE TECH CORP.2345 CLOVER BASIN DR, LONGMONT COLORADO 80501 (BOULDER)",0,C,,
80503SHLDH1285S,-105.14,40.141999999999996,False,08,013,013212,08,08013,08013013212,1400000US08013013212,SHELDAHL INC,1285 S FORDHAM ST,LONGMONT,CO,80503,"SHELDAHL INC.1285 S FORDHAM ST, LONGMONT COLORADO 80503 (BOULDER)",0,C,,
80640DNVRR8200E,-104.89200000000001,39.871,False,08,001,008535,08,08001,08001008535,1400000US08001008535,DENVER ARCHITECTURAL PRECAST INC,8200 E 96TH AVE,HENDERSON,CO,80640,"DENVER ARCHITECTURAL PRECAST INC.8200 E 96TH AVE, HENDERSON COLORADO 80640 (ADAMS)",0,C,,
80601SSHCN10300,-104.869,39.891,False,08,001,008535,08,08001,08001008535,1400000US08001008535,SASHCO INC,10300 E 107TH PL,BRIGHTON,CO,80601,"SASHCO INC.10300 E 107TH PL, BRIGHTON COLORADO 80601 (ADAMS)",0,C,,110000467520
80201CHMRX10601,-104.87,39.89,False,08,001,008535,08,08001,08001008535,1400000US08001008535,BASF CORP,10601 FULTON ST,BRIGHTON,CO,80601,"BASF CORP.10601 FULTON ST, BRIGHTON COLORADO 80601 (ADAMS)",0,C,,110000522694
80640NYXNV9131E,-104.882,39.871,False,08,001,008535,08,08001,08001008535,1400000US08001008535,VEOLIA ES TECHNICAL SOLUTIONS LLC,9131 E 96TH AVE,HENDERSON,CO,80640,"VEOLIA ES TECHNICAL SOLUTIONS LLC.9131 E 96TH AVE, HENDERSON COLORADO 80640 (ADAMS)",0,C,,110010751230
80640SNCLR8581E,-104.88600000000001,39.872,False,08,001,008535,08,08001,08001008535,1400000US08001008535,SINCLAIR DENVER PRODUCTS TERMINAL,8581 E 96TH AVE,HENDERSON,CO,80640,"SINCLAIR DENVER PRODUCTS TERMINAL.8581 E 96TH AVE, HENDERSON COLORADO 80640 (ADAMS)",0,C,,110000467600
80640LFRGW9285E,-104.881,39.9,False,08,001,008535,08,08001,08001008535,1400000US08001008535,LAFARGE WEST INC. HOWE RM PLA NT,9285 E 112TH,HENDERSON,CO,80640,"LAFARGE WEST INC. HOWE RM PLA NT.9285 E 112TH, HENDERSON COLORADO 80640 (ADAMS)",0,C,,110041054676
80022RBRCT8100E,-104.89299999999999,39.871,False,08,001,008535,08,08001,08001008535,1400000US08001008535,REBAR COATING & FABRICATION,8100 E 96TH AVE,COMMERCE CITY,CO,80022,"REBAR COATING & FABRICATION.8100 E 96TH AVE, COMMERCE CITY COLORADO 80022 (ADAMS)",0,C,,
80640MNRLF10121,-104.876,39.88,False,08,001,008535,08,08001,08001008535,1400000US08001008535,BORAL ROOFING - DENVER,10121 DALLAS ST,HENDERSON,CO,80640,"BORAL ROOFING - DENVER.10121 DALLAS ST, HENDERSON COLORADO 80640 (ADAMS)",0,C,,110015679130
8064WBSTWY11DAL,-104.876,39.879,False,08,001,008535,08,08001,08001008535,1400000US08001008535,BESTWAY CONCRETE- DALLAS,10040 DALLAS ST,HENDERSON,CO,80640,"BESTWAY CONCRETE- DALLAS.10040 DALLAS ST, HENDERSON COLORADO 80640 (ADAMS)",0,C,,110069246863
80640THNLM851E9,-104.88799999999999,39.871,False,08,001,008535,08,08001,08001008535,1400000US08001008535,ETHANOL MANAGEMENT CO LLC,8501 E 96TH AVE,HENDERSON,CO,80640,"ETHANOL MANAGEMENT CO LLC.8501 E 96TH AVE, HENDERSON COLORADO 80640 (ADAMS)",1,C,,110001429801
8060WJPNTN121E1,-104.869,39.891,False,08,001,008535,08,08001,08001008535,1400000US08001008535,E J PAINTING & FIBERGLASS,10201 E. 107TH PLACE,BRIGHTON,CO,80601,"E J PAINTING & FIBERGLASS.10201 E. 107TH PLACE, BRIGHTON COLORADO 80601 (ADAMS)",0,C,,110001400886
80642MGWLD6339W,-104.62200000000001,40.092,False,08,123,001902,08,08123,08123001902,1400000US08123001902,M G WALDBAUM CO,6339 WELD COUNTY RD 47,HUDSON,CO,80642,"M G WALDBAUM CO.6339 WELD COUNTY RD 47, HUDSON COLORADO 80642 (WELD)",0,C,,
81050DBRGH27505,-103.554,38.016,False,08,089,968500,08,08089,08089968500,1400000US08089968500,DEBOURGH MANUFACTURING CO,27505 OTERO AVE,LA JUNTA,CO,81050,"DEBOURGH MANUFACTURING CO.27505 OTERO AVE, LA JUNTA COLORADO 81050 (OTERO)",0,C,,
80045FTZSMBUILD,-104.84700000000001,39.74,False,08,005,007301,08,08001,08005007301,1400000US08005007301,US ARMY FITZSIMONS ARMY MEDICAL CENTER,BLDG 118,AURORA,CO,800455001,"US ARMY FITZSIMONS ARMY MEDICAL CENTER.BLDG 118, AURORA COLORADO 80045 (ADAMS)",0,F,,
80223JDGRN2211S,-104.999,39.676,False,08,031,015600,08,08031,08031015600,1400000US08031015600,J D GRANT INC,2211 S JASON ST,DENVER,CO,80223,"J D GRANT INC.2211 S JASON ST, DENVER COLORADO 80223 (DENVER)",0,C,,
80524RNCHW416LI,-105.072,40.591,False,08,069,000100,08,08069,08069000100,1400000US08069000100,RANCH-WAY FEED MILLS,416 LINDEN ST,FORT COLLINS,CO,80524,"RANCH-WAY FEED MILLS.416 LINDEN ST, FORT COLLINS COLORADO 80524 (LARIMER)",0,C,,110000467423
80840SRFRC8034E,-104.861,38.991,False,08,041,003801,08,08041,08041003801,1400000US08041003801,US DOD USAF ACADEMY,8120 EDGERTON DR,U S A F ACADEMY,CO,808402400,"US DOD USAF ACADEMY.8120 EDGERTON DR, U S A F ACADEMY COLORADO 80840 (EL PASO)",0,F,,110043790181
81226SDJBP5880S,-105.111,38.378,False,08,043,978200,08,08043,08043978200,1400000US08043978200,FCC FLORENCE,5880 STATE HWY 67 S,FLORENCE,CO,81226,"FCC FLORENCE.5880 STATE HWY 67 S, FLORENCE COLORADO 81226 (FREMONT)",0,F,,110000859697
80011PTMBT17500,-104.78299999999999,39.749,False,08,001,008309,08,08001,08001008309,1400000US08001008309,OPTIMA BATTERIES INC.,17500 E 22ND. AVE,AURORA,CO,80011,"OPTIMA BATTERIES INC..17500 E 22ND. AVE, AURORA COLORADO 80011 (ADAMS)",0,C,,110000466521
80014LFRGW2650C,-104.81,39.755,False,08,001,008309,08,08001,08001008309,1400000US08001008309,MARTIN MARIETTA CHAMBERS READY MIX,2650 CHAMBERS RD,AURORA,CO,80011,"MARTIN MARIETTA CHAMBERS READY MIX.2650 CHAMBERS RD, AURORA COLORADO 80011 (ADAMS)",0,C,,110012703075
80011RDYMX1532E,-104.809,39.755,False,08,001,008309,08,08001,08001008309,1400000US08001008309,READY MIXED CONCRETE PLANT 12,15302 E 25TH DR,AURORA,CO,80011,"READY MIXED CONCRETE PLANT 12.15302 E 25TH DR, AURORA COLORADO 80011 (ADAMS)",0,C,,110025331442
80011TNLCT245AI,-104.791,39.753,False,08,001,008309,08,08001,08001008309,1400000US08001008309,EATON CORP,2450 AIRPORT BLVD UNIT C,AURORA,CO,80011,"EATON CORP.2450 AIRPORT BLVD UNIT C, AURORA COLORADO 80011 (ADAMS)",0,C,,110024942687
80011WHTCP163ES,-104.79700000000001,39.756,False,08,001,008309,08,08005,08001008309,1400000US08001008309,HD SUPPLY CONSTRUCTION SUPPLY LTD. (CO005-6166),16300 E SMITH RD,AURORA,CO,80011,"HD SUPPLY CONSTRUCTION SUPPLY LTD. (CO005-6166).16300 E SMITH RD, AURORA COLORADO 80011 (ARAPAHOE)",1,C,,110025331479
80026DSGNF555AS,-105.10600000000001,40.001999999999995,False,08,013,012903,08,08013,08013012903,1400000US08013012903,DESIGN FABRICATORS INC,555 ASPEN RIDGE RD,LAFAYETTE,CO,80026,"DESIGN FABRICATORS INC.555 ASPEN RIDGE RD, LAFAYETTE COLORADO 80026 (BOULDER)",0,C,,
80221KBLRC5000O,-105.005,39.787,False,08,031,000201,08,08031,08031000201,1400000US08031000201,KEEBLER CO,5000 OSAGE ST,DENVER,CO,80241,"KEEBLER CO.5000 OSAGE ST, DENVER COLORADO 80241 (DENVER)",0,C,,
80537MRXCR811SW,-105.09200000000001,40.378,False,08,069,002008,08,08069,08069002008,1400000US08069002008,MERIX CORP,811 SW 14TH ST,LOVELAND,CO,805376330,"MERIX CORP.811 SW 14TH ST, LOVELAND COLORADO 80537 (LARIMER)",1,C,,
80301DTRCH5601N,-105.18799999999999,40.077,False,08,013,013205,08,08013,08013013205,1400000US08013013205,DIETERICH STANDARD INC,5601 N 71ST ST,BOULDER,CO,80301,"DIETERICH STANDARD INC.5601 N 71ST ST, BOULDER COLORADO 80301 (BOULDER)",0,C,,110000467218
80503HLXTC6450D,-105.184,40.091,False,08,013,013205,08,08013,08013013205,1400000US08013013205,BROOKS AUTOMATION INC GRANVILLE PHILLIPS PRODUCT,6450 DRY CREEK PKWY,LONGMONT,CO,80503,"BROOKS AUTOMATION INC GRANVILLE PHILLIPS PRODUCT.6450 DRY CREEK PKWY, LONGMONT COLORADO 80503 (BOULDER)",0,C,,110003002991
80646PRNML33134,-104.697,40.482,False,08,123,001500,08,08123,08123001500,1400000US08123001500,NORTHERN COLORADO FEEDS PLANT,33134 US HWY 85,LUCERNE,CO,80646,"NORTHERN COLORADO FEEDS PLANT.33134 US HWY 85, LUCERNE COLORADO 80646 (WELD)",0,C,,
80646GLNDN32461,-104.697,40.473,False,08,123,001500,08,08123,08123001500,1400000US08123001500,AGLAND INC,32461 WELD COUNTY RD 39,LUCERNE,CO,80646,"AGLAND INC.32461 WELD COUNTY RD 39, LUCERNE COLORADO 80646 (WELD)",0,C,,
80615GLNDL3FACT,-104.709,40.527,False,08,123,001500,08,08123,08123001500,1400000US08123001500,AGLAND/LAND O'LAKES FEED MILL,300 FACTORY RD,EATON,CO,80615,"AGLAND/LAND O'LAKES FEED MILL.300 FACTORY RD, EATON COLORADO 80615 (WELD)",0,C,,110008298350
8063WBGRMN196CU,-104.696,40.466,False,08,123,001500,08,08123,08123001500,1400000US08123001500,BIG R MANUFACTURING,19060 COUNTY ROAD 66,GREELEY,CO,80631,"BIG R MANUFACTURING.19060 COUNTY ROAD 66, GREELEY COLORADO 80631 (WELD)",0,C,,110023151177
8061WMLTCH1CHRI,-104.697,40.543,False,08,123,001500,08,08123,08123001500,1400000US08123001500,MULTI-CHEM GROUP EATON CO FACILITY,100 CHRISTENSEN AVE,EATON,CO,80615,"MULTI-CHEM GROUP EATON CO FACILITY.100 CHRISTENSEN AVE, EATON COLORADO 80615 (WELD)",0,C,,110054825506
8063WFCSTL31455,-104.689,40.458,False,08,123,001500,08,08123,08123001500,1400000US08123001500,AFCO STEEL,31455 COUNTY ROAD 39 1/2,GREELEY,CO,80631,"AFCO STEEL.31455 COUNTY ROAD 39 1/2, GREELEY COLORADO 80631 (WELD)",0,C,,110022515633
80913FRTCRCOMMA,-104.766,38.753,False,08,041,004402,08,08041,08041004402,1400000US08041004402,US ARMY FORT CARSON (CANTONMENT),1626 EVANS ST BUILDING 1219,FORT CARSON,CO,809134000,"US ARMY FORT CARSON (CANTONMENT).1626 EVANS ST BUILDING 1219, FORT CARSON COLORADO 80913 (EL PASO)",0,F,,110000495367
81001CLRDX29550,-104.61399999999999,38.229,False,08,101,002200,08,08101,08101002200,1400000US08101002200,AIRGAS USA LLC,29550 HIGHWAY 96 EAST,PUEBLO,CO,81001,"AIRGAS USA LLC.29550 HIGHWAY 96 EAST, PUEBLO COLORADO 81001 (PUEBLO)",0,C,,110001145378
81144SCHLL120NB,-106.15,37.583,False,08,105,976700,08,00000,08105976700,1400000US08105976700,SCHALL CHEMICAL SUPPLY LLC,120 N BROADWAY,MONTE VISTA,CO,81144,"SCHALL CHEMICAL SUPPLY LLC.120 N BROADWAY, MONTE VISTA COLORADO 81144 (RIO GRANDE MUNICIPIO)",0,C,,110000467913
80027MKQNT1450I,-105.17399999999999,39.968,False,08,013,012710,08,08013,08013012710,1400000US08013012710,"MKE - QUANTUM COMPONENTS, LLC",1450 INFINITE DR,LOUISVILLE,CO,80027,"MKE - QUANTUM COMPONENTS, LLC.1450 INFINITE DR, LOUISVILLE COLORADO 80027 (BOULDER)",1,C,,
80524LLWTH1313W,-105.098,40.685,False,08,069,002503,08,08069,08069002503,1400000US08069002503,ALLWEATHER WOOD PRODUCTS,1313 W COUNTY RD 60E,FORT COLLINS,CO,80524,"ALLWEATHER WOOD PRODUCTS.1313 W COUNTY RD 60E, FORT COLLINS COLORADO 80524 (LARIMER)",0,C,,
80549RWHDN2700E,-105.027,40.86,False,08,069,002503,08,08069,08069002503,1400000US08069002503,RAWHIDE ENERGY STATION,2700 E COUNTY RD 82,WELLINGTON,CO,80549,"RAWHIDE ENERGY STATION.2700 E COUNTY RD 82, WELLINGTON COLORADO 80549 (LARIMER)",0,C,,110000607148
80701HMSBY20870,-103.943,40.243,False,08,087,000200,08,08087,08087000200,1400000US08087000200,HOMES BY OAKWOOD,20870 HWY 34 E,FORT MORGAN,CO,80701,"HOMES BY OAKWOOD.20870 HWY 34 E, FORT MORGAN COLORADO 80701 (MORGAN)",0,C,,
80438CLMXM9MILE,-105.84,39.759,False,08,019,014900,08,08019,08019014900,1400000US08019014900,CLIMAX MOLYBDENUM CO-HENDERSON MINE,9 MILES W OF EMPIRE,EMPIRE,CO,80438,"CLIMAX MOLYBDENUM CO-HENDERSON MINE.9 MILES W OF EMPIRE, EMPIRE COLORADO 80438 (CLEAR CREEK)",0,C,,110005997591
80461SRCNC748CO,-106.219,39.227,False,08,065,961900,08,08065,08065961900,1400000US08065961900,ASARCO INC LEADVILLE UNIT BLACK CLOUD MINE,748 COUNTY RD 2A,LEADVILLE,CO,80461,"ASARCO INC LEADVILLE UNIT BLACK CLOUD MINE.748 COUNTY RD 2A, LEADVILLE COLORADO 80461 (LAKE)",0,C,,
8042WCLMXMHIGHW,-106.18299999999999,39.369,False,08,065,961900,08,08065,08065961900,1400000US08065961900,CLIMAX MOLYBDENUM CO-CLIMAX MINE,HWY 91 FREMONT PASS,CLIMAX,CO,80429,"CLIMAX MOLYBDENUM CO-CLIMAX MINE.HWY 91 FREMONT PASS, CLIMAX COLORADO 80429 (LAKE)",0,C,,110046122851
80723PBLCS14940,-103.679,40.22,False,08,087,000800,08,08087,08087000800,1400000US08087000800,PUBLIC SERVICE CO OF COLORADO PAWNEE STATION,14940 COUNTY RD 24,BRUSH,CO,80723,"PUBLIC SERVICE CO OF COLORADO PAWNEE STATION.14940 COUNTY RD 24, BRUSH COLORADO 80723 (MORGAN)",0,C,,110000600234
80817RYNXN14020,-104.708,38.633,False,08,041,004511,08,08041,08041004511,1400000US08041004511,COLORADO SPRINGS UTILITIES RAY NIXON POWER PLANT,6598 RAY NIXON RD,FOUNTAIN,CO,80817,"COLORADO SPRINGS UTILITIES RAY NIXON POWER PLANT.6598 RAY NIXON RD, FOUNTAIN COLORADO 80817 (EL PASO)",0,C,,110000467646
80860CRPPL2755S,-105.15799999999999,38.722,False,08,119,010202,08,08119,08119010202,1400000US08119010202,CRIPPLE CREEK & VICTOR GOLD MINING CO,1280 HWY 67,VICTOR,CO,80860,"CRIPPLE CREEK & VICTOR GOLD MINING CO.1280 HWY 67, VICTOR COLORADO 80860 (TELLER)",0,C,,110041971337
81006PBLCS2005L,-104.571,38.202,False,08,101,003106,08,08101,08101003106,1400000US08101003106,PUBLIC SERVICE CO OF COLORADO COMANCHE STATION,2005 LIME RD,PUEBLO,CO,81006,"PUBLIC SERVICE CO OF COLORADO COMANCHE STATION.2005 LIME RD, PUEBLO COLORADO 81006 (PUEBLO)",0,C,,110000467851
81007NTRST646NS,-104.649,38.352,False,08,101,002918,08,08101,08101002918,1400000US08101002918,INTERSTATE CHEMICAL CO INC,646 N STATES AVE,PUEBLO WEST,CO,81007,"INTERSTATE CHEMICAL CO INC.646 N STATES AVE, PUEBLO WEST COLORADO 81007 (PUEBLO)",0,C,,110038278226
81007LFRGW630ST,-104.65100000000001,38.35,False,08,101,002918,08,08101,08101002918,1400000US08101002918,LAFARGE PUEBLO WEST READY MIX,630 N STATE AVE,PUEBLO,CO,81007,"LAFARGE PUEBLO WEST READY MIX.630 N STATE AVE, PUEBLO COLORADO 81007 (PUEBLO)",0,C,,110001401224
8100WLTFLS1739E,-104.652,38.345,False,08,101,002918,08,08101,08101002918,1400000US08101002918,ALTA FUELS LLC - PUEBLO PLANT,1739 E PLATTEVILLE BLVD,PUEBLO,CO,81007,"ALTA FUELS LLC - PUEBLO PLANT.1739 E PLATTEVILLE BLVD, PUEBLO COLORADO 81007 (PUEBLO)",0,C,,110058904958
81212TLCRP550HW,-105.251,38.435,False,08,043,979200,08,08043,08043979200,1400000US08043979200,BLACK HILLS ENERGY - WN CLARK STAT ION,550 HWY 50 W,CANON CITY,CO,81212,"BLACK HILLS ENERGY - WN CLARK STAT ION.550 HWY 50 W, CANON CITY COLORADO 81212 (FREMONT)",0,C,,110009067650
81424TRSTT30739,-108.508,38.239000000000004,False,08,085,966100,08,08085,08085966100,1400000US08085966100,TRI-STATE GENERATION & TRANSMISSION-NUCLA STATION,30739 DD30 RD,NUCLA,CO,81424,"TRI-STATE GENERATION & TRANSMISSION-NUCLA STATION.30739 DD30 RD, NUCLA COLORADO 81424 (MONTROSE)",0,C,,110000467931
81505WSTRN630HO,-108.583,39.095,False,08,077,001002,08,08077,08077001002,1400000US08077001002,WESTERN FILAMENT INC,630 HOLLINGSWORTH ST,GRAND JUNCTION,CO,815051000,"WESTERN FILAMENT INC.630 HOLLINGSWORTH ST, GRAND JUNCTION COLORADO 81505 (MESA)",0,C,,
81526PBLCS4MILE,-108.318,39.149,False,08,077,001800,08,08077,08077001800,1400000US08077001800,PUBLIC SERVICE COMPANY OF COLORADO CAMEO STATION,4 MILES E OF PALISADE ON I-70,PALISADE,CO,81526,"PUBLIC SERVICE COMPANY OF COLORADO CAMEO STATION.4 MILES E OF PALISADE ON I-70, PALISADE COLORADO 81526 (MESA)",0,C,,110000600305
81625TRPPR65MIL,-107.536,40.445,False,08,081,000300,08,08081,08081000300,1400000US08081000300,TRAPPER MINING INC,"6.5 MILES SW OF CRAIG, LOCATED OFF STATE HWY 13",CRAIG,CO,81625,"TRAPPER MINING INC.6.5 MILES SW OF CRAIG, LOCATED OFF STATE HWY 13, CRAIG COLORADO 81625 (MOFFAT)",0,C,,110008302522
81626TRSTT2201R,-107.59100000000001,40.463,False,08,081,000300,08,08081,08081000300,1400000US08081000300,TRI-STATE GENERATION & TRANSMISSION-CRAIG STATION,2101 S RANNEY ST,CRAIG,CO,81626,"TRI-STATE GENERATION & TRANSMISSION-CRAIG STATION.2101 S RANNEY ST, CRAIG COLORADO 81626 (MOFFAT)",0,C,,110041086393
81639PBLCS12795,-107.186,40.486999999999995,False,08,107,000300,08,08107,08107000300,1400000US08107000300,PUBLIC SERVICE CO OF COLORADO HAYDEN STATION,13125 HIGHWAY 40,HAYDEN,CO,81639,"PUBLIC SERVICE CO OF COLORADO HAYDEN STATION.13125 HIGHWAY 40, HAYDEN COLORADO 81639 (ROUTT)",0,C,,110012355281
81641CLWYC5731S,-107.786,40.296,False,08,081,000600,08,08103,08081000600,1400000US08081000600,COLOWYO COAL CO LP,5731 STATE HWY 13,MEEKER,CO,81641,"COLOWYO COAL CO LP.5731 STATE HWY 13, MEEKER COLORADO 81641 (RIO BLANCO)",0,C,,110007092822
80105SFTYK10855,-103.708,39.74,False,08,001,008402,08,08001,08001008402,1400000US08001008402,CLEAN HARBORS DEER TRAIL LLC,108555 EAST HIGHWAY 36,DEER TRAIL,CO,80105,"CLEAN HARBORS DEER TRAIL LLC.108555 EAST HIGHWAY 36, DEER TRAIL COLORADO 80105 (ADAMS)",0,C,,110060947329
81001SFTYK2841E,-104.559,38.272,False,08,101,003001,08,08101,08101003001,1400000US08101003001,SAFETY-KLEEN SYSTEMS (605204),2841 E FOURTH ST,PUEBLO,CO,81001,"SAFETY-KLEEN SYSTEMS (605204).2841 E FOURTH ST, PUEBLO COLORADO 81001 (PUEBLO)",0,C,,110000748255
8100WGGRGT2596E,-104.537,38.274,False,08,101,003001,08,08101,08101003001,1400000US08101003001,AGGREGATE INDUSTRIES WCR INC PUEBLO EAST READY MIX PLANT,2596 E HWY 96,PUEBLO,CO,81001,"AGGREGATE INDUSTRIES WCR INC PUEBLO EAST READY MIX PLANT.2596 E HWY 96, PUEBLO COLORADO 81001 (PUEBLO)",0,C,,110070554827
80104RDYMX2801H,-104.87,39.404,False,08,035,014123,08,08035,08035014123,1400000US08035014123,READY MIXED CONCRETE - PLANT 6,2801 HWY 85,CASTLE ROCK,CO,80104,"READY MIXED CONCRETE - PLANT 6.2801 HWY 85, CASTLE ROCK COLORADO 80104 (DOUGLAS)",1,C,,110008060926
80112LFRGWJORDA,-104.79799999999999,39.551,False,08,035,014001,08,08005,08035014001,1400000US08035014001,LAFARGE WEST INC,JORDAN RD & E-470,ENGLEWOOD,CO,80112,"LAFARGE WEST INC.JORDAN RD & E-470, ENGLEWOOD COLORADO 80112 (ARAPAHOE)",0,C,,
80112GGRGT8339C,-104.833,39.565,False,08,035,014001,08,08035,08035014001,1400000US08035014001,AGGREGATE INDUSTRIES WCR INC CENTENNIAL READY MIX PLANT,8339 CONCORD CENTER DR,ENGLEWOOD,CO,80112,"AGGREGATE INDUSTRIES WCR INC CENTENNIAL READY MIX PLANT.8339 CONCORD CENTER DR, ENGLEWOOD COLORADO 80112 (DOUGLAS)",0,C,,110033132991
8011WVSTNC349IN,-104.86,39.56,False,08,035,014001,08,08035,08035014001,1400000US08035014001,"VIASAT, INC.",349 INVERNESS DR S,ENGLEWOOD,CO,80112,"VIASAT, INC..349 INVERNESS DR S, ENGLEWOOD COLORADO 80112 (DOUGLAS)",0,C,,110070071516
80535HLNMN4629N,-105.135,40.658,False,08,069,001301,08,08069,08069001301,1400000US08069001301,HOLCIM (US) INC FORT COLLINS PLANT,4629 OVERLAND TRAIL (HWY 287),LAPORTE,CO,805351548,"HOLCIM (US) INC FORT COLLINS PLANT.4629 OVERLAND TRAIL (HWY 287), LAPORTE COLORADO 80535 (LARIMER)",0,C,,
80538LLMRC999NV,-105.104,40.403,False,08,069,001901,08,08069,08069001901,1400000US08069001901,ALL AMERICAN HOMES OF COLORADO LLC,999 N VAN BUREN AVE,LOVELAND,CO,80538,"ALL AMERICAN HOMES OF COLORADO LLC.999 N VAN BUREN AVE, LOVELAND COLORADO 80538 (LARIMER)",0,C,,
81428BWN2MOLDST,-107.546,38.933,False,08,029,964600,08,08029,08029964600,1400000US08029964600,BOWIE NO 2 MINE,43659 BOWIE RD,PAONIA,CO,81428,"BOWIE NO 2 MINE.43659 BOWIE RD, PAONIA COLORADO 81428 (DELTA)",0,C,,110008061088
81428NTTRNOLDST,-107.541,38.922,False,08,029,964600,08,08029,08029964600,1400000US08029964600,UNIT TRAIN LOADOUT,OLD STATE HWY 133,PAONIA,CO,81428,"UNIT TRAIN LOADOUT.OLD STATE HWY 133, PAONIA COLORADO 81428 (DELTA)",0,C,,
80014HVNRD2900S,-104.866,39.664,False,08,005,080400,08,08005,08005080400,1400000US08005080400,AGGREGATE INDUSTRIES - WCR INC. HAVANA READY MIX PLANT,2900 S HAVANA ST,DENVER,CO,80014,"AGGREGATE INDUSTRIES - WCR INC. HAVANA READY MIX PLANT.2900 S HAVANA ST, DENVER COLORADO 80014 (ARAPAHOE)",0,C,,110013246200
80018GNCLB3100S,-104.7,39.661,False,08,005,007104,08,08005,08005007104,1400000US08005007104,AGGREGATE INDUSTRIES - WCR INC. GUN CLUB READY MIX PLANT,3100 S GUN CLUB RD,AURORA,CO,80018,"AGGREGATE INDUSTRIES - WCR INC. GUN CLUB READY MIX PLANT.3100 S GUN CLUB RD, AURORA COLORADO 80018 (ARAPAHOE)",0,C,,110006554308
80011SRFRC18401,-104.772,39.722,False,08,005,007104,08,08005,08005007104,1400000US08005007104,U.S. DOD USAF BUCKLEY AFB CO,660 S ASPEN ST MS 86,AURORA,CO,80011,"U.S. DOD USAF BUCKLEY AFB CO.660 S ASPEN ST MS 86, AURORA COLORADO 80011 (ARAPAHOE)",0,F,,110022521582
80026LFRGW1160R,-105.074,39.979,False,08,013,060800,08,08013,08013060800,1400000US08013060800,MARTIN MARIETTA ROCK CREEK READY MIX,1160 ROCK CREEK CT,LAFAYETTE,CO,80026,"MARTIN MARIETTA ROCK CREEK READY MIX.1160 ROCK CREEK CT, LAFAYETTE COLORADO 80026 (BOULDER)",0,C,,110012702664
80026DHRMC265CR,-105.087,39.967,False,08,013,060800,08,08013,08013060800,1400000US08013060800,DHARMACON INC,2650 CRESCENT DR #100,LAFAYETTE,CO,80026,"DHARMACON INC.2650 CRESCENT DR #100, LAFAYETTE COLORADO 80026 (BOULDER)",0,C,,110022524133
80026RDYMX1195R,-105.072,39.979,False,08,013,060800,08,08013,08013060800,1400000US08013060800,READY MIXED CONCRETE CO PLANT 14,1195 ROCK CREEK RD,LAFAYETTE,CO,80026,"READY MIXED CONCRETE CO PLANT 14.1195 ROCK CREEK RD, LAFAYETTE COLORADO 80026 (BOULDER)",0,C,,110040366797
8002WLCTRN1355H,-105.068,39.98,False,08,013,060800,08,08013,08013060800,1400000US08013060800,"ELECTRONIC SOLUTIONS, INC.",1355 HORIZON AVENUE,LAFAYETTE,CO,80026,"ELECTRONIC SOLUTIONS, INC..1355 HORIZON AVENUE, LAFAYETTE COLORADO 80026 (BOULDER)",0,C,,110039495374
80031MBLTL5600W,-105.05799999999999,39.856,False,08,059,009832,08,08001,08059009832,1400000US08059009832,MOBILE TOOL INTERNATIONAL INC,5600 W 88TH AVE,WESTMINSTER,CO,80031,"MOBILE TOOL INTERNATIONAL INC.5600 W 88TH AVE, WESTMINSTER COLORADO 80031 (ADAMS)",0,C,,
80104LFRGW309SG,-104.852,39.367,False,08,035,014504,08,08035,08035014504,1400000US08035014504,MARTIN MARIETTA CASTLE ROCK READY MIX,309 S GILBERT ST,CASTLE ROCK,CO,80104,"MARTIN MARIETTA CASTLE ROCK READY MIX.309 S GILBERT ST, CASTLE ROCK COLORADO 80104 (DOUGLAS)",0,C,,110001430728
80120NCRCT8192S,-105.00399999999999,39.569,False,08,005,005634,08,08005,08005005634,1400000US08005005634,UNICIRCUIT INC,8192 S PARK LN,LITTLETON,CO,80120,"UNICIRCUIT INC.8192 S PARK LN, LITTLETON COLORADO 80120 (ARAPAHOE)",0,C,,110021355282
80401LFRGW1841W,-105.21,39.709,False,08,059,009849,08,08059,08059009849,1400000US08059009849,MARTIN MARIETTA SPEC AGG,19301 W COLFAX,GOLDEN,CO,80401,"MARTIN MARIETTA SPEC AGG.19301 W COLFAX, GOLDEN COLORADO 80401 (JEFFERSON)",0,C,,110064235073
80439LFRGW20575,-105.344,39.650999999999996,False,08,059,009848,08,08059,08059009848,1400000US08059009848,LAFARGE WEST INC,20575 BRYANT DR,EVERGREEN,CO,80439,"LAFARGE WEST INC.20575 BRYANT DR, EVERGREEN COLORADO 80439 (JEFFERSON)",0,C,,
80477LFRGW34345,-106.825,40.375,False,08,107,000800,08,08107,08107000800,1400000US08107000800,LAFARGE WEST INC,34345 HWY 131,STEAMBOAT SPRINGS,CO,80477,"LAFARGE WEST INC.34345 HWY 131, STEAMBOAT SPRINGS COLORADO 80477 (ROUTT)",0,C,,
80501RLNTM455WE,-105.08200000000001,40.162,False,08,013,013402,08,08013,08013013402,1400000US08013013402,RELIANT MANUFACTURING LLC,455 WEAVER PARK RD STE 100,LONGMONT,CO,80501,"RELIANT MANUFACTURING LLC.455 WEAVER PARK RD STE 100, LONGMONT COLORADO 80501 (BOULDER)",0,C,,
80539HCHCX5600L,-105.001,40.448,False,08,069,001709,08,08069,08069001709,1400000US08069001709,HACH CO LOVELAND,5600 LINDBERGH DR,LOVELAND,CO,80538,"HACH CO LOVELAND.5600 LINDBERGH DR, LOVELAND COLORADO 80538 (LARIMER)",0,C,,110011675428
8053WLDCST18214,-105.05,40.378,False,08,069,001709,08,08069,08069001709,1400000US08069001709,OLDCASTLE INFRASTRUCTURE,1820 14TH ST SE,LOVELAND,CO,80537,"OLDCASTLE INFRASTRUCTURE.1820 14TH ST SE, LOVELAND COLORADO 80537 (LARIMER)",0,C,,110046332875
80543LLMRC3333E,-104.82700000000001,40.330999999999996,False,08,123,002101,08,08123,08123002101,1400000US08123002101,ALL AMERICAN HOMES OF COLORADO LLC,3333 E CENTER DR,MILLIKEN,CO,80543,"ALL AMERICAN HOMES OF COLORADO LLC.3333 E CENTER DR, MILLIKEN COLORADO 80543 (WELD)",0,C,,110012702708
8054WBSTWY315FR,-104.837,40.333,False,08,123,002101,08,08123,08123002101,1400000US08123002101,BESTWAY CONCRETE CO-MILLIKEN,315 FRONTIER CT,MILLIKEN,CO,80543,"BESTWAY CONCRETE CO-MILLIKEN.315 FRONTIER CT, MILLIKEN COLORADO 80543 (WELD)",0,C,,110064536319
80817SNMNS702BA,-104.719,38.691,False,08,041,004508,08,08041,08041004508,1400000US08041004508,SANMINA-SCI PLANT 432,702 BANDLEY DR,FOUNTAIN,CO,80817,"SANMINA-SCI PLANT 432.702 BANDLEY DR, FOUNTAIN COLORADO 80817 (EL PASO)",0,C,,110001436456
80908LFRGW8355V,-104.691,38.952,False,08,041,007601,08,08041,08041007601,1400000US08041007601,LAFARGE VOLLMER READY MIX,8355 VOLLMER RD,COLORADO SPRINGS,CO,80908,"LAFARGE VOLLMER READY MIX.8355 VOLLMER RD, COLORADO SPRINGS COLORADO 80908 (EL PASO)",0,C,,110012702940
80916QLTYC1635S,-104.75,38.81,False,08,041,006400,08,08041,08041006400,1400000US08041006400,QUALITY CONCEPTS MANUFACTURING INC,1635 S MURRAY BLVD,COLORADO SPRINGS,CO,80916,"QUALITY CONCEPTS MANUFACTURING INC.1635 S MURRAY BLVD, COLORADO SPRINGS COLORADO 80916 (EL PASO)",0,C,,110012702959
81002KCHPR510WD,-104.617,38.266999999999996,False,08,101,003500,08,08101,08101003500,1400000US08101003500,KOCH PERFORMANCE ASPHALT CO,510 W D ST,PUEBLO,CO,81002,"KOCH PERFORMANCE ASPHALT CO.510 W D ST, PUEBLO COLORADO 81002 (PUEBLO)",0,C,,
81501MTKDX47528,-108.525,39.074,False,08,077,000700,08,08077,08077000700,1400000US08077000700,AMETEK DIXSON,475   28-1/2 RD,GRAND JUNCTION,CO,81501,"AMETEK DIXSON.475   28-1/2 RD, GRAND JUNCTION COLORADO 81501 (MESA)",0,C,,
8150WLMGRN2868I,-108.52,39.071999999999996,False,08,077,000700,08,08077,08077000700,1400000US08077000700,ELAM GRAND JUNCTION BATCH PLANT,2868 I-70 BUSINESS LOOP,GRAND JUNCTION,CO,81501,"ELAM GRAND JUNCTION BATCH PLANT.2868 I-70 BUSINESS LOOP, GRAND JUNCTION COLORADO 81501 (MESA)",0,C,,110070247453
81503MTKDX28727,-108.552,39.047,False,08,077,001301,08,08077,08077001301,1400000US08077001301,AMETEK DIXSON,287 27 RD,GRAND JUNCTION,CO,81501,"AMETEK DIXSON.287 27 RD, GRAND JUNCTION COLORADO 81501 (MESA)",0,C,,110011672644
81637LFRGW11589,-106.92299999999999,39.647,False,08,037,000200,08,08037,08037000200,1400000US08037000200,LAFARGE GYPSUM RANCH READY MIX,11589 HWY 6,GYPSUM,CO,81637,"LAFARGE GYPSUM RANCH READY MIX.11589 HWY 6, GYPSUM COLORADO 81637 (EAGLE)",0,C,,110013286363
8163WGLGYP74HIG,-106.95200000000001,39.648,False,08,037,000200,08,08037,08037000200,1400000US08037000200,AMERICAN GYPSUM WALLBOARD PLANT - EAGLE,740 HIGHWAY 6,GYPSUM,CO,81637,"AMERICAN GYPSUM WALLBOARD PLANT - EAGLE.740 HIGHWAY 6, GYPSUM COLORADO 81637 (EAGLE)",0,C,,110069999369
81656LFRGW3000R,-106.88600000000001,39.27,False,08,097,000500,08,08097,08097000500,1400000US08097000500,LAFARGE WOODY CREEK READY MIX,7911 UPPER RIVER RD,WOODY CREEK,CO,81656,"LAFARGE WOODY CREEK READY MIX.7911 UPPER RIVER RD, WOODY CREEK COLORADO 81656 (PITKIN)",0,C,,110001392001
80031SPNLC6262W,-105.06700000000001,39.861,False,08,059,009831,08,08059,08059009831,1400000US08059009831,ASPEN ELECTRONICS MANUFACTURING INC,6262 W 91ST AVE,WESTMINSTER,CO,80031,"ASPEN ELECTRONICS MANUFACTURING INC.6262 W 91ST AVE, WESTMINSTER COLORADO 80031 (JEFFERSON)",0,C,,110018920113
80480PRXRN2451J,-106.249,40.786,False,08,057,955600,08,08057,08057955600,1400000US08057955600,PRAXAIR INC,2451 JACKSON COUNTY RD 10,WALDEN,CO,80480,"PRAXAIR INC.2451 JACKSON COUNTY RD 10, WALDEN COLORADO 80480 (JACKSON)",0,C,,110000525904
80504LNGMN1587W,-105.027,40.15,False,08,123,002010,08,08123,08123002010,1400000US08123002010,AGGREGATE INDUSTRIES WCR INC LONGMONT ASPHALT FACILITY,1587 WELD COUNTY RD 20 1/2,LONGMONT,CO,80501,"AGGREGATE INDUSTRIES WCR INC LONGMONT ASPHALT FACILITY.1587 WELD COUNTY RD 20 1/2, LONGMONT COLORADO 80501 (WELD)",0,C,,110001429311
80501LFRGW272ST,-104.999,40.161,False,08,123,002010,08,08123,08123002010,1400000US08123002010,MARTIN MARIETTA - DEL CAMINO READY MIX,2702 STATE HWY 119,LONGMONT,CO,80501,"MARTIN MARIETTA - DEL CAMINO READY MIX.2702 STATE HWY 119, LONGMONT COLORADO 80501 (WELD)",0,C,,110022411004
80504GGRGT12WEL,-104.999,40.149,False,08,123,002010,08,08123,08123002010,1400000US08123002010,AGGREGATE INDUSTRIES WCR INC. DEL CAMINO READY MIX PLANT,10200 WELD COUNTY RD 7,LONGMONT,CO,80504,"AGGREGATE INDUSTRIES WCR INC. DEL CAMINO READY MIX PLANT.10200 WELD COUNTY RD 7, LONGMONT COLORADO 80504 (WELD)",0,C,,110039495454
81326NTNLK4424C,-108.1,37.256,False,08,067,970701,08,08067,08067970701,1400000US08067970701,NATIONAL KING COAL LLC,4424 COUNTY RD 120,HESPERUS,CO,81326,"NATIONAL KING COAL LLC.4424 COUNTY RD 120, HESPERUS COLORADO 81326 (LA PLATA)",0,C,,
81623LFRGW14156,-107.165,39.412,False,08,045,951803,08,08045,08045951803,1400000US08045951803,LAFARGE POWERS READY MIX,14156 HWY 82,CARBONDALE,CO,81623,"LAFARGE POWERS READY MIX.14156 HWY 82, CARBONDALE COLORADO 81623 (GARFIELD)",0,C,,110015780270
80021SRNZM33STE,-105.115,39.918,False,08,014,031100,08,08014,08014031100,1400000US08014031100,RFMD (RADIO FREQUENCY MICRO DEVICES),303 S TECHNOLOGY COURT BLDG B,BROOMFIELD,CO,80021,"RFMD (RADIO FREQUENCY MICRO DEVICES).303 S TECHNOLOGY COURT BLDG B, BROOMFIELD COLORADO 80021 (BROOMFIELD)",0,C,,110015593035
80223LCTRM11WLU,-105.001,39.693000000000005,False,08,031,001401,08,08031,08031001401,1400000US08031001401,ELECTRO-MECHANICAL PRODUCTS INC,1100 W LOUISIANA AVE,DENVER,CO,80223,"ELECTRO-MECHANICAL PRODUCTS INC.1100 W LOUISIANA AVE, DENVER COLORADO 80223 (DENVER)",0,C,,110018943982
80501CRCLG129TH,-105.096,40.174,False,08,013,013503,08,08013,08013013503,1400000US08013013503,CIRCLE GRAPHICS INC,120 9TH AVE,LONGMONT,CO,80501,"CIRCLE GRAPHICS INC.120 9TH AVE, LONGMONT COLORADO 80501 (BOULDER)",0,C,,110001427778
80516VRRCS1688W,-104.961,40.023,False,08,123,002005,08,08013,08123002005,1400000US08123002005,VARRA COMPANIES INC NORTH METRO PLANT 4,1688 WCR 11,ERIE,CO,80516,"VARRA COMPANIES INC NORTH METRO PLANT 4.1688 WCR 11, ERIE COLORADO 80516 (BOULDER)",0,C,,
80538RCKRB6724N,-105.085,40.461,False,08,069,001809,08,08069,08069001809,1400000US08069001809,DESIGNS BY RICKER,6724 N FRANKLIN,LOVELAND,CO,80538,"DESIGNS BY RICKER.6724 N FRANKLIN, LOVELAND COLORADO 80538 (LARIMER)",0,C,,110022524151
8053WWDWRD38WIL,-105.116,40.431999999999995,False,08,069,001809,08,08069,08069001809,1400000US08069001809,WOODWARD INC,3800 WILSON AVE,LOVELAND,CO,80538,"WOODWARD INC.3800 WILSON AVE, LOVELAND COLORADO 80538 (LARIMER)",0,C,,110009563775
80621VRRCS15457,-104.764,40.08,False,08,123,001907,08,08123,08123001907,1400000US08123001907,VARRA COMPANIES INC FT LUPTON PLANT 2,15457 HWY 52,FORT LUPTON,CO,80621,"VARRA COMPANIES INC FT LUPTON PLANT 2.15457 HWY 52, FORT LUPTON COLORADO 80621 (WELD)",0,C,,
8060WCMCCT455ID,-104.82,40.001,False,08,123,001907,08,08001,08123001907,1400000US08123001907,CMC REBAR BRIGHTON,455 IDA ST.,BRIGHTON,CO,80603,"CMC REBAR BRIGHTON.455 IDA ST., BRIGHTON COLORADO 80603 (ADAMS)",0,C,,110043671238
8060WVSTSB15BEA,-104.81200000000001,40.029,False,08,123,001907,08,08123,08123001907,1400000US08123001907,VESTAS BLADES AMERICA INC BRIGHTON,1500-B E CROWN PRINCE BLVD,BRIGHTON,CO,80603,"VESTAS BLADES AMERICA INC BRIGHTON.1500-B E CROWN PRINCE BLVD, BRIGHTON COLORADO 80603 (WELD)",0,C,,110055499820
8060WGGRGT1857H,-104.818,40.028,False,08,123,001907,08,08123,08123001907,1400000US08123001907,AGGREGATE INDUSTRIES WCR INC BRIGHTON READY MIX PLANT,1857 HIGHWAY 85,BRIGHTON,CO,80603,"AGGREGATE INDUSTRIES WCR INC BRIGHTON READY MIX PLANT.1857 HIGHWAY 85, BRIGHTON COLORADO 80603 (WELD)",0,C,,110060258288
8060WRCKYM975US,-104.818,40.014,False,08,123,001907,08,08123,08123001907,1400000US08123001907,MARTIN MARIETTA BRIGHTON READY MIX,975 US HWY 85,BRIGHTON,CO,80603,"MARTIN MARIETTA BRIGHTON READY MIX.975 US HWY 85, BRIGHTON COLORADO 80603 (WELD)",0,C,,110002436793
8062WPLTTH3281R,-104.81200000000001,40.048,False,08,123,001907,08,08123,08123001907,1400000US08123001907,PILOT THOMAS LOGISTICS - FORT LUPTON,3281 RD 27,FORT LUPTON,CO,80621,"PILOT THOMAS LOGISTICS - FORT LUPTON.3281 RD 27, FORT LUPTON COLORADO 80621 (WELD)",0,C,,110070069366
8011WGHLTH1139E,-104.861,39.55,False,08,035,014007,08,08035,08035014007,1400000US08035014007,VITAL SIGNS INC,11039 E LANSING CIR,ENGLEWOOD,CO,80112,"VITAL SIGNS INC.11039 E LANSING CIR, ENGLEWOOD COLORADO 80112 (DOUGLAS)",1,C,,110041999530
80504DLPHM43WCR,-104.97399999999999,40.116,False,08,123,002012,08,08123,08123002012,1400000US08123002012,SPARTON MEDICAL SYSTEMS COLORADO OPS,4300 WCR 18,LONGMONT,CO,80504,"SPARTON MEDICAL SYSTEMS COLORADO OPS.4300 WCR 18, LONGMONT COLORADO 80504 (WELD)",0,C,,110040481877
80524MNTNS1411E,-105.051,40.583,False,08,069,001306,08,08069,08069001306,1400000US08069001306,MOUNTAIN STATES FINISHING,1411 E MAGNOLIA ST,FORT COLLINS,CO,80524,"MOUNTAIN STATES FINISHING.1411 E MAGNOLIA ST, FORT COLLINS COLORADO 80524 (LARIMER)",0,C,,
80524WHTCP334SS,-105.029,40.583,False,08,069,001306,08,08069,08069001306,1400000US08069001306,HD SUPPLY CONSTRUCTION SUPPLY LTD. (CO020-6142),334 S SUMMIT VIEW DR,FORT COLLINS,CO,80524,"HD SUPPLY CONSTRUCTION SUPPLY LTD. (CO020-6142).334 S SUMMIT VIEW DR, FORT COLLINS COLORADO 80524 (LARIMER)",0,C,,110018870550
8052WWDWRD141WD,-105.06,40.586999999999996,False,08,069,001306,08,08069,08069001306,1400000US08069001306,WOODWARD INC,1041 WOODWARD WAY,FORT COLLINS,CO,80524,"WOODWARD INC.1041 WOODWARD WAY, FORT COLLINS COLORADO 80524 (LARIMER)",0,C,,110067209498
80116GGRGT2571N,-104.756,39.4,False,08,035,013909,08,08035,08035013909,1400000US08035013909,AGGREGATE INDUSTRIES WCR INC FRANKTOWN READY MIX PLANT,2571 N STATE HWY 83,FRANKTOWN,CO,80116,"AGGREGATE INDUSTRIES WCR INC FRANKTOWN READY MIX PLANT.2571 N STATE HWY 83, FRANKTOWN COLORADO 80116 (DOUGLAS)",0,C,,110021161179
80204RBNSN241W6,-105.01700000000001,39.726,False,08,031,000800,08,08031,08031000800,1400000US08031000800,ROBINSON DAIRY LLC,2401 W 6TH AVE,DENVER,CO,80204,"ROBINSON DAIRY LLC.2401 W 6TH AVE, DENVER COLORADO 80204 (DENVER)",1,C,,110001727445
80534LVLND2593W,-104.943,40.376999999999995,False,08,123,002102,08,08123,08123002102,1400000US08123002102,JOHNSTOWN READY MIX,25930 WELD COUNTY RD 13,JOHNSTOWN,CO,80534,"JOHNSTOWN READY MIX.25930 WELD COUNTY RD 13, JOHNSTOWN COLORADO 80534 (WELD)",0,C,,110017650479
81003BRLBS27NFW,-104.60700000000001,38.296,False,08,101,000500,08,08101,08101000500,1400000US08101000500,BEST BLOCK PUBB,2662 N FWY,PUEBLO,CO,81003,"BEST BLOCK PUBB.2662 N FWY, PUEBLO COLORADO 81003 (PUEBLO)",0,C,,110001436642
80477LFRGW2275U,-106.99799999999999,40.486999999999995,False,08,107,000100,08,08107,08107000100,1400000US08107000100,LAFARGE STEAMBOAT READY MIX,22705 U.S. 40,STEAMBOAT SPRINGS,CO,80477,"LAFARGE STEAMBOAT READY MIX.22705 U.S. 40, STEAMBOAT SPRINGS COLORADO 80477 (ROUTT)",0,C,,110031001975
80631WNSBR11133,-104.81200000000001,40.452,False,08,123,002209,08,08123,08123002209,1400000US08123002209,OWENS-BROCKWAY GLASS CONTAINER INC PLANT 28,11133 EASTMAN PARK DR,GREELEY,CO,80550,"OWENS-BROCKWAY GLASS CONTAINER INC PLANT 28.11133 EASTMAN PARK DR, GREELEY COLORADO 80550 (WELD)",0,C,,110024383068
80550VSTSB1114E,-104.84700000000001,40.461,False,08,123,002209,08,08123,08123002209,1400000US08123002209,VESTAS BLADES AMERICA INC WINDSOR,11140 EASTMAN PARK DR,WINDSOR,CO,80550,"VESTAS BLADES AMERICA INC WINDSOR.11140 EASTMAN PARK DR, WINDSOR COLORADO 80550 (WELD)",0,C,,110038894774
8063WBSTWY3279W,-104.81200000000001,40.448,False,08,123,002209,08,08123,08123002209,1400000US08123002209,BESTWAY CONCRETE CO-GREELEY,30279 WCR 27,GREELEY,CO,80634,"BESTWAY CONCRETE CO-GREELEY.30279 WCR 27, GREELEY COLORADO 80634 (WELD)",1,C,,110060261728
80759YMTHN3848C,-102.68,40.13,False,08,125,963200,08,08125,08125963200,1400000US08125963200,YUMA ETHANOL LLC,38480 COUNTY RD H,YUMA,CO,80759,"YUMA ETHANOL LLC.38480 COUNTY RD H, YUMA COLORADO 80759 (YUMA)",0,C,,110031262498
81645LFRGM112BA,-106.40299999999999,39.561,False,08,037,000600,08,08037,08037000600,1400000US08037000600,LAFARGE MINTURN READY MIX,1120 BALL PARK RD,MINTURN,CO,81645,"LAFARGE MINTURN READY MIX.1120 BALL PARK RD, MINTURN COLORADO 81645 (EAGLE)",0,C,,110037148155
8053WQBCRW38W37,-105.081,40.43,False,08,069,001804,08,08069,08069001804,1400000US08069001804,"QG, LLC",380 W. 37TH ST.,LOVELAND,CO,80538,"QG, LLC.380 W. 37TH ST., LOVELAND COLORADO 80538 (LARIMER)",0,C,,110001398069
81004GCCRG3372L,-104.625,38.15,False,08,101,002806,08,08101,08101002806,1400000US08101002806,GCC RIO GRANDE INC,3372 LIME RD,PUEBLO,CO,81004,"GCC RIO GRANDE INC.3372 LIME RD, PUEBLO COLORADO 81004 (PUEBLO)",0,C,,110037262636
8100WVSTST1TWER,-104.619,38.169000000000004,False,08,101,002806,08,08101,08101002806,1400000US08101002806,VESTAS TOWERS AMERICA,100 TOWERS ROAD,PUEBLO,CO,81004,"VESTAS TOWERS AMERICA.100 TOWERS ROAD, PUEBLO COLORADO 81004 (PUEBLO)",0,C,,110039573896
81647LFRGS1412C,-107.631,39.538000000000004,False,08,045,951901,08,08045,08045951901,1400000US08045951901,LAFARGE SILT READY MIX,1412 COUNTY RD 311,NEW CASTLE,CO,81647,"LAFARGE SILT READY MIX.1412 COUNTY RD 311, NEW CASTLE COLORADO 81647 (GARFIELD)",0,C,,110039075309
81650CHMPN717BU,-107.75299999999999,39.522,False,08,045,952002,08,08045,08045952002,1400000US08045952002,NALCO COMPANY-RIFLE,717 BUCKHORN DR,RIFLE,CO,81650,"NALCO COMPANY-RIFLE.717 BUCKHORN DR, RIFLE COLORADO 81650 (GARFIELD)",0,C,,110038240141
8165WSMNSP23899,-107.815,39.528,False,08,045,952002,08,08045,08045952002,1400000US08045952002,"SIMONS PETROLEUM, INC., RIFLE BULK PLANT",23899 HIGHWAY 6,RIFLE,CO,81650,"SIMONS PETROLEUM, INC., RIFLE BULK PLANT.23899 HIGHWAY 6, RIFLE COLORADO 81650 (GARFIELD)",1,C,,110031433722
8052WDRKRD3EAST,-105.132,40.553000000000004,False,08,069,001104,08,08069,08069001104,1400000US08069001104,AGGREGATE INDUSTRIES WCR INC DRAKE READY MIX PLANT,3000 ENVIRONMENTAL DR,FORT COLLINS,CO,80525,"AGGREGATE INDUSTRIES WCR INC DRAKE READY MIX PLANT.3000 ENVIRONMENTAL DR, FORT COLLINS COLORADO 80525 (LARIMER)",0,C,,110042003024
8090WLFRGF13WFI,-104.844,38.876,False,08,041,001104,08,08041,08041001104,1400000US08041001104,LAFARGE FILLMORE ASPHALT,1300 W FILLMORE ST,COLORADO SPRINGS,CO,80907,"LAFARGE FILLMORE ASPHALT.1300 W FILLMORE ST, COLORADO SPRINGS COLORADO 80907 (EL PASO)",0,C,,110001430611
8163WCLHNT33415,-106.605,39.648,False,08,037,000401,08,08037,08037000401,1400000US08037000401,CALHOUN EATON - EDWARD CONCRETE PLANT,33415 HIGHWAY 6,EDWARDS,CO,81632,"CALHOUN EATON - EDWARD CONCRETE PLANT.33415 HIGHWAY 6, EDWARDS COLORADO 81632 (EAGLE)",0,C,,110007091743
8024WSTHRN5512L,-104.92299999999999,39.708,False,08,031,015300,08,08031,08031015300,1400000US08031015300,"SOUTHERN FOODS GROUP, LLC D/B/A DILLON DAIRY",5512 LEETSDALE DRIVE,DENVER,CO,80246,"SOUTHERN FOODS GROUP, LLC D/B/A DILLON DAIRY.5512 LEETSDALE DRIVE, DENVER COLORADO 80246 (DENVER)",1,C,,110043671229
8110WTLFLS615ST,-105.865,37.466,False,08,003,960300,08,08003,08003960300,1400000US08003960300,ALTA FUELS INC,615 STATE AVE,ALAMOSA,CO,81101,"ALTA FUELS INC.615 STATE AVE, ALAMOSA COLORADO 81101 (ALAMOSA)",0,C,,110069310463
8011WLYNNL7915C,-104.51700000000001,39.352,False,08,039,961208,08,08039,08039961208,1400000US08039961208,GRANITE INLINER LLC,7915 CHERRYWOOD LOOP,KIOWA,CO,80117,"GRANITE INLINER LLC.7915 CHERRYWOOD LOOP, KIOWA COLORADO 80117 (ELBERT)",0,C,,110056511467
8040WLCTRM897TA,-105.12899999999999,39.732,False,08,059,010901,08,08059,08059010901,1400000US08059010901,ELECTRO-MECHANICAL PRODUCTS INC,897 TABOR ST,LAKEWOOD,CO,80401,"ELECTRO-MECHANICAL PRODUCTS INC.897 TABOR ST, LAKEWOOD COLORADO 80401 (JEFFERSON)",0,C,,110055499811
8105WMNTNP3FIFT,-103.20200000000001,37.982,False,08,011,966700,08,08011,08011966700,1400000US08011966700,"MOUNTAIN PRAIRIE, LLC",FIVE TO EIGHT MILES SOUTH OF LAS ANIMAS OFF HWY 10,LAS ANIMAS,CO,81054,"MOUNTAIN PRAIRIE, LLC.FIVE TO EIGHT MILES SOUTH OF LAS ANIMAS OFF HWY 10, LAS ANIMAS COLORADO 81054 (BENT)",0,C,,110055499857
8050WBSTWY1141W,-104.964,40.166,False,08,123,002019,08,08123,08123002019,1400000US08123002019,BESTWAY CONCRETE CO-LONGMONT,11401 WCR 9 3/4,LONGMONT,CO,80501,"BESTWAY CONCRETE CO-LONGMONT.11401 WCR 9 3/4, LONGMONT COLORADO 80501 (WELD)",0,C,,110060259679
8052WNTNLN2EAST,-105.039,40.668,False,08,069,002502,08,08069,08069002502,1400000US08069002502,NATIONAL INSTITUTE OF STANDARDS & TECHNOLOGY WWV/WWVB,2000 E COUNTY RD 58,FORT COLLINS,CO,80524,"NATIONAL INSTITUTE OF STANDARDS & TECHNOLOGY WWV/WWVB.2000 E COUNTY RD 58, FORT COLLINS COLORADO 80524 (LARIMER)",0,F,,110060259143
8053WLVLND644NC,-105.125,40.398,False,08,069,001808,08,08069,08069001808,1400000US08069001808,LOVELAND READY MIX,644 N NAMAQUA AVE,LOVELAND,CO,80537,"LOVELAND READY MIX.644 N NAMAQUA AVE, LOVELAND COLORADO 80537 (LARIMER)",0,C,,110060258411
8060WBSTWY11723,-104.835,40.0,False,08,001,008541,08,08123,08001008541,1400000US08001008541,BESTWAY CONCRETE CO-BRIGHTON,11723 WCR #2,BRIGHTON,CO,80601,"BESTWAY CONCRETE CO-BRIGHTON.11723 WCR #2, BRIGHTON COLORADO 80601 (WELD)",1,C,,110060280556
8073WNLCGR29WES,-104.728,40.441,False,08,123,001300,08,08123,08123001300,1400000US08123001300,NALCO COMPANY-GREELEY,2900 W F ST,GREELEY,CO,80631,"NALCO COMPANY-GREELEY.2900 W F ST, GREELEY COLORADO 80631 (WELD)",1,C,,110060260872
8055WBSTWY32744,-104.941,40.476,False,08,123,002206,08,08123,08123002206,1400000US08123002206,BESTWAY CONCRETE CO WINDSOR,32744 WCR 13,WINDSOR,CO,80550,"BESTWAY CONCRETE CO WINDSOR.32744 WCR 13, WINDSOR COLORADO 80550 (WELD)",0,C,,110069236865
8063WNLCCM2696T,-104.697,40.423,False,08,123,000502,08,08123,08123000502,1400000US08123000502,NALCO COMPANY-GREELEY,26960 TRANSPORTATION DRIVE,GREELEY,CO,80631,"NALCO COMPANY-GREELEY.26960 TRANSPORTATION DRIVE, GREELEY COLORADO 80631 (WELD)",0,C,,110069290261
8112WBYFLD6699C,-107.57799999999999,37.191,False,08,067,940300,08,08067,08067940300,1400000US08067940300,BAYFIELD READY MIX CONCRETE PLANT,6699 C.R. 521,BAYFIELD,CO,81122,"BAYFIELD READY MIX CONCRETE PLANT.6699 C.R. 521, BAYFIELD COLORADO 81122 (LA PLATA)",0,C,,110069244124
8130WNMSGL9755C,-107.874,37.192,False,08,067,940400,08,08067,08067940400,1400000US08067940400,ANIMAS GLACIER GRAVEL,9755 CR 213,DURANGO,CO,81301,"ANIMAS GLACIER GRAVEL.9755 CR 213, DURANGO COLORADO 81301 (LA PLATA)",0,C,,110064747001
8045WLMCLR142FR,-105.429,39.741,False,08,019,014700,08,08019,08019014700,1400000US08019014700,ELAM CLEAR CREEK BATCH PLANT,142 FREI WAY,IDAHO SPRINGS,CO,80452,"ELAM CLEAR CREEK BATCH PLANT.142 FREI WAY, IDAHO SPRINGS COLORADO 80452 (CLEAR CREEK)",0,C,,110070247452
8049WPKSLV28755,-106.10799999999999,39.696999999999996,False,08,117,000100,08,08117,08117000100,1400000US08117000100,PEAK SILVERTHORNE BATCH PLANT,28755 HIGHWAY 9,SILVERTHORNE,CO,80498,"PEAK SILVERTHORNE BATCH PLANT.28755 HIGHWAY 9, SILVERTHORNE COLORADO 80498 (SUMMIT)",0,C,,110070247455
8062WBSTWY12367,-104.822,40.044000000000004,False,08,123,001908,08,08123,08123001908,1400000US08123001908,BESTWAY CONCRETE CO - FT LUPTON,12367 COUNTY ROAD 8,FORT LUPTON,CO,80621,"BESTWAY CONCRETE CO - FT LUPTON.12367 COUNTY ROAD 8, FORT LUPTON COLORADO 80621 (WELD)",0,C,,110070253837
8090WGGRGT444EC,-104.816,38.828,False,08,041,002200,08,08041,08041002200,1400000US08041002200,AGGREGATE INDUSTRIES WCR INC CS-MAIN READY MIX PLANT,444 E COSTILLA ST,COLORADO SPRINGS,CO,80903,"AGGREGATE INDUSTRIES WCR INC CS-MAIN READY MIX PLANT.444 E COSTILLA ST, COLORADO SPRINGS COLORADO 80903 (EL PASO)",0,C,,110001430586
8093WGGRGT3555N,-104.68299999999999,38.885999999999996,False,08,041,005108,08,08041,08041005108,1400000US08041005108,AGGREGATE INDUSTRIES WCR INC CS-EAST READY MIX PLANT,3555 N MARKSHEFFEL RD,COLORADO SPRINGS,CO,80939,"AGGREGATE INDUSTRIES WCR INC CS-EAST READY MIX PLANT.3555 N MARKSHEFFEL RD, COLORADO SPRINGS COLORADO 80939 (EL PASO)",0,C,,110070559773
