TRIFID,LONGITUDE,LATITUDE,ESTIMATE,STATEFP,COUNTYFP,TRACTCE,STATEGEOID,COUNTYGEOID,TRACTGEOID,AFFGEOID,FACILITY_NAME,STREET,CITY,STUSPS,ZIP_CODE,FACILITY,FAC_CLOSED_IND,ASGN_FEDERAL_IND,BIA_CODE,EPA_REGISTRY_ID
96705MCBRYNUMIL,-159.556,21.895,False,15,007,040700,15,15007,15007040700,1400000US15007040700,MCBRYDE SUGAR CO LTD NUMILA,MAIN RD,ELEELE,HI,96705,"MCBRYDE SUGAR CO LTD NUMILA.MAIN RD, ELEELE HAWAII 96705 (KAUAI)",0,C,,
96705KLCTR4392W,-159.586,21.9,False,15,007,040700,15,15007,15007040700,1400000US15007040700,PORT ALLEN GENERATING STATION,261 AKAULA ST.,ELEELE,HI,96705,"PORT ALLEN GENERATING STATION.261 AKAULA ST., ELEELE HAWAII 96705 (KAUAI)",0,C,,110064110652
96705CHVRNABRDX,-159.586,21.9,False,15,007,040700,15,15007,15007040700,1400000US15007040700,CHEVRON P RODUCTS CO PORT ALLEN TERMINAL,A & B RD,ELEELE,HI,96705,"CHEVRON P RODUCTS CO PORT ALLEN TERMINAL.A & B RD, ELEELE HAWAII 96705 (KAUAI)",0,C,,
96706BRWRC9129H,-158.10299999999998,21.311,False,15,003,980300,15,15003,15003980300,1400000US15003980300,BREWER CHEMICAL CORP,91-290 HANUA ST PARK,EWA BEACH,HI,96706,"BREWER CHEMICAL CORP.91-290 HANUA ST PARK, EWA BEACH HAWAII 96706 (HONOLULU)",1,C,,
96707CCCLX91233,-158.099,21.311,False,15,003,980300,15,15003,15003980300,1400000US15003980300,COCA-COLA USA HONOLULU SYRUP PLANT,91-233 KALAELOA BLVD,KAPOLEI,HI,96707,"COCA-COLA USA HONOLULU SYRUP PLANT.91-233 KALAELOA BLVD, KAPOLEI HAWAII 96707 (HONOLULU)",0,C,,
96707CHVRN91480,-158.111,21.311,False,15,003,980300,15,15003,15003980300,1400000US15003980300,IES DOWNSTREAM LLC - KAPOLEI REFINERY,91-480 MALAKOLE ST,KAPOLEI,HI,96707,"IES DOWNSTREAM LLC - KAPOLEI REFINERY.91-480 MALAKOLE ST, KAPOLEI HAWAII 96707 (HONOLULU)",0,C,,110000486304
96707HNLLW91291,-158.10299999999998,21.311,False,15,003,980300,15,15003,15003980300,1400000US15003980300,HONOLULU WOOD TREATING LLC,91-291 HANUA ST,KAPOLEI,HI,96707,"HONOLULU WOOD TREATING LLC.91-291 HANUA ST, KAPOLEI HAWAII 96707 (HONOLULU)",0,C,,110000486313
96707HWNCM91055,-158.108,21.301,False,15,003,980300,15,15003,15003980300,1400000US15003980300,HAWAIIAN CEMENT CEMENT DIV,91-055 KAOMI LOOP,EWA BEACH,HI,96707,"HAWAIIAN CEMENT CEMENT DIV.91-055 KAOMI LOOP, EWA BEACH HAWAII 96707 (HONOLULU)",0,C,,
96707HWNND91325,-158.091,21.304000000000002,False,15,003,980300,15,15003,15003980300,1400000US15003980300,PAR HAWAII REFINING LLC,91-325 KOMOHANA ST,KAPOLEI,HI,96707,"PAR HAWAII REFINING LLC.91-325 KOMOHANA ST, KAPOLEI HAWAII 96707 (HONOLULU)",0,C,,110000486322
96707MFCWD91445,-158.094,21.311,False,15,003,980300,15,15003,15003980300,1400000US15003980300,AMFAC WOOD TREATMENT FACILITY,91-445 KOMOHANA ST,EWA BEACH,HI,967071715,"AMFAC WOOD TREATMENT FACILITY.91-445 KOMOHANA ST, EWA BEACH HAWAII 96707 (HONOLULU)",0,C,,
96707RLMJR91104,-158.099,21.311,False,15,003,980300,15,15003,15003980300,1400000US15003980300,JORGENSEN STEEL & ALUMINUM (EMJ),91-104 KALAELOA BLVD,KAPOLEI,HI,96707,"JORGENSEN STEEL & ALUMINUM (EMJ).91-104 KALAELOA BLVD, KAPOLEI HAWAII 96707 (HONOLULU)",0,C,,
96707RYNLD91320,-158.094,21.311,False,15,003,980300,15,15003,15003980300,1400000US15003980300,BALL METAL BEVERAGE CONTAINER CORP,91-320 KOMOHANA ST,KAPOLEI,HI,96707,"BALL METAL BEVERAGE CONTAINER CORP.91-320 KOMOHANA ST, KAPOLEI HAWAII 96707 (HONOLULU)",0,C,,110000486340
96707BNDDM91400,-158.094,21.311,False,15,003,980300,15,15003,15003980300,1400000US15003980300,BONDED MATERIALS CO,91-400 KOMOHANA ST,EWA BEACH,HI,967071716,"BONDED MATERIALS CO.91-400 KOMOHANA ST, EWA BEACH HAWAII 96707 (HONOLULU)",0,C,,
96707BRWRN91291,-158.113,21.305,False,15,003,980300,15,15003,15003980300,1400000US15003980300,BEI HAWAII  - BARBERS POINT,91-150  KAOMI LOOP,KAPOLEI,HI,96707,"BEI HAWAII  - BARBERS POINT.91-150  KAOMI LOOP, KAPOLEI HAWAII 96707 (HONOLULU)",0,C,,110000486288
96707KLLCG91111,-158.096,21.302,False,15,003,980300,15,15003,15003980300,1400000US15003980300,KALAELOA COGEN PLANT,91-111 KALAELOA BLVD,KAPOLEI,HI,96707,"KALAELOA COGEN PLANT.91-111 KALAELOA BLVD, KAPOLEI HAWAII 96707 (HONOLULU)",0,C,,110041190421
96707SHWNC91086,-158.107,21.301,False,15,003,980300,15,15003,15003980300,1400000US15003980300,AES HAWAII LLC,91-086 KAOMI LOOP,KAPOLEI,HI,96707,"AES HAWAII LLC.91-086 KAOMI LOOP, KAPOLEI HAWAII 96707 (HONOLULU)",0,C,,110027164164
96707TXCBR91119,-158.10299999999998,21.311,False,15,003,980300,15,15003,15003980300,1400000US15003980300,ALOHA PETROLEUM BARBERS POINT TERMINAL,91-139 HANUA ST,KAPOLEI,HI,96707,"ALOHA PETROLEUM BARBERS POINT TERMINAL.91-139 HANUA ST, KAPOLEI HAWAII 96707 (HONOLULU)",0,C,,110014058508
96707RFRGR9122K,-158.094,21.311,False,15,003,980300,15,15003,15003980300,1400000US15003980300,REFRIGERANT RECYCLING INC AKA ISLAND DISTRIBUTORS,91-220 KOMOHANA ST,KAPOLEI,HI,96707,"REFRIGERANT RECYCLING INC AKA ISLAND DISTRIBUTORS.91-220 KOMOHANA ST, KAPOLEI HAWAII 96707 (HONOLULU)",0,C,,110022448396
9670WHCCMP91196,-158.10299999999998,21.311,False,15,003,980300,15,15003,15003980300,1400000US15003980300,HAWAIIAN ELECTRIC CAMPBELL INDUSTRIAL PARK GENERATING STA,91-196 HANUA STREET,KAPOLEI,HI,96707,"HAWAIIAN ELECTRIC CAMPBELL INDUSTRIAL PARK GENERATING STA.91-196 HANUA STREET, KAPOLEI HAWAII 96707 (HONOLULU)",0,C,,110045950315
9670WSSCTD9127K,-158.099,21.311,False,15,003,980300,15,15003,15003980300,1400000US15003980300,CMC STEEL FABRICATORS INC DBA ASSOCIATED STEEL WORKERS,91-207 KALAELOA BLVD,KAPOLEI,HI,96707,"CMC STEEL FABRICATORS INC DBA ASSOCIATED STEEL WORKERS.91-207 KALAELOA BLVD, KAPOLEI HAWAII 96707 (HONOLULU)",0,C,,110070055322
96721BRWRC60KUH,-155.054,19.729,False,15,001,020600,15,15001,15001020600,1400000US15001020600,BEI-HILO,60 KUHIO AVE,HILO,HI,96720,"BEI-HILO.60 KUHIO AVE, HILO HAWAII 96720 (HAWAII)",0,C,,
96720HLWDT66KUK,-155.06,19.703,False,15,001,020600,15,15001,15001020600,1400000US15001020600,HILO WOOD TREATING INC,66 KUKILA ST,HILO,HI,96720,"HILO WOOD TREATING INC.66 KUKILA ST, HILO HAWAII 96720 (HAWAII)",0,C,,
96720HWPLN150KE,-155.059,19.723,False,15,001,020600,15,15001,15001020600,1400000US15001020600,HAWAII PLANING MILL LTD (DBA WOOD PROTECTION CO),150 KEA'A ST,HILO,HI,96720,"HAWAII PLANING MILL LTD (DBA WOOD PROTECTION CO).150 KEA'A ST, HILO HAWAII 96720 (HAWAII)",0,C,,
96720HLLGN54HAL,-155.063,19.705,False,15,001,020600,15,15001,15001020600,1400000US15001020600,HAWAII ELECTRIC LIGHT CO INC HILL GENERATING STATION,54 HALEKAUILA ST,HILO,HI,96720,"HAWAII ELECTRIC LIGHT CO INC HILL GENERATING STATION.54 HALEKAUILA ST, HILO HAWAII 96720 (HAWAII)",0,C,,110000486377
96720SHPMN20BAY,-155.069,19.724,False,15,001,020600,15,15001,15001020600,1400000US15001020600,HAWAII ELECTRIC LIGHT CO INC SHIPMAN GENERATING STATION,20 BANYAN DR,HILO,HI,96720,"HAWAII ELECTRIC LIGHT CO INC SHIPMAN GENERATING STATION.20 BANYAN DR, HILO HAWAII 96720 (HAWAII)",0,C,,110013789178
96720HLTRM666KA,-155.055,19.727,False,15,001,020600,15,15001,15001020600,1400000US15001020600,CHEVRON HILO TERMINAL,666 KALANIANAOLE AVE,HILO,HI,96720,"CHEVRON HILO TERMINAL.666 KALANIANAOLE AVE, HILO HAWAII 96720 (HAWAII)",0,C,,110000888353
96720LHPTR999KA,-155.05,19.73,False,15,001,020600,15,15001,15001020600,1400000US15001020600,ALOHA PETROLEUM HILO  EAST TERMINAL,999 KALANAIANAOLE AVE,HILO,HI,967204749,"ALOHA PETROLEUM HILO  EAST TERMINAL.999 KALANAIANAOLE AVE, HILO HAWAII 96720 (HAWAII)",0,C,,110000888335
9672WLHPTR661KA,-155.055,19.727,False,15,001,020600,15,15001,15001020600,1400000US15001020600,ALOHA PETROLEUM LTD-HILO WEST TERMINAL,661 KALANIANAOLE AVE,HILO,HI,96720,"ALOHA PETROLEUM LTD-HILO WEST TERMINAL.661 KALANIANAOLE AVE, HILO HAWAII 96720 (HAWAII)",0,C,,110041192580
96732BRWRC2910B,-156.474,20.89,False,15,009,031101,15,15009,15009031101,1400000US15009031101,BREWER ENVIRONMENTAL IND INC,2910 BEACH RD,KAHULUI,HI,96732,"BREWER ENVIRONMENTAL IND INC.2910 BEACH RD, KAHULUI HAWAII 96732 (MAUI)",0,C,,
96732HWWDP356HA,-156.457,20.886999999999997,False,15,009,031900,15,15009,15009031900,1400000US15009031900,HAWAII WOOD PRESERVING CO,356 HANAKAI ST,KAHULUI,HI,96732,"HAWAII WOOD PRESERVING CO.356 HANAKAI ST, KAHULUI HAWAII 96732 (MAUI)",0,C,,
96784HWNCMHANSE,-156.453,20.866999999999997,False,15,009,031900,15,15009,15009031900,1400000US15009031900,HAWAIIAN COMMERCIAL & SUGAR CO,HANSEN RD,PUUNENE,HI,96784,"HAWAIIAN COMMERCIAL & SUGAR CO.HANSEN RD, PUUNENE HAWAII 96784 (MAUI)",0,C,,
96732KHLGN200HO,-156.463,20.897,False,15,009,031900,15,15009,15009031900,1400000US15009031900,MAUI ELECTRIC CO LTD KAHULUI GENERATING STATION,200 HOBRON LN,KAHULUI,HI,96732,"MAUI ELECTRIC CO LTD KAHULUI GENERATING STATION.200 HOBRON LN, KAHULUI HAWAII 96732 (MAUI)",0,C,,110000486395
96732CHVRN1AHBR,-156.46200000000002,20.894000000000002,False,15,009,031900,15,15009,15009031900,1400000US15009031900,CHEVRON KAHULUI TERMINAL,100A HOBRON AVE,KAHULUI,HI,96732,"CHEVRON KAHULUI TERMINAL.100A HOBRON AVE, KAHULUI HAWAII 96732 (MAUI)",0,C,,110020517555
96732MPNPP120KA,-156.472,20.886,False,15,009,031102,15,15009,15009031102,1400000US15009031102,MAUI PINEAPPLE CO LTD.,120 KANE ST,KAHULUI,HI,96732,"MAUI PINEAPPLE CO LTD..120 KANE ST, KAHULUI HAWAII 96732 (MAUI)",0,C,,110000486402
96747LKLSGKAUMA,-159.628,21.910999999999998,False,15,007,040800,15,15007,15007040800,1400000US15007040800,OLOKELE SUGAR CO LTD,1 KAUMAKANI AVE,KAUMAKANI,HI,967470156,"OLOKELE SUGAR CO LTD.1 KAUMAKANI AVE, KAUMAKANI HAWAII 96747 (KAUAI)",0,C,,
96752KKHSG8315K,-159.711,21.969,False,15,007,040900,15,15007,15007040900,1400000US15007040900,KEKAHA SUGAR CO LTD,8315 KEKAHA RD,KEKAHA,HI,96752,"KEKAHA SUGAR CO LTD.8315 KEKAHA RD, KEKAHA HAWAII 96752 (KAUAI)",0,C,,
96752SNVYPKAUMU,-159.785,22.026,False,15,007,040900,15,15007,15007040900,1400000US15007040900,US NAVY PACIFIC MISSILE RANGE FACILITY,KAUMUALII HWY & IMILOA RD,KEKAHA,HI,967520128,"US NAVY PACIFIC MISSILE RANGE FACILITY.KAUMUALII HWY & IMILOA RD, KEKAHA HAWAII 96752 (KAUAI)",0,F,,
96766BRWRCKAUMU,-159.387,21.97,False,15,007,040400,15,15007,15007040400,1400000US15007040400,BREWER ENVIRONMENTAL IND LLC,3-1480 KAUMUALII HWY,PUHI,HI,96766,"BREWER ENVIRONMENTAL IND LLC.3-1480 KAUMUALII HWY, PUHI HAWAII 96766 (KAUAI)",0,C,,
96766THLHP2970K,-159.373,21.976,False,15,007,040500,15,15007,15007040500,1400000US15007040500,LIHUE PLANTATION CO LTD,4538 HOOMANA RD,LIHUE,HI,96766,"LIHUE PLANTATION CO LTD.4538 HOOMANA RD, LIHUE HAWAII 96766 (KAUAI)",0,C,,
96766KPWRP4941K,-159.342,21.979,False,15,007,040500,15,15007,15007040500,1400000US15007040500,KAPAIA POWER STATION,4941-K MAALO RD,LIHUE,HI,96766,"KAPAIA POWER STATION.4941-K MAALO RD, LIHUE HAWAII 96766 (KAUAI)",0,C,,110015679050
96767PNRML380LA,-156.675,20.879,False,15,009,031405,15,15009,15009031405,1400000US15009031405,PIONEER MILL CO LTD,380 LAHAINALUNA ST,LAHAINA,HI,967670727,"PIONEER MILL CO LTD.380 LAHAINALUNA ST, LAHAINA HAWAII 96767 (MAUI)",0,C,,
96776HMKSGPOBOX,-155.351,20.035999999999998,False,15,001,022000,15,15001,15001022000,1400000US15001022000,HAMAKUA SUGAR CO INC,PO BOX 250 HWY 19,PAAUILO,HI,96776,"HAMAKUA SUGAR CO INC.PO BOX 250 HWY 19, PAAUILO HAWAII 96776 (HAWAII)",0,C,,
96720SRMYPSADDL,-155.533,19.667,False,15,001,022000,15,15001,15001022000,1400000US15001022000,US ARMY POHAKULOA TRAINING AREA - RANGE FACILITY,SADDLE RD MILE 36,HILO,HI,96720,"US ARMY POHAKULOA TRAINING AREA - RANGE FACILITY.SADDLE RD MILE 36, HILO HAWAII 96720 (HAWAII)",0,F,,110009349142
96777KGRBSPOBOX,-155.47799999999998,19.198,False,15,001,021202,15,15001,15001021202,1400000US15001021202,KA'U AGRIBUSINESS CO INC,#1 MILL RD,PAHALA,HI,96777,"KA'U AGRIBUSINESS CO INC.#1 MILL RD, PAHALA HAWAII 96777 (HAWAII)",0,C,,
96718SNTLP1CRAT,-155.257,19.429000000000002,False,15,001,021202,15,15001,15001021202,1400000US15001021202,US NATL PARK SERVICE HAWAII VOLCANOES NATIONAL PARK,1 CRATER RIM DR,HAWAII NATIONAL PARK,HI,96718,"US NATL PARK SERVICE HAWAII VOLCANOES NATIONAL PARK.1 CRATER RIM DR, HAWAII NATIONAL PARK HAWAII 96718 (HAWAII)",0,F,,110022524623
96779HWNCM497BA,-156.372,20.903000000000002,False,15,009,030501,15,15009,15009030501,1400000US15009030501,HAWAIIAN COMMERCIAL & SUGAR CO,497 BALDWIN AVE,PAIA,HI,96779,"HAWAIIAN COMMERCIAL & SUGAR CO.497 BALDWIN AVE, PAIA HAWAII 96779 (MAUI)",0,C,,
96783HLCSTMILLV,-155.09,19.848,False,15,001,020100,15,15001,15001020100,1400000US15001020100,HILO COAST POWER CO,1 MILL RD,PEPEEKEO,HI,96783,"HILO COAST POWER CO.1 MILL RD, PEPEEKEO HAWAII 96783 (HAWAII)",0,C,,
96791WLSGRKEALO,-158.121,21.573,False,15,003,009904,15,15003,15003009904,1400000US15003009904,WAIALUA SUGAR CO INC,67-202 KUPAHU ST,WAIALUA,HI,96791,"WAIALUA SUGAR CO INC.67-202 KUPAHU ST, WAIALUA HAWAII 96791 (HONOLULU)",0,C,,
96797CRNND94061,-158.018,21.378,False,15,003,008703,15,15003,15003008703,1400000US15003008703,CRAIN INDUSTRIES INC HAWAII DIV,94061 LEOKANE ST,WAIPAHU,HI,96797,"CRAIN INDUSTRIES INC HAWAII DIV.94061 LEOKANE ST, WAIPAHU HAWAII 96797 (HONOLULU)",0,C,,
96797HSGRC94833,-158.007,21.388,False,15,003,008800,15,15003,15003008800,1400000US15003008800,OAHU SUGAR CO LTD,94-833 MAKAALOHA ST,WAIPAHU,HI,96797,"OAHU SUGAR CO LTD.94-833 MAKAALOHA ST, WAIPAHU HAWAII 96797 (HONOLULU)",0,C,,
96814BRDNN1418Y,-157.84,21.299,False,15,003,003502,15,15003,15003003502,1400000US15003003502,BORDEN INC DAIRY DIV,1418 YOUNG ST,HONOLULU,HI,96814,"BORDEN INC DAIRY DIV.1418 YOUNG ST, HONOLULU HAWAII 96814 (HONOLULU)",0,C,,
96814BRDNN910SH,-157.841,21.298000000000002,False,15,003,003601,15,15003,15003003601,1400000US15003003601,SOUTHERN FOODS GROUP LLC D/B/A MEADOW GOLD DAIRIES,910 SHERIDAN ST,HONOLULU,HI,96814,"SOUTHERN FOODS GROUP LLC D/B/A MEADOW GOLD DAIRIES.910 SHERIDAN ST, HONOLULU HAWAII 96814 (HONOLULU)",0,C,,110002148710
96817BRWRC311PA,-157.871,21.315,False,15,003,005700,15,15003,15003005700,1400000US15003005700,BEI HAWAII-IWILEI,311 PACIFIC ST,HONOLULU,HI,96817,"BEI HAWAII-IWILEI.311 PACIFIC ST, HONOLULU HAWAII 96817 (HONOLULU)",0,C,,110000903210
96817DLPCK650IW,-157.869,21.319000000000003,False,15,003,005700,15,15003,15003005700,1400000US15003005700,DOLE PACKAGED FOODS CO,801 DILLINGHAM BLVD,HONOLULU,HI,96817,"DOLE PACKAGED FOODS CO.801 DILLINGHAM BLVD, HONOLULU HAWAII 96817 (HONOLULU)",0,C,,
96817HNLLM777NN,-157.872,21.313000000000002,False,15,003,005700,15,15003,15003005700,1400000US15003005700,IES DOWNSTREAM LLC - HONOLULU TERMINAL MARINE,777 N NIMITZ HWY,HONOLULU,HI,96817,"IES DOWNSTREAM LLC - HONOLULU TERMINAL MARINE.777 N NIMITZ HWY, HONOLULU HAWAII 96817 (HONOLULU)",0,C,,110027205726
96817HNLLT933NN,-157.875,21.316999999999997,False,15,003,005700,15,15003,15003005700,1400000US15003005700,CHEVRON HONOLULU TERMINAL TRAN SPORTATION,933 N NIMITZ HWY,HONOLULU,HI,96817,"CHEVRON HONOLULU TERMINAL TRAN SPORTATION.933 N NIMITZ HWY, HONOLULU HAWAII 96817 (HONOLULU)",0,C,,110013777190
96817QLNHN789NN,-157.87,21.31,False,15,003,005700,15,15003,15003005700,1400000US15003005700,ALOHA PETROLEUM HONOLULU TERMINAL,789 N NIMITZ HWY,HONOLULU,HI,96817,"ALOHA PETROLEUM HONOLULU TERMINAL.789 N NIMITZ HWY, HONOLULU HAWAII 96817 (HONOLULU)",0,C,,110000486475
96817TSCDS411PA,-157.872,21.316,False,15,003,005700,15,15003,15003005700,1400000US15003005700,CONOCOPHILLIPS CO HONOLULU TERMINAL,411 PACIFIC ST,HONOLULU,HI,96817,"CONOCOPHILLIPS CO HONOLULU TERMINAL.411 PACIFIC ST, HONOLULU HAWAII 96817 (HONOLULU)",0,C,,
96819PLSTC317KI,-157.875,21.304000000000002,False,15,003,005700,15,15003,15003005700,1400000US15003005700,PLAS-TECH LIMITED,317 KILUA PL,HONOLULU,HI,96819,"PLAS-TECH LIMITED.317 KILUA PL, HONOLULU HAWAII 96819 (HONOLULU)",0,C,,110025334163
96817LPCCR815WA,-157.873,21.326999999999998,False,15,003,005800,15,15003,15003005800,1400000US15003005800,PEPSI-COLA CO OF HAWAII,815 WAIAKAMILO RD,AIEA,HI,96701,"PEPSI-COLA CO OF HAWAII.815 WAIAKAMILO RD, AIEA HAWAII 96701 (HONOLULU)",0,C,,
96819HSFDS2277K,-157.885,21.331999999999997,False,15,003,006000,15,15003,15003006000,1400000US15003006000,HOUSE FOODS HAWAII CORP,2277 KAMEHAMEHA HWY,HONOLULU,HI,96819,"HOUSE FOODS HAWAII CORP.2277 KAMEHAMEHA HWY, HONOLULU HAWAII 96819 (HONOLULU)",0,C,,
96819LGNTM1062A,-157.891,21.34,False,15,003,006600,15,15003,15003006600,1400000US15003006600,ELEGANT MARBLE INC,1062A KIKOWAENA PL,HONOLULU,HI,968194413,"ELEGANT MARBLE INC.1062A KIKOWAENA PL, HONOLULU HAWAII 96819 (HONOLULU)",1,C,,
96819NTDFM2938U,-157.906,21.333000000000002,False,15,003,981400,15,15003,15003981400,1400000US15003981400,UNITED FOAM CORP,2938 UALENA ST,HONOLULU,HI,96819,"UNITED FOAM CORP.2938 UALENA ST, HONOLULU HAWAII 96819 (HONOLULU)",1,C,,
96782LHSHY96120,-157.972,21.412,False,15,003,008006,15,15003,15003008006,1400000US15003008006,ALOHA SHOYU CO LTD,96-1205 WAIHONA ST,PEARL CITY,HI,96782,"ALOHA SHOYU CO LTD.96-1205 WAIHONA ST, PEARL CITY HAWAII 96782 (HONOLULU)",0,C,,
96786HRZNN401NC,-158.026,21.502,False,15,003,009300,15,15003,15003009300,1400000US15003009300,HORIZON IND INC,401 N CANE ST BLDG B,WAHIAWA,HI,967862111,"HORIZON IND INC.401 N CANE ST BLDG B, WAHIAWA HAWAII 96786 (HONOLULU)",0,C,,
96820CCCLB949MA,-157.899,21.343000000000004,False,15,003,981300,15,15003,15003981300,1400000US15003981300,COCA-COLA BOTTLING CO OF HAWAII,949 MAPUNAPUNA ST,HONOLULU,HI,968194491,"COCA-COLA BOTTLING CO OF HAWAII.949 MAPUNAPUNA ST, HONOLULU HAWAII 96819 (HONOLULU)",0,C,,
96819MDPCL839AH,-157.89600000000002,21.34,False,15,003,981300,15,15003,15003981300,1400000US15003981300,MIDPAC LUMBER CO LTD,839 AHUA ST,HONOLULU,HI,96819,"MIDPAC LUMBER CO LTD.839 AHUA ST, HONOLULU HAWAII 96819 (HONOLULU)",0,C,,
96701LPCCR99132,-157.907,21.373,False,15,003,007502,15,15003,15003007502,1400000US15003007502,PEPSI COLA BOTTLING CO OF HONOLULU,99-1325 HALAWA VALLEY ST,AIEA,HI,967013290,"PEPSI COLA BOTTLING CO OF HONOLULU.99-1325 HALAWA VALLEY ST, AIEA HAWAII 96701 (HONOLULU)",0,C,,
96701CLFRN99195,-157.905,21.396,False,15,003,007702,15,15003,15003007702,1400000US15003007702,CALIFORNIA & HAWAIIAN SUGAR CO INC,99-195 AIEA HEIGHTS DR,AIEA,HI,96701,"CALIFORNIA & HAWAIIAN SUGAR CO INC.99-195 AIEA HEIGHTS DR, AIEA HAWAII 96701 (HONOLULU)",0,C,,
96857SDDSRWHEEL,-158.03,21.491,False,15,003,009000,15,15003,15003009000,1400000US15003009000,U.S. ARMY SCHOFIELD BARRACKS - RANGE FACILITY,BEAVER RD BLDG 1150,SCHOFIELD BARRACKS,HI,96857,"U.S. ARMY SCHOFIELD BARRACKS - RANGE FACILITY.BEAVER RD BLDG 1150, SCHOFIELD BARRACKS HAWAII 96857 (HONOLULU)",0,F,,110013286023
96860PRLHR850TI,-157.944,21.348000000000003,False,15,003,007400,15,15003,15003007400,1400000US15003007400,JOINT BASE PEARL HARBOR-HICKAM HAWAII,850 TICONDEROGA STE 110,PEARL HARBOR,HI,96860,"JOINT BASE PEARL HARBOR-HICKAM HAWAII.850 TICONDEROGA STE 110, PEARL HARBOR HAWAII 96860 (HONOLULU)",0,F,,110055394620
96793BRWRN275EW,-156.497,20.851999999999997,False,15,009,030800,15,15009,15009030800,1400000US15009030800,BEI HAWAII MAUI MAIN WAREHOUSE,300 PAKANA ST,WAILUKU,HI,96793,"BEI HAWAII MAUI MAIN WAREHOUSE.300 PAKANA ST, WAILUKU HAWAII 96793 (MAUI)",0,C,,110064110368
96749PNGNRPUNAM,-155.032,19.631,False,15,001,021013,15,15001,15001021013,1400000US15001021013,HAWAII ELECTRIC LIGHT CO INC PUNA GENERATING STATION,PUNA MILL RD,KEAAU,HI,96749,"HAWAII ELECTRIC LIGHT CO INC PUNA GENERATING STATION.PUNA MILL RD, KEAAU HAWAII 96749 (HAWAII)",0,C,,110000601377
96782WGNRT475KA,-157.961,21.389,False,15,003,008001,15,15003,15003008001,1400000US15003008001,HAWAIIAN ELECTRIC CO INC WAIAU GENERATING STATION,475 KAMEHAMEHA HWY,PEARL CITY,HI,96782,"HAWAIIAN ELECTRIC CO INC WAIAU GENERATING STATION.475 KAMEHAMEHA HWY, PEARL CITY HAWAII 96782 (HONOLULU)",0,C,,110000486420
96792KHGNR89900,-158.128,21.357,False,15,003,008611,15,15003,15003008611,1400000US15003008611,HAWAIIAN ELECTRIC CO INC KAHE GENERATING STATION,92-200 FARRINGTON HWY,KAPOLEI,HI,96707,"HAWAIIAN ELECTRIC CO INC KAHE GENERATING STATION.92-200 FARRINGTON HWY, KAPOLEI HAWAII 96707 (HONOLULU)",0,C,,110000486439
96793MLGNRNKIHE,-156.493,20.801,False,15,009,032000,15,15009,15009032000,1400000US15009032000,MAUI ELECTRIC CO LTD MAALAEA GENERATING STATION,1000 N KIHEI RD,KIHEI,HI,96753,"MAUI ELECTRIC CO LTD MAALAEA GENERATING STATION.1000 N KIHEI RD, KIHEI HAWAII 96753 (MAUI)",0,C,,110010385528
96813HNLLG170AL,-157.864,21.305999999999997,False,15,003,003900,15,15003,15003003900,1400000US15003003900,HAWAIIAN ELECTRIC CO INC HONOLULU GENERATING STATION,170 ALA MOANA BLVD,HONOLULU,HI,96813,"HAWAIIAN ELECTRIC CO INC HONOLULU GENERATING STATION.170 ALA MOANA BLVD, HONOLULU HAWAII 96813 (HONOLULU)",0,C,,110027161568
96727HMKNR45300,-155.471,20.094,False,15,001,021902,15,15001,15001021902,1400000US15001021902,HAMAKUA ENERGY PLANT,45-300 LEHUA ST,HONOKAA,HI,96727,"HAMAKUA ENERGY PLANT.45-300 LEHUA ST, HONOKAA HAWAII 96727 (HAWAII)",0,C,,110008062265
96740HWNLC73424,-156.033,19.715999999999998,False,15,001,021507,15,15001,15001021507,1400000US15001021507,HAWAII ELECTRIC LIGHT CO INC   KEAHOLE GENERATING STATION,73-4249 PUKIAWE ST,KAILUA KONA,HI,96740,"HAWAII ELECTRIC LIGHT CO INC   KEAHOLE GENERATING STATION.73-4249 PUKIAWE ST, KAILUA KONA HAWAII 96740 (HAWAII)",0,C,,110028014093
96748MLCTR32AUL,-157.064,21.105999999999998,False,15,009,031700,15,15009,15009031700,1400000US15009031700,MAUI ELECTRIC CO LTD PALAAU GENERATING STATION,32 ULILI ST,KAUNAKAKAI,HI,96748,"MAUI ELECTRIC CO LTD PALAAU GENERATING STATION.32 ULILI ST, KAUNAKAKAI HAWAII 96748 (MAUI)",0,C,,110008062283
96763MLCTR1001N,-156.934,20.79,False,15,009,031601,15,15009,15009031601,1400000US15009031601,MAUI ELECTRIC CO LTD MIKI BASIN GENERATING STATION,1001 N MIKI RD,LANAI CITY,HI,96763,"MAUI ELECTRIC CO LTD MIKI BASIN GENERATING STATION.1001 N MIKI RD, LANAI CITY HAWAII 96763 (MAUI)",0,C,,110001764029
96706SMRNC1PUUL,-157.988,21.318,False,15,003,008301,15,15003,15003008301,1400000US15003008301,US MARINE CORPS BASE HAWAII PUULOA TRAINING FACILITY,1 PUULOA RANGE RD,EWA BEACH,HI,96706,"US MARINE CORPS BASE HAWAII PUULOA TRAINING FACILITY.1 PUULOA RANGE RD, EWA BEACH HAWAII 96706 (HONOLULU)",0,F,,110013368890
96863SMRNCMAGAZ,-157.77700000000002,21.410999999999998,False,15,003,010701,15,15003,15003010701,1400000US15003010701,US MARINE CORPS BASE HAWAII KANEOHE BAY,KANEOHE BAY HI,MCBH KANEOHE BAY,HI,96863,"US MARINE CORPS BASE HAWAII KANEOHE BAY.KANEOHE BAY HI, MCBH KANEOHE BAY HAWAII 96863 (HONOLULU)",0,F,,110045603058
96792SRMYMFARRI,-158.2,21.533,False,15,003,009801,15,15003,15003009801,1400000US15003009801,US ARMY MAKUA MILITARY RESERVATION,FARRINGTON HWY,WAIANAE,HI,96792,"US ARMY MAKUA MILITARY RESERVATION.FARRINGTON HWY, WAIANAE HAWAII 96792 (HONOLULU)",0,F,,
96853SRFRCBLDG1,-157.953,21.342,False,15,003,007302,15,15003,15003007302,1400000US15003007302,US AIR FORCE HICKAM AFB HI,BLDG 1203 75 H ST,HICKAM AFB,HI,968535221,"US AIR FORCE HICKAM AFB HI.BLDG 1203 75 H ST, HICKAM AFB HAWAII 96853 (HONOLULU)",0,F,,110020517564
96743HWNLC66159,-155.7,20.027,False,15,001,021702,15,15001,15001021702,1400000US15001021702,WAIMEA GENERATING STATION & BASEYARD,66-1591 KAWAIHAE RD,KAMUELA,HI,96743,"WAIMEA GENERATING STATION & BASEYARD.66-1591 KAWAIHAE RD, KAMUELA HAWAII 96743 (HAWAII)",0,C,,110027165387
96819HFFCR321AL,-157.91299999999998,21.333000000000002,False,15,003,980200,15,15003,15003980200,1400000US15003980200,HFFC AIRPORT FUEL FARM,3201 AOLELE ST,HONOLULU,HI,96819,"HFFC AIRPORT FUEL FARM.3201 AOLELE ST, HONOLULU HAWAII 96819 (HONOLULU)",0,C,,110043729445
9678WHWNLCFTEAV,-158.058,21.478,False,15,003,008614,15,15003,15003008614,1400000US15003008614,HAWAIIAN ELECTRIC CO INC SCHOFIELD GENERATING STATION,FOOTE AVE,WAHIAWA,HI,96786,"HAWAIIAN ELECTRIC CO INC SCHOFIELD GENERATING STATION.FOOTE AVE, WAHIAWA HAWAII 96786 (HONOLULU)",0,C,,110070551029
