TRIFID,LONGITUDE,LATITUDE,ESTIMATE,STATEFP,COUNTYFP,TRACTCE,STATEGEOID,COUNTYGEOID,TRACTGEOID,AFFGEOID,FACILITY_NAME,STREET,CITY,STUSPS,ZIP_CODE,FACILITY,FAC_CLOSED_IND,ASGN_FEDERAL_IND,BIA_CODE,EPA_REGISTRY_ID
83201JRSMPDONSI,-112.52600000000001,42.907,False,16,077,960100,16,16077,16077960100,1400000US16077960100,J R SIMPLOT CO DON SID ING,1150 W HWY 30,POCATELLO,ID,83204,"J R SIMPLOT CO DON SID ING.1150 W HWY 30, POCATELLO IDAHO 83204 (POWER)",0,C,,110000600421
83201KRLYGARBON,-112.62200000000001,42.888000000000005,False,16,077,960100,16,16005,16077960100,1400000US16077960100,KERLEY AG INC,ARBON RD & I-86,POCATELLO,ID,83201,"KERLEY AG INC.ARBON RD & I-86, POCATELLO IDAHO 83201 (BANNOCK)",0,C,,
83202FMCCR3MIWE,-112.523,42.901,False,16,077,960100,16,16077,16077960100,1400000US16077960100,FMC IDAHO LLC,HWY 30 W OF CITY,POCATELLO,ID,83202,"FMC IDAHO LLC.HWY 30 W OF CITY, POCATELLO IDAHO 83202 (POWER)",0,C,,
83201RCCRB1150W,-112.52600000000001,42.907,False,16,077,960100,16,16077,16077960100,1400000US16077960100,BOC GASES,1150 W HWY 30,POCATELLO,ID,83204,"BOC GASES.1150 W HWY 30, POCATELLO IDAHO 83204 (POWER)",1,C,,
8320WPCTLL1433F,-112.587,42.907,False,16,077,960100,16,16077,16077960100,1400000US16077960100,POCATELLO AIRTANKER BASE,1433 FLIGHT AVE,POCATELLO,ID,83204,"POCATELLO AIRTANKER BASE.1433 FLIGHT AVE, POCATELLO IDAHO 83204 (POWER)",0,F,,110070531357
83201KRFTN221NO,-112.476,42.88399999999999,False,16,005,001601,16,16005,16005001601,1400000US16005001601,KRAFT INC,221 N KRAFT CT,POCATELLO,ID,83201,"KRAFT INC.221 N KRAFT CT, POCATELLO IDAHO 83201 (BANNOCK)",2,C,,
83201MRCNM2300B,-112.415,42.867,False,16,005,000600,16,16005,16005000600,1400000US16005000600,ON SEMICONDUCTOR INC,2300 BUCKSKIN RD,POCATELLO,ID,83201,"ON SEMICONDUCTOR INC.2300 BUCKSKIN RD, POCATELLO IDAHO 83201 (BANNOCK)",0,C,,110055553681
83204GRTWS1666K,-112.488,42.893,False,16,005,981800,16,16005,16005981800,1400000US16005981800,GREAT WESTERN MALTING CO,1666 KRAFT RD,POCATELLO,ID,83204,"GREAT WESTERN MALTING CO.1666 KRAFT RD, POCATELLO IDAHO 83204 (BANNOCK)",0,C,,
83210JRSMPWESTR,-112.829,42.946999999999996,False,16,011,950300,16,16011,16011950300,1400000US16011950300,JR SIMPLOT FOOD GROUP,624 SIMPLOT LOOP,ABERDEEN,ID,83210,"JR SIMPLOT FOOD GROUP.624 SIMPLOT LOOP, ABERDEEN IDAHO 83210 (BINGHAM)",0,C,,110000468306
83211LMBWSLAMBW,-112.913,42.766000000000005,False,16,077,960200,16,16077,16077960200,1400000US16077960200,LAMB WESTON INC,2975 LAMB WESTON RD,AMERICAN FALLS,ID,83211,"LAMB WESTON INC.2975 LAMB WESTON RD, AMERICAN FALLS IDAHO 83211 (POWER)",0,C,,110000468315
83221BSCMR419CO,-112.382,43.201,False,16,011,950600,16,16011,16011950600,1400000US16011950600,BASIC AMERICAN FOODS BLACKFOOT FACILITY,415 W COLLINS RD,BLACKFOOT,ID,83221,"BASIC AMERICAN FOODS BLACKFOOT FACILITY.415 W COLLINS RD, BLACKFOOT IDAHO 83221 (BINGHAM)",0,C,,110000468324
83221FSHRM463WH,-112.38799999999999,43.207,False,16,011,950600,16,16011,16011950600,1400000US16011950600,GRAIN CRAFT INC,463 W HWY 26,BLACKFOOT,ID,83221,"GRAIN CRAFT INC.463 W HWY 26, BLACKFOOT IDAHO 83221 (BINGHAM)",0,C,,110007023005
83221DHSPH75N55,-112.405,43.207,False,16,011,950600,16,16011,16011950600,1400000US16011950600,IDAHO ASPHALT SUPPLY INC BLACKFOOT PLANT,75 N 550 W TREGO RD,BLACKFOOT,ID,83221,"IDAHO ASPHALT SUPPLY INC BLACKFOOT PLANT.75 N 550 W TREGO RD, BLACKFOOT IDAHO 83221 (BINGHAM)",0,C,,110001287526
83221KRFTN295SA,-112.34899999999999,43.188,False,16,011,950500,16,16011,16011950500,1400000US16011950500,GLANBIA FOODS INC,295 S ASH ST,BLACKFOOT,ID,83221,"GLANBIA FOODS INC.295 S ASH ST, BLACKFOOT IDAHO 83221 (BINGHAM)",0,C,,110000468333
83237DLMNT102SO,-111.988,42.108000000000004,False,16,041,970100,16,16041,16041970100,1400000US16041970100,DEL MONTE FOODS,102 S 1ST W,FRANKLIN,ID,83237,"DEL MONTE FOODS.102 S 1ST W, FRANKLIN IDAHO 83237 (FRANKLIN)",0,C,,
83276KRRMC1884H,-111.574,42.687,False,16,029,960200,16,16029,16029960200,1400000US16029960200,TRONOX LLC - SODA SPRINGS,1864 HWY 34 N,SODA SPRINGS,ID,83276,"TRONOX LLC - SODA SPRINGS.1864 HWY 34 N, SODA SPRINGS IDAHO 83276 (CARIBOU)",0,C,,110000754229
83276MNSNTHIGHW,-111.588,42.687,False,16,029,960200,16,16029,16029960200,1400000US16029960200,P4 PRODUCTION LLC,1853 HWY 34,SODA SPRINGS,ID,83276,"P4 PRODUCTION LLC.1853 HWY 34, SODA SPRINGS IDAHO 83276 (CARIBOU)",0,C,,110000743982
83276NWSTN3010C,-111.541,42.739,False,16,029,960200,16,16029,16029960200,1400000US16029960200,ITAFOS CONDA LLC,3010 CONDA RD,SODA SPRINGS,ID,83276,"ITAFOS CONDA LLC.3010 CONDA RD, SODA SPRINGS IDAHO 83276 (CARIBOU)",0,C,,110000468351
83301NVRSL856RU,-114.48299999999999,42.552,False,16,083,001200,16,16083,16083001200,1400000US16083001200,LAMB WESTON INC,856 RUSSETT ST,TWIN FALLS,ID,83301,"LAMB WESTON INC.856 RUSSETT ST, TWIN FALLS IDAHO 83301 (TWIN FALLS)",0,C,,110000468379
83303TWNFL236WA,-114.48,42.547,False,16,083,001200,16,16083,16083001200,1400000US16083001200,GLANBIA FOODS INC,236 WASHINGTON ST S,TWIN FALLS,ID,83301,"GLANBIA FOODS INC.236 WASHINGTON ST S, TWIN FALLS IDAHO 83301 (TWIN FALLS)",0,C,,110000468397
83301KTSTL322DI,-114.485,42.548,False,16,083,001200,16,16083,16083001200,1400000US16083001200,K & T STEEL CORP,322 DIAMOND AVE W,TWIN FALLS,ID,83303,"K & T STEEL CORP.322 DIAMOND AVE W, TWIN FALLS IDAHO 83303 (TWIN FALLS)",0,C,,
83301CHRMC452SO,-114.488,42.55,False,16,083,001200,16,16083,16083001200,1400000US16083001200,CHARMAC TRAILERS INC,452 SOUTH PARK AVE WEST,TWIN FALLS,ID,83301,"CHARMAC TRAILERS INC.452 SOUTH PARK AVE WEST, TWIN FALLS IDAHO 83301 (TWIN FALLS)",0,C,,
83301SSCTD1434T,-114.47399999999999,42.553999999999995,False,16,083,001100,16,16083,16083001100,1400000US16083001100,ASSOCIATED DAIRIES,143 4TH AVE W,TWIN FALLS,ID,83301,"ASSOCIATED DAIRIES.143 4TH AVE W, TWIN FALLS IDAHO 83301 (TWIN FALLS)",0,C,,
83303MLGMTPOBOX,-114.431,42.532,False,16,083,000600,16,16083,16083000600,1400000US16083000600,AMALGAMATED SUGAR CO LLC THE,2320 ORCHARD DR E,TWIN FALLS,ID,83301,"AMALGAMATED SUGAR CO LLC THE.2320 ORCHARD DR E, TWIN FALLS IDAHO 83301 (TWIN FALLS)",0,C,,110000468388
8330WLPPRT427SH,-114.421,42.543,False,16,083,000600,16,16083,16083000600,1400000US16083000600,LIPPERT COMPONENTS - TWIN FALLS #64,427 S HANKINS RD,TWIN FALLS,ID,83301,"LIPPERT COMPONENTS - TWIN FALLS #64.427 S HANKINS RD, TWIN FALLS IDAHO 83301 (TWIN FALLS)",0,C,,110043513999
8330WTWNFL371JS,-114.478,42.483000000000004,False,16,083,000600,16,16083,16083000600,1400000US16083000600,TWIN FALLS AIRTANKER BASE,371 JOSLIN WAY BOX 10,TWIN FALLS,ID,83301,"TWIN FALLS AIRTANKER BASE.371 JOSLIN WAY BOX 10, TWIN FALLS IDAHO 83301 (TWIN FALLS)",0,F,,110070531358
83316PLLSB4307T,-114.749,42.598,False,16,083,000300,16,16083,16083000300,1400000US16083000300,SENECA FOODS CORP,430 7TH AVE S,BUHL,ID,83316,"SENECA FOODS CORP.430 7TH AVE S, BUHL IDAHO 83316 (TWIN FALLS)",0,C,,
83316PTNCX500CL,-114.751,42.597,False,16,083,000300,16,16083,16083000300,1400000US16083000300,PET INC,500 CLEAR LAKES RD,BUHL,ID,83316,"PET INC.500 CLEAR LAKES RD, BUHL IDAHO 83316 (TWIN FALLS)",1,C,,
83318BSCSC1544W,-113.81200000000001,42.519,False,16,031,950500,16,16031,16031950500,1400000US16031950500,BOISE CASCADE CONTAINER CORP,1544 W 27TH ST,BURLEY,ID,83318,"BOISE CASCADE CONTAINER CORP.1544 W 27TH ST, BURLEY IDAHO 83318 (CASSIA)",0,C,,
83318DLMNT305WH,-113.854,42.533,False,16,031,950500,16,16031,16031950500,1400000US16031950500,DEL MONTE FOODS,305 W HWY 30,BURLEY,ID,83318,"DEL MONTE FOODS.305 W HWY 30, BURLEY IDAHO 83318 (CASSIA)",0,C,,
83318RDFDSHIGHW,-113.845,42.535,False,16,031,950500,16,16031,16031950500,1400000US16031950500,MCCAIN FOODS USA,218 W HWY 30,BURLEY,ID,83318,"MCCAIN FOODS USA.218 W HWY 30, BURLEY IDAHO 83318 (CASSIA)",0,C,,110007048701
8331WPCFCT26WAS,-113.816,42.521,False,16,031,950500,16,16031,16031950500,1400000US16031950500,PACIFIC ETHANOL MAGIC VALLEY LLC,2600 WASHINGTON AVENUE,BURLEY,ID,83318,"PACIFIC ETHANOL MAGIC VALLEY LLC.2600 WASHINGTON AVENUE, BURLEY IDAHO 83318 (CASSIA)",0,C,,110035761912
83336JRSMPHIGHW,-113.762,42.553999999999995,False,16,067,970200,16,16067,16067970200,1400000US16067970200,J R SIMPLOT CO HEYBURN FOOD GROUP,HWY 30 N,HEYBURN,ID,83336,"J R SIMPLOT CO HEYBURN FOOD GROUP.HWY 30 N, HEYBURN IDAHO 83336 (MINIDOKA)",0,C,,
8333WGSSNR1217T,-113.76100000000001,42.549,False,16,067,970200,16,16067,16067970200,1400000US16067970200,GOSSNER FOODS-MAGIC VALLEY CHEESE INC,1201 7TH STREET,HEYBURN,ID,83336,"GOSSNER FOODS-MAGIC VALLEY CHEESE INC.1201 7TH STREET, HEYBURN IDAHO 83336 (MINIDOKA)",0,C,,110060259438
83347MLGMT500WE,-113.757,42.611999999999995,False,16,067,970100,16,16067,16067970100,1400000US16067970100,AMALGAMATED SUGAR CO,50 SOUTH 500 WEST,PAUL,ID,83347,"AMALGAMATED SUGAR CO.50 SOUTH 500 WEST, PAUL IDAHO 83347 (MINIDOKA)",0,C,,110000468431
83350KRFTNHIGHW,-113.68,42.61,False,16,067,970400,16,16067,16067970400,1400000US16067970400,KRAFT FOODS GLOBAL INC,311 S ONEIDA,RUPERT,ID,83350,"KRAFT FOODS GLOBAL INC.311 S ONEIDA, RUPERT IDAHO 83350 (MINIDOKA)",0,C,,110000468440
8335WPRFRM235WE,-113.711,42.61,False,16,067,970400,16,16067,16067970400,1400000US16067970400,PERFORMIX NUTRITION SYSTEMS LLC,235 WEST 71 LANE SOUTH,RUPERT,ID,83350,"PERFORMIX NUTRITION SYSTEMS LLC.235 WEST 71 LANE SOUTH, RUPERT IDAHO 83350 (MINIDOKA)",0,C,,110070070266
83401PNFRD1088W,-112.055,43.468999999999994,False,16,019,971000,16,16019,16019971000,1400000US16019971000,INGREDION INC IDAHO FALLS PLANT,1088 W SUNNYSIDE RD,IDAHO FALLS,ID,83402,"INGREDION INC IDAHO FALLS PLANT.1088 W SUNNYSIDE RD, IDAHO FALLS IDAHO 83402 (BONNEVILLE)",0,C,,110035812421
83402MCRPR224SY,-112.04899999999999,43.478,False,16,019,971000,16,16019,16019971000,1400000US16019971000,OLDCASTLE PRECAST INC,2240 S YELLOWSTONE HWY,IDAHO FALLS,ID,83402,"OLDCASTLE PRECAST INC.2240 S YELLOWSTONE HWY, IDAHO FALLS IDAHO 83402 (BONNEVILLE)",0,C,,110005789030
83401WSTRN751CH,-112.045,43.486999999999995,False,16,019,971200,16,16019,16019971200,1400000US16019971200,WESTERN AMERICA CHEESE,751 CHAMBERLEIN,IDAHO FALLS,ID,83401,"WESTERN AMERICA CHEESE.751 CHAMBERLEIN, IDAHO FALLS IDAHO 83401 (BONNEVILLE)",0,C,,
83402MRCNF1300P,-112.052,43.489,False,16,019,971200,16,16019,16019971200,1400000US16019971200,AMERICAN FABRICATION INC,1300 PANCHERI DR,IDAHO FALLS,ID,83402,"AMERICAN FABRICATION INC.1300 PANCHERI DR, IDAHO FALLS IDAHO 83402 (BONNEVILLE)",1,C,,
83440BSCMR245WE,-111.78299999999999,43.838,False,16,065,950100,16,16065,16065950100,1400000US16065950100,BASIC AMERICAN FOODS REXBURG FACILITY,40 E 7TH N,REXBURG,ID,83440,"BASIC AMERICAN FOODS REXBURG FACILITY.40 E 7TH N, REXBURG IDAHO 83440 (MADISON)",0,C,,110000468468
83440RTCXX1STAT,-111.77799999999999,43.852,False,16,065,950100,16,16065,16065950100,1400000US16065950100,ARTCO,1 STATIONERY PL,REXBURG,ID,83440,"ARTCO.1 STATIONERY PL, REXBURG IDAHO 83440 (MADISON)",0,C,,
83501MRKND1023S,-117.03200000000001,46.41,False,16,069,960400,16,16069,16069960400,1400000US16069960400,FEDERAL CARTRIDGE CO-SPEER,1023 SNAKE RIVER AVE,LEWISTON,ID,83501,"FEDERAL CARTRIDGE CO-SPEER.1023 SNAKE RIVER AVE, LEWISTON IDAHO 83501 (NEZ PERCE)",0,C,,110000468495
83501MRKND2299S,-117.035,46.396,False,16,069,960500,16,16069,16069960500,1400000US16069960500,FEDERAL CARTRIDGE CO-CCI,2299 SNAKE RIVER AVE,LEWISTON,ID,83501,"FEDERAL CARTRIDGE CO-CCI.2299 SNAKE RIVER AVE, LEWISTON IDAHO 83501 (NEZ PERCE)",0,C,,110000468501
83501PTLTC805MI,-116.96700000000001,46.427,False,16,069,960300,16,16069,16069960300,1400000US16069960300,CLEARWATER PAPER CORP-PPD & CPD IDAHO,803 MILL RD,LEWISTON,ID,83501,"CLEARWATER PAPER CORP-PPD & CPD IDAHO.803 MILL RD, LEWISTON IDAHO 83501 (NEZ PERCE)",0,C,,110053991720
83501CLMNL335MI,-116.98200000000001,46.42100000000001,False,16,069,960300,16,16069,16069960300,1400000US16069960300,COLEMAN OIL CO,335 MILL RD,LEWISTON,ID,83501,"COLEMAN OIL CO.335 MILL RD, LEWISTON IDAHO 83501 (NEZ PERCE)",0,C,,110000468486
83501PSPHL313HA,-116.979,46.437,False,16,069,960300,16,16069,16069960300,1400000US16069960300,POE ASPHALT PAVING INC,3305 HATWAI RD,LEWISTON,ID,83501,"POE ASPHALT PAVING INC.3305 HATWAI RD, LEWISTON IDAHO 83501 (NEZ PERCE)",0,C,,110031002028
8350WDHFRS87MIL,-116.971,46.425,False,16,069,960300,16,16069,16069960300,1400000US16069960300,IDAHO FOREST GROUP-LEWISTON,280 SYCAMORE DR,LEWISTON,ID,83501,"IDAHO FOREST GROUP-LEWISTON.280 SYCAMORE DR, LEWISTON IDAHO 83501 (NEZ PERCE)",0,C,,110063999632
8350WHWLLM815DS,-117.023,46.42100000000001,False,16,069,960300,16,16069,16069960300,1400000US16069960300,HOWELL MUNITIONS & TECHNOLOGY,815 D ST,LEWISTON,ID,83501,"HOWELL MUNITIONS & TECHNOLOGY.815 D ST, LEWISTON IDAHO 83501 (NEZ PERCE)",0,C,,110060261069
83546JYPPLHC64B,-115.82799999999999,46.527,False,16,035,970100,16,16035,16035970100,1400000US16035970100,JAYPE PLYWOOD,HC64 BOX 58,PIERCE,ID,83546,"JAYPE PLYWOOD.HC64 BOX 58, PIERCE IDAHO 83546 (CLEARWATER)",0,C,,
83553MPRLM266TH,-115.93700000000001,46.381,False,16,035,970100,16,16035,16035970100,1400000US16035970100,EMPIRE LUMBER CO WEIPPE OPERATIONS,206 6TH AVE E,WEIPPE,ID,83553,"EMPIRE LUMBER CO WEIPPE OPERATIONS.206 6TH AVE E, WEIPPE IDAHO 83553 (CLEARWATER)",0,C,,110055248995
83605SMTRN307EV,-116.70200000000001,43.667,False,16,027,021600,16,16027,16027021600,1400000US16027021600,SIM TRANS RAILSHOP,307 EVANS,CALDWELL,ID,83605,"SIM TRANS RAILSHOP.307 EVANS, CALDWELL IDAHO 83605 (CANYON)",0,C,,
83605WSTRN200NK,-116.7,43.67100000000001,False,16,027,021600,16,16027,16027021600,1400000US16027021600,WESTERN WORLD INC,200 N KIT AVE,CALDWELL,ID,83605,"WESTERN WORLD INC.200 N KIT AVE, CALDWELL IDAHO 83605 (CANYON)",0,C,,110000468547
83605GMSTT123RO,-116.708,43.67100000000001,False,16,027,021600,16,16027,16027021600,1400000US16027021600,GEM STATE ALLOYS INC,123 ROEDEL AVE,CALDWELL,ID,83605,"GEM STATE ALLOYS INC.123 ROEDEL AVE, CALDWELL IDAHO 83605 (CANYON)",0,C,,
83606LNDLK223MA,-116.693,43.67,False,16,027,021600,16,16027,16027021600,1400000US16027021600,LAND O'LAKES FARMLAND FEED,223 MAIN ST,CALDWELL,ID,83606,"LAND O'LAKES FARMLAND FEED.223 MAIN ST, CALDWELL IDAHO 83606 (CANYON)",0,C,,
83606TTNSL518KI,-116.70299999999999,43.665,False,16,027,021600,16,16027,16027021600,1400000US16027021600,TETON SALES CO,518 KIT AVE,CALDWELL,ID,83606,"TETON SALES CO.518 KIT AVE, CALDWELL IDAHO 83606 (CANYON)",0,C,,110037072164
83605WSTRN223RD,-116.70700000000001,43.672,False,16,027,021600,16,16027,16027021600,1400000US16027021600,SIMPLOT WESTERN STOCKMEN'S,223 RODEO AVE,CALDWELL,ID,83605,"SIMPLOT WESTERN STOCKMEN'S.223 RODEO AVE, CALDWELL IDAHO 83605 (CANYON)",0,C,,110001756662
8360WBSTBT723GA,-116.70700000000001,43.665,False,16,027,021600,16,16027,16027021600,1400000US16027021600,BEST BATH SYSTEMS,723 GARBER STREET,CALDWELL,ID,83605,"BEST BATH SYSTEMS.723 GARBER STREET, CALDWELL IDAHO 83605 (CANYON)",0,C,,110041890601
8360WCRCLJ312SI,-116.70100000000001,43.67,False,16,027,021600,16,16027,16027021600,1400000US16027021600,BIG TEX TRAILER MANUFACTURING INC-CALDWELL,312 W SIMPLOT BLVD,CALDWELL,ID,83605,"BIG TEX TRAILER MANUFACTURING INC-CALDWELL.312 W SIMPLOT BLVD, CALDWELL IDAHO 83605 (CANYON)",0,C,,110043703766
83606DRYMN520AL,-116.68799999999999,43.669,False,16,027,021300,16,16027,16027021300,1400000US16027021300,DARIGOLD-CALDWELL,520 ALBANY ST,CALDWELL,ID,83605,"DARIGOLD-CALDWELL.520 ALBANY ST, CALDWELL IDAHO 83605 (CANYON)",0,C,,110000468556
83606JRSMPHWY19,-116.736,43.668,False,16,027,021800,16,16027,16027021800,1400000US16027021800,JR SIMPLOT CO,HWY 19 2 MILES W OF CITY,CALDWELL,ID,83605,"JR SIMPLOT CO.HWY 19 2 MILES W OF CITY, CALDWELL IDAHO 83605 (CANYON)",0,C,,110007513869
83605JRSMP20875,-116.73299999999999,43.675,False,16,027,021800,16,16027,16027021800,1400000US16027021800,"J R SIMPLOT CO, AQUACULTURE BUSINESS UNIT",20875 WAGNER RD,CALDWELL,ID,83605,"J R SIMPLOT CO, AQUACULTURE BUSINESS UNIT.20875 WAGNER RD, CALDWELL IDAHO 83605 (CANYON)",1,C,,
83605GLPRC259SI,-116.79299999999999,43.67,False,16,027,021800,16,16027,16027021800,1400000US16027021800,FORTERRA STRUCTURAL SPECIALTY PRODUCTS - CALDWELL,20059 SIMPLOT BLVD,CALDWELL,ID,83607,"FORTERRA STRUCTURAL SPECIALTY PRODUCTS - CALDWELL.20059 SIMPLOT BLVD, CALDWELL IDAHO 83607 (CANYON)",0,C,,110031002064
83606CCCLD421RE,-116.71,43.675,False,16,027,021800,16,16001,16027021800,1400000US16027021800,ICCO CALDWELL,421 ROEDEL RD,CALDWELL,ID,83606,"ICCO CALDWELL.421 ROEDEL RD, CALDWELL IDAHO 83606 (ADA)",1,C,,110025317486
8360WKNTZW2394P,-116.77799999999999,43.668,False,16,027,021800,16,16027,16027021800,1400000US16027021800,KOONTZ-WAGNER CUSTOM CONTROLS,20394 PINTO LANE,CALDWELL,ID,83606,"KOONTZ-WAGNER CUSTOM CONTROLS.20394 PINTO LANE, CALDWELL IDAHO 83606 (CANYON)",0,C,,110060260738
83617MMTTXMILLR,-116.512,43.875,False,16,045,960200,16,16045,16045960200,1400000US16045960200,BOISE CASCADE CORP EMMETT COMPLEX,MILL RD & MAIN ST,EMMETT,ID,836170476,"BOISE CASCADE CORP EMMETT COMPLEX.MILL RD & MAIN ST, EMMETT IDAHO 83617 (GEM)",0,C,,
83617CCMMT1333W,-116.51700000000001,43.848,False,16,045,960200,16,16045,16045960200,1400000US16045960200,ICCO EMMETT,1333 W SALESYARD RD,EMMETT,ID,83617,"ICCO EMMETT.1333 W SALESYARD RD, EMMETT IDAHO 83617 (GEM)",0,C,,110025317495
83639GSTFSBRUNE,-116.809,43.553000000000004,False,16,073,950102,16,16073,16073950102,1400000US16073950102,AMVAC CHEMICAL,6556 SIMPKINS LN,MARSING,ID,83639,"AMVAC CHEMICAL.6556 SIMPKINS LN, MARSING IDAHO 83639 (OWYHEE)",0,C,,110000468583
83651CRNTNMIDDL,-116.60799999999999,43.614,False,16,027,021002,16,16027,16027021002,1400000US16027021002,J.R. SIMPLOT CO NAMPA POTATO FACILITY,3704  MIDDLETON RD,NAMPA,ID,83687,"J.R. SIMPLOT CO NAMPA POTATO FACILITY.3704  MIDDLETON RD, NAMPA IDAHO 83687 (CANYON)",0,C,,110000514284
83651MLGMTPOBOX,-116.579,43.611999999999995,False,16,027,021002,16,16027,16027021002,1400000US16027021002,AMALGAMATED SUGAR CO LLC NAMPA,138 W KARCHER RD,NAMPA,ID,83687,"AMALGAMATED SUGAR CO LLC NAMPA.138 W KARCHER RD, NAMPA IDAHO 83687 (CANYON)",0,C,,110000468609
83687STKRP2515C,-116.61200000000001,43.62,False,16,027,021002,16,16027,16027021002,1400000US16027021002,IDAHO CONCRETE NAMPA,2515 CHACARTEQUI LN,NAMPA,ID,83687,"IDAHO CONCRETE NAMPA.2515 CHACARTEQUI LN, NAMPA IDAHO 83687 (CANYON)",0,C,,
83687MCRPR16419,-116.583,43.611999999999995,False,16,027,021002,16,16027,16027021002,1400000US16027021002,OLDCASTLE PRECAST INC,16419 TEN LN,NAMPA,ID,83687,"OLDCASTLE PRECAST INC.16419 TEN LN, NAMPA IDAHO 83687 (CANYON)",0,C,,110015634367
83687TNLNX16625,-116.586,43.608999999999995,False,16,027,021002,16,16027,16027021002,1400000US16027021002,TEN LANE,16625 TEN LN RD,NAMPA,ID,83687,"TEN LANE.16625 TEN LN RD, NAMPA IDAHO 83687 (CANYON)",0,C,,110025331709
83651ZLGNC26011,-116.541,43.597,False,16,027,020401,16,16027,16027020401,1400000US16027020401,ZILOG INC,1551 11TH AVE N,NAMPA,ID,836876779,"ZILOG INC.1551 11TH AVE N, NAMPA IDAHO 83687 (CANYON)",0,C,,
83653FLTWD2611E,-116.538,43.593,False,16,027,020401,16,16027,16027020401,1400000US16027020401,FLEETWOOD HOMES OF IDAHO INC #04-1,2611 E. COMSTOCK AVE.,NAMPA,ID,83687,"FLEETWOOD HOMES OF IDAHO INC #04-1.2611 E. COMSTOCK AVE., NAMPA IDAHO 83687 (CANYON)",0,C,,110001806083
83653RMRFRAMITY,-116.52799999999999,43.56,False,16,027,020401,16,16027,16027020401,1400000US16027020401,XL FOUR STAR BEEF INC.,3611 E AMITY AVE,NAMPA,ID,836871470,"XL FOUR STAR BEEF INC..3611 E AMITY AVE, NAMPA IDAHO 83687 (CANYON)",0,C,,110000468627
83653SLKRK1820E,-116.54799999999999,43.602,False,16,027,020401,16,16027,16027020401,1400000US16027020401,HART & COOLEY INC,1820 E FARGO AVE,NAMPA,ID,83687,"HART & COOLEY INC.1820 E FARGO AVE, NAMPA IDAHO 83687 (CANYON)",0,C,,110000468636
83687GRTWS1717E,-116.55,43.601000000000006,False,16,027,020401,16,16027,16027020401,1400000US16027020401,DUBOIS CHEMICALS DBA BHS SPECIALTY CHEMICALS,1717 E FARGO AVE.,NAMPA,ID,83687,"DUBOIS CHEMICALS DBA BHS SPECIALTY CHEMICALS.1717 E FARGO AVE., NAMPA IDAHO 83687 (CANYON)",0,C,,110000468663
83687MCRNT900EK,-116.559,43.605,False,16,027,020401,16,16027,16027020401,1400000US16027020401,MICRON TECHNOLOGY INC,900 E KARCHER RD,NAMPA,ID,83687,"MICRON TECHNOLOGY INC.900 E KARCHER RD, NAMPA IDAHO 83687 (CANYON)",0,C,,
83687STNMF2114N,-116.559,43.604,False,16,027,020401,16,16027,16027020401,1400000US16027020401,AUSTIN MANUFACTURING SERVICES,2114 N ELDER ST,NAMPA,ID,83687,"AUSTIN MANUFACTURING SERVICES.2114 N ELDER ST, NAMPA IDAHO 83687 (CANYON)",1,C,,110013286416
83687DHSPH8NSUG,-116.54299999999999,43.591,False,16,027,020401,16,16027,16027020401,1400000US16027020401,IDAHO ASPHALT SUPPLY INC NAMPA PLANT,800 N SUGAR AVE,NAMPA,ID,83687,"IDAHO ASPHALT SUPPLY INC NAMPA PLANT.800 N SUGAR AVE, NAMPA IDAHO 83687 (CANYON)",0,C,,110001805958
83687MCRNT141NK,-116.535,43.596000000000004,False,16,027,020401,16,16027,16027020401,1400000US16027020401,APTINA LLC NAMPA,1401 N KINGS RD,NAMPA,ID,83687,"APTINA LLC NAMPA.1401 N KINGS RD, NAMPA IDAHO 83687 (CANYON)",0,C,,110027226829
8368WPRFRM1811E,-116.54899999999999,43.605,False,16,027,020401,16,16027,16027020401,1400000US16027020401,PERFORMIX NUTRITION SYSTEMS LLC,2201 N 20TH ST,NAMPA,ID,83687,"PERFORMIX NUTRITION SYSTEMS LLC.2201 N 20TH ST, NAMPA IDAHO 83687 (CANYON)",0,C,,110058032640
8368WLPPRT198IN,-116.54700000000001,43.595,False,16,027,020401,16,16027,16027020401,1400000US16027020401,LIPPERT COMPONENTS INC- PLANT 84,1908 INDUSTRIAL RD,NAMPA,ID,83687,"LIPPERT COMPONENTS INC- PLANT 84.1908 INDUSTRIAL RD, NAMPA IDAHO 83687 (CANYON)",0,C,,110070247024
83653WSTRN4281S,-116.56700000000001,43.583999999999996,False,16,027,020100,16,16027,16027020100,1400000US16027020100,"WESTERN IDAHO POTATOES, PROCESSING INC",428 1ST ST S,NAMPA,ID,83651,"WESTERN IDAHO POTATOES, PROCESSING INC.428 1ST ST S, NAMPA IDAHO 83651 (CANYON)",0,C,,
83661MRCNF25N6T,-116.941,44.075,False,16,075,960200,16,16075,16075960200,1400000US16075960200,SENECA FOODS INC,25 N 6TH ST,PAYETTE,ID,83661,"SENECA FOODS INC.25 N 6TH ST, PAYETTE IDAHO 83661 (PAYETTE)",0,C,,110001806074
83702BRDNN1301W,-116.208,43.62,False,16,001,000100,16,16001,16001000100,1400000US16001000100,MEADOW GOLD DAIRIES,1301 W BANNOCK ST,BOISE,ID,83702,"MEADOW GOLD DAIRIES.1301 W BANNOCK ST, BOISE IDAHO 83702 (ADA)",0,C,,110000468681
83705FBRGL1080W,-116.194,43.56,False,16,001,002100,16,16001,16001002100,1400000US16001002100,FIBERGLASS SYSTEMS INC,1080 WEST AMITY RD,BOISE,ID,83705,"FIBERGLASS SYSTEMS INC.1080 WEST AMITY RD, BOISE IDAHO 83705 (ADA)",0,C,,
83705MRRSN4600A,-116.17,43.559,False,16,001,002100,16,16001,16001002100,1400000US16001002100,MOTIVEPOWER A WABTEC CO,4600 APPLE ST,BOISE,ID,83716,"MOTIVEPOWER A WABTEC CO.4600 APPLE ST, BOISE IDAHO 83716 (ADA)",0,C,,110057943999
83705PNDRS4631A,-116.23899999999999,43.563,False,16,001,002100,16,16001,16001002100,1400000US16001002100,PONDEROSA PAINT,4631 AERONCA ST,BOISE,ID,83705,"PONDEROSA PAINT.4631 AERONCA ST, BOISE IDAHO 83705 (ADA)",0,C,,
83705PRSSR3200G,-116.21799999999999,43.552,False,16,001,002100,16,16001,16001002100,1400000US16001002100,PRESSURE TREATED TIMBER CO,3200 GOWDEN RD,BOISE,ID,83705,"PRESSURE TREATED TIMBER CO.3200 GOWDEN RD, BOISE IDAHO 83705 (ADA)",0,C,,
83705YNKMC4414S,-116.18299999999999,43.562,False,16,001,002100,16,16001,16001002100,1400000US16001002100,YANKE MACHINE SHOP INC,4414 S GEKELER LN,BOISE,ID,83716,"YANKE MACHINE SHOP INC.4414 S GEKELER LN, BOISE IDAHO 83716 (ADA)",0,C,,
83705KCHMT4303G,-116.18799999999999,43.56399999999999,False,16,001,002100,16,16001,16001002100,1400000US16001002100,WESTERN STATES  ASPHALT LLC,4303 GEKELER LN,BOISE,ID,83716,"WESTERN STATES  ASPHALT LLC.4303 GEKELER LN, BOISE IDAHO 83716 (ADA)",0,C,,110001805486
83705FBRGL4545E,-116.2,43.56100000000001,False,16,001,002100,16,16001,16001002100,1400000US16001002100,FIBERGLASS SYSTEMS INC,4545 ENTERPRISE,BOISE,ID,837055425,"FIBERGLASS SYSTEMS INC.4545 ENTERPRISE, BOISE IDAHO 83705 (ADA)",0,C,,110000773253
83702BSRTN38905,-116.20700000000001,43.567,False,16,001,002100,16,16001,16001002100,1400000US16001002100,US FOREST SERVICE BOISE AIRTANKER BASE,3833 S DEVELOPMENT BLVD,BOISE,ID,83705,"US FOREST SERVICE BOISE AIRTANKER BASE.3833 S DEVELOPMENT BLVD, BOISE IDAHO 83705 (ADA)",0,F,,110005780761
83716STKRP155EA,-116.182,43.56,False,16,001,002100,16,16001,16001002100,1400000US16001002100,STAKER & PARSON COMPANIES BOISE EAST,155 E AMITY,BOISE,ID,83716,"STAKER & PARSON COMPANIES BOISE EAST.155 E AMITY, BOISE IDAHO 83716 (ADA)",0,C,,110015583064
83716FDRLW17EYA,-116.16799999999999,43.552,False,16,001,002100,16,16001,16001002100,1400000US16001002100,FEDERAL WAY,1700 E YAMHILL RD,BOISE,ID,83716,"FEDERAL WAY.1700 E YAMHILL RD, BOISE IDAHO 83716 (ADA)",0,C,,110025317529
83709BSSPH545WG,-116.251,43.56,False,16,001,002100,16,16001,16001002100,1400000US16001002100,BOISE FACILITY,5450 W GOWEN RD,BOISE,ID,83709,"BOISE FACILITY.5450 W GOWEN RD, BOISE IDAHO 83709 (ADA)",0,C,,110064845477
83705SDDDH446SB,-116.227,43.56,False,16,001,002100,16,16001,16001002100,1400000US16001002100,"US DOD, USAF, IDAHO AIR NATIONAL GUARD",4460 S BYRD ST BUILDING 503,BOISE,ID,83705,"US DOD, USAF, IDAHO AIR NATIONAL GUARD.4460 S BYRD ST BUILDING 503, BOISE IDAHO 83705 (ADA)",0,F,,110039204786
8370WRCHRD4715S,-116.227,43.56,False,16,001,002100,16,16001,16001002100,1400000US16001002100,ARMY NATIONAL GUARD ORCHARD COMBAT TRAINING CENTER RANGES,4715 S BYRD ST,BOISE,ID,83705,"ARMY NATIONAL GUARD ORCHARD COMBAT TRAINING CENTER RANGES.4715 S BYRD ST, BOISE IDAHO 83705 (ADA)",0,F,,110067128753
83716SFTYK6334S,-116.182,43.545,False,16,001,002100,16,16001,16001002100,1400000US16001002100,SAFETY-KLEEN SYSTEMS (118308),6334 SUPPLY WAY,BOISE,ID,83716,"SAFETY-KLEEN SYSTEMS (118308).6334 SUPPLY WAY, BOISE IDAHO 83716 (ADA)",0,C,,110000612132
83706MCRNT2805E,-116.145,43.527,False,16,001,010503,16,16001,16001010503,1400000US16001010503,MICRON TECHNOLOGY INC,8000 S FEDERAL WAY,BOISE,ID,83716,"MICRON TECHNOLOGY INC.8000 S FEDERAL WAY, BOISE IDAHO 83716 (ADA)",0,C,,110017051820
83716TRNTY82SEI,-116.15299999999999,43.526,False,16,001,010503,16,16001,16001010503,1400000US16001010503,TRINITY TRAILER MANUFACTURING INC,8200 S EISENMAN RD,BOISE,ID,83716,"TRINITY TRAILER MANUFACTURING INC.8200 S EISENMAN RD, BOISE IDAHO 83716 (ADA)",0,C,,110037148333
83706SSCTD3310G,-116.184,43.571999999999996,False,16,001,000802,16,16001,16001000802,1400000US16001000802,ASSOCIATED DAIRIES,3310 GEKELER LN,BOISE,ID,837065299,"ASSOCIATED DAIRIES.3310 GEKELER LN, BOISE IDAHO 83706 (ADA)",0,C,,
83707BPNCXSOUTH,-116.272,43.43600000000001,False,16,001,010501,16,16001,16001010501,1400000US16001010501,IBP INC,18300 S COLE RD,BOISE,ID,83702,"IBP INC.18300 S COLE RD, BOISE IDAHO 83702 (ADA)",0,C,,
83634DRLNG18305,-116.277,43.437,False,16,001,010501,16,16001,16001010501,1400000US16001010501,DARLING-DELAWARE CO INC,18305 S COLE RD,KUNA,ID,83634,"DARLING-DELAWARE CO INC.18305 S COLE RD, KUNA IDAHO 83634 (ADA)",0,C,,
8363WCSBFP17365,-116.274,43.445,False,16,001,010501,16,16001,16001010501,1400000US16001010501,CS BEEF PACKERS,17365 S COLE RD,KUNA,ID,83634,"CS BEEF PACKERS.17365 S COLE RD, KUNA IDAHO 83634 (ADA)",0,C,,110066854425
83714HWLTT11311,-116.323,43.659,False,16,001,002413,16,16001,16001002413,1400000US16001002413,HEWLETT PACKARD CO - BOISE SITE,11311 CHINDEN BLVD,BOISE,ID,83714,"HEWLETT PACKARD CO - BOISE SITE.11311 CHINDEN BLVD, BOISE IDAHO 83714 (ADA)",0,C,,110000468734
83714LYNNN512EA,-116.251,43.64,False,16,001,001100,16,16001,16001001100,1400000US16001001100,LYNN INDUSTRIAL COATINGS INC,512 E 45TH ST,BOISE,ID,83714,"LYNN INDUSTRIAL COATINGS INC.512 E 45TH ST, BOISE IDAHO 83714 (ADA)",0,C,,
83714MRVCR511E4,-116.25200000000001,43.641000000000005,False,16,001,001100,16,16001,16001001100,1400000US16001001100,MARAVIA CORP,511 E 46TH ST,BOISE,ID,83714,"MARAVIA CORP.511 E 46TH ST, BOISE IDAHO 83714 (ADA)",0,C,,
83714MRVCR604E4,-116.25,43.64,False,16,001,001100,16,16001,16001001100,1400000US16001001100,MARAVIA CORP,604 E 4TH ST,BOISE,ID,83714,"MARAVIA CORP.604 E 4TH ST, BOISE IDAHO 83714 (ADA)",0,C,,
8371WSNRCC57EAS,-116.243,43.63399999999999,False,16,001,001100,16,16001,16001001100,1400000US16001001100,SUNROC CORPORATION - GARDEN CITY FACILITY,507 EAST 41ST STREET,BOISE,ID,837146312,"SUNROC CORPORATION - GARDEN CITY FACILITY.507 EAST 41ST STREET, BOISE IDAHO 83714 (ADA)",0,C,,110060261648
83801LPCHLNORTH,-116.751,47.864,False,16,055,000200,16,16055,16055000200,1400000US16055000200,IDAHO FOREST GROUP - CHILCO LAKE SAWMILL,4447 E CHILCO RD,ATHOL,ID,83801,"IDAHO FOREST GROUP - CHILCO LAKE SAWMILL.4447 E CHILCO RD, ATHOL IDAHO 83801 (KOOTENAI)",0,C,,110001132710
83801MRRTT54EAS,-116.712,47.946999999999996,False,16,055,000200,16,16055,16055000200,1400000US16055000200,MERRITT BROTHERS LUMBER CO,5400 E HWY 54,ATHOL,ID,83801,"MERRITT BROTHERS LUMBER CO.5400 E HWY 54, ATHOL IDAHO 83801 (KOOTENAI)",0,C,,110007312871
83835NTRST35WMU,-116.79,47.81,False,16,055,000200,16,16055,16055000200,1400000US16055000200,INTERSTATE CONCRETE & ASPHALT HAYDEN,305 W MURPHY ST,HAYDEN,ID,83835,"INTERSTATE CONCRETE & ASPHALT HAYDEN.305 W MURPHY ST, HAYDEN IDAHO 83835 (KOOTENAI)",0,C,,110025331718
83814DLLTW181WE,-116.789,47.742,False,16,055,000700,16,16055,16055000700,1400000US16055000700,SENTINEL LIGHTING WIRING SYS. INC.,181 W. AQUA AVE.,COEUR D ALENE,ID,83814,"SENTINEL LIGHTING WIRING SYS. INC..181 W. AQUA AVE., COEUR D ALENE IDAHO 83814 (KOOTENAI)",0,C,,
83835NTCHC10413,-116.825,47.766999999999996,False,16,055,000700,16,16055,16055000700,1400000US16055000700,UNITECH COMPOSITES INC,10413 INDL WAY,HAYDEN,ID,838350370,"UNITECH COMPOSITES INC.10413 INDL WAY, HAYDEN IDAHO 83835 (KOOTENAI)",0,C,,
83815DVNCD600WW,-116.795,47.736000000000004,False,16,055,000700,16,16055,16055000700,1400000US16055000700,ADVANCED INPUT DEVICES,600 W WILBUR AVE,COEUR D ALENE,ID,83815,"ADVANCED INPUT DEVICES.600 W WILBUR AVE, COEUR D ALENE IDAHO 83815 (KOOTENAI)",0,C,,110005792295
83835TRNST1070A,-116.823,47.775,False,16,055,000700,16,16055,16055000700,1400000US16055000700,TRANSTECTOR SYSTEMS,10701 AIRPORT DR,HAYDEN LAKE,ID,83835,"TRANSTECTOR SYSTEMS.10701 AIRPORT DR, HAYDEN LAKE IDAHO 83835 (KOOTENAI)",0,C,,110005779915
83814CNTRL25SEL,-116.79799999999999,47.716,False,16,055,000700,16,16055,16055000700,1400000US16055000700,CENTRAL PRE-MIX CDA,2500 SELICE WAY,COEUR D ALENE,ID,83814,"CENTRAL PRE-MIX CDA.2500 SELICE WAY, COEUR D ALENE IDAHO 83814 (KOOTENAI)",0,C,,110022524160
83815NTRST845WK,-116.79799999999999,47.716,False,16,055,000700,16,16055,16055000700,1400000US16055000700,INTERSTATE CONCRETE & ASPHALT KATHLEEN,845 W KATHLEEN AVE,COEUR D ALENE,ID,83815,"INTERSTATE CONCRETE & ASPHALT KATHLEEN.845 W KATHLEEN AVE, COEUR D ALENE IDAHO 83815 (KOOTENAI)",1,C,,110022524179
8383WCRDLN14AIR,-116.823,47.775,False,16,055,000700,16,16055,16055000700,1400000US16055000700,COEUR D' ALENE AIR TANKER BASE,11569 N AIRPORT DR,HAYDEN,ID,83835,"COEUR D' ALENE AIR TANKER BASE.11569 N AIRPORT DR, HAYDEN IDAHO 83835 (KOOTENAI)",0,F,,110067670069
83814DMNGN2945G,-116.787,47.70399999999999,False,16,055,000900,16,16055,16055000900,1400000US16055000900,DEMING INDUSTRIES INC,2945 GOVERNMENT WAY,COEUR D ALENE,ID,83814,"DEMING INDUSTRIES INC.2945 GOVERNMENT WAY, COEUR D ALENE IDAHO 83814 (KOOTENAI)",0,C,,
83854HSRLKWEST4,-116.994,47.745,False,16,055,000401,16,16055,16055000401,1400000US16055000401,HAUSER LAKE LUMBER OPS INC,W 4750 PRAIRIE AVE,POST FALLS,ID,83854,"HAUSER LAKE LUMBER OPS INC.W 4750 PRAIRIE AVE, POST FALLS IDAHO 83854 (KOOTENAI)",1,C,,
83845MCRCYW4000,-117.005,47.742,False,16,055,000401,16,16055,16055000401,1400000US16055000401,REAL ALLOY RECYCLING LLC,16168 W PRAIRIE AVE,POST FALLS,ID,83854,"REAL ALLOY RECYCLING LLC.16168 W PRAIRIE AVE, POST FALLS IDAHO 83854 (KOOTENAI)",0,C,,110055549991
83854QLTYC590CL,-117.01299999999999,47.701,False,16,055,000401,16,16055,16055000401,1400000US16055000401,QUALITY COATINGS,590 CLEARWATER LOOP SUITE B,POST FALLS,ID,83854,"QUALITY COATINGS.590 CLEARWATER LOOP SUITE B, POST FALLS IDAHO 83854 (KOOTENAI)",0,C,,
83854PSPHL2732N,-117.02,47.731,False,16,055,000401,16,16055,16055000401,1400000US16055000401,POE ASPHALT PAVING INC,2732 N BECK RD,POST FALLS,ID,83854,"POE ASPHALT PAVING INC.2732 N BECK RD, POST FALLS IDAHO 83854 (KOOTENAI)",0,C,,110010328412
8385WNTRST1545P,-117.00200000000001,47.72,False,16,055,000401,16,16055,16055000401,1400000US16055000401,INTERSTATE CONCRETE & ASPHALT POST FALLS,1545 PLEASANT VALLEY ROAD,POST FALLS,ID,83854,"INTERSTATE CONCRETE & ASPHALT POST FALLS.1545 PLEASANT VALLEY ROAD, POST FALLS IDAHO 83854 (KOOTENAI)",0,C,,110070556564
83854PTLTC41NPT,-116.911,47.708,False,16,055,000602,16,16055,16055000602,1400000US16055000602,PLUMMER FOREST PRODUCTS PARTICLEBOARD PLANT,401 N POTLATCH RD,POST FALLS,ID,83854,"PLUMMER FOREST PRODUCTS PARTICLEBOARD PLANT.401 N POTLATCH RD, POST FALLS IDAHO 83854 (KOOTENAI)",0,C,,110002466260
83877DHVNRE7044,-116.939,47.711000000000006,False,16,055,000602,16,16055,16055000602,1400000US16055000602,IDAHO VENEER CO NC,E 704 4TH ST,POST FALLS,ID,83877,"IDAHO VENEER CO NC.E 704 4TH ST, POST FALLS IDAHO 83877 (KOOTENAI)",0,C,,
83861STMRSMILLR,-116.586,47.323,False,16,009,940000,16,16009,16009940000,1400000US16009940000,POTLATCHDELTIC LAND & LUMBER LLC ST MARIES COMPLEX,2200 RAILROAD AVE,SAINT MARIES,ID,83861,"POTLATCHDELTIC LAND & LUMBER LLC ST MARIES COMPLEX.2200 RAILROAD AVE, SAINT MARIES IDAHO 83861 (BENEWAH)",0,C,181,110000468789
83851PLMMR7321T,-116.889,47.33,False,16,009,940000,16,16009,16009940000,1400000US16009940000,STIMSON LUMBER CO PLUMMER OPERATION,732 10TH ST,PLUMMER,ID,83851,"STIMSON LUMBER CO PLUMMER OPERATION.732 10TH ST, PLUMMER IDAHO 83851 (BENEWAH)",0,C,181,110022811876
83864LDMCFBOX67,-116.56299999999999,48.286,False,16,017,950200,16,16017,16017950200,1400000US16017950200,L D MCFARLAND CO,975 BALDY MOUNTAIN RD,SANDPOINT,ID,83864,"L D MCFARLAND CO.975 BALDY MOUNTAIN RD, SANDPOINT IDAHO 83864 (BONNER)",0,C,,
83864CDPNV26SAM,-116.493,48.427,False,16,017,950200,16,16017,16017950200,1400000US16017950200,CEDA PINE VENEER INC,26 SAMUELS RD,SANDPOINT,ID,83864,"CEDA PINE VENEER INC.26 SAMUELS RD, SANDPOINT IDAHO 83864 (BONNER)",0,C,,
83864NTRST1BALD,-116.56299999999999,48.288000000000004,False,16,017,950200,16,16017,16017950200,1400000US16017950200,INTERSTATE CONCRETE & ASPHALT - SANDPOINT,1000 BALDY MOUNTAIN RD,SANDPOINT,ID,83864,"INTERSTATE CONCRETE & ASPHALT - SANDPOINT.1000 BALDY MOUNTAIN RD, SANDPOINT IDAHO 83864 (BONNER)",0,C,,110022524197
83873PBDYSHIGHW,-115.936,47.481,False,16,079,960400,16,16079,16079960400,1400000US16079960400,SPUNSTRAND INC,60662 NORTHSIDE FRONTAGE RD,WALLACE,ID,83873,"SPUNSTRAND INC.60662 NORTHSIDE FRONTAGE RD, WALLACE IDAHO 83873 (SHOSHONE)",0,C,,110002136581
83837SNSHN1176B,-116.024,47.50899999999999,False,16,079,960400,16,16079,16079960400,1400000US16079960400,SUNSHINE SILVER MINE,2209 BIG CREEK RD,KELLOGG,ID,83837,"SUNSHINE SILVER MINE.2209 BIG CREEK RD, KELLOGG IDAHO 83837 (SHOSHONE)",0,C,,110017860117
83846LCKYFI90EX,-115.78299999999999,47.47,False,16,079,960400,16,16079,16079960400,1400000US16079960400,HECLA LTD LUCKY FRIDAY MINE UNIT,397 FRIDAY AVENUE,MULLAN,ID,83846,"HECLA LTD LUCKY FRIDAY MINE UNIT.397 FRIDAY AVENUE, MULLAN IDAHO 83846 (SHOSHONE)",0,C,,110041927378
83873SLVRVLAKEG,-115.962,47.483000000000004,False,16,079,960400,16,16079,16079960400,1400000US16079960400,US SILVER - IDAHO INC,1041 LAKE GULCH RD,WALLACE,ID,83873,"US SILVER - IDAHO INC.1041 LAKE GULCH RD, WALLACE IDAHO 83873 (SHOSHONE)",0,C,,110000600537
83245SHGRV230CE,-112.251,42.791000000000004,False,16,005,001900,16,16005,16005001900,1400000US16005001900,ASH GROVE CEMENT,230 CEMENT RD,INKOM,ID,83245,"ASH GROVE CEMENT.230 CEMENT RD, INKOM IDAHO 83245 (BANNOCK)",1,C,,110000468342
83274THPLL434SO,-112.12799999999999,43.375,False,16,011,950100,16,16011,16011950100,1400000US16011950100,BASIC AMERICAN FOODS SHELLEY FACILITY,434 S EMERSON AVE,SHELLEY,ID,83274,"BASIC AMERICAN FOODS SHELLEY FACILITY.434 S EMERSON AVE, SHELLEY IDAHO 83274 (BINGHAM)",0,C,,110002347489
83276VRGRNHWY34,-111.604,42.653999999999996,False,16,029,960100,16,16029,16029960100,1400000US16029960100,EVERGREEN RESOURCES INC,HWY 34 LOT 4 INDUSTRIAL PARK,SODA SPRINGS,ID,83276,"EVERGREEN RESOURCES INC.HWY 34 LOT 4 INDUSTRIAL PARK, SODA SPRINGS IDAHO 83276 (CARIBOU)",0,C,,
83217CHMCL188TE,-111.775,42.761,False,16,029,960100,16,16029,16029960100,1400000US16029960100,CHEMICAL LIME TEN MILE PLANT,1880 TENMILE PASS RD,BANCROFT,ID,83217,"CHEMICAL LIME TEN MILE PLANT.1880 TENMILE PASS RD, BANCROFT IDAHO 83217 (CARIBOU)",0,C,,110031018280
83320WRDSC19588,-113.948,43.303000000000004,False,16,013,960100,16,16013,16013960100,1400000US16013960100,AVONMORE WEST INC,19588 QUEENS CROWN RD,CAREY,ID,83320,"AVONMORE WEST INC.19588 QUEENS CROWN RD, CAREY IDAHO 83320 (BLAINE)",0,C,,
83333RCKYM1030A,-114.306,43.512,False,16,013,960100,16,16013,16013960100,1400000US16013960100,ROCKY MOUNTAIN HARDWARE INC (HAILEY),1020 AIRPORT WAY,HAILEY,ID,83333,"ROCKY MOUNTAIN HARDWARE INC (HAILEY).1020 AIRPORT WAY, HAILEY IDAHO 83333 (BLAINE)",0,C,,110015679194
83313CCBLL1716H,-114.262,43.401,False,16,013,960100,16,16013,16013960100,1400000US16013960100,ICCO BELLEVIEW,10716 HWY 75,BELLEVUE,ID,83313,"ICCO BELLEVIEW.10716 HWY 75, BELLEVUE IDAHO 83313 (BLAINE)",0,C,,110018923405
83349WRDSCHIWAY,-114.162,43.048,False,16,063,950100,16,16063,16063950100,1400000US16063950100,GLANBIA FOODS INC,1216 E HWY 26,RICHFIELD,ID,83349,"GLANBIA FOODS INC.1216 E HWY 26, RICHFIELD IDAHO 83349 (LINCOLN)",0,C,,110000602679
83352RCKYM601NI,-114.398,42.93600000000001,False,16,063,950100,16,16063,16063950100,1400000US16063950100,ROCKY MOUNTAIN HARDWARE INC (SHOSHONE),601 NICKUM WAY,SHOSHONE,ID,83352,"ROCKY MOUNTAIN HARDWARE INC (SHOSHONE).601 NICKUM WAY, SHOSHONE IDAHO 83352 (LINCOLN)",0,C,,110020516039
83202STLWS5690I,-112.462,42.937,False,16,005,000300,16,16005,16005000300,1400000US16005000300,STEEL WEST INC,5690 INDUSTRY WAY,POCATELLO,ID,83202,"STEEL WEST INC.5690 INDUSTRY WAY, POCATELLO IDAHO 83202 (BANNOCK)",0,C,,
83301LNDLK2407W,-114.436,42.535,False,16,083,001000,16,16083,16083001000,1400000US16083001000,LAND O'LAKES PURINA FEED LLC - TWIN FALLS,2407 WARREN AVE,TWIN FALLS,ID,833017978,"LAND O'LAKES PURINA FEED LLC - TWIN FALLS.2407 WARREN AVE, TWIN FALLS IDAHO 83301 (TWIN FALLS)",1,C,,110000468360
83301PPSCL535EA,-114.44,42.54,False,16,083,001000,16,16083,16083001000,1400000US16083001000,PEPSI-COLA BOTTLING,535 EASTLAND DR S,TWIN FALLS,ID,83301,"PEPSI-COLA BOTTLING.535 EASTLAND DR S, TWIN FALLS IDAHO 83301 (TWIN FALLS)",0,C,,
83338SPRSM2572S,-114.516,42.701,False,16,053,970500,16,16053,16053970500,1400000US16053970500,SPEARS MANUFACTURING CO,2572 S LINCOLN ST,JEROME,ID,83338,"SPEARS MANUFACTURING CO.2572 S LINCOLN ST, JEROME IDAHO 83338 (JEROME)",0,C,,
83338JRMCH47W10,-114.52600000000001,42.708999999999996,False,16,053,970500,16,16053,16053970500,1400000US16053970500,AGROPUR,547 W NEZ PERCE AVE,JEROME,ID,83338,"AGROPUR.547 W NEZ PERCE AVE, JEROME IDAHO 83338 (JEROME)",0,C,,110001287615
83338DRGLD1703S,-114.516,42.708,False,16,053,970500,16,16053,16053970500,1400000US16053970500,DARIGOLD-JEROME,1703 S BUCHANAN,JEROME,ID,83338,"DARIGOLD-JEROME.1703 S BUCHANAN, JEROME IDAHO 83338 (JEROME)",0,C,,110010026550
83338STNDR383E3,-114.447,42.68,False,16,053,970500,16,16053,16053970500,1400000US16053970500,STANDARD DAIRY CONSULTANTS,383 E 300 S,JEROME,ID,83338,"STANDARD DAIRY CONSULTANTS.383 E 300 S, JEROME IDAHO 83338 (JEROME)",0,C,,110012702272
83338BRDNC21BRI,-114.524,42.708999999999996,False,16,053,970500,16,16053,16053970500,1400000US16053970500,GREAT LAKES POLYMER TECHNOLOGIES JEROME PLANT,21 BRIDON WAY,JEROME,ID,83338,"GREAT LAKES POLYMER TECHNOLOGIES JEROME PLANT.21 BRIDON WAY, JEROME IDAHO 83338 (JEROME)",0,C,,110030818220
83338JRMXX391EI,-114.445,42.68,False,16,053,970500,16,16053,16053970500,1400000US16053970500,STAKER & PARSON COMPANIES JEROME,391 E INDUSTRIAL PL,JEROME,ID,83338,"STAKER & PARSON COMPANIES JEROME.391 E INDUSTRIAL PL, JEROME IDAHO 83338 (JEROME)",0,C,,110025317459
83338DHMLK165S1,-114.505,42.7,False,16,053,970500,16,16053,16053970500,1400000US16053970500,IDAHO MILK PRODUCTS INC,2249 S TIGER DR,JEROME,ID,83338,"IDAHO MILK PRODUCTS INC.2249 S TIGER DR, JEROME IDAHO 83338 (JEROME)",0,C,,110055557419
83415SPCFCTESTA,-112.73,43.857,False,16,023,970100,16,16019,16023970100,1400000US16023970100,SPECIFIC MANUFACTURING CAPABILITY/INEL,"TEST AREA NORTH, NILE AVE",IDAHO FALLS,ID,83415,"SPECIFIC MANUFACTURING CAPABILITY/INEL.TEST AREA NORTH, NILE AVE, IDAHO FALLS IDAHO 83415 (BONNEVILLE)",0,C,,
83415WSTNG1955F,-112.93299999999999,43.571999999999996,False,16,023,970100,16,16023,16023970100,1400000US16023970100,US DOE IDAHO NATIONAL LABORATORY - BATTELLE,LINCOLN BLVD,SCOVILLE,ID,83415,"US DOE IDAHO NATIONAL LABORATORY - BATTELLE.LINCOLN BLVD, SCOVILLE IDAHO 83415 (BUTTE)",0,G,,110017424679
83415SDDHNLINCO,-112.93299999999999,43.571999999999996,False,16,023,970100,16,16023,16023970100,1400000US16023970100,US DOE IDAHO NATIONAL LABORATORY SITE,LINCOLN BLVD,SCOVILLE,ID,83415,"US DOE IDAHO NATIONAL LABORATORY SITE.LINCOLN BLVD, SCOVILLE IDAHO 83415 (BUTTE)",0,F,,110017424679
83501BLNTN150SO,-117.035,46.365,False,16,069,960700,16,16069,16069960700,1400000US16069960700,FEDERAL CARTRIDGE CO-SOUTHPORT,180 SOUTHPORT AVE,LEWISTON,ID,83501,"FEDERAL CARTRIDGE CO-SOUTHPORT.180 SOUTHPORT AVE, LEWISTON IDAHO 83501 (NEZ PERCE)",0,C,,110000468477
83501PSPHL4341S,-117.04899999999999,46.373999999999995,False,16,069,960700,16,16069,16069960700,1400000US16069960700,POE ASPHALT PAVING INC,4341 SNAKE RIVER AVE,LEWISTON,ID,83501,"POE ASPHALT PAVING INC.4341 SNAKE RIVER AVE, LEWISTON IDAHO 83501 (NEZ PERCE)",0,C,,110044954412
8350WHWLLM153SU,-117.03200000000001,46.368,False,16,069,960700,16,16069,16069960700,1400000US16069960700,HOWELL MUNITIONS & TECHNOLOGY,153 SOUTHPORT AVE,LEWISTON,ID,83501,"HOWELL MUNITIONS & TECHNOLOGY.153 SOUTHPORT AVE, LEWISTON IDAHO 83501 (NEZ PERCE)",0,C,,110060257323
8350WPKYMT152SU,-117.03200000000001,46.368,False,16,069,960700,16,16069,16069960700,1400000US16069960700,P KAY METAL LEWISTON,152 SOUTHPORT AVE,LEWISTON,ID,83501,"P KAY METAL LEWISTON.152 SOUTHPORT AVE, LEWISTON IDAHO 83501 (NEZ PERCE)",0,C,,110070207172
83642CMPTR499EC,-116.38799999999999,43.599,False,16,001,010321,16,16001,16001010321,1400000US16001010321,COMPUTROL INC,499 E CORPORATE DR,MERIDIAN,ID,83642,"COMPUTROL INC.499 E CORPORATE DR, MERIDIAN IDAHO 83642 (ADA)",0,C,,110000468592
83642JBLCR1303E,-116.37799999999999,43.596000000000004,False,16,001,010321,16,16001,16001010321,1400000US16001010321,JABIL CIRCUIT INC,1303 E CENTRAL DR,MERIDIAN,ID,83642,"JABIL CIRCUIT INC.1303 E CENTRAL DR, MERIDIAN IDAHO 83642 (ADA)",0,C,,
8364WBSLTX13EFR,-116.37799999999999,43.605,False,16,001,010321,16,16001,16001010321,1400000US16001010321,BASALITE,1300 E FRANKLIN RD,MERIDIAN,ID,83642,"BASALITE.1300 E FRANKLIN RD, MERIDIAN IDAHO 83642 (ADA)",0,C,,110040366868
83858DYNMCW1735,-116.971,47.77,False,16,055,000301,16,16055,16055000301,1400000US16055000301,DYNAMIC FABRICATORS LLC / DYNAMIC MARINE LLC,22515 W HWY 53,RATHDRUM,ID,83858,"DYNAMIC FABRICATORS LLC / DYNAMIC MARINE LLC.22515 W HWY 53, RATHDRUM IDAHO 83858 (KOOTENAI)",0,C,,110000600528
83858NTRST885WW,-116.91,47.777,False,16,055,000301,16,16055,16055000301,1400000US16055000301,INTERSTATE CONCRETE & ASPHALT - WYOMING,8805 W WYOMING,RATHDRUM,ID,83858,"INTERSTATE CONCRETE & ASPHALT - WYOMING.8805 W WYOMING, RATHDRUM IDAHO 83858 (KOOTENAI)",0,C,,110001805921
83854DHSPH16425,-117.007,47.746,False,16,055,000301,16,16055,16055000301,1400000US16055000301,IDAHO ASPHALT SUPPLY INC HAUSER PLANT,16425 PRAIRIE AVE,POST FALLS,ID,83854,"IDAHO ASPHALT SUPPLY INC HAUSER PLANT.16425 PRAIRIE AVE, POST FALLS IDAHO 83854 (KOOTENAI)",0,C,,110025317538
83854STMSN1689W,-117.01299999999999,47.746,False,16,055,000301,16,16055,16055000301,1400000US16055000301,STIMSON LUMBER CO HAUSER FINGER JOINT,16809 W PRAIRIE,HAUSER,ID,83854,"STIMSON LUMBER CO HAUSER FINGER JOINT.16809 W PRAIRIE, HAUSER IDAHO 83854 (KOOTENAI)",0,C,,110025331736
83858HMNSP8976W,-116.90700000000001,47.773999999999994,False,16,055,000301,16,16055,16055000301,1400000US16055000301,HAMAN FACILITY,8976 W WYOMING RD,RATHDRUM,ID,83858,"HAMAN FACILITY.8976 W WYOMING RD, RATHDRUM IDAHO 83858 (KOOTENAI)",0,C,,110069438497
83330VNMRW1728S,-114.633,42.948,False,16,047,960100,16,16047,16047960100,1400000US16047960100,GLANBIA FOODS INC,1728 S 2300 E,GOODING,ID,83330,"GLANBIA FOODS INC.1728 S 2300 E, GOODING IDAHO 83330 (GOODING)",0,C,,110000468413
83330LNDLK1711S,-114.63799999999999,42.95,False,16,047,960100,16,16047,16047960100,1400000US16047960100,JD HEISKELL & CO,1711 S 2300 E,GOODING,ID,83330,"JD HEISKELL & CO.1711 S 2300 E, GOODING IDAHO 83330 (GOODING)",0,C,,110001851602
83704MCRNT8455W,-116.286,43.607,False,16,001,002302,16,16001,16001002302,1400000US16001002302,MICRON TECHNOLOGY MEMORY APPLICATIONS GROUP,8455 WESTPARK ST,BOISE,ID,837044836,"MICRON TECHNOLOGY MEMORY APPLICATIONS GROUP.8455 WESTPARK ST, BOISE IDAHO 83704 (ADA)",0,C,,
83704PRCLC415NM,-116.294,43.608999999999995,False,16,001,002302,16,16001,16001002302,1400000US16001002302,PRECO ELECTRONICS INCORPORATED,415 NORTH MAPLE GROVE ROAD,BOISE,ID,83704,"PRECO ELECTRONICS INCORPORATED.415 NORTH MAPLE GROVE ROAD, BOISE IDAHO 83704 (ADA)",1,C,,110005787568
83715PLNTHSIMCO,-115.956,43.341,False,16,039,960200,16,16039,16039960200,1400000US16039960200,PLANT HEALTH TECH,SIMCO RD E OF BOISE,BOISE,ID,83715,"PLANT HEALTH TECH.SIMCO RD E OF BOISE, BOISE IDAHO 83715 (ELMORE)",0,C,,
83402DHFLL5755S,-112.068,43.445,False,16,019,971400,16,16019,16019971400,1400000US16019971400,BUSCH AGRICULTURAL RESOURCES LLC,5755 S YELLOWSTONE HWY,IDAHO FALLS,ID,83402,"BUSCH AGRICULTURAL RESOURCES LLC.5755 S YELLOWSTONE HWY, IDAHO FALLS IDAHO 83402 (BONNEVILLE)",0,C,,110007058940
83402MRCNF2517W,-112.083,43.448,False,16,019,971400,16,16019,16019971400,1400000US16019971400,AMERICAN FABRICATION INC,2517 W OMNI DR,IDAHO FALLS,ID,83402,"AMERICAN FABRICATION INC.2517 W OMNI DR, IDAHO FALLS IDAHO 83402 (BONNEVILLE)",0,C,,110022411594
8340WFRZRN2255W,-112.07799999999999,43.453,False,16,019,971400,16,16019,16019971400,1400000US16019971400,FRAZIER INDUSTRIAL CO,2255 W 49TH S,IDAHO FALLS,ID,83402,"FRAZIER INDUSTRIAL CO.2255 W 49TH S, IDAHO FALLS IDAHO 83402 (BONNEVILLE)",0,C,,110044969852
83619SWRCC605NO,-116.921,44.015,False,16,075,960300,16,16075,16075960300,1400000US16075960300,SWIRE COCA COLA OF IDAHO,605 NW 4TH ST,FRUITLAND,ID,83619,"SWIRE COCA COLA OF IDAHO.605 NW 4TH ST, FRUITLAND IDAHO 83619 (PAYETTE)",0,C,,
83619WDGRN300NW,-116.916,44.023,False,16,075,960300,16,16075,16075960300,1400000US16075960300,WOODGRAIN MIILWORK INC.,300 NW 16TH ST,FRUITLAND,ID,83619,"WOODGRAIN MIILWORK INC..300 NW 16TH ST, FRUITLAND IDAHO 83619 (PAYETTE)",0,C,,110000468574
83619RVCSP5295H,-116.925,43.946000000000005,False,16,075,960300,16,16075,16075960300,1400000US16075960300,IRVCO ASPHALT & GRAVEL INC.,5295 HWY 95,FRUITLAND,ID,83619,"IRVCO ASPHALT & GRAVEL INC..5295 HWY 95, FRUITLAND IDAHO 83619 (PAYETTE)",0,C,,110031018324
8361WPRFRM212NW,-116.90700000000001,43.997,False,16,075,960300,16,16075,16075960300,1400000US16075960300,PERFORMIX NUTRITION SYSTEMS LLC,2120 NW 2ND AVE,FRUITLAND,ID,83619,"PERFORMIX NUTRITION SYSTEMS LLC.2120 NW 2ND AVE, FRUITLAND IDAHO 83619 (PAYETTE)",0,C,,110063999197
83201DLTLC3770P,-112.465,42.898,False,16,005,001400,16,16005,16005001400,1400000US16005001400,FRAZIER INDUSTRIAL CO,3770 POLELINE RD,POCATELLO,ID,83202,"FRAZIER INDUSTRIAL CO.3770 POLELINE RD, POCATELLO IDAHO 83202 (BANNOCK)",0,C,,110055557375
83653SMPLT4912E,-116.492,43.607,False,16,027,021100,16,16027,16027021100,1400000US16027021100,SORRENTO LACTALIS INC,4912 E. FRANKLIN RD,NAMPA,ID,83687,"SORRENTO LACTALIS INC.4912 E. FRANKLIN RD, NAMPA IDAHO 83687 (CANYON)",0,C,,110001807037
83687MCMSN16399,-116.553,43.611000000000004,False,16,027,021100,16,16027,16027021100,1400000US16027021100,PLEXUS MANUFACTURING SOLUTIONS (BOI),16399 N FRANKLIN BLVD,NAMPA,ID,83687,"PLEXUS MANUFACTURING SOLUTIONS (BOI).16399 N FRANKLIN BLVD, NAMPA IDAHO 83687 (CANYON)",0,C,,110000468672
83605CCMDD2125M,-116.603,43.681999999999995,False,16,027,021100,16,16027,16027021100,1400000US16027021100,ICCO MIDDELTON,21250 MIDDLETON RD,CALDWELL,ID,83605,"ICCO MIDDELTON.21250 MIDDLETON RD, CALDWELL IDAHO 83605 (CANYON)",0,C,,110025317477
8360WMDDNS134HW,-116.601,43.665,False,16,027,021100,16,16027,16027021100,1400000US16027021100,MADDENS READY MIX,10340 HWY 20/26,CALDWELL,ID,83607,"MADDENS READY MIX.10340 HWY 20/26, CALDWELL IDAHO 83607 (CANYON)",0,C,,110070566212
83202WGHTW221OR,-112.456,42.907,False,16,005,001200,16,16005,16005001200,1400000US16005001200,WEIGHT WATCHERS FOOD CO,221 OREIDA CT,POCATELLO,ID,83202,"WEIGHT WATCHERS FOOD CO.221 OREIDA CT, POCATELLO IDAHO 83202 (BANNOCK)",2,C,,
83638SDFRS106WE,-116.104,44.893,False,16,085,970300,16,16085,16085970300,1400000US16085970300,US FOREST SERVICE MCCALL AIR CENTER,106 W PARK,MC CALL,ID,83638,"US FOREST SERVICE MCCALL AIR CENTER.106 W PARK, MC CALL IDAHO 83638 (VALLEY)",0,F,,
83704DRGLD618AL,-116.265,43.611000000000004,False,16,001,002000,16,16001,16001002000,1400000US16001002000,DARIGOLD-BOISE,618 ALLUMBAUGH ST,BOISE,ID,83704,"DARIGOLD-BOISE.618 ALLUMBAUGH ST, BOISE IDAHO 83704 (ADA)",0,C,,110000468690
83706NGLBV5465I,-116.249,43.614,False,16,001,002000,16,16001,16001002000,1400000US16001002000,NAGEL BEVERAGE CO,5465 IRVING ST,BOISE,ID,83706,"NAGEL BEVERAGE CO.5465 IRVING ST, BOISE IDAHO 83706 (ADA)",0,C,,
83706NRTHW201NP,-116.251,43.607,False,16,001,002000,16,16001,16001002000,1400000US16001002000,TESORO LOGISTICS BOISE TERMINAL,201 N PHILLIPI ST,BOISE,ID,83706,"TESORO LOGISTICS BOISE TERMINAL.201 N PHILLIPI ST, BOISE IDAHO 83706 (ADA)",0,C,,110000773280
83854HRPRS1500W,-116.971,47.717,False,16,055,000402,16,16055,16055000402,1400000US16055000402,KIMBALL OFFICE POST FALLS,1881 W SELTICE WAY,POST FALLS,ID,83854,"KIMBALL OFFICE POST FALLS.1881 W SELTICE WAY, POST FALLS IDAHO 83854 (KOOTENAI)",1,C,,110000468770
83672CHMPN1442S,-116.946,44.218,False,16,087,970200,16,16087,16087970200,1400000US16087970200,CHAMPION HOME BUILDERS CO,1442 SUNNYSIDE RD,WEISER,ID,83672,"CHAMPION HOME BUILDERS CO.1442 SUNNYSIDE RD, WEISER IDAHO 83672 (WASHINGTON)",2,C,,
83672RDMNH1425S,-116.945,44.216,False,16,087,970200,16,16087,16087970200,1400000US16087970200,CHAMPION HOME BUILDERS INC,1425 SUNNYSIDE RD,WEISER,ID,83672,"CHAMPION HOME BUILDERS INC.1425 SUNNYSIDE RD, WEISER IDAHO 83672 (WASHINGTON)",0,C,,110000468654
83227THMPSSQUAW,-114.545,44.31100000000001,False,16,037,960200,16,16037,16037960200,1400000US16037960200,THOMPSON CREEK MINING CO,SQUAW CREEK RD OFF HWY 75,CLAYTON,ID,83227,"THOMPSON CREEK MINING CO.SQUAW CREEK RD OFF HWY 75, CLAYTON IDAHO 83227 (CUSTER)",0,C,,110000600430
83318SNDNC480S2,-113.845,42.465,False,16,031,950600,16,16031,16031950600,1400000US16031950600,TESSENDERLO KERLEY INC,480 S 280W,BURLEY,ID,83318,"TESSENDERLO KERLEY INC.480 S 280W, BURLEY IDAHO 83318 (CASSIA)",0,C,,110000468404
83467MRDNGFORES,-114.12899999999999,45.214,False,16,059,970100,16,16059,16059970100,1400000US16059970100,MERIDIAN BEARTRACK CO,FOREST RD 242 SALMON NATIONAL FOREST,SALMON,ID,83467,"MERIDIAN BEARTRACK CO.FOREST RD 242 SALMON NATIONAL FOREST, SALMON IDAHO 83467 (LEMHI)",0,C,,
83624NVRSF1012M,-116.264,43.06399999999999,False,16,073,950200,16,16073,16073950200,1400000US16073950200,US ECOLOGY IDAHO INC,20400 LEMLEY RD,GRAND VIEW,ID,83624,"US ECOLOGY IDAHO INC.20400 LEMLEY RD, GRAND VIEW IDAHO 83624 (OWYHEE)",0,C,,110046358133
97910KNRSS1DELA,-116.89,42.974,False,16,073,950200,16,16073,16073950200,1400000US16073950200,KINROSS DELAMAR MINE,#1 DELAMAR RD,MURPHY,ID,83650,"KINROSS DELAMAR MINE.#1 DELAMAR RD, MURPHY IDAHO 83650 (OWYHEE)",1,C,,
83716MRCNH5556F,-116.15899999999999,43.552,False,16,001,010504,16,16015,16001010504,1400000US16001010504,AMERICAN HOMESTAR WEST INC,5556 FEDERAL WAY,BOISE,ID,83716,"AMERICAN HOMESTAR WEST INC.5556 FEDERAL WAY, BOISE IDAHO 83716 (BOISE)",0,C,,
83705ZMNMN326EA,-116.145,43.56100000000001,False,16,001,010504,16,16001,16001010504,1400000US16001010504,ZIEMAN MANUFACTURING BOISE,3206 E AMITY RD,BOISE,ID,83705,"ZIEMAN MANUFACTURING BOISE.3206 E AMITY RD, BOISE IDAHO 83705 (ADA)",0,C,,
83221BLCKF591W1,-112.414,43.211000000000006,False,16,011,950700,16,16011,16011950700,1400000US16011950700,BLACKFOOT BRASS,591 W 100 N,BLACKFOOT,ID,83221,"BLACKFOOT BRASS.591 W 100 N, BLACKFOOT IDAHO 83221 (BINGHAM)",0,C,,110008061015
83530PSPHL15DUN,-116.09200000000001,45.918,False,16,049,960200,16,16049,16049960200,1400000US16049960200,POE ASPHALT PAVING INC.,15 DUNE DR,GRANGEVILLE,ID,83530,"POE ASPHALT PAVING INC..15 DUNE DR, GRANGEVILLE IDAHO 83530 (IDAHO)",0,C,,110031002055
83530BNNTTHWY95,-116.146,45.941,False,16,049,960200,16,16049,16049960200,1400000US16049960200,IDAHO FOREST GROUP GRANGEVILLE FACILITY,171 HWY 95 N,GRANGEVILLE,ID,83530,"IDAHO FOREST GROUP GRANGEVILLE FACILITY.171 HWY 95 N, GRANGEVILLE IDAHO 83530 (IDAHO)",0,C,,110013286390
83642LPWDP420WF,-116.399,43.605,False,16,001,010322,16,16001,16001010322,1400000US16001010322,FIBER COMPOSITES LLC,420 WEST FRANKLIN RD,MERIDIAN,ID,83642,"FIBER COMPOSITES LLC.420 WEST FRANKLIN RD, MERIDIAN IDAHO 83642 (ADA)",0,C,,110012576079
83837SPFND1005M,-116.13799999999999,47.538000000000004,False,16,079,960300,16,16079,16079960300,1400000US16079960300,US EPA FUND-LEAD SUPERFUND SITE/BUNKER HILL CTP,110 WILDCAT WAY,KELLOGG,ID,83837,"US EPA FUND-LEAD SUPERFUND SITE/BUNKER HILL CTP.110 WILDCAT WAY, KELLOGG IDAHO 83837 (SHOSHONE)",0,F,,110000789941
83837SSNTL198BI,-116.066,47.516999999999996,False,16,079,960300,16,16079,16079960300,1400000US16079960300,SUNSHINE REFINING COMPANY,1098 BIG CREEK RD,KELLOGG,ID,83837,"SUNSHINE REFINING COMPANY.1098 BIG CREEK RD, KELLOGG IDAHO 83837 (SHOSHONE)",0,C,,110041457278
83525BNNTTHWY14,-115.48,45.806999999999995,False,16,049,960100,16,16049,16049960100,1400000US16049960100,BENNETT FOREST INDUSTRIES,HWY 14,ELK CITY,ID,83525,"BENNETT FOREST INDUSTRIES.HWY 14, ELK CITY IDAHO 83525 (IDAHO)",0,C,,
83536KMHMLHWY14,-116.014,46.227,False,16,061,940001,16,16061,16061940001,1400000US16061940001,EMPIRE LUMBER CO (DBA KAMIAH MILLS),HWY 12 & RAILROAD AVE,KAMIAH,ID,83536,"EMPIRE LUMBER CO (DBA KAMIAH MILLS).HWY 12 & RAILROAD AVE, KAMIAH IDAHO 83536 (LEWIS)",0,C,182,110011625599
83539CLRWT1MISO,-115.979,46.121,False,16,049,940000,16,16049,16049940000,1400000US16049940000,CLEARWATER FOREST INDUSTRIES,4689 HWY 13 S,KOOSKIA,ID,83539,"CLEARWATER FOREST INDUSTRIES.4689 HWY 13 S, KOOSKIA IDAHO 83539 (IDAHO)",0,C,,110011625633
8353WBLNRT283WD,-116.035,46.244,False,16,049,940000,16,16061,16049940000,1400000US16049940000,BLUE NORTH FOREST PRODUCTS,283 WOODLAND RD,KAMIAH,ID,83536,"BLUE NORTH FOREST PRODUCTS.283 WOODLAND RD, KAMIAH IDAHO 83536 (LEWIS)",0,C,,110058087136
83805LSNPC6726R,-116.323,48.695,False,16,021,970200,16,16021,16021970200,1400000US16021970200,CROWN PACIFIC BONNERS FERRY,6726 RIVERSIDE,BONNERS FERRY,ID,83805,"CROWN PACIFIC BONNERS FERRY.6726 RIVERSIDE, BONNERS FERRY IDAHO 83805 (BOUNDARY)",0,C,,
83814CRWNPSUTH2,-116.851,47.7,False,16,055,000601,16,16055,16055000601,1400000US16055000601,CROWN PACIFIC COEUR D'ALENE,SOUTH 200 HUETTER ROAD,COEUR D ALENE,ID,83814,"CROWN PACIFIC COEUR D'ALENE.SOUTH 200 HUETTER ROAD, COEUR D ALENE IDAHO 83814 (KOOTENAI)",0,C,,
83854MRMNF5676E,-116.87200000000001,47.705,False,16,055,000601,16,16055,16055000601,1400000US16055000601,MOR MANUFACTURING CORP,5676 E. SELTICE WAY,POST FALLS,ID,83854,"MOR MANUFACTURING CORP.5676 E. SELTICE WAY, POST FALLS IDAHO 83854 (KOOTENAI)",0,C,,110005788040
83816STMSN3074W,-116.824,47.7,False,16,055,000800,16,16055,16055000800,1400000US16055000800,STIMSON LUMBER CO ATLAS OPERATION,3074 SELTICE WAY,COEUR D ALENE,ID,83814,"STIMSON LUMBER CO ATLAS OPERATION.3074 SELTICE WAY, COEUR D ALENE IDAHO 83814 (KOOTENAI)",0,C,,110012700719
83816STMSN927RI,-116.796,47.675,False,16,055,001400,16,16055,16055001400,1400000US16055001400,STIMSON LUMBER CO DEARMOND OPERATION,927 RIVER AVE,COEUR D ALENE,ID,838142153,"STIMSON LUMBER CO DEARMOND OPERATION.927 RIVER AVE, COEUR D ALENE IDAHO 83814 (KOOTENAI)",0,C,,110012702307
83841RLYCRRILEY,-116.76,48.167,False,16,017,950500,16,16017,16017950500,1400000US16017950500,IDAHO FOREST GROUP - LACLEDE,30 RILEY CREEK PARK DR,LACLEDE,ID,83841,"IDAHO FOREST GROUP - LACLEDE.30 RILEY CREEK PARK DR, LACLEDE IDAHO 83841 (BONNER)",0,C,,110020056106
83845LSNPCOLDHW,-116.19200000000001,48.723,False,16,021,970100,16,16021,16021970100,1400000US16021970100,IDAHO FOREST GROUP -- MOYIE SPRINGS,3082 ROOSEVELT ROAD,MOYIE SPRINGS,ID,83845,"IDAHO FOREST GROUP -- MOYIE SPRINGS.3082 ROOSEVELT ROAD, MOYIE SPRINGS IDAHO 83845 (BOUNDARY)",0,C,,110007514635
83856STMSNSMERR,-116.91,48.172,False,16,017,950700,16,16017,16017950700,1400000US16017950700,STIMSON LUMBER CO PRIEST RIVER OPS,12 OLD PRIEST RIVER ROAD,PRIEST RIVER,ID,83856,"STIMSON LUMBER CO PRIEST RIVER OPS.12 OLD PRIEST RIVER ROAD, PRIEST RIVER IDAHO 83856 (BONNER)",0,C,,110043532344
83822NTRST37916,-117.027,48.174,False,16,017,950700,16,16017,16017950700,1400000US16017950700,INTERSTATE CONCRETE & ASPHALT OLDTOWN,37916 HWY 41,OLD TOWN,ID,83822,"INTERSTATE CONCRETE & ASPHALT OLDTOWN.37916 HWY 41, OLD TOWN IDAHO 83822 (BONNER)",0,C,,110022524188
83857BNNTT3759H,-116.771,46.92100000000001,False,16,057,005500,16,16057,16057005500,1400000US16057005500,BENNETT LUMBER PRODUCTS INC,3759 HWY 6,PRINCETON,ID,83857,"BENNETT LUMBER PRODUCTS INC.3759 HWY 6, PRINCETON IDAHO 83857 (LATAH)",0,C,,110013285364
83864LPSND808NB,-116.557,48.281000000000006,False,16,017,950300,16,16017,16017950300,1400000US16017950300,RILEY CREEK SANDPOINT PLANERMILL,808 N BOYER AVE,SANDPOINT,ID,83864,"RILEY CREEK SANDPOINT PLANERMILL.808 N BOYER AVE, SANDPOINT IDAHO 83864 (BONNER)",0,C,,
83467QBCRP142HW,-113.67,45.034,False,16,059,970200,16,16059,16059970200,1400000US16059970200,QB CORP,1420 HWY 28,SALMON,ID,83467,"QB CORP.1420 HWY 28, SALMON IDAHO 83467 (LEMHI)",0,C,,110037148306
83616CCGLX2755E,-116.321,43.685,False,16,001,010225,16,16001,16001010225,1400000US16001010225,ICCO EAGLE,2755 E STATE ST,EAGLE,ID,83616,"ICCO EAGLE.2755 E STATE ST, EAGLE IDAHO 83616 (ADA)",0,C,,110015583046
83676SSFDS22303,-116.914,43.696000000000005,False,16,027,022100,16,16027,16027022100,1400000US16027022100,CTI FOODS - WILDER,22303 HWY 95,WILDER,ID,83676,"CTI FOODS - WILDER.22303 HWY 95, WILDER IDAHO 83676 (CANYON)",0,C,,110000600519
83318WSTRN11WMA,-113.806,42.537,False,16,031,950400,16,16031,16031950400,1400000US16031950400,WESTERN STOCKMEN'S,1001 W MAIN ST,BURLEY,ID,83318,"WESTERN STOCKMEN'S.1001 W MAIN ST, BURLEY IDAHO 83318 (CASSIA)",0,C,,
83648SRFRC11LIB,-115.865,43.048,False,16,039,960500,16,16039,16039960500,1400000US16039960500,US DOD USAF MOUNTAIN HOME AFB,1100 LIBERATOR ST BUILDING 1297,MOUNTAIN HOME AFB,ID,83648,"US DOD USAF MOUNTAIN HOME AFB.1100 LIBERATOR ST BUILDING 1297, MOUNTAIN HOME AFB IDAHO 83648 (ELMORE)",0,F,,110022448298
8364WSDDSF198SM,-115.865,43.048,False,16,039,960500,16,16039,16039960500,1400000US16039960500,US DOD USAF SMALL ARMS RANGE,1908 SMAR RD,MOUNTAIN HOME AFB,ID,83648,"US DOD USAF SMALL ARMS RANGE.1908 SMAR RD, MOUNTAIN HOME AFB IDAHO 83648 (ELMORE)",0,F,,110022448298
83303CCTWN1294A,-114.51100000000001,42.567,False,16,083,000700,16,16083,16083000700,1400000US16083000700,ICCO TWIN FALLS,1294 ADDISON AVE,TWIN FALLS,ID,83303,"ICCO TWIN FALLS.1294 ADDISON AVE, TWIN FALLS IDAHO 83303 (TWIN FALLS)",0,C,,110025331692
83350CRGLL85N1E,-113.648,42.631,False,16,067,970500,16,16067,16067970500,1400000US16067970500,CARGILL ANIMAL NUTRITION,85 N 100 EAST B,RUPERT,ID,83350,"CARGILL ANIMAL NUTRITION.85 N 100 EAST B, RUPERT IDAHO 83350 (MINIDOKA)",0,C,,110024942703
83355CCWND799SW,-114.70700000000001,42.769,False,16,047,960200,16,16047,16047960200,1400000US16047960200,ICCO WENDELL,799 S WALLIS ST,WENDELL,ID,83355,"ICCO WENDELL.799 S WALLIS ST, WENDELL IDAHO 83355 (GOODING)",0,C,,110025317468
8335WJDHSK1999F,-114.71799999999999,42.772,False,16,047,960200,16,16047,16047960200,1400000US16047960200,J D HEISKELL & CO,1999 FRONTAGE RD N,WENDELL,ID,83355,"J D HEISKELL & CO.1999 FRONTAGE RD N, WENDELL IDAHO 83355 (GOODING)",0,C,,110024523498
83628FLLRK4318P,-116.912,43.601000000000006,False,16,073,950101,16,16073,16073950101,1400000US16073950101,HOMEDALE BEAM & DECK PLANT,4318 PIONEER RD,HOMEDALE,ID,83628,"HOMEDALE BEAM & DECK PLANT.4318 PIONEER RD, HOMEDALE IDAHO 83628 (OWYHEE)",0,C,,110025317501
83647CCMNT15E1T,-115.70200000000001,43.141000000000005,False,16,039,960300,16,16039,16039960300,1400000US16039960300,ICCO MOUNTAIN HOME,150 E 10TH N,MOUNTAIN HOME,ID,83647,"ICCO MOUNTAIN HOME.150 E 10TH N, MOUNTAIN HOME IDAHO 83647 (ELMORE)",0,C,,110064583179
83612TMRCK3555H,-116.38799999999999,44.956,False,16,003,950100,16,16003,16003950100,1400000US16003950100,TAMARACK MILLS (DBA EVERGREEN FORESTS),3555 HWY 95,TAMARACK,ID,83612,"TAMARACK MILLS (DBA EVERGREEN FORESTS).3555 HWY 95, TAMARACK IDAHO 83612 (ADAMS)",0,C,,110020061653
83713KMCDS652NF,-116.31299999999999,43.611000000000004,False,16,001,002313,16,16001,16001002313,1400000US16001002313,KIMCO DESIGN & MANUFACTURING,652 N FIVE MILE,BOISE,ID,83713,"KIMCO DESIGN & MANUFACTURING.652 N FIVE MILE, BOISE IDAHO 83713 (ADA)",0,C,,110031002082
83716STKRP11532,-116.325,43.665,False,16,001,002412,16,16001,16001002412,1400000US16001002412,STAKER & PARSON COMPANIES JOPLIN,11532 JOPLIN RD,BOISE,ID,83716,"STAKER & PARSON COMPANIES JOPLIN.11532 JOPLIN RD, BOISE IDAHO 83716 (ADA)",0,C,,110031002091
8371WSNRCC1988J,-116.31700000000001,43.668,False,16,001,002412,16,16001,16001002412,1400000US16001002412,SUNROC CORP - JOPLIN FACILITY,10988 JOPLIN ROAD,BOISE,ID,83714,"SUNROC CORP - JOPLIN FACILITY.10988 JOPLIN ROAD, BOISE IDAHO 83714 (ADA)",0,C,,110059780866
8386WSTMSN5MILL,-116.54299999999999,47.327,False,16,009,950100,16,16009,16009950100,1400000US16009950100,STIMSON LUMBER CO ST MARIES OPERATION,1040 MILWAUKEE RD,SAINT MARIES,ID,83861,"STIMSON LUMBER CO ST MARIES OPERATION.1040 MILWAUKEE RD, SAINT MARIES IDAHO 83861 (BENEWAH)",0,C,,110044893023
8330WGNCRP2233N,-114.508,42.303999999999995,False,16,083,001500,16,16083,16083001500,1400000US16083001500,GEN COR PORTABLE HOT PLANT,2233 N2700E RD,TWIN FALLS,ID,83301,"GEN COR PORTABLE HOT PLANT.2233 N2700E RD, TWIN FALLS IDAHO 83301 (TWIN FALLS)",0,C,,110055499893
8350WSCHWT2821J,-116.991,46.398,False,16,069,960600,16,16069,16069960600,1400000US16069960600,SCHWEITZER ENGINEERING LABS INC-LEWISTON ID FACILITY,2821 JUNIPER DR,LEWISTON,ID,83501,"SCHWEITZER ENGINEERING LABS INC-LEWISTON ID FACILITY.2821 JUNIPER DR, LEWISTON IDAHO 83501 (NEZ PERCE)",0,C,,110044281201
8340WCVSST159NY,-111.96600000000001,43.588,False,16,019,970300,16,16019,16019970300,1400000US16019970300,CIVES STEEL IDAHO,10059 N YELLOWSTONE HWY,IDAHO FALLS,ID,83401,"CIVES STEEL IDAHO.10059 N YELLOWSTONE HWY, IDAHO FALLS IDAHO 83401 (BONNEVILLE)",0,C,,110061070022
8385WNTRST23813,-116.645,48.253,False,16,017,950400,16,16017,16017950400,1400000US16017950400,INTERSTATE CONCRETE & ASPHALT - DOVER,23813 US HWY 2,DOVER,ID,83852,"INTERSTATE CONCRETE & ASPHALT - DOVER.23813 US HWY 2, DOVER IDAHO 83852 (BONNER)",0,C,,110070238921
