TRIFID,LONGITUDE,LATITUDE,ESTIMATE,STATEFP,COUNTYFP,TRACTCE,STATEGEOID,COUNTYGEOID,TRACTGEOID,AFFGEOID,FACILITY_NAME,STREET,CITY,STUSPS,ZIP_CODE,FACILITY,FAC_CLOSED_IND,ASGN_FEDERAL_IND,BIA_CODE,EPA_REGISTRY_ID
66002MDWST1300M,-95.133,39.561,False,20,005,081900,20,20005,20005081900,1400000US20005081900,MGPI PROCESSING INC,1300 MAIN ST,ATCHISON,KS,66002,"MGPI PROCESSING INC.1300 MAIN ST, ATCHISON KANSAS 66002 (ATCHISON)",0,C,,110000445073
66002RCKWL4THAN,-95.117,39.558,False,20,005,081800,20,20005,20005081800,1400000US20005081800,BRADKEN ATCHISON/ST JOSEPH,400 S FOURTH ST,ATCHISON,KS,66002,"BRADKEN ATCHISON/ST JOSEPH.400 S FOURTH ST, ATCHISON KANSAS 66002 (ATCHISON)",0,C,,110017375124
66002CNGRF16755,-95.186,39.543,False,20,005,081800,20,20005,20005081800,1400000US20005081800,CONAGRA FOODS CORN PROCESSING,16755 274TH RD,ATCHISON,KS,66002,"CONAGRA FOODS CORN PROCESSING.16755 274TH RD, ATCHISON KANSAS 66002 (ATCHISON)",0,C,,
66002WMCMF1116U,-95.163,39.549,False,20,005,081800,20,20005,20005081800,1400000US20005081800,WE MAC MANUFACTURING,11016 W HWY 59,ATCHISON,KS,66002,"WE MAC MANUFACTURING.11016 W HWY 59, ATCHISON KANSAS 66002 (ATCHISON)",0,C,,110006014080
66018KCHSL103RD,-94.99700000000001,38.942,False,20,091,052700,20,20091,20091052700,1400000US20091052700,KOCH SULFUR PRODUCTS CO,35425 103RD ST,DE SOTO,KS,66018,"KOCH SULFUR PRODUCTS CO.35425 103RD ST, DE SOTO KANSAS 66018 (JOHNSON)",0,C,,
66018SNFLW35425,-94.99700000000001,38.942,False,20,091,052700,20,20091,20091052700,1400000US20091052700,US ARMY SUNFLOWER AMMUNITION PLANT ALLIANT TECHSYSTEMS,35425 W 103RD ST,DE SOTO,KS,66018,"US ARMY SUNFLOWER AMMUNITION PLANT ALLIANT TECHSYSTEMS.35425 W 103RD ST, DE SOTO KANSAS 66018 (JOHNSON)",2,G,,
66018SRMYS35425,-94.99700000000001,38.942,False,20,091,052700,20,20091,20091052700,1400000US20091052700,US ARMY SUNFLOWER AMMUNITION PLANT,35425 W 103RD ST,DE SOTO,KS,66018,"US ARMY SUNFLOWER AMMUNITION PLANT.35425 W 103RD ST, DE SOTO KANSAS 66018 (JOHNSON)",2,F,,
66018NTRVT355W9,-94.992,38.964,False,20,091,052700,20,20091,20091052700,1400000US20091052700,INTERVET INC,35500 W 91ST ST,DE SOTO,KS,66018,"INTERVET INC.35500 W 91ST ST, DE SOTO KANSAS 66018 (JOHNSON)",0,C,,110017376025
66024SNRKLHWY23,-94.897,39.748000000000005,False,20,043,020300,20,20043,20043020300,1400000US20043020300,SNORKEL INTERNATIONAL LLC,1609 ROSEPORT RD,ELWOOD,KS,66024,"SNORKEL INTERNATIONAL LLC.1609 ROSEPORT RD, ELWOOD KANSAS 66024 (DONIPHAN)",0,C,,110000445108
66024FRMNT15THA,-94.88799999999999,39.751999999999995,False,20,043,020300,20,20043,20043020300,1400000US20043020300,BOEHRINGER INGELHEIM VETMEDICA INC,1411 OAK ST,ELWOOD,KS,66024,"BOEHRINGER INGELHEIM VETMEDICA INC.1411 OAK ST, ELWOOD KANSAS 66024 (DONIPHAN)",0,C,,110017535504
66024CNTNN7THLI,-94.87799999999999,39.753,False,20,043,020300,20,20043,20043020300,1400000US20043020300,CONTINENTAL GRAIN CO,7TH & LINCOLN ST,ELWOOD,KS,660240419,"CONTINENTAL GRAIN CO.7TH & LINCOLN ST, ELWOOD KANSAS 66024 (DONIPHAN)",0,C,,
66090LTCND1009V,-94.928,39.757,False,20,043,020300,20,20043,20043020300,1400000US20043020300,ALTEC INDUSTRIES INC,1009 VERNON ROAD,WATHENA,KS,66090,"ALTEC INDUSTRIES INC.1009 VERNON ROAD, WATHENA KANSAS 66090 (DONIPHAN)",0,C,,110015584376
66090MDLND1BCHL,-94.941,39.754,False,20,043,020300,20,20043,20043020300,1400000US20043020300,MIDLAND STEEL CO MIDLAND STEEL,202 BOEH LN,WATHENA,KS,66090,"MIDLAND STEEL CO MIDLAND STEEL.202 BOEH LN, WATHENA KANSAS 66090 (DONIPHAN)",0,C,,110025333752
66024KMGBR52S15,-94.889,39.751,False,20,043,020300,20,20043,20043020300,1400000US20043020300,RITEPACK INC,502 S 15TH ST,WATHENA,KS,66090,"RITEPACK INC.502 S 15TH ST, WATHENA KANSAS 66090 (DONIPHAN)",0,C,,110037194531
66031DZYCRONEDA,-94.89399999999999,38.829,False,20,091,053711,20,20091,20091053711,1400000US20091053711,DAZEY CORP,1 DAZEY CIR,NEW CENTURY,KS,66031,"DAZEY CORP.1 DAZEY CIR, NEW CENTURY KANSAS 66031 (JOHNSON)",0,C,,
66031HWLLM201OV,-94.898,38.833,False,20,091,053711,20,20091,20091053711,1400000US20091053711,HOWELL MOULDINGS,201 OVERLAND PARK PL,NEW CENTURY,KS,66031,"HOWELL MOULDINGS.201 OVERLAND PARK PL, NEW CENTURY KANSAS 66031 (JOHNSON)",0,C,,
66031JTTCH100PR,-94.9,38.828,False,20,091,053711,20,20091,20091053711,1400000US20091053711,JET-TECH INC,100 PRAIRIE VILLAGE DR,GARDNER,KS,66031,"JET-TECH INC.100 PRAIRIE VILLAGE DR, GARDNER KANSAS 66031 (JOHNSON)",0,C,,
66031DNSCN201NE,-94.899,38.833,False,20,091,053711,20,20091,20091053711,1400000US20091053711,DANISCO USA INC,201 NEW CENTURY PARKWAY,NEW CENTURY,KS,66031,"DANISCO USA INC.201 NEW CENTURY PARKWAY, NEW CENTURY KANSAS 66031 (JOHNSON)",0,C,,110000445135
66031STSNC3NEWC,-94.899,38.829,False,20,091,053711,20,20091,20091053711,1400000US20091053711,STOUSE LLC,300 NEW CENTURY PKWY,NEW CENTURY,KS,66031,"STOUSE LLC.300 NEW CENTURY PKWY, NEW CENTURY KANSAS 66031 (JOHNSON)",0,C,,110003140752
66031HRTLN31PRA,-94.905,38.828,False,20,091,053711,20,20091,20091053711,1400000US20091053711,HEARTLAND PRECISION FASTENERS,301 PRAIRIE VILLAGE DR,NEW CENTURY,KS,66031,"HEARTLAND PRECISION FASTENERS.301 PRAIRIE VILLAGE DR, NEW CENTURY KANSAS 66031 (JOHNSON)",0,C,,110003212087
66031SHDDS27080,-94.899,38.84,False,20,091,053711,20,20091,20091053711,1400000US20091053711,"UNILEVER MANUFACTURING (US), INC",27080 W 159TH ST,NEW CENTURY,KS,66031,"UNILEVER MANUFACTURING (US), INC.27080 W 159TH ST, NEW CENTURY KANSAS 66031 (JOHNSON)",0,C,,110010290050
6603WPNNYS16741,-94.905,38.824,False,20,091,053711,20,20091,20091053711,1400000US20091053711,PENNYS CONCRETE,16741 CONESTOGA ST,NEW CENTURY,KS,66031,"PENNYS CONCRETE.16741 CONESTOGA ST, NEW CENTURY KANSAS 66031 (JOHNSON)",0,C,,110067540469
66044BNDXK2931H,-95.223,38.931,False,20,045,001002,20,20045,20045001002,1400000US20045001002,ALLIED-SIGNAL AVIONICS INC,2931 HASKELL,LAWRENCE,KS,66044,"ALLIED-SIGNAL AVIONICS INC.2931 HASKELL, LAWRENCE KANSAS 66044 (DOUGLAS)",0,C,,
6604WPLNTX3645E,-95.19,38.94,False,20,045,001002,20,20045,20045001002,1400000US20045001002,PLANT #20,3645 E 23RD AVE,LAWRENCE,KS,66046,"PLANT #20.3645 E 23RD AVE, LAWRENCE KANSAS 66046 (DOUGLAS)",0,C,,110042001954
66044FMCCR9THMA,-95.214,38.98,False,20,045,000100,20,20045,20045000100,1400000US20045000100,ICL,440 N 9TH ST,LAWRENCE,KS,66044,"ICL.440 N 9TH ST, LAWRENCE KANSAS 66044 (DOUGLAS)",0,C,,110017579850
66044PKCHM440BN,-95.214,38.979,False,20,045,000100,20,20045,20045000100,1400000US20045000100,CHEMTRADE PHOSPHORUS SPECIALTIES LLC,440 B N 9TH ST,LAWRENCE,KS,66044,"CHEMTRADE PHOSPHORUS SPECIALTIES LLC.440 B N 9TH ST, LAWRENCE KANSAS 66044 (DOUGLAS)",0,C,,110008059475
66044FRMLNPOBOX,-95.20299999999999,38.943000000000005,False,20,045,000200,20,20045,20045000200,1400000US20045000200,FARMLAND INDUSTRIES INC LAWRENCE NITROGEN PLANT,1608 N 1400 RD,LAWRENCE,KS,66046,"FARMLAND INDUSTRIES INC LAWRENCE NITROGEN PLANT.1608 N 1400 RD, LAWRENCE KANSAS 66046 (DOUGLAS)",0,C,,
66044LLNPR800E1,-95.226,38.965,False,20,045,000200,20,20045,20045000200,1400000US20045000200,ALLEN PRESS INC,800 E 10TH,LAWRENCE,KS,66044,"ALLEN PRESS INC.800 E 10TH, LAWRENCE KANSAS 66044 (DOUGLAS)",0,C,,
66046RCGSSEASTK,-95.20100000000001,38.943000000000005,False,20,045,000200,20,20045,20045000200,1400000US20045000200,BOC GASES,1626 N 1400 RD,LAWRENCE,KS,660469258,"BOC GASES.1626 N 1400 RD, LAWRENCE KANSAS 66046 (DOUGLAS)",0,C,,
66046STRNV3841G,-95.18,38.946999999999996,False,20,045,000200,20,20045,20045000200,1400000US20045000200,API AMERICAS INC,3841 GREENWAY CIR,LAWRENCE,KS,66046,"API AMERICAS INC.3841 GREENWAY CIR, LAWRENCE KANSAS 66046 (DOUGLAS)",0,C,,110000445224
66046PRSCN3741G,-95.189,38.948,False,20,045,000200,20,20045,20045000200,1400000US20045000200,PROSOCO INC,3741 GREENWAY CIR,LAWRENCE,KS,66046,"PROSOCO INC.3741 GREENWAY CIR, LAWRENCE KANSAS 66046 (DOUGLAS)",0,C,,110008059439
6604WPNNYS8E8TH,-95.225,38.969,False,20,045,000200,20,20045,20045000200,1400000US20045000200,PENNYS CONCRETE,800 E. 8TH STREET,LAWRENCE,KS,66044,"PENNYS CONCRETE.800 E. 8TH STREET, LAWRENCE KANSAS 66044 (DOUGLAS)",0,C,,110001238152
66044HLLMR101MC,-95.258,38.984,False,20,045,000501,20,20045,20045000501,1400000US20045000501,HALLMARK CARDS INC,101 MCDONALD DR,LAWRENCE,KS,660440099,"HALLMARK CARDS INC.101 MCDONALD DR, LAWRENCE KANSAS 66044 (DOUGLAS)",0,C,,
66044PCKRP2330P,-95.264,38.998000000000005,False,20,045,001500,20,20045,20045001500,1400000US20045001500,PACKER PLASTICS INC,2330 PACKER RD,LAWRENCE,KS,66049,"PACKER PLASTICS INC.2330 PACKER RD, LAWRENCE KANSAS 66049 (DOUGLAS)",0,C,,
66044RQPCR2901L,-95.272,39.001,False,20,045,001500,20,20045,20045001500,1400000US20045001500,AEROQUIP CORP TRANSPORTATION DIV,2901 LAKEVIEW RD,LAWRENCE,KS,66044,"AEROQUIP CORP TRANSPORTATION DIV.2901 LAKEVIEW RD, LAWRENCE KANSAS 66044 (DOUGLAS)",0,C,,
66044TRWNC2400P,-95.26299999999999,38.998000000000005,False,20,045,001500,20,20045,20045001500,1400000US20045001500,SCHLUMBERGER TECHNOLOGY CORP LAWRENCE TECHNOLOGY CENTER,2400 PACKER RD,LAWRENCE,KS,66049,"SCHLUMBERGER TECHNOLOGY CORP LAWRENCE TECHNOLOGY CENTER.2400 PACKER RD, LAWRENCE KANSAS 66049 (DOUGLAS)",0,C,,110000445206
66044LWRNC1250N,-95.27,39.008,False,20,045,001500,20,20045,20045001500,1400000US20045001500,LAWRENCE ENERGY CENTER,1250 N 1800 RD,LAWRENCE,KS,66049,"LAWRENCE ENERGY CENTER.1250 N 1800 RD, LAWRENCE KANSAS 66049 (DOUGLAS)",0,C,,110000445180
66044QKRTS727NI,-95.26,38.97,False,20,045,000502,20,20045,20045000502,1400000US20045000502,BIG HEART PET BRANDS INC,727 N IOWA ST,LAWRENCE,KS,66049,"BIG HEART PET BRANDS INC.727 N IOWA ST, LAWRENCE KANSAS 66049 (DOUGLAS)",0,C,,110000445199
66046DVLNC700EA,-95.227,38.944,False,20,045,001001,20,20045,20045001001,1400000US20045001001,DAVOL INC,700 E 22ND ST,LAWRENCE,KS,66046,"DAVOL INC.700 E 22ND ST, LAWRENCE KANSAS 66046 (DOUGLAS)",0,C,,
66048GNBNC1901S,-94.90899999999999,39.3,False,20,103,070500,20,20103,20103070500,1400000US20103070500,EXIDE CORP,1825 S 4TH ST,LEAVENWORTH,KS,66048,"EXIDE CORP.1825 S 4TH ST, LEAVENWORTH KANSAS 66048 (LEAVENWORTH)",0,C,,
66048HLLMR4901S,-94.897,39.27,False,20,103,070500,20,20103,20103070500,1400000US20103070500,HALLMARK CARDS INC.,4901 SELECT PRODUCTS DR,LEAVENWORTH,KS,66048,"HALLMARK CARDS INC..4901 SELECT PRODUCTS DR, LEAVENWORTH KANSAS 66048 (LEAVENWORTH)",0,C,,110000445242
66048KWVLL1801S,-94.904,39.3,False,20,103,070500,20,20103,20103070500,1400000US20103070500,KAW VALLEY INC,1801 S 2ND ST,LEAVENWORTH,KS,66048,"KAW VALLEY INC.1801 S 2ND ST, LEAVENWORTH KANSAS 66048 (LEAVENWORTH)",0,C,,
66048GRTWS2017S,-94.90899999999999,39.296,False,20,103,070500,20,20103,20103070500,1400000US20103070500,GREAT WESTERN MANUFACTURING CO INC,2017 S 4TH ST,LEAVENWORTH,KS,66048,"GREAT WESTERN MANUFACTURING CO INC.2017 S 4TH ST, LEAVENWORTH KANSAS 66048 (LEAVENWORTH)",0,C,,110001131631
66048MDLND1805S,-94.905,39.3,False,20,103,070500,20,20103,20103070500,1400000US20103070500,MIDLAND FUMIGANT CO INC,1805 S 2ND ST,LEAVENWORTH,KS,66048,"MIDLAND FUMIGANT CO INC.1805 S 2ND ST, LEAVENWORTH KANSAS 66048 (LEAVENWORTH)",0,C,,
6604WHLLMR45EIS,-94.906,39.266999999999996,False,20,103,070500,20,20103,20103070500,1400000US20103070500,HALLMARK CARDS INC,450 EISENHOWER ROAD,LEAVENWORTH,KS,66048,"HALLMARK CARDS INC.450 EISENHOWER ROAD, LEAVENWORTH KANSAS 66048 (LEAVENWORTH)",0,C,,110001244528
66061DLCRM400WD,-94.825,38.869,False,20,091,053601,20,20091,20091053601,1400000US20091053601,DELPHI ENERGY & CHASSIS SYSTEMS OLATHE,400 W DENNIS AVE,OLATHE,KS,66061,"DELPHI ENERGY & CHASSIS SYSTEMS OLATHE.400 W DENNIS AVE, OLATHE KANSAS 66061 (JOHNSON)",0,C,,110000445260
66061MRLYCMARLE,-94.838,38.859,False,20,091,053602,20,20091,20091053602,1400000US20091053602,SPX COOLING TECHNOLOGIES,W MARLEY RD & S LONE ELM RD,OLATHE,KS,66061,"SPX COOLING TECHNOLOGIES.W MARLEY RD & S LONE ELM RD, OLATHE KANSAS 66061 (JOHNSON)",0,C,,110057582904
66061STHWS1400S,-94.816,38.863,False,20,091,053602,20,20091,20091053602,1400000US20091053602,EXXONMOBIL OLATHE GREASE PLANT,1400 S HARRISON,OLATHE,KS,66061,"EXXONMOBIL OLATHE GREASE PLANT.1400 S HARRISON, OLATHE KANSAS 66061 (JOHNSON)",0,C,,110000445304
66061DMRKD100SP,-94.836,38.864000000000004,False,20,091,053602,20,20091,20091053602,1400000US20091053602,ADM ARKADY,100 PANIPLUS ROADWAY,OLATHE,KS,66061,"ADM ARKADY.100 PANIPLUS ROADWAY, OLATHE KANSAS 66061 (JOHNSON)",0,C,,110017591729
66061MRBLC1401W,-94.84200000000001,38.866,False,20,091,053602,20,20091,20091053602,1400000US20091053602,MARBLE CREATION INC.,1401 W OTT,OLATHE,KS,66061,"MARBLE CREATION INC..1401 W OTT, OLATHE KANSAS 66061 (JOHNSON)",0,C,,110022441507
66062FDBRN20701,-94.823,38.84,False,20,091,053602,20,20091,20091053602,1400000US20091053602,TYSON FOODS INC FOODBRANDS SUPPLY CHAIN SERVICES,20701 W 159TH ST,OLATHE,KS,66062,"TYSON FOODS INC FOODBRANDS SUPPLY CHAIN SERVICES.20701 W 159TH ST, OLATHE KANSAS 66062 (JOHNSON)",0,C,,
66061CNTRY1340W,-94.84,38.858000000000004,False,20,091,053602,20,20091,20091053602,1400000US20091053602,CENTURY CONCRETE INC OLATHE FACILITY,1340 W 149TH ST,OLATHE,KS,66061,"CENTURY CONCRETE INC OLATHE FACILITY.1340 W 149TH ST, OLATHE KANSAS 66061 (JOHNSON)",0,C,,110009969089
66061LFRGN1245W,-94.839,38.858000000000004,False,20,091,053602,20,20091,20091053602,1400000US20091053602,AUDUBON READYMIX LLC DBA QUICKSILVER READYMIX - OLATHE,1245 W 149TH ST,OLATHE,KS,66061,"AUDUBON READYMIX LLC DBA QUICKSILVER READYMIX - OLATHE.1245 W 149TH ST, OLATHE KANSAS 66061 (JOHNSON)",0,C,,110024523942
66061RCRPX550E5,-94.81,38.868,False,20,091,053557,20,20091,20091053557,1400000US20091053557,SIMON-RO CORP,550 E 56TH HWY,OLATHE,KS,66061,"SIMON-RO CORP.550 E 56TH HWY, OLATHE KANSAS 66061 (JOHNSON)",0,C,,
66061WRGRC701SK,-94.821,38.873000000000005,False,20,091,053557,20,20091,20091053557,1400000US20091053557,GCP APPLIED TECHNOLOGIES INC,701 S KANSAS AVE,OLATHE,KS,66061,"GCP APPLIED TECHNOLOGIES INC.701 S KANSAS AVE, OLATHE KANSAS 66061 (JOHNSON)",0,C,,110000445297
66061LFRGN901OL,-94.809,38.869,False,20,091,053557,20,20091,20091053557,1400000US20091053557,LAFARGE NORTH AMERICA INC OLATHE READY MIX,901 E OLD 56 HWY,OLATHE,KS,66061,"LAFARGE NORTH AMERICA INC OLATHE READY MIX.901 E OLD 56 HWY, OLATHE KANSAS 66061 (JOHNSON)",0,C,,110013286782
66061TWNCT1001W,-94.803,38.867,False,20,091,053508,20,20091,20091053508,1400000US20091053508,TWIN CITY TOOL CO INC,1001 W OLD HWY 56,OLATHE,KS,66061,"TWIN CITY TOOL CO INC.1001 W OLD HWY 56, OLATHE KANSAS 66061 (JOHNSON)",0,C,,
66061DYMNN805EA,-94.809,38.866,False,20,091,053508,20,20091,20091053508,1400000US20091053508,ITW PRO BRANDS,805 E OLD 56 HWY,OLATHE,KS,66061,"ITW PRO BRANDS.805 E OLD 56 HWY, OLATHE KANSAS 66061 (JOHNSON)",0,C,,110002344419
66062GRMNN1200E,-94.8,38.855,False,20,091,053508,20,20091,20091053508,1400000US20091053508,GARMIN INTERNATIONAL INC,1200 E 151 ST ST,OLATHE,KS,66062,"GARMIN INTERNATIONAL INC.1200 E 151 ST ST, OLATHE KANSAS 66062 (JOHNSON)",0,C,,110003205816
6606WGRMNN11E1B,-94.802,38.855,False,20,091,053508,20,20091,20091053508,1400000US20091053508,GARMIN INTERNATIONAL - BUILDING 5,1100 E 151ST ST,OLATHE,KS,66062,"GARMIN INTERNATIONAL - BUILDING 5.1100 E 151ST ST, OLATHE KANSAS 66062 (JOHNSON)",0,C,,110070556442
66062BNDXK400NO,-94.789,38.888000000000005,False,20,091,052908,20,20091,20091052908,1400000US20091052908,ALLIED-SIGNAL INC,400 N ROGERS RD,OLATHE,KS,66062,"ALLIED-SIGNAL INC.400 N ROGERS RD, OLATHE KANSAS 66062 (JOHNSON)",0,C,,
66062SNTRN540NR,-94.789,38.889,False,20,091,052908,20,20091,20091052908,1400000US20091052908,SUNTRON CORP - OLATHE KANSAS,540 N ROGERS RD,OLATHE,KS,66062,"SUNTRON CORP - OLATHE KANSAS.540 N ROGERS RD, OLATHE KANSAS 66062 (JOHNSON)",1,C,,110009452742
6606WTRTLX55NRG,-94.789,38.89,False,20,091,052908,20,20091,20091052908,1400000US20091052908,TOROTEL PRODUCTS INC,550 N ROGERS RD,OLATHE,KS,66062,"TOROTEL PRODUCTS INC.550 N ROGERS RD, OLATHE KANSAS 66062 (JOHNSON)",0,C,,
66067BNDXK1614D,-95.249,38.644,False,20,059,954200,20,20059,20059954200,1400000US20059954200,SUNTRON CORP OTTAWA KANSAS,1612 DAVIS RD,OTTAWA,KS,66067,"SUNTRON CORP OTTAWA KANSAS.1612 DAVIS RD, OTTAWA KANSAS 66067 (FRANKLIN)",1,C,,
66067HVNSS2001D,-95.249,38.646,False,20,059,954200,20,20059,20059954200,1400000US20059954200,SCHUFF STEEL MIDWEST,2001 N DAVIS ST,OTTAWA,KS,66067,"SCHUFF STEEL MIDWEST.2001 N DAVIS ST, OTTAWA KANSAS 66067 (FRANKLIN)",0,C,,110000445313
66067TTWTR415ED,-95.26299999999999,38.633,False,20,059,954200,20,20059,20059954200,1400000US20059954200,KALMAR INDUSTRIES CORP,415 E DUNDEE ST,OTTAWA,KS,66067,"KALMAR INDUSTRIES CORP.415 E DUNDEE ST, OTTAWA KANSAS 66067 (FRANKLIN)",0,C,,110009570516
66067HRTLN1510N,-95.249,38.638000000000005,False,20,059,954200,20,20059,20059954200,1400000US20059954200,HEARTLAND CHINA INC,1510 N DAVIS,OTTAWA,KS,66067,"HEARTLAND CHINA INC.1510 N DAVIS, OTTAWA KANSAS 66067 (FRANKLIN)",0,C,,
6606WSTRTR81EAS,-95.258,38.639,False,20,059,954200,20,20059,20059954200,1400000US20059954200,LTA II MANUFACTURING LLC,801 E N ST,OTTAWA,KS,66067,"LTA II MANUFACTURING LLC.801 E N ST, OTTAWA KANSAS 66067 (FRANKLIN)",0,C,,110055498910
6606WBLDRS745NL,-95.272,38.626999999999995,False,20,059,954200,20,20059,20059954200,1400000US20059954200,BUILDERS CHOICE,745 N LOCUST ST,OTTAWA,KS,66067,"BUILDERS CHOICE.745 N LOCUST ST, OTTAWA KANSAS 66067 (FRANKLIN)",0,C,,110070543131
66071BNDXK102KA,-94.87899999999999,38.575,False,20,121,100601,20,20121,20121100601,1400000US20121100601,BENDIX/KING CORP,102 KASKASKIA,PAOLA,KS,66071,"BENDIX/KING CORP.102 KASKASKIA, PAOLA KANSAS 66071 (MIAMI)",0,C,,
66071TYLRF1STIR,-94.881,38.576,False,20,121,100601,20,20121,20121100601,1400000US20121100601,TAYLOR FORGE ENGINEERED SYSTEMS INC,208 N IRON ST,PAOLA,KS,66071,"TAYLOR FORGE ENGINEERED SYSTEMS INC.208 N IRON ST, PAOLA KANSAS 66071 (MIAMI)",0,C,,110010290434
66071RGDFR32200,-94.91799999999999,38.545,False,20,121,100602,20,20121,20121100602,1400000US20121100602,OLDCASTLE LAWN & GARDEN,32200 LOCKOUT RD,PAOLA,KS,66071,"OLDCASTLE LAWN & GARDEN.32200 LOCKOUT RD, PAOLA KANSAS 66071 (MIAMI)",0,C,,110000834312
66103GRDCR2727R,-94.64200000000001,39.052,False,20,209,045000,20,20209,20209045000,1400000US20209045000,UNIMARK OIL CO,2727 ROE LN,KANSAS CITY,KS,661031543,"UNIMARK OIL CO.2727 ROE LN, KANSAS CITY KANSAS 66103 (WYANDOTTE)",1,C,,110000445331
66104PRSCN1040P,-94.63600000000001,39.129,False,20,209,040700,20,20209,20209040700,1400000US20209040700,PROSOCO INC,1040 PARALLEL PKY,KANSAS CITY,KS,66104,"PROSOCO INC.1040 PARALLEL PKY, KANSAS CITY KANSAS 66104 (WYANDOTTE)",0,C,,
66105CLGTP1806K,-94.649,39.086999999999996,False,20,209,042502,20,20209,20209042502,1400000US20209042502,COLGATE-PALMOLIVE,1806 KANSAS AVE,KANSAS CITY,KS,661051124,"COLGATE-PALMOLIVE.1806 KANSAS AVE, KANSAS CITY KANSAS 66105 (WYANDOTTE)",0,C,,
66105MTLSP1630K,-94.647,39.086999999999996,False,20,209,042502,20,20209,20209042502,1400000US20209042502,MISSOURI MPP CORP,1630 KANSAS AVE,KANSAS CITY,KS,66105,"MISSOURI MPP CORP.1630 KANSAS AVE, KANSAS CITY KANSAS 66105 (WYANDOTTE)",0,C,,
66105NLNDC2101K,-94.654,39.086999999999996,False,20,209,042502,20,20209,20209042502,1400000US20209042502,INLAND CONTAINER CORP,2101 KANSAS AVE,KANSAS CITY,KS,66105,"INLAND CONTAINER CORP.2101 KANSAS AVE, KANSAS CITY KANSAS 66105 (WYANDOTTE)",0,C,,
66105PQCRP17THS,-94.648,39.086999999999996,False,20,209,042502,20,20209,20209042502,1400000US20209042502,PQ CORP,1700 KANSAS AVE,KANSAS CITY,KS,66105,"PQ CORP.1700 KANSAS AVE, KANSAS CITY KANSAS 66105 (WYANDOTTE)",0,C,,110009967125
66105PRCTR1900K,-94.654,39.09,False,20,209,042502,20,20209,20209042502,1400000US20209042502,PROCTER & GAMBLE MANUFACTURING CO,1900 KANSAS AVE,KANSAS CITY,KS,66105,"PROCTER & GAMBLE MANUFACTURING CO.1900 KANSAS AVE, KANSAS CITY KANSAS 66105 (WYANDOTTE)",0,C,,110000445395
66119BRDDN550SO,-94.649,39.09,False,20,209,042502,20,20209,20209042502,1400000US20209042502,CORBION,550 S 18TH ST,KANSAS CITY,KS,66105,"CORBION.550 S 18TH ST, KANSAS CITY KANSAS 66105 (WYANDOTTE)",0,C,,110000445377
66105FDBRN1259A,-94.64200000000001,39.080999999999996,False,20,209,042600,20,20209,20209042600,1400000US20209042600,FOOD BARN STORES INC  MILK PLANT,1259 ARGENTINE BLVD,KANSAS CITY,KS,66105,"FOOD BARN STORES INC  MILK PLANT.1259 ARGENTINE BLVD, KANSAS CITY KANSAS 66105 (WYANDOTTE)",0,C,,
66105GRSTT539S1,-94.635,39.089,False,20,209,042600,20,20209,20209042600,1400000US20209042600,GARSITE LLC,539 S 10TH ST,KANSAS CITY,KS,66105,"GARSITE LLC.539 S 10TH ST, KANSAS CITY KANSAS 66105 (WYANDOTTE)",0,C,,110001241291
66105SFWYS1243A,-94.643,39.08,True,20,209,042600,20,20209,20209042600,1400000US20209042600,SAFEWAY STORES INC MILD DEPT,1243 ARGENTINE BLVD,KANSAS CITY,KS,66105,"SAFEWAY STORES INC MILD DEPT 1243 ARGENTINE BLVD, KANSAS CITY, KS, 66105",0,C,,
66106DYMNN3401K,-94.66799999999999,39.089,False,20,209,043804,20,20209,20209043804,1400000US20209043804,DYMON INC,3401 KANSAS AVE,KANSAS CITY,KS,66106,"DYMON INC.3401 KANSAS AVE, KANSAS CITY KANSAS 66106 (WYANDOTTE)",0,C,,
66106HRCRS5200S,-94.697,39.095,False,20,209,043804,20,20209,20209043804,1400000US20209043804,HARCROS CHEMICALS INC,5200 SPEAKER RD,KANSAS CITY,KS,66106,"HARCROS CHEMICALS INC.5200 SPEAKER RD, KANSAS CITY KANSAS 66106 (WYANDOTTE)",0,C,,110000531933
66106STRNG300S5,-94.705,39.093,False,20,209,043804,20,20209,20209043804,1400000US20209043804,STRONGHEART PRODUCTS INC,300 S 55TH ST,KANSAS CITY,KS,66106,"STRONGHEART PRODUCTS INC.300 S 55TH ST, KANSAS CITY KANSAS 66106 (WYANDOTTE)",0,C,,
66110SWFTC4612S,-94.68700000000001,39.095,False,20,209,043804,20,20209,20209043804,1400000US20209043804,SARA LEE CORP,4612 SPEAKER RD,KANSAS CITY,KS,66106,"SARA LEE CORP.4612 SPEAKER RD, KANSAS CITY KANSAS 66106 (WYANDOTTE)",0,C,,110000554784
66110TRCND5400K,-94.704,39.09,False,20,209,043804,20,20209,20209043804,1400000US20209043804,COLUMBIAN TECTANK,5400 KANSAS AVE,KANSAS CITY,KS,66106,"COLUMBIAN TECTANK.5400 KANSAS AVE, KANSAS CITY KANSAS 66106 (WYANDOTTE)",0,C,,
66106GRFBR500S5,-94.705,39.089,False,20,209,043804,20,20209,20209043804,1400000US20209043804,GREIF BROTHERS CORP,500 SOUTH 55TH ST,KANSAS CITY,KS,66106,"GREIF BROTHERS CORP.500 SOUTH 55TH ST, KANSAS CITY KANSAS 66106 (WYANDOTTE)",0,C,,
66106FRBNK3601F,-94.671,39.088,False,20,209,043804,20,20209,20209043804,1400000US20209043804,PENTAIR  - KANSAS CITY OPERATION,3601 FAIRBANKS AVE,KANSAS CITY,KS,66106,"PENTAIR  - KANSAS CITY OPERATION.3601 FAIRBANKS AVE, KANSAS CITY KANSAS 66106 (WYANDOTTE)",0,C,,110000445411
66106KNSSC3401F,-94.667,39.088,False,20,209,043804,20,20209,20209043804,1400000US20209043804,SINCLAIR KANSAS CITY PRODUCTS TERMINAL,3401 FAIRBANKS AVE,KANSAS CITY,KS,66106,"SINCLAIR KANSAS CITY PRODUCTS TERMINAL.3401 FAIRBANKS AVE, KANSAS CITY KANSAS 66106 (WYANDOTTE)",0,C,,110000445439
66106SHLND5420S,-94.704,39.095,False,20,209,043804,20,20209,20209043804,1400000US20209043804,NEXEO SOLUTIONS LLC,5420 SPEAKER RD,KANSAS CITY,KS,66106,"NEXEO SOLUTIONS LLC.5420 SPEAKER RD, KANSAS CITY KANSAS 66106 (WYANDOTTE)",0,C,,110000445448
66106HSNTR1851M,-94.65100000000001,39.05,False,20,209,043400,20,20209,20209043400,1400000US20209043400,HES INTERNATIONAL INC,1851 MERRIAM LN,KANSAS CITY,KS,66106,"HES INTERNATIONAL INC.1851 MERRIAM LN, KANSAS CITY KANSAS 66106 (WYANDOTTE)",0,C,,
66110PBGRD300S3,-94.616,39.1,False,20,209,042501,20,20209,20209042501,1400000US20209042501,PBI/GORDON CORP,300 S 3RD ST,KANSAS CITY,KS,66118,"PBI/GORDON CORP.300 S 3RD ST, KANSAS CITY KANSAS 66118 (WYANDOTTE)",0,C,,110000445457
66105STNDR685AD,-94.61399999999999,39.086999999999996,False,20,209,042501,20,20209,20209042501,1400000US20209042501,DARLING INTERNATIONAL INC,685 ADAMS ST,KANSAS CITY,KS,66105,"DARLING INTERNATIONAL INC.685 ADAMS ST, KANSAS CITY KANSAS 66105 (WYANDOTTE)",0,C,,110009570295
66105STNLY511OS,-94.62100000000001,39.084,False,20,209,042501,20,20209,20209042501,1400000US20209042501,SCHROER MANUFACTURING CO,511 OSAGE AVE,KANSAS CITY,KS,66105,"SCHROER MANUFACTURING CO.511 OSAGE AVE, KANSAS CITY KANSAS 66105 (WYANDOTTE)",0,C,,110000445402
66105TRSTT636SA,-94.61399999999999,39.086999999999996,False,20,209,042501,20,20209,20209042501,1400000US20209042501,TRI STATE TANK CORP,636 S ADAMS ST,KANSAS CITY,KS,66105,"TRI STATE TANK CORP.636 S ADAMS ST, KANSAS CITY KANSAS 66105 (WYANDOTTE)",0,C,,
66117LFRGN317S3,-94.617,39.102,False,20,209,042501,20,20209,20209042501,1400000US20209042501,KANSAS CITY READYMIX LLC DBA TALON CONCRETE - BUNKER,317 S 3RD ST,KANSAS CITY,KS,66118,"KANSAS CITY READYMIX LLC DBA TALON CONCRETE - BUNKER.317 S 3RD ST, KANSAS CITY KANSAS 66118 (WYANDOTTE)",0,C,,110001240103
66110PBGRDALTER,-94.697,37.115,False,20,021,958400,20,20021,20021958400,1400000US20021958400,PBI/GORDON CORP - JAYHAWK FACILITY,ALT. 69 HWY & MILITARY RD,CRESTLINE,KS,66728,"PBI/GORDON CORP - JAYHAWK FACILITY.ALT. 69 HWY & MILITARY RD, CRESTLINE KANSAS 66728 (CHEROKEE)",0,C,,110000596490
66739LLCCH22MIS,-94.675,37.116,False,20,021,958400,20,20021,20021958400,1400000US20021958400,JAYHAWK FINE CHEMICALS CORP,8545 SE JAYHAWK DR,GALENA,KS,66739,"JAYHAWK FINE CHEMICALS CORP.8545 SE JAYHAWK DR, GALENA KANSAS 66739 (CHEROKEE)",0,C,,110017542499
66762KCHCH22MIL,-94.675,37.116,False,20,021,958400,20,20021,20021958400,1400000US20021958400,INSPEC USA INC UNIT 2,22 MILES S OF PITTSBURG KS,GALENA,KS,66739,"INSPEC USA INC UNIT 2.22 MILES S OF PITTSBURG KS, GALENA KANSAS 66739 (CHEROKEE)",2,C,,
66770RVRTNHWY66,-94.70100000000001,37.075,False,20,021,958400,20,20021,20021958400,1400000US20021958400,RIVERTON GENERATING STATION,HWY 66,RIVERTON,KS,66770,"RIVERTON GENERATING STATION.HWY 66, RIVERTON KANSAS 66770 (CHEROKEE)",0,C,,110017494451
66111CNTRY2140S,-94.78299999999999,39.06,False,20,209,044004,20,20209,20209044004,1400000US20209044004,FUCHS LUBRICANTS CO,2140 S 88TH ST,KANSAS CITY,KS,66111,"FUCHS LUBRICANTS CO.2140 S 88TH ST, KANSAS CITY KANSAS 66111 (WYANDOTTE)",0,C,,110000445493
66111DPNTX900SO,-94.738,39.082,False,20,209,044004,20,20209,20209044004,1400000US20209044004,MERIDIAN AUTOMOTIVE SYSTEMS INC.,900 S 68TH.ST.,KANSAS CITY,KS,66111,"MERIDIAN AUTOMOTIVE SYSTEMS INC..900 S 68TH.ST., KANSAS CITY KANSAS 66111 (WYANDOTTE)",0,C,,
66111FRMLN6833G,-94.738,39.085,False,20,209,044004,20,20209,20209044004,1400000US20209044004,LAND O'LAKES FARMLAND FEED,6833 GRIFFIN RD,KANSAS CITY,KS,66109,"LAND O'LAKES FARMLAND FEED.6833 GRIFFIN RD, KANSAS CITY KANSAS 66109 (WYANDOTTE)",0,C,,
66112MDWST2601M,-94.788,39.053000000000004,False,20,209,044004,20,20209,20209044004,1400000US20209044004,DEARBORN MID-WEST CONVEYOR CO,2601 MID-WEST DR,KANSAS CITY,KS,66111,"DEARBORN MID-WEST CONVEYOR CO.2601 MID-WEST DR, KANSAS CITY KANSAS 66111 (WYANDOTTE)",0,C,,
66111CNSPC636S6,-94.73200000000001,39.086,False,20,209,044004,20,20209,20209044004,1400000US20209044004,DAYTON SUPERIOR CORP KC,636 S 66TH TERRACE,KANSAS CITY,KS,66111,"DAYTON SUPERIOR CORP KC.636 S 66TH TERRACE, KANSAS CITY KANSAS 66111 (WYANDOTTE)",0,C,,110000445484
66111GRFFN7111G,-94.743,39.082,False,20,209,044004,20,20209,20209044004,1400000US20209044004,AMSTED RAIL CO GRIFFIN WHEEL KANSAS CITY FACILITY,7111 GRIFFIN RD,KANSAS CITY,KS,66111,"AMSTED RAIL CO GRIFFIN WHEEL KANSAS CITY FACILITY.7111 GRIFFIN RD, KANSAS CITY KANSAS 66111 (WYANDOTTE)",0,C,,110000445518
66111BRTNS901S6,-94.73100000000001,39.080999999999996,False,20,209,044004,20,20209,20209044004,1400000US20209044004,BARTON SOLVENTS INC KANSAS CITY,901 S 66TH TERRACE,KANSAS CITY,KS,66111,"BARTON SOLVENTS INC KANSAS CITY.901 S 66TH TERRACE, KANSAS CITY KANSAS 66111 (WYANDOTTE)",0,C,,110000445475
66111CNTRY8901W,-94.785,39.051,False,20,209,044004,20,20209,20209044004,1400000US20209044004,CENTURY CONCRETE INC EDWARDSVILLE FACILITY,8901 WOODEND,EDWARDSVILLE,KS,66111,"CENTURY CONCRETE INC EDWARDSVILLE FACILITY.8901 WOODEND, EDWARDSVILLE KANSAS 66111 (WYANDOTTE)",0,C,,110012702469
66111PLSTC75S65,-94.729,39.084,False,20,209,044004,20,20209,20209044004,1400000US20209044004,PLASTIC PACKAGING TECHNOLOGIES LLC,750 S 65TH ST,KANSAS CITY,KS,66111,"PLASTIC PACKAGING TECHNOLOGIES LLC.750 S 65TH ST, KANSAS CITY KANSAS 66111 (WYANDOTTE)",0,C,,110011872642
6611WPRKRL661KA,-94.73100000000001,39.088,False,20,209,044004,20,20209,20209044004,1400000US20209044004,PARKER OIL CO INC,6601 KANSAS AVE,KANSAS CITY,KS,66111,"PARKER OIL CO INC.6601 KANSAS AVE, KANSAS CITY KANSAS 66111 (WYANDOTTE)",0,C,,110022447137
66115CMPRN2909C,-94.613,39.135999999999996,False,20,209,040001,20,20209,20209040001,1400000US20209040001,INX INTERNATIONAL INK CO,FAIRFAX INDUSTRIAL CENTER 2909 CHRYSLER RD,KANSAS CITY,KS,66115,"INX INTERNATIONAL INK CO.FAIRFAX INDUSTRIAL CENTER 2909 CHRYSLER RD, KANSAS CITY KANSAS 66115 (WYANDOTTE)",0,C,,
66115CNTRL41FUN,-94.617,39.143,False,20,209,040001,20,20209,20209040001,1400000US20209040001,CENTRAL SOLUTIONS INC,401 FUNSTON RD,KANSAS CITY,KS,66115,"CENTRAL SOLUTIONS INC.401 FUNSTON RD, KANSAS CITY KANSAS 66115 (WYANDOTTE)",0,C,,110022411353
66115CRTNT103FU,-94.615,39.141999999999996,False,20,209,040001,20,20209,20209040001,1400000US20209040001,CERTAINTEED CORP,103 FUNSTON RD,KANSAS CITY,KS,66115,"CERTAINTEED CORP.103 FUNSTON RD, KANSAS CITY KANSAS 66115 (WYANDOTTE)",0,C,,110000445536
66115GMCCP3201F,-94.602,39.148,False,20,209,040001,20,20209,20209040001,1400000US20209040001,GM MLCG FAIRFAX ASSEMBLY,3201 FAIRFAX TRAFFICWAY,KANSAS CITY,KS,66115,"GM MLCG FAIRFAX ASSEMBLY.3201 FAIRFAX TRAFFICWAY, KANSAS CITY KANSAS 66115 (WYANDOTTE)",0,C,,110001307924
66115GNBNC3001F,-94.611,39.14,False,20,209,040001,20,20209,20209040001,1400000US20209040001,EXIDE TECHNOLOGIES,3001 FAIRFAX TRAFFICWAY,KANSAS CITY,KS,66115,"EXIDE TECHNOLOGIES.3001 FAIRFAX TRAFFICWAY, KANSAS CITY KANSAS 66115 (WYANDOTTE)",0,C,,110000445554
66115GRDNR3151F,-94.617,39.146,False,20,209,040001,20,20209,20209040001,1400000US20209040001,GARDNER ASPHALT CORP,3151 FIBERGLASS RD,KANSAS CITY,KS,66115,"GARDNER ASPHALT CORP.3151 FIBERGLASS RD, KANSAS CITY KANSAS 66115 (WYANDOTTE)",0,C,,
66115HBFLL200FU,-94.615,39.143,False,20,209,040001,20,20209,20209040001,1400000US20209040001,H B FULLER CO,200 FUNSTON RD,KANSAS CITY,KS,66115,"H B FULLER CO.200 FUNSTON RD, KANSAS CITY KANSAS 66115 (WYANDOTTE)",0,C,,
66115KNSSC3140D,-94.619,39.144,False,20,209,040001,20,20209,20209040001,1400000US20209040001,KANSAS CITY ABRASIVE CO INC,3140 DODGE RD,KANSAS CITY,KS,661151287,"KANSAS CITY ABRASIVE CO INC.3140 DODGE RD, KANSAS CITY KANSAS 66115 (WYANDOTTE)",0,C,,
66115LBRPC301ED,-94.60700000000001,39.135999999999996,False,20,209,040001,20,20209,20209040001,1400000US20209040001,LUBRIPAC,301 E DONOVAN ROAD,KANSAS CITY,KS,66115,"LUBRIPAC.301 E DONOVAN ROAD, KANSAS CITY KANSAS 66115 (WYANDOTTE)",0,C,,
66115LCTTC3255H,-94.624,39.149,False,20,209,040001,20,20209,20209040001,1400000US20209040001,PERMATEX INC,3255 HARVESTER RD,KANSAS CITY,KS,66115,"PERMATEX INC.3255 HARVESTER RD, KANSAS CITY KANSAS 66115 (WYANDOTTE)",0,C,,110040996330
66115LNWTR3155F,-94.617,39.146,False,20,209,040001,20,20209,20209040001,1400000US20209040001,ASHLAND CHEMICAL CO DREW,3155 FIBERGLASS RD,KANSAS CITY,KS,66115,"ASHLAND CHEMICAL CO DREW.3155 FIBERGLASS RD, KANSAS CITY KANSAS 66115 (WYANDOTTE)",0,C,,
66115MDWST100FU,-94.613,39.143,False,20,209,040001,20,20209,20209040001,1400000US20209040001,LSI MIDWEST LIGHTING,100 FUNSTON ROAD,KANSAS CITY,KS,66115,"LSI MIDWEST LIGHTING.100 FUNSTON ROAD, KANSAS CITY KANSAS 66115 (WYANDOTTE)",0,C,,
66115RCHHL3150F,-94.617,39.145,False,20,209,040001,20,20209,20209040001,1400000US20209040001,HB FULLER COMPANY,3150 FIBERGLASS RD,KANSAS CITY,KS,66115,"HB FULLER COMPANY.3150 FIBERGLASS RD, KANSAS CITY KANSAS 66115 (WYANDOTTE)",0,C,,110000445625
66115SLRGH2925F,-94.611,39.137,False,20,209,040001,20,20209,20209040001,1400000US20209040001,SEALRIGHT PACKAGING CO,2925 FAIRFAX RD,KANSAS CITY,KS,66115,"SEALRIGHT PACKAGING CO.2925 FAIRFAX RD, KANSAS CITY KANSAS 66115 (WYANDOTTE)",0,C,,
66115WLLMT530SU,-94.619,39.147,False,20,209,040001,20,20209,20209040001,1400000US20209040001,WILLAMETTE IND INC,530 SUSHINE RD,KANSAS CITY,KS,66115,"WILLAMETTE IND INC.530 SUSHINE RD, KANSAS CITY KANSAS 66115 (WYANDOTTE)",0,C,,
66115WNSCR300SU,-94.615,39.147,False,20,209,040001,20,20209,20209040001,1400000US20209040001,OWENS CORNING INSULATING SYSTEMS LLC - KANSAS CITY,300 SUNSHINE RD,KANSAS CITY,KS,66115,"OWENS CORNING INSULATING SYSTEMS LLC - KANSAS CITY.300 SUNSHINE RD, KANSAS CITY KANSAS 66115 (WYANDOTTE)",0,C,,110000445643
66115XDCHM603SU,-94.62100000000001,39.147,False,20,209,040001,20,20209,20209040001,1400000US20209040001,KANSAS OXIDE,603 SUNSHINE RD,KANSAS CITY,KS,66115,"KANSAS OXIDE.603 SUNSHINE RD, KANSAS CITY KANSAS 66115 (WYANDOTTE)",0,C,,
66115CNTRL3130B,-94.62,39.146,False,20,209,040001,20,20209,20209040001,1400000US20209040001,CENTRAL SOLUTIONS INC,3130 BRINKERHOFF RD,KANSAS CITY,KS,66115,"CENTRAL SOLUTIONS INC.3130 BRINKERHOFF RD, KANSAS CITY KANSAS 66115 (WYANDOTTE)",0,C,,
66115MBLKN966SU,-94.633,39.147,False,20,209,040001,20,20209,20209040001,1400000US20209040001,EXXONMOBIL KANSAS CITY REGIONAL DISTRIBUTION CENTER,966 SUNSHINE RD,KANSAS CITY,KS,66115,"EXXONMOBIL KANSAS CITY REGIONAL DISTRIBUTION CENTER.966 SUNSHINE RD, KANSAS CITY KANSAS 66115 (WYANDOTTE)",0,C,,110000445581
66115SNSHN801SU,-94.624,39.147,False,20,209,040001,20,20209,20209040001,1400000US20209040001,KEEBLER CO,801 SUNSHINE RD,KANSAS CITY,KS,66115,"KEEBLER CO.801 SUNSHINE RD, KANSAS CITY KANSAS 66115 (WYANDOTTE)",0,C,,
66115NTRNT401KI,-94.617,39.15,False,20,209,040001,20,20209,20209040001,1400000US20209040001,INTERNATIONAL PAPER CO,401 KINDELBERGER RD,KANSAS CITY,KS,66115,"INTERNATIONAL PAPER CO.401 KINDELBERGER RD, KANSAS CITY KANSAS 66115 (WYANDOTTE)",0,C,,
66104QNDRP3601N,-94.64,39.149,False,20,209,040001,20,20209,20209040001,1400000US20209040001,KANSAS CITY BPU QUINDARO POWER STATION,3601 N 12TH ST,KANSAS CITY,KS,66104,"KANSAS CITY BPU QUINDARO POWER STATION.3601 N 12TH ST, KANSAS CITY KANSAS 66104 (WYANDOTTE)",0,C,,110000445368
66115PHLLP2029F,-94.611,39.129,False,20,209,040001,20,20209,20209040001,1400000US20209040001,PHILLIPS 66  KANSAS CITY TERMINAL,2029 FAIRFAX TRAFFICWAY,KANSAS CITY,KS,66115,"PHILLIPS 66  KANSAS CITY TERMINAL.2029 FAIRFAX TRAFFICWAY, KANSAS CITY KANSAS 66115 (WYANDOTTE)",0,C,,110000445607
66115SPRGN25FUN,-94.613,39.141999999999996,False,20,209,040001,20,20209,20209040001,1400000US20209040001,US EPA REGION 7 LABORATORY,25 FUNSTON RD,KANSAS CITY,KS,66115,"US EPA REGION 7 LABORATORY.25 FUNSTON RD, KANSAS CITY KANSAS 66115 (WYANDOTTE)",0,F,,
66115MPRBL450FU,-94.618,39.143,False,20,209,040001,20,20209,20209040001,1400000US20209040001,ERGON ARMOR INC-KANSAS CITY,450 FUNSTON RD,KANSAS CITY,KS,66115,"ERGON ARMOR INC-KANSAS CITY.450 FUNSTON RD, KANSAS CITY KANSAS 66115 (WYANDOTTE)",0,C,,110015679764
66115CSTMM315CH,-94.613,39.145,False,20,209,040001,20,20209,20209040001,1400000US20209040001,A & E CUSTOM MANUFACTURING,3150 CHRYSLER MFG,KANSAS CITY,KS,66115,"A & E CUSTOM MANUFACTURING.3150 CHRYSLER MFG, KANSAS CITY KANSAS 66115 (WYANDOTTE)",0,C,,110024699174
6611WRNFTT285FA,-94.611,39.133,False,20,209,040001,20,20209,20209040001,1400000US20209040001,ORION FITTINGS,2850 FAIRFAX TRFWY,KANSAS CITY,KS,66115,"ORION FITTINGS.2850 FAIRFAX TRFWY, KANSAS CITY KANSAS 66115 (WYANDOTTE)",0,C,,110015326137
6611WBNNTT9KIND,-94.62899999999999,39.15,False,20,209,040001,20,20209,20209040001,1400000US20209040001,BENNETT-ROGERS PIPE COATING,900 KINDLEBERGER ROAD,KANSAS CITY,KS,66115,"BENNETT-ROGERS PIPE COATING.900 KINDLEBERGER ROAD, KANSAS CITY KANSAS 66115 (WYANDOTTE)",0,C,,110017514439
66201HRFFJ6015T,-94.667,39.02,False,20,091,050302,20,20091,20091050302,1400000US20091050302,HERFF JONES INC,6015 TRAVIS LN,MISSION,KS,66202,"HERFF JONES INC.6015 TRAVIS LN, MISSION KANSAS 66202 (JOHNSON)",0,C,,
6620WPCKGN68W61,-94.663,39.019,False,20,091,050302,20,20091,20091050302,1400000US20091050302,PACKAGING PRODUCTS CORP LLC,6800 W 61ST ST,MISSION,KS,66202,"PACKAGING PRODUCTS CORP LLC.6800 W 61ST ST, MISSION KANSAS 66202 (JOHNSON)",0,C,,110000793188
66203CLTRD5718M,-94.694,39.025,False,20,091,052101,20,20091,20091052101,1400000US20091052101,CULTURED MARBLE DESIGNS INC,5718 MERRIAM DR,MERRIAM,KS,66203,"CULTURED MARBLE DESIGNS INC.5718 MERRIAM DR, MERRIAM KANSAS 66203 (JOHNSON)",1,C,,
66203VTCRF11100,-94.715,39.024,False,20,091,052102,20,20091,20091052102,1400000US20091052102,VITA CRAFT CORP,11100 W 58TH ST,SHAWNEE,KS,66203,"VITA CRAFT CORP.11100 W 58TH ST, SHAWNEE KANSAS 66203 (JOHNSON)",0,C,,110000445670
66203ZRDDR10118,-94.709,39.015,False,20,091,052102,20,20091,20091052102,1400000US20091052102,FAIRMONT-ZARDA ICE CREAM,10618 W 63RD ST,SHAWNEE,KS,66203,"FAIRMONT-ZARDA ICE CREAM.10618 W 63RD ST, SHAWNEE KANSAS 66203 (JOHNSON)",0,C,,
66203TDMNF11415,-94.719,39.023,False,20,091,052102,20,20091,20091052102,1400000US20091052102,TED MANUFACTURING CORP,11415 JOHNSON DR,SHAWNEE MISSION,KS,66203,"TED MANUFACTURING CORP.11415 JOHNSON DR, SHAWNEE MISSION KANSAS 66203 (JOHNSON)",0,C,,
66204RTXMN7600W,-94.70200000000001,38.991,False,20,091,051906,20,20091,20091051906,1400000US20091051906,ARTEX SPORTSWEAR,7600 WEDD,OVERLAND PARK,KS,66204,"ARTEX SPORTSWEAR.7600 WEDD, OVERLAND PARK KANSAS 66204 (JOHNSON)",0,C,,
66215DLXCH14685,-94.75399999999999,38.937,False,20,091,980001,20,20091,20091980001,1400000US20091980001,DELUXE CHECK PRINTERS INC,14600 W 106TH,LENEXA,KS,66215,"DELUXE CHECK PRINTERS INC.14600 W 106TH, LENEXA KANSAS 66215 (JOHNSON)",0,C,,
66215PRLBL14701,-94.757,38.937,False,20,091,980001,20,20091,20091980001,1400000US20091980001,SPECTRAGRAPHICS,14701 W 106TH,LENEXA,KS,66215,"SPECTRAGRAPHICS.14701 W 106TH, LENEXA KANSAS 66215 (JOHNSON)",0,C,,
66215THCCB9000M,-94.75,38.946999999999996,False,20,091,980001,20,20091,20091980001,1400000US20091980001,COCA-COLA BOTTLING OF MID AMERICA,10001 INDUSTRIAL BLVD,LENEXA,KS,66215,"COCA-COLA BOTTLING OF MID AMERICA.10001 INDUSTRIAL BLVD, LENEXA KANSAS 66215 (JOHNSON)",0,C,,
66219GLLST10800,-94.76100000000001,38.931999999999995,False,20,091,980001,20,20091,20091980001,1400000US20091980001,GILL STUDIOS INC,10800 LACKMAN RD,LENEXA,KS,66219,"GILL STUDIOS INC.10800 LACKMAN RD, LENEXA KANSAS 66219 (JOHNSON)",0,C,,
66219KCCTN15555,-94.76799999999999,38.933,False,20,091,980001,20,20091,20091980001,1400000US20091980001,KC COATINGS INC,15555 W 108TH ST,LENEXA,KS,662191388,"KC COATINGS INC.15555 W 108TH ST, LENEXA KANSAS 66219 (JOHNSON)",0,C,,
66219DLXCH15505,-94.765,38.922,False,20,091,980001,20,20091,20091980001,1400000US20091980001,DELUXE CHECK PRINTERS INC,15505 W 113TH ST,LENEXA,KS,66219,"DELUXE CHECK PRINTERS INC.15505 W 113TH ST, LENEXA KANSAS 66219 (JOHNSON)",0,C,,
66219CLTTC15301,-94.76299999999999,38.931,False,20,091,980001,20,20091,20091980001,1400000US20091980001,COLT TECHNOLOGY CORP,15301 WEST 109TH ST,LENEXA,KS,662191294,"COLT TECHNOLOGY CORP.15301 WEST 109TH ST, LENEXA KANSAS 66219 (JOHNSON)",0,C,,
66215SPCRD9876P,-94.742,38.95,False,20,091,980001,20,20091,20091980001,1400000US20091980001,SPICER DRIVESHAFT ASSEMBLY INC,9876 PFLUMM RD,LENEXA,KS,66215,"SPICER DRIVESHAFT ASSEMBLY INC.9876 PFLUMM RD, LENEXA KANSAS 66215 (JOHNSON)",0,C,,
66215TRSRC14720,-94.757,38.949,False,20,091,980001,20,20091,20091980001,1400000US20091980001,VERTIS COMMUNICATIONS,14720 W 99TH ST,LENEXA,KS,66215,"VERTIS COMMUNICATIONS.14720 W 99TH ST, LENEXA KANSAS 66215 (JOHNSON)",0,C,,110017608025
66219MGNMP15740,-94.76799999999999,38.933,False,20,091,980001,20,20091,20091980001,1400000US20091980001,MAGNUM PRODUCTS,15740 W 108TH ST,LENEXA,KS,66219,"MAGNUM PRODUCTS.15740 W 108TH ST, LENEXA KANSAS 66219 (JOHNSON)",0,C,,110015679773
66219LKCMP986LA,-94.76100000000001,38.951,False,20,091,980001,20,20091,20091980001,1400000US20091980001,ELK COMPOSITE BUILDING PRODUCTS INC.,9806 LACKMAN RD,LENEXA,KS,66219,"ELK COMPOSITE BUILDING PRODUCTS INC..9806 LACKMAN RD, LENEXA KANSAS 66219 (JOHNSON)",0,C,,110037145201
66219RRWMT16W18,-94.771,38.933,False,20,091,980001,20,20091,20091980001,1400000US20091980001,ARROW MATERIAL HANDLING,16000 W 108TH ST,LENEXA,KS,66219,"ARROW MATERIAL HANDLING.16000 W 108TH ST, LENEXA KANSAS 66219 (JOHNSON)",0,C,,110003168731
6621WKCHRB1585W,-94.76899999999999,38.946999999999996,False,20,091,980001,20,20091,20091980001,1400000US20091980001,KOCHER + BECK USA LP,15850 W 99TH ST,LENEXA,KS,66219,"KOCHER + BECK USA LP.15850 W 99TH ST, LENEXA KANSAS 66219 (JOHNSON)",0,C,,110060258377
6621WRBBMN181MI,-94.764,38.933,False,20,091,980001,20,20091,20091980001,1400000US20091980001,TRANSCONTIENTAL ROBBIE INC,10810 MID AMERICA AVE,LENEXA,KS,66219,"TRANSCONTIENTAL ROBBIE INC.10810 MID AMERICA AVE, LENEXA KANSAS 66219 (JOHNSON)",0,C,,110001963938
66215PRTNB10800,-94.742,38.931999999999995,False,20,091,053005,20,20091,20091053005,1400000US20091053005,PURITAN-BENNETT CORP,10800 PFLUMM RD,LENEXA,KS,662154061,"PURITAN-BENNETT CORP.10800 PFLUMM RD, LENEXA KANSAS 66215 (JOHNSON)",0,C,,
66216MBYCR12707,-94.73299999999999,39.015,False,20,091,052304,20,20091,20091052304,1400000US20091052304,BAYER US,12707 SHAWNEE MISSION PKWY,SHAWNEE,KS,66216,"BAYER US.12707 SHAWNEE MISSION PKWY, SHAWNEE KANSAS 66216 (JOHNSON)",0,C,,110011241815
66217HDGDN6335L,-94.79299999999999,39.013000000000005,False,20,091,052502,20,20091,20091052502,1400000US20091052502,HODGDON POWDER CO INC SHAWNEE,6335 LIND ROAD,SHAWNEE,KS,66217,"HODGDON POWDER CO INC SHAWNEE.6335 LIND ROAD, SHAWNEE KANSAS 66217 (JOHNSON)",0,C,,
66217DFFNB18181,-94.796,39.032,True,20,091,052502,20,20091,20091052502,1400000US20091052502,DEFFENBAUGH INDUSTRIES INC,18181 W 53RD ST,SHAWNEE,KS,66217,"DEFFENBAUGH INDUSTRIES INC 18181 W 53RD ST, SHAWNEE, KS, 66217",0,C,,
66223KHLMN164TH,-94.667,38.855,False,20,091,053413,20,20091,20091053413,1400000US20091053413,KUHLMAN DIECASTING CO,164TH & MISSION RD,STANLEY,KS,66223,"KUHLMAN DIECASTING CO.164TH & MISSION RD, STANLEY KANSAS 66223 (JOHNSON)",1,C,,
66434BTBPR800SO,-95.527,39.86,False,20,013,480700,20,20013,20013480700,1400000US20013480700,FLAIR-FOLD CORP,800 SOUTH 1ST ST,HIAWATHA,KS,66434,"FLAIR-FOLD CORP.800 SOUTH 1ST ST, HIAWATHA KANSAS 66434 (BROWN)",0,C,,
66434WLDTL13THP,-95.54799999999999,39.85,False,20,013,480700,20,20013,20013480700,1400000US20013480700,"WILDE TOOL CO.,INC.",13TH & POTTAWATOMIE ST,HIAWATHA,KS,66434,"WILDE TOOL CO.,INC..13TH & POTTAWATOMIE ST, HIAWATHA KANSAS 66434 (BROWN)",0,C,,110017375286
66436BMBCNNORTH,-95.73,39.472,False,20,085,082700,20,20085,20085082700,1400000US20085082700,ALAMO GROUP KS INC,1000 VERMONT AVE,HOLTON,KS,66436,"ALAMO GROUP KS INC.1000 VERMONT AVE, HOLTON KANSAS 66436 (JACKSON)",0,C,,
66436SWFTCEASTH,-95.726,39.463,False,20,085,082700,20,20085,20085082700,1400000US20085082700,SWIFT-ECKRICH INC,EAST HWY 16,HOLTON,KS,66436,"SWIFT-ECKRICH INC.EAST HWY 16, HOLTON KANSAS 66436 (JACKSON)",0,C,,
66502PRKRH1501H,-96.55799999999999,39.196999999999996,False,20,149,000100,20,20149,20149000100,1400000US20149000100,PARKER HANNIFIN MANHATTAN FACILITY,1501 HAYES DR,MANHATTAN,KS,66502,"PARKER HANNIFIN MANHATTAN FACILITY.1501 HAYES DR, MANHATTAN KANSAS 66502 (POTTAWATOMIE)",0,C,,110017375160
66534MDMRC721OR,-95.79899999999999,39.9,False,20,131,480100,20,20131,20131480100,1400000US20131480100,INTERNATIONAL MEDIA & CULTURES INC,721 OREGON ST,SABETHA,KS,66534,"INTERNATIONAL MEDIA & CULTURES INC.721 OREGON ST, SABETHA KANSAS 66534 (NEMAHA)",0,C,,110000445778
66534WNGRM714MA,-95.79899999999999,39.903,False,20,131,480100,20,20131,20131480100,1400000US20131480100,WENGER MANUFACTURING INC,714 MAIN ST,SABETHA,KS,66534,"WENGER MANUFACTURING INC.714 MAIN ST, SABETHA KANSAS 66534 (NEMAHA)",0,C,,
6653WMDWST926GR,-95.801,39.904,False,20,131,480100,20,20131,20131480100,1400000US20131480100,MIDWEST READY MIX & BUILDING SUPPLIES,926 GRANT ST,SABETHA,KS,66534,"MIDWEST READY MIX & BUILDING SUPPLIES.926 GRANT ST, SABETHA KANSAS 66534 (NEMAHA)",1,C,,110070285771
66538CRNDS31EAM,-96.054,39.839,False,20,131,480200,20,20131,20131480200,1400000US20131480200,SKF SEALING SOLUTIONS,31 E AMADOR,SENECA,KS,66538,"SKF SEALING SOLUTIONS.31 E AMADOR, SENECA KANSAS 66538 (NEMAHA)",0,C,,
66542FLXLN6000S,-95.55799999999999,39.053000000000004,False,20,177,003901,20,20177,20177003901,1400000US20177003901,FUTAMURA USA INC,6000 SE 2ND ST,TECUMSEH,KS,66542,"FUTAMURA USA INC.6000 SE 2ND ST, TECUMSEH KANSAS 66542 (SHAWNEE)",0,C,,110000445821
66542TCMSH2NDDU,-95.566,39.052,False,20,177,003901,20,20177,20177003901,1400000US20177003901,TECUMSEH ENERGY CENTER,2ND & DUPONT RD,TECUMSEH,KS,66542,"TECUMSEH ENERGY CENTER.2ND & DUPONT RD, TECUMSEH KANSAS 66542 (SHAWNEE)",0,C,,110000596524
66603HLLSP320EC,-95.67299999999999,39.061,False,20,177,004000,20,20177,20177004000,1400000US20177004000,HILL'S PET NUTRITION INC,320 E CRANE,TOPEKA,KS,66603,"HILL'S PET NUTRITION INC.320 E CRANE, TOPEKA KANSAS 66603 (SHAWNEE)",0,C,,110000769071
66607HLLMR240MA,-95.665,39.059,False,20,177,004000,20,20177,20177004000,1400000US20177004000,HALLMARK CARDS INC,240 MADISON,TOPEKA,KS,66607,"HALLMARK CARDS INC.240 MADISON, TOPEKA KANSAS 66607 (SHAWNEE)",0,C,,
66607CRGLL20012,-95.664,39.058,False,20,177,004000,20,20177,20177004000,1400000US20177004000,CARGILL FLOUR MILLING I-H PLANT,200 (126) NE JEFFERSON,TOPEKA,KS,66607,"CARGILL FLOUR MILLING I-H PLANT.200 (126) NE JEFFERSON, TOPEKA KANSAS 66607 (SHAWNEE)",0,C,,
66607HSFDS3215E,-95.632,39.044000000000004,False,20,177,003100,20,20177,20177003100,1400000US20177003100,FARMLAND FOODS INC,3215 SE 6TH ST,TOPEKA,KS,66607,"FARMLAND FOODS INC.3215 SE 6TH ST, TOPEKA KANSAS 66607 (SHAWNEE)",1,C,,
66618THGDY2000N,-95.693,39.091,False,20,177,000700,20,20177,20177000700,1400000US20177000700,THE GOODYEAR TIRE & RUBBER CO,2000 NW US HWY 24,TOPEKA,KS,66618,"THE GOODYEAR TIRE & RUBBER CO.2000 NW US HWY 24, TOPEKA KANSAS 66618 (SHAWNEE)",0,C,,110000596533
66618THQKR2200N,-95.725,39.086999999999996,False,20,177,000700,20,20177,20177000700,1400000US20177000700,BIG HEART PET BRANDS,2200 NW BRICKYARD RD,TOPEKA,KS,66618,"BIG HEART PET BRANDS.2200 NW BRICKYARD RD, TOPEKA KANSAS 66618 (SHAWNEE)",0,C,,110000445876
6660WKNSSS531NW,-95.675,39.066,False,20,177,000700,20,20177,20177000700,1400000US20177000700,KANSAS SAND & CONCRETE INC,531 NW TYLER ST,TOPEKA,KS,66608,"KANSAS SAND & CONCRETE INC.531 NW TYLER ST, TOPEKA KANSAS 66608 (SHAWNEE)",0,C,,110017466044
66619SSXGRUNIVE,-95.70299999999999,38.945,False,20,177,003700,20,20177,20177003700,1400000US20177003700,SUPERIOR ESSEX GROUP INC WIRE & CABLE DIV,UNIVERSITY BLVD & E ST,PAULINE,KS,666190085,"SUPERIOR ESSEX GROUP INC WIRE & CABLE DIV.UNIVERSITY BLVD & E ST, PAULINE KANSAS 66619 (SHAWNEE)",0,C,,110000606434
66609FRTLY4236K,-95.693,38.99,False,20,177,003700,20,20177,20177003700,1400000US20177003700,FRITO LAY INC,4236 SW KIRKLAWN,TOPEKA,KS,66609,"FRITO LAY INC.4236 SW KIRKLAWN, TOPEKA KANSAS 66609 (SHAWNEE)",0,C,,110000445867
67003MRRSNRTE14,-95.68700000000001,38.981,False,20,177,003700,20,20177,20177003700,1400000US20177003700,MORRISON CO INC,4812 S TOPEKA AVE,TOPEKA,KS,66618,"MORRISON CO INC.4812 S TOPEKA AVE, TOPEKA KANSAS 66618 (SHAWNEE)",0,C,,
6661WMRSCH1MARS,-95.694,38.934,False,20,177,003700,20,20177,20177003700,1400000US20177003700,MARS CHOCOLATE NORTH AMERICA,100 MARS BLVD,TOPEKA,KS,66619,"MARS CHOCOLATE NORTH AMERICA.100 MARS BLVD, TOPEKA KANSAS 66619 (SHAWNEE)",0,C,,110060257136
6661WMRCNP7215S,-95.68799999999999,38.934,False,20,177,003700,20,20177,20177003700,1400000US20177003700,AMERICAN PHOENIX INC - TOPEKA KS,7215 SW TOPEKA BLVD # 9,TOPEKA,KS,66619,"AMERICAN PHOENIX INC - TOPEKA KS.7215 SW TOPEKA BLVD # 9, TOPEKA KANSAS 66619 (SHAWNEE)",0,C,,110022292160
66701DYCPRFORTS,-94.70200000000001,37.791,False,20,011,955900,20,20011,20011955900,1400000US20011955900,TIMKEN SMO LLC,4505 CAMPBELL DR,FORT SCOTT,KS,66701,"TIMKEN SMO LLC.4505 CAMPBELL DR, FORT SCOTT KANSAS 66701 (BOURBON)",0,C,,110000445885
66701NDZNG2401S,-94.705,37.812,False,20,011,955900,20,20011,20011955900,1400000US20011955900,ANODIZING INC EXTRUSIONS INC,2401 S MAIN,FORT SCOTT,KS,667010430,"ANODIZING INC EXTRUSIONS INC.2401 S MAIN, FORT SCOTT KANSAS 66701 (BOURBON)",0,C,,
66701GLMRT600NF,-94.68700000000001,37.849000000000004,False,20,011,955900,20,20011,20011955900,1400000US20011955900,TOPCO LAMINATES CORP TOPCO DIV,600 N FRANKLIN,FORT SCOTT,KS,66701,"TOPCO LAMINATES CORP TOPCO DIV.600 N FRANKLIN, FORT SCOTT KANSAS 66701 (BOURBON)",0,C,,
66701PRLSS2403S,-94.705,37.81,False,20,011,955900,20,20011,20011955900,1400000US20011955900,PEERLESS PRODUCTS INC,2403 S MAIN ST,FORT SCOTT,KS,66701,"PEERLESS PRODUCTS INC.2403 S MAIN ST, FORT SCOTT KANSAS 66701 (BOURBON)",0,C,,110011247971
66701TWRMT301NO,-94.699,37.845,False,20,011,956000,20,20011,20011956000,1400000US20011956000,TOWER METAL PRODUCTS,301 N HILL ST,FORT SCOTT,KS,66701,"TOWER METAL PRODUCTS.301 N HILL ST, FORT SCOTT KANSAS 66701 (BOURBON)",0,C,,
66720SHGRVNORTH,-95.46,37.699,False,20,133,951700,20,20133,20133951700,1400000US20133951700,ASH GROVE CEMENT CO,1801 N SANTA FE,CHANUTE,KS,66720,"ASH GROVE CEMENT CO.1801 N SANTA FE, CHANUTE KANSAS 66720 (NEOSHO)",0,C,,110000445929
66720THRMD201NA,-95.46700000000001,37.684,False,20,133,951700,20,20133,20133951700,1400000US20133951700,HBD/THERMOID INC,201 N ALLEN AVE,CHANUTE,KS,66720,"HBD/THERMOID INC.201 N ALLEN AVE, CHANUTE KANSAS 66720 (NEOSHO)",0,C,,110000445938
66720HLTRL915WE,-95.462,37.688,False,20,133,951700,20,20133,20133951700,1400000US20133951700,HI-LO INDUSTRIES,615 W CHERRY ST,CHANUTE,KS,66720,"HI-LO INDUSTRIES.615 W CHERRY ST, CHANUTE KANSAS 66720 (NEOSHO)",0,C,,110016705591
66720VRBRT720WC,-95.463,37.688,False,20,133,951700,20,20133,20133951700,1400000US20133951700,EVERBRITE ELECTRONICS INC,720 W CHERRY,CHANUTE,KS,66720,"EVERBRITE ELECTRONICS INC.720 W CHERRY, CHANUTE KANSAS 66720 (NEOSHO)",0,C,,110001239277
66720YNGSW4115J,-95.462,37.638000000000005,False,20,133,951900,20,20133,20133951900,1400000US20133951900,YOUNG'S WELDING INC,4115 S JOHNSON RD,CHANUTE,KS,66720,"YOUNG'S WELDING INC.4115 S JOHNSON RD, CHANUTE KANSAS 66720 (NEOSHO)",0,C,,
66720PCBRD210WM,-95.45299999999999,37.65,False,20,133,951900,20,20133,20133951900,1400000US20133951900,SIERRA MIDWEST INC,3100 S SANTA FE,CHANUTE,KS,66720,"SIERRA MIDWEST INC.3100 S SANTA FE, CHANUTE KANSAS 66720 (NEOSHO)",0,C,,110000773468
6672WCHMPN17785,-95.434,37.628,False,20,133,951900,20,20133,20133951900,1400000US20133951900,NALCO COMPANY-CHANUTE,4032 JOHNSON RD,CHANUTE,KS,66720,"NALCO COMPANY-CHANUTE.4032 JOHNSON RD, CHANUTE KANSAS 66720 (NEOSHO)",0,C,,110060259820
6672WHLNDS3928R,-95.459,37.641999999999996,False,20,133,951900,20,20133,20133951900,1400000US20133951900,HI-LO INDUSTRIES INC,3928 ROSS LN,CHANUTE,KS,66720,"HI-LO INDUSTRIES INC.3928 ROSS LN, CHANUTE KANSAS 66720 (NEOSHO)",0,C,,110001238740
66736LFRGCSOUTH,-95.822,37.509,False,20,205,097200,20,20205,20205097200,1400000US20205097200,LAFARGE MIDWEST INC.  (INCLD SYSTECH ENVIRONMENTAL),1400 S CEMENT RD,FREDONIA,KS,66736,"LAFARGE MIDWEST INC.  (INCLD SYSTECH ENVIRONMENTAL).1400 S CEMENT RD, FREDONIA KANSAS 66736 (WILSON)",0,C,,110049249097
66736SYSTCCEMEN,-95.824,37.508,False,20,205,097200,20,20205,20205097200,1400000US20205097200,SYSTECH ENVIRONMENTAL CORP,1420 S CEMENT PLANT RD,FREDONIA,KS,66736,"SYSTECH ENVIRONMENTAL CORP.1420 S CEMENT PLANT RD, FREDONIA KANSAS 66736 (WILSON)",0,C,,110041228775
66739GLPCHEASTC,-94.62700000000001,37.086,False,20,021,958500,20,20021,20021958500,1400000US20021958500,EAGLE-PICHER TECHNOLOGIES LLC,E CLARK ST,GALENA,KS,66739,"EAGLE-PICHER TECHNOLOGIES LLC.E CLARK ST, GALENA KANSAS 66739 (CHEROKEE)",0,C,,
66739KMLMNW7THS,-94.65100000000001,37.074,False,20,021,958500,20,20021,20021958500,1400000US20021958500,KEMLEE MANUFACTURING INC,W 7TH ST INDUSTRIAL PARK,GALENA,KS,66739,"KEMLEE MANUFACTURING INC.W 7TH ST INDUSTRIAL PARK, GALENA KANSAS 66739 (CHEROKEE)",0,C,,110000596579
66749GTSRB999MI,-95.40700000000001,37.9,False,20,001,952900,20,20001,20001952900,1400000US20001952900,GATES CORP,1450 MONTANA RD,IOLA,KS,66749,"GATES CORP.1450 MONTANA RD, IOLA KANSAS 66749 (ALLEN)",0,C,,110000596597
66749MDLND2702N,-95.40899999999999,37.946999999999996,False,20,001,952800,20,20001,20001952800,1400000US20001952800,HALDEX BRAKE PRODUCTS CORP,2702 N STATE ST NONE,IOLA,KS,667491546,"HALDEX BRAKE PRODUCTS CORP.2702 N STATE ST NONE, IOLA KANSAS 66749 (ALLEN)",0,C,,110000445992
66749RSSLL1995M,-95.41799999999999,37.941,False,20,001,952800,20,20001,20001952800,1400000US20001952800,RUSSELL STOVER CANDIES INC,1995 MARSHMALLOW LN,IOLA,KS,66749,"RUSSELL STOVER CANDIES INC.1995 MARSHMALLOW LN, IOLA KANSAS 66749 (ALLEN)",0,C,,
66749CMRNN25WMI,-95.405,37.944,False,20,001,952800,20,20001,20001952800,1400000US20001952800,PRECISION INTERNATIONAL,25 W MILLER RD,IOLA,KS,66749,"PRECISION INTERNATIONAL.25 W MILLER RD, IOLA KANSAS 66749 (ALLEN)",0,C,,110039494124
66757PRSTG1101I,-95.68799999999999,37.422,False,20,205,097400,20,20205,20205097400,1400000US20205097400,PRESTIGE CABINETS INC.,1101 ILLINOIS ST,NEODESHA,KS,66757,"PRESTIGE CABINETS INC..1101 ILLINOIS ST, NEODESHA KANSAS 66757 (WILSON)",0,C,,110000743232
66757RSLCM525NO,-95.68799999999999,37.422,False,20,205,097400,20,20205,20205097400,1400000US20205097400,AIROSOL CO INC,11TH & ILLINOIS,NEODESHA,KS,667571240,"AIROSOL CO INC.11TH & ILLINOIS, NEODESHA KANSAS 66757 (WILSON)",0,C,,
66757FBRGL1101I,-95.68799999999999,37.422,False,20,205,097400,20,20205,20205097400,1400000US20205097400,COBALT BOATS LLC,1101 ILLINOIS,NEODESHA,KS,66757,"COBALT BOATS LLC.1101 ILLINOIS, NEODESHA KANSAS 66757 (WILSON)",0,C,,110000446009
66757FBRGL1705N,-95.686,37.436,False,20,205,097400,20,20205,20205097400,1400000US20205097400,COBALT BOATS LLC,1705 N 9TH,NEODESHA,KS,66757,"COBALT BOATS LLC.1705 N 9TH, NEODESHA KANSAS 66757 (WILSON)",0,C,,110000743223
66757FBRGL13291,-95.697,37.43,False,20,205,097400,20,20205,20205097400,1400000US20205097400,COBALT BOATS LLC,1329 17TH ST,NEODESHA,KS,66757,"COBALT BOATS LLC.1329 17TH ST, NEODESHA KANSAS 66757 (WILSON)",0,C,,110022525917
66762CSTLG911EJ,-94.69,37.4,False,20,037,957600,20,20037,20037957600,1400000US20037957600,MASONITE DOOR CORP,911 E JEFFERSON,PITTSBURG,KS,66762,"MASONITE DOOR CORP.911 E JEFFERSON, PITTSBURG KANSAS 66762 (CRAWFORD)",0,C,,110017376187
66762PTTSB2705A,-94.68700000000001,37.433,False,20,037,957000,20,20037,20037957000,1400000US20037957000,PITTSBURG ALUMINUM RECYCLING,2705 OLD ROUSE RD,PITTSBURG,KS,66762,"PITTSBURG ALUMINUM RECYCLING.2705 OLD ROUSE RD, PITTSBURG KANSAS 66762 (CRAWFORD)",1,C,,
66762BLSMF2906N,-94.684,37.435,False,20,037,957000,20,20037,20037957000,1400000US20037957000,BALSAM FLOORING INC,2906 N OLD ROUSE ST,PITTSBURG,KS,66762,"BALSAM FLOORING INC.2906 N OLD ROUSE ST, PITTSBURG KANSAS 66762 (CRAWFORD)",0,C,,
66762SPRRN1500E,-94.679,37.433,False,20,037,957000,20,20037,20037957000,1400000US20037957000,SUPERIOR INDUSTRIES INTERNATIONAL KANSAS LLC,1500 E 27TH TERRACE ST,PITTSBURG,KS,66762,"SUPERIOR INDUSTRIES INTERNATIONAL KANSAS LLC.1500 E 27TH TERRACE ST, PITTSBURG KANSAS 66762 (CRAWFORD)",0,C,,110011248079
66762MCPRT826E4,-94.69200000000001,37.411,False,20,037,957000,20,20037,20037957000,1400000US20037957000,MCP URETHANES,826 E 4TH ST,PITTSBURG,KS,66762,"MCP URETHANES.826 E 4TH ST, PITTSBURG KANSAS 66762 (CRAWFORD)",0,C,,110000446027
66762PLTRN3001N,-94.684,37.436,False,20,037,957000,20,20037,20037957000,1400000US20037957000,POLI-TRON INC,3001 ROUSE AVE,PITTSBURG,KS,66762,"POLI-TRON INC.3001 ROUSE AVE, PITTSBURG KANSAS 66762 (CRAWFORD)",0,C,,110017502059
66801BPNCX2101W,-96.211,38.403,False,20,111,000300,20,20111,20111000300,1400000US20111000300,TYSON FRESH MEATS INC,2101 W 6TH,EMPORIA,KS,66801,"TYSON FRESH MEATS INC.2101 W 6TH, EMPORIA KANSAS 66801 (LYON)",0,C,,110000446045
6680WMPRPT841GR,-96.226,38.409,False,20,111,000300,20,20111,20111000300,1400000US20111000300,CARGILL FEED & NUTRITION,841 GRAPHIC ARTS RD,EMPORIA,KS,668015128,"CARGILL FEED & NUTRITION.841 GRAPHIC ARTS RD, EMPORIA KANSAS 66801 (LYON)",0,C,,110001369251
66801MDNMN1401I,-96.21700000000001,38.414,False,20,111,000200,20,20111,20111000200,1400000US20111000200,PROLIANCE INTERNATIONAL INC,1401 INDUSTRIAL ST,EMPORIA,KS,66801,"PROLIANCE INTERNATIONAL INC.1401 INDUSTRIAL ST, EMPORIA KANSAS 66801 (LYON)",0,C,,110000446054
66801THRML221WE,-96.15299999999999,38.400999999999996,False,20,111,000500,20,20111,20111000500,1400000US20111000500,THERMAL CERAMICS,221 WEAVER ST,EMPORIA,KS,66801,"THERMAL CERAMICS.221 WEAVER ST, EMPORIA KANSAS 66801 (LYON)",0,C,,
66801MBLTR1601E,-96.155,38.398,False,20,111,000500,20,20111,20111000500,1400000US20111000500,CAMSO MANUFACTURING USA LTD (EMPORIA DIVISION),1601 E SOUTH AVE,EMPORIA,KS,66801,"CAMSO MANUFACTURING USA LTD (EMPORIA DIVISION).1601 E SOUTH AVE, EMPORIA KANSAS 66801 (LYON)",0,C,,110001370016
66801PCKNS1910R,-96.182,38.404,True,20,111,000500,20,20111,20111000500,1400000US20111000500,APAC KANSAS INC SHEARS ASPHALT PLANT NO 406,1910 RD 175,EMPORIA,KS,66801,"APAC KANSAS INC SHEARS ASPHALT PLANT NO 406 1910 RD 175, EMPORIA, KS, 66801",0,C,,
66901CLDCR1716Q,-97.60600000000001,39.554,False,20,029,977200,20,20029,20029977200,1400000US20029977200,CLOUD CERAMICS,1716 QUAIL RD,CONCORDIA,KS,66901,"CLOUD CERAMICS.1716 QUAIL RD, CONCORDIA KANSAS 66901 (CLOUD)",0,C,,110000596613
66901LSTMP1830E,-97.635,39.573,False,20,029,977200,20,20029,20029977200,1400000US20029977200,ARVOS INC,1830 E 6TH ST,CONCORDIA,KS,66901,"ARVOS INC.1830 E 6TH ST, CONCORDIA KANSAS 66901 (CLOUD)",1,C,,110001354622
67002NTRNT215E1,-97.133,37.709,False,20,015,020202,20,20015,20015020202,1400000US20015020202,INTERNATIONAL COLD STORAGE,215 E 13TH,ANDOVER,KS,67002,"INTERNATIONAL COLD STORAGE.215 E 13TH, ANDOVER KANSAS 67002 (BUTLER)",0,C,,110000446063
67002PRTTL630E1,-97.12899999999999,37.709,False,20,015,020202,20,20015,20015020202,1400000US20015020202,SHERWIN-WILLIAMS CO,630 E 13TH,ANDOVER,KS,67002,"SHERWIN-WILLIAMS CO.630 E 13TH, ANDOVER KANSAS 67002 (BUTLER)",0,C,,110009741814
67002LFRGN611W1,-97.14299999999999,37.709,False,20,015,020202,20,20015,20015020202,1400000US20015020202,LAFARGE NORTH AMERICA INC ANDOVER READY MIX,611 W 13TH,ANDOVER,KS,67002,"LAFARGE NORTH AMERICA INC ANDOVER READY MIX.611 W 13TH, ANDOVER KANSAS 67002 (BUTLER)",0,C,,110025317244
67005GNRLLSTROT,-97.041,37.163000000000004,False,20,035,493300,20,20035,20035493300,1400000US20035493300,GENERAL ELECTRIC AVIATION,STROTHER FIELD INDUSTRIAL PARK,ARKANSAS CITY,KS,67005,"GENERAL ELECTRIC AVIATION.STROTHER FIELD INDUSTRIAL PARK, ARKANSAS CITY KANSAS 67005 (COWLEY)",0,C,,110041184642
67005NCDDV3815H,-97.00399999999999,37.080999999999996,False,20,035,493300,20,20035,20035493300,1400000US20035493300,ECOLAB INC NCD DIV,3815 HWY 27 N & OLD HWY 77,ARKANSAS CITY,KS,67005,"ECOLAB INC NCD DIV.3815 HWY 27 N & OLD HWY 77, ARKANSAS CITY KANSAS 67005 (COWLEY)",1,C,,
67156GRFBRRT3BO,-97.03200000000001,37.165,False,20,035,493300,20,20035,20035493300,1400000US20035493300,GREIF INDUSTRIAL PACKAGING & SERVICES,7604 RAILROAD AVE,WINFIELD,KS,67156,"GREIF INDUSTRIAL PACKAGING & SERVICES.7604 RAILROAD AVE, WINFIELD KANSAS 67156 (COWLEY)",0,C,,110000446287
67156KSQNC1STBS,-97.03,37.165,False,20,035,493300,20,20035,20035493300,1400000US20035493300,KSQ INC,1ST & B ST,WINFIELD,KS,67156,"KSQ INC.1ST & B ST, WINFIELD KANSAS 67156 (COWLEY)",0,C,,
67005RCHTCSTROT,-97.035,37.167,False,20,035,493300,20,20035,20035493300,1400000US20035493300,KONE INC ARCHITECTURAL PRODUCTS DIV,STROTHER FIELD INDUSTRIAL PARK,ARKANSAS CITY,KS,67005,"KONE INC ARCHITECTURAL PRODUCTS DIV.STROTHER FIELD INDUSTRIAL PARK, ARKANSAS CITY KANSAS 67005 (COWLEY)",0,C,,
67156JHNZNSTROT,-97.02799999999999,37.164,False,20,035,493300,20,20035,20035493300,1400000US20035493300,JOHN ZINK CO LLC GORDON PIATT FACILITY,STROTHER FIELD INDUSTRIAL PARK,WINFIELD,KS,67156,"JOHN ZINK CO LLC GORDON PIATT FACILITY.STROTHER FIELD INDUSTRIAL PARK, WINFIELD KANSAS 67156 (COWLEY)",0,C,,
6715WWSTRN77271,-97.03,37.164,False,20,035,493300,20,20035,20035493300,1400000US20035493300,WESTERN INDUSTRIES INC PLASTIC PRODUCTS GROUP,7727 1ST AVE,WINFIELD,KS,67156,"WESTERN INDUSTRIES INC PLASTIC PRODUCTS GROUP.7727 1ST AVE, WINFIELD KANSAS 67156 (COWLEY)",0,C,,110070278938
67005NWRML309WM,-97.042,37.056,False,20,035,494000,20,20035,20035494000,1400000US20035494000,ADM MILLING CO,309 W MADISON,ARKANSAS CITY,KS,67005,"ADM MILLING CO.309 W MADISON, ARKANSAS CITY KANSAS 67005 (COWLEY)",0,C,,
67005RKCTY1800S,-97.042,37.042,False,20,035,494000,20,20035,20035494000,1400000US20035494000,JOHN MORRELL & CO ARK CITY PACKING CO DIV,1800 S SUMMIT,ARKANSAS CITY,KS,67005,"JOHN MORRELL & CO ARK CITY PACKING CO DIV.1800 S SUMMIT, ARKANSAS CITY KANSAS 67005 (COWLEY)",0,C,,
67005LPPRT1215W,-97.053,37.056,False,20,035,494000,20,20035,20035494000,1400000US20035494000,CHAMPION HOME BUILDERS INC,1215 W MADISON AVE,ARKANSAS CITY,KS,67005,"CHAMPION HOME BUILDERS INC.1215 W MADISON AVE, ARKANSAS CITY KANSAS 67005 (COWLEY)",0,C,,110001241889
67005TTLPT1400S,-97.024,37.047,False,20,035,494100,20,20035,20035494100,1400000US20035494100,TOTAL PETROLEUM INC,1400 S M ST,ARKANSAS CITY,KS,670053799,"TOTAL PETROLEUM INC.1400 S M ST, ARKANSAS CITY KANSAS 67005 (COWLEY)",0,C,,
67005DMSTXSOUTH,-97.027,37.052,False,20,035,494100,20,20035,20035494100,1400000US20035494100,ADM MILLING CO,1000 S MILL RD,ARKANSAS CITY,KS,67005,"ADM MILLING CO.1000 S MILL RD, ARKANSAS CITY KANSAS 67005 (COWLEY)",0,C,,
67010CSTLD321OA,-96.98100000000001,37.674,False,20,015,020800,20,20015,20015020800,1400000US20015020800,COASTAL REFINING & MARKETING  KS REFINING DIV,321 OAK ST,AUGUSTA,KS,67010,"COASTAL REFINING & MARKETING  KS REFINING DIV.321 OAK ST, AUGUSTA KANSAS 67010 (BUTLER)",0,C,,
6701WDJNGN219WE,-96.98100000000001,37.678000000000004,False,20,015,020800,20,20015,20015020800,1400000US20015020800,D-J ENGINEERING,219 WEST 6TH AVENUE,AUGUSTA,KS,67010,"D-J ENGINEERING.219 WEST 6TH AVENUE, AUGUSTA KANSAS 67010 (BUTLER)",0,C,,110022331822
67030HGHPL412NF,-97.531,37.787,False,20,173,010500,20,20173,20173010500,1400000US20173010500,ABENGOA BIOENERGY CORP COLWICH ETHANOL PLANT,523 E UNION AVE,COLWICH,KS,67030,"ABENGOA BIOENERGY CORP COLWICH ETHANOL PLANT.523 E UNION AVE, COLWICH KANSAS 67030 (SEDGWICK)",0,C,,110033218159
67030GRDNV6001N,-97.51799999999999,37.791,False,20,173,010500,20,20173,20173010500,1400000US20173010500,GORDON EVANS ENERGY CENTER,6001 N 151ST W,COLWICH,KS,67030,"GORDON EVANS ENERGY CENTER.6001 N 151ST W, COLWICH KANSAS 67030 (SEDGWICK)",0,C,,110001955563
67030CMNCX31NFI,-97.536,37.785,False,20,173,010500,20,20173,20173010500,1400000US20173010500,ICM INC,310 N FIRST ST,COLWICH,KS,67030,"ICM INC.310 N FIRST ST, COLWICH KANSAS 67030 (SEDGWICK)",0,C,,110032959644
67042CSTLD1835N,-96.85799999999999,37.839,False,20,015,020300,20,20015,20015020300,1400000US20015020300,EL PASO MERCHANT ENERGY PETROLEUM CO,1835 N TOPEKA,EL DORADO,KS,67042,"EL PASO MERCHANT ENERGY PETROLEUM CO.1835 N TOPEKA, EL DORADO KANSAS 67042 (BUTLER)",0,C,,
67042TXCRF1401S,-96.874,37.794000000000004,False,20,015,020201,20,20015,20015020201,1400000US20015020201,HOLLYFRONTIER EL DORADO REFINING LLC,1401 S DOUGLAS RD,EL DORADO,KS,67042,"HOLLYFRONTIER EL DORADO REFINING LLC.1401 S DOUGLAS RD, EL DORADO KANSAS 67042 (BUTLER)",0,C,,110000446134
67042PNRBL2400P,-96.885,37.832,False,20,015,020201,20,20015,20015020201,1400000US20015020201,PIONEER BALLOON CO,2400 PIONEER DR,EL DORADO,KS,67042,"PIONEER BALLOON CO.2400 PIONEER DR, EL DORADO KANSAS 67042 (BUTLER)",0,C,,
67042MGCTN1210N,-96.881,37.830999999999996,False,20,015,020201,20,20015,20015020201,1400000US20015020201,INSIGNIA SPECIALTY COATINGS,1210 HAVERHILL RD,EL DORADO,KS,67042,"INSIGNIA SPECIALTY COATINGS.1210 HAVERHILL RD, EL DORADO KANSAS 67042 (BUTLER)",0,C,,
67042TRGNT1835N,-96.859,37.838,False,20,015,020201,20,20015,20015020201,1400000US20015020201,TRIGEANT EP LTD,1835 N TOPEKA ST,EL DORADO,KS,67042,"TRIGEANT EP LTD.1835 N TOPEKA ST, EL DORADO KANSAS 67042 (BUTLER)",0,C,,
67042VLMNT955NH,-96.882,37.828,False,20,015,020201,20,20015,20015020201,1400000US20015020201,VALMONT NEWMARK,955 N HAVERHILL RD,EL DORADO,KS,67042,"VALMONT NEWMARK.955 N HAVERHILL RD, EL DORADO KANSAS 67042 (BUTLER)",0,C,,110022812018
6704WRGNSP8EAST,-96.835,37.81,False,20,015,020201,20,20015,20015020201,1400000US20015020201,ERGON ASPHALT & EMULSIONS INC - EL DORADO,800 EAST 10TH STREET,EL DORADO,KS,67042,"ERGON ASPHALT & EMULSIONS INC - EL DORADO.800 EAST 10TH STREET, EL DORADO KANSAS 67042 (BUTLER)",0,C,,110001240595
6704WBRTNS261PI,-96.887,37.83,False,20,015,020201,20,20015,20015020201,1400000US20015020201,BARTON SOLVENTS INC EL DORADO BRANCH,2601 PIONEER DRIVE,EL DORADO,KS,67042,"BARTON SOLVENTS INC EL DORADO BRANCH.2601 PIONEER DRIVE, EL DORADO KANSAS 67042 (BUTLER)",0,C,,110040864525
6704WBGPRD2415P,-96.884,37.832,False,20,015,020201,20,20015,20015020201,1400000US20015020201,BG PRODUCTS EL DORADO MANUFACTURING FACILITY,2415 PIONEER DR,EL DORADO,KS,67042,"BG PRODUCTS EL DORADO MANUFACTURING FACILITY.2415 PIONEER DR, EL DORADO KANSAS 67042 (BUTLER)",0,C,,110060259633
67052PWNPL431IN,-97.57,37.654,False,20,173,009508,20,20173,20173009508,1400000US20173009508,SPARTECH COLOR,431 INDUSTRIAL RD,GODDARD,KS,67052,"SPARTECH COLOR.431 INDUSTRIAL RD, GODDARD KANSAS 67052 (SEDGWICK)",0,C,,
6705WNVRSL521IN,-97.56700000000001,37.654,False,20,173,009508,20,20173,20173009508,1400000US20173009508,UNIVERSAL PRODUCTS INC,521 INDUSTRIAL STREET,GODDARD,KS,67052,"UNIVERSAL PRODUCTS INC.521 INDUSTRIAL STREET, GODDARD KANSAS 67052 (SEDGWICK)",0,C,,110003140609
67062HYFRG420WE,-97.436,38.145,False,20,079,030500,20,20079,20079030500,1400000US20079030500,AGCO CORP,420 W LINCOLN BLVD,HESSTON,KS,67062,"AGCO CORP.420 W LINCOLN BLVD, HESSTON KANSAS 67062 (HARVEY)",0,C,,110000446170
67062XCLND200SO,-97.425,38.135999999999996,False,20,079,030500,20,20079,20079030500,1400000US20079030500,EXCEL INDUSTRIES INC,200 S RIDGE RD,HESSTON,KS,67062,"EXCEL INDUSTRIES INC.200 S RIDGE RD, HESSTON KANSAS 67062 (HARVEY)",0,C,,110017375927
67062NRTHM3NMAI,-97.432,38.141,False,20,079,030500,20,20079,20079030500,1400000US20079030500,NORTH AMERICAN NUTRITION COMPANIES,300 N MAIN ST,HESSTON,KS,67062,"NORTH AMERICAN NUTRITION COMPANIES.300 N MAIN ST, HESSTON KANSAS 67062 (HARVEY)",0,C,,110022447057
6711WPRKRC486NR,-97.28200000000001,38.047,False,20,079,030500,20,20079,20079030500,1400000US20079030500,PARK AEROSPACE CORP,"486 NORTH OLIVER ROAD, BLDG Z",NEWTON,KS,67114,"PARK AEROSPACE CORP.486 NORTH OLIVER ROAD, BLDG Z, NEWTON KANSAS 67114 (HARVEY)",0,C,,110035962740
6706WGVLPL8515N,-97.44,38.147,False,20,079,030500,20,20079,20079030500,1400000US20079030500,GVLPOLY,8515 N HESSTON RD,HESSTON,KS,67062,"GVLPOLY.8515 N HESSTON RD, HESSTON KANSAS 67062 (HARVEY)",0,C,,110070049873
67063HLLSB220IN,-97.18799999999999,38.359,False,20,115,489600,20,20115,20115489600,1400000US20115489600,FLINT HILLS INDUSTRIES DBA HILLSBORO IND,220 INDUSTRIAL RD,HILLSBORO,KS,67063,"FLINT HILLS INDUSTRIES DBA HILLSBORO IND.220 INDUSTRIAL RD, HILLSBORO KANSAS 67063 (MARION)",0,C,,110011247695
67063SSCTD400NO,-97.205,38.358000000000004,False,20,115,489600,20,20115,20115489600,1400000US20115489600,DAIRY FARMERS OF AMERICA INC,400 N MAIN,HILLSBORO,KS,67063,"DAIRY FARMERS OF AMERICA INC.400 N MAIN, HILLSBORO KANSAS 67063 (MARION)",1,C,,
67114FTRFM1500S,-97.32,38.037,False,20,079,030400,20,20079,20079030400,1400000US20079030400,FUTURE FOAM INC,1500 SE 6TH ST,NEWTON,KS,67114,"FUTURE FOAM INC.1500 SE 6TH ST, NEWTON KANSAS 67114 (HARVEY)",0,C,,110000446223
67114MSTRP1701S,-97.318,38.033,False,20,079,030400,20,20079,20079030400,1400000US20079030400,MASTER PAINT INDUSTRIAL COATINGS INC,1701 SE 9TH ST,NEWTON,KS,671148242,"MASTER PAINT INDUSTRIAL COATINGS INC.1701 SE 9TH ST, NEWTON KANSAS 67114 (HARVEY)",0,C,,
67114STNDR111IN,-97.31200000000001,38.031,False,20,079,030400,20,20079,20079030400,1400000US20079030400,STANDRIDGE COLOR CORP,1011 INDUSTRIAL DR,NEWTON,KS,67114,"STANDRIDGE COLOR CORP.1011 INDUSTRIAL DR, NEWTON KANSAS 67114 (HARVEY)",0,C,,110030562406
67114PCKNS1335S,-97.345,38.047,True,20,079,030400,20,20079,20079030400,1400000US20079030400,APAC KANSAS INC SHEARS ASPHALT PLANT 412,1335 SW 14TH,NEWTON,KS,67114,"APAC KANSAS INC SHEARS ASPHALT PLANT 412 1335 SW 14TH, NEWTON, KS, 67114",0,C,,
67114NRCRF810SC,-97.368,38.034,False,20,079,030300,20,20079,20079030300,1400000US20079030300,MID CONTINENT CABINETRY,810  S COLUMBUS,NEWTON,KS,67114,"MID CONTINENT CABINETRY.810  S COLUMBUS, NEWTON KANSAS 67114 (HARVEY)",0,C,,110016658240
67114FLLVS3017F,-97.383,38.025999999999996,False,20,079,030300,20,20079,20079030300,1400000US20079030300,FULL VISION INC,3017 FULL VISION DR,NEWTON,KS,67114,"FULL VISION INC.3017 FULL VISION DR, NEWTON KANSAS 67114 (HARVEY)",0,C,,110009741315
67114BCRLP405WE,-97.352,38.043,False,20,079,030300,20,20079,20079030300,1400000US20079030300,VOESTALPINE NORTRAK INC,405 W 1ST ST,NEWTON,KS,671140571,"VOESTALPINE NORTRAK INC.405 W 1ST ST, NEWTON KANSAS 67114 (HARVEY)",0,C,,110000446205
67118FRRRC142WB,-97.85,37.459,False,20,095,961100,20,20095,20095961100,1400000US20095961100,FARRAR CORP,142 W BURNS,NORWICH,KS,67118,"FARRAR CORP.142 W BURNS, NORWICH KANSAS 67118 (KINGMAN)",0,C,,110064230149
67118FRRRC129NS,-97.851,37.459,False,20,095,961100,20,20095,20095961100,1400000US20095961100,FARRAR CORP,129 NORTH SOMERSET,NORWICH,KS,67118,"FARRAR CORP.129 NORTH SOMERSET, NORWICH KANSAS 67118 (KINGMAN)",0,C,,
67124XTRFC211PE,-98.734,37.659,False,20,151,968700,20,20151,20151968700,1400000US20151968700,XTRA FACTORS,211 PEDIGO DR,PRATT,KS,671243624,"XTRA FACTORS.211 PEDIGO DR, PRATT KANSAS 67124 (PRATT)",0,C,,
67156BNNYS2000L,-96.97200000000001,37.232,False,20,035,493600,20,20035,20035493600,1400000US20035493600,GENERAL ELECTRIC AVIATION,2000 LIQUITEX LN,WINFIELD,KS,67156,"GENERAL ELECTRIC AVIATION.2000 LIQUITEX LN, WINFIELD KANSAS 67156 (COWLEY)",0,C,,110000834278
67156RBBRM1616W,-96.971,37.232,False,20,035,493600,20,20035,20035493600,1400000US20035493600,RUBBERMAID HOME PRODUCTS,1616 WHEAT RD,WINFIELD,KS,67156,"RUBBERMAID HOME PRODUCTS.1616 WHEAT RD, WINFIELD KANSAS 67156 (COWLEY)",0,C,,
67156NWLLR3415E,-96.956,37.236999999999995,False,20,035,493600,20,20035,20035493600,1400000US20035493600,RUBBERMAID,3415 E 12TH AVE,WINFIELD,KS,67156,"RUBBERMAID.3415 E 12TH AVE, WINFIELD KANSAS 67156 (COWLEY)",0,C,,110020514736
67201BCHRC9709E,-97.22399999999999,37.693000000000005,False,20,173,007201,20,20173,20173007201,1400000US20173007201,TEXTRON AVIATION/EAST CAMPUS,9709 E CENTRAL AVE,WICHITA,KS,67206,"TEXTRON AVIATION/EAST CAMPUS.9709 E CENTRAL AVE, WICHITA KANSAS 67206 (SEDGWICK)",0,C,,110000446303
67201SCRTY920E1,-97.32700000000001,37.719,False,20,173,000400,20,20173,20173000400,1400000US20173000400,SECURITY OIL CO,920 E 19TH,WICHITA,KS,672018220,"SECURITY OIL CO.920 E 19TH, WICHITA KANSAS 67201 (SEDGWICK)",0,C,,
67201SPRRR1200E,-97.324,37.694,False,20,173,000400,20,20173,20173000400,1400000US20173000400,SPURRIER CHEMICAL COS INC,1200 E CENTRAL,WICHITA,KS,67214,"SPURRIER CHEMICAL COS INC.1200 E CENTRAL, WICHITA KANSAS 67214 (SEDGWICK)",0,C,,110000446312
67214CRGLL1417N,-97.32799999999999,37.709,False,20,173,000400,20,20173,20173000400,1400000US20173000400,CARGILL INC,1425 N MOSELY,WICHITA,KS,67214,"CARGILL INC.1425 N MOSELY, WICHITA KANSAS 67214 (SEDGWICK)",0,C,,110001307121
67214KNSSP1110N,-97.32799999999999,37.703,False,20,173,000400,20,20173,20173000400,1400000US20173000400,KANSAS PLATING INC,1110 N MOSLEY,WICHITA,KS,67214,"KANSAS PLATING INC.1110 N MOSLEY, WICHITA KANSAS 67214 (SEDGWICK)",0,C,,110022152588
67214NTNLB2050N,-97.32799999999999,37.722,False,20,173,000400,20,20173,20173000400,1400000US20173000400,NATIONAL BY-PRODUCTS INC,2050 N MOSLEY AVE,WICHITA,KS,67214,"NATIONAL BY-PRODUCTS INC.2050 N MOSLEY AVE, WICHITA KANSAS 67214 (SEDGWICK)",0,C,,
67214PRNML1836N,-97.334,37.716,False,20,173,000400,20,20173,20173000400,1400000US20173000400,LAND O'LAKES PURINA FEED LLC - WICHITA,1836 N TOPEKA,WICHITA,KS,67214,"LAND O'LAKES PURINA FEED LLC - WICHITA.1836 N TOPEKA, WICHITA KANSAS 67214 (SEDGWICK)",0,C,,110022329657
67214CRGLL715E1,-97.329,37.708,False,20,173,000400,20,20173,20173000400,1400000US20173000400,CARGILL INC,715 E 13TH ST,WICHITA,KS,672141301,"CARGILL INC.715 E 13TH ST, WICHITA KANSAS 67214 (SEDGWICK)",0,C,,
67214TRMCN1020E,-97.32600000000001,37.719,False,20,173,000400,20,20173,20173000400,1400000US20173000400,TRAMCO INC,1011 E 19TH ST,WICHITA,KS,67214,"TRAMCO INC.1011 E 19TH ST, WICHITA KANSAS 67214 (SEDGWICK)",0,C,,110000446492
67214DVNCC1520N,-97.329,37.711,False,20,173,000400,20,20173,20173000400,1400000US20173000400,BRENNTAG SOUTHWEST INC WICHITA,1520 N BARWISE,WICHITA,KS,67214,"BRENNTAG SOUTHWEST INC WICHITA.1520 N BARWISE, WICHITA KANSAS 67214 (SEDGWICK)",0,C,,
67214NDSTR550E1,-97.33200000000001,37.715,False,20,173,000400,20,20173,20173000400,1400000US20173000400,INDUSTRIAL GASES OF WICHITA,550 E 17TH ST N,WICHITA,KS,67214,"INDUSTRIAL GASES OF WICHITA.550 E 17TH ST N, WICHITA KANSAS 67214 (SEDGWICK)",0,C,,
67201THCLM250NS,-101.35600000000001,38.478,False,20,203,957600,20,20173,20203957600,1400000US20203957600,COLEMAN OUTDOOR PRODUCTS INC,250 N SAINT FRANCIS,WICHITA,KS,67201,"COLEMAN OUTDOOR PRODUCTS INC.250 N SAINT FRANCIS, WICHITA KANSAS 67201 (SEDGWICK)",0,C,,
67861LNDLK42NWY,-101.366,38.48,False,20,203,957600,20,20203,20203957600,1400000US20203957600,LAND O'LAKES PURINA FEED LLC - LEOTI,420 N WYOMING ST,LEOTI,KS,67861,"LAND O'LAKES PURINA FEED LLC - LEOTI.420 N WYOMING ST, LEOTI KANSAS 67861 (WICHITA)",0,C,,110025317271
67201THCLM3600N,-97.31700000000001,37.75,False,20,173,010113,20,20173,20173010113,1400000US20173010113,THE COLEMAN CO INC,3600 N HYDRAULIC,WICHITA,KS,67219,"THE COLEMAN CO INC.3600 N HYDRAULIC, WICHITA KANSAS 67219 (SEDGWICK)",0,C,,110000446321
67220KCHNG4111E,-97.29,37.751999999999995,False,20,173,010113,20,20173,20173010113,1400000US20173010113,KOCH-GLITSCH LP,4111 E 37TH ST N BLDG E,WICHITA,KS,67220,"KOCH-GLITSCH LP.4111 E 37TH ST N BLDG E, WICHITA KANSAS 67220 (SEDGWICK)",0,C,,110054619999
67219PHLLP2400E,-97.307,37.751999999999995,False,20,173,010113,20,20173,20173010113,1400000US20173010113,PHILLIPS 66 CO WICHITA TERMINAL,2400 E 37TH ST N,WICHITA,KS,67219,"PHILLIPS 66 CO WICHITA TERMINAL.2400 E 37TH ST N, WICHITA KANSAS 67219 (SEDGWICK)",0,C,,110000446615
67147HYSCN7700H,-97.331,37.823,False,20,173,010113,20,20173,20173010113,1400000US20173010113,HAYES CO,7700 HAYES DR,VALLEY CENTER,KS,67147,"HAYES CO.7700 HAYES DR, VALLEY CENTER KANSAS 67147 (SEDGWICK)",0,C,,110017375026
67202KMNWP441NO,-97.33,37.693000000000005,False,20,173,004300,20,20173,20173004300,1400000US20173004300,KAMEN WIPING MATERIALS CO INC,441 N SANTE FE,WICHITA,KS,67202,"KAMEN WIPING MATERIALS CO INC.441 N SANTE FE, WICHITA KANSAS 67202 (SEDGWICK)",0,C,,
67202KNSSP132NO,-97.32799999999999,37.687,False,20,173,004300,20,20173,20173004300,1400000US20173004300,KANSAS PAINT & COLOR CO,132 N MOSLEY,WICHITA,KS,672022898,"KANSAS PAINT & COLOR CO.132 N MOSLEY, WICHITA KANSAS 67202 (SEDGWICK)",0,C,,
67202PRNTN344NS,-97.33200000000001,37.691,False,20,173,004300,20,20173,20173004300,1400000US20173004300,PRINTING INC,344 N ST FRANCIS,WICHITA,KS,67202,"PRINTING INC.344 N ST FRANCIS, WICHITA KANSAS 67202 (SEDGWICK)",0,C,,
67202STFFN700EC,-97.33,37.693000000000005,False,20,173,004300,20,20173,20173004300,1400000US20173004300,HILAND DAIRY FOODS CO,700 E CENTRAL,WICHITA,KS,67202,"HILAND DAIRY FOODS CO.700 E CENTRAL, WICHITA KANSAS 67202 (SEDGWICK)",0,C,,110000446349
67202SRVCB340NM,-97.32799999999999,37.691,False,20,173,004300,20,20173,20173004300,1400000US20173004300,"SERVICE BRASS & ALUMINUM, FNDY INC",340 N MOSLEY,WICHITA,KS,67202,"SERVICE BRASS & ALUMINUM, FNDY INC.340 N MOSLEY, WICHITA KANSAS 67202 (SEDGWICK)",0,C,,
67204DLDFD2929N,-97.32600000000001,37.736999999999995,False,20,173,008100,20,20173,20173008100,1400000US20173008100,DOLD FOODS INC,2929 N OHIO,WICHITA,KS,67219,"DOLD FOODS INC.2929 N OHIO, WICHITA KANSAS 67219 (SEDGWICK)",0,C,,110000549657
67214DRBYR1100E,-97.324,37.723,False,20,173,008100,20,20173,20173008100,1400000US20173008100,EL PASO MERCHANT ENERGY-PETROLEUM CO,1100 E 21ST ST,WICHITA,KS,67214,"EL PASO MERCHANT ENERGY-PETROLEUM CO.1100 E 21ST ST, WICHITA KANSAS 67214 (SEDGWICK)",0,C,,
67219NVRSL2824N,-97.324,37.735,False,20,173,008100,20,20173,20173008100,1400000US20173008100,PETROCHOICE DYNAMO LLC,2824 N OHIO,WICHITA,KS,67219,"PETROCHOICE DYNAMO LLC.2824 N OHIO, WICHITA KANSAS 67219 (SEDGWICK)",0,C,,110000446606
67219THCLM801E3,-97.329,37.751999999999995,False,20,173,008100,20,20173,20173008100,1400000US20173008100,JOHNSON CONTROLS INC-WICHITA,801 E 37TH ST N,WICHITA,KS,67219,"JOHNSON CONTROLS INC-WICHITA.801 E 37TH ST N, WICHITA KANSAS 67219 (SEDGWICK)",0,C,,110017559140
67219WLKPN2727O,-97.324,37.732,False,20,173,008100,20,20173,20173008100,1400000US20173008100,WILKO PAINT INC,2727 OHIO ST,WICHITA,KS,67219,"WILKO PAINT INC.2727 OHIO ST, WICHITA KANSAS 67219 (SEDGWICK)",0,C,,110000446642
67219XCLCR2901N,-97.32799999999999,37.735,False,20,173,008100,20,20173,20173008100,1400000US20173008100,EXCEL CORP,2901 N MEAD,PARK CITY,KS,67219,"EXCEL CORP.2901 N MEAD, PARK CITY KANSAS 67219 (SEDGWICK)",0,C,,
67219RCRTN3050N,-97.331,37.738,False,20,173,008100,20,20173,20173008100,1400000US20173008100,RECREATION VEHICLE PRODUCTS INC,3050 N SAINT FRANCIS,WICHITA,KS,67219,"RECREATION VEHICLE PRODUCTS INC.3050 N SAINT FRANCIS, WICHITA KANSAS 67219 (SEDGWICK)",0,C,,110000446624
67219LVBXC700E3,-97.331,37.751999999999995,False,20,173,008100,20,20173,20173008100,1400000US20173008100,LOVE BOX CO INC,700 E 37TH ST N,WICHITA,KS,67219,"LOVE BOX CO INC.700 E 37TH ST N, WICHITA KANSAS 67219 (SEDGWICK)",0,C,,
67219HYSCX800E3,-97.329,37.751999999999995,False,20,173,008100,20,20173,20173008100,1400000US20173008100,HAYES CO,800 EAST 37TH ST NORTH,WICHITA,KS,67219,"HAYES CO.800 EAST 37TH ST NORTH, WICHITA KANSAS 67219 (SEDGWICK)",0,C,,
67219SFTYK400E5,-97.334,37.781,False,20,173,008100,20,20173,20173008100,1400000US20173008100,SAFETY-KLEEN SYS (619502),400 E 53RD ST,WICHITA,KS,67219,"SAFETY-KLEEN SYS (619502).400 E 53RD ST, WICHITA KANSAS 67219 (SEDGWICK)",0,C,,
67219WCHTB412E2,-97.333,37.736,False,20,173,008100,20,20173,20173008100,1400000US20173008100,WICHITA BRASS & ALUMINUM FOUNDRY INC,412 E 29TH ST N,WICHITA,KS,67219,"WICHITA BRASS & ALUMINUM FOUNDRY INC.412 E 29TH ST N, WICHITA KANSAS 67219 (SEDGWICK)",0,C,,110007286169
6720WFRRLY515E2,-97.33200000000001,37.736999999999995,False,20,173,008100,20,20173,20173008100,1400000US20173008100,FERROLOY INC,515 E 29TH ST N,WICHITA,KS,67219,"FERROLOY INC.515 E 29TH ST N, WICHITA KANSAS 67219 (SEDGWICK)",0,C,,110001307032
6721WNDLRD317NH,-97.324,37.741,False,20,173,008100,20,20173,20173008100,1400000US20173008100,ANDALE READY MIX,3170 N OHIO,WICHITA,KS,67219,"ANDALE READY MIX.3170 N OHIO, WICHITA KANSAS 67219 (SEDGWICK)",0,C,,110024868026
6721WCLNHR2932N,-97.324,37.736,False,20,173,008100,20,20173,20173008100,1400000US20173008100,CLEAN HARBORS WICHITA LLC,2932 N OHIO ST,WICHITA,KS,67219,"CLEAN HARBORS WICHITA LLC.2932 N OHIO ST, WICHITA KANSAS 67219 (SEDGWICK)",0,C,,110070049854
6721WPRFKT48E21,-97.333,37.723,False,20,173,008100,20,20173,20173008100,1400000US20173008100,PERFEKTA INC,480 E 21ST ST N,WICHITA,KS,67214,"PERFEKTA INC.480 E 21ST ST N, WICHITA KANSAS 67214 (SEDGWICK)",0,C,,110003185883
67209CHNCP4219I,-97.39299999999999,37.672,False,20,173,009100,20,20173,20173009100,1400000US20173009100,CHANCE RIDES MFG,4219 W IRVING ST,WICHITA,KS,67209,"CHANCE RIDES MFG.4219 W IRVING ST, WICHITA KANSAS 67209 (SEDGWICK)",0,C,,110000446367
67213RCPTL1702S,-97.383,37.663000000000004,False,20,173,009100,20,20173,20173009100,1400000US20173009100,3P PROCESSING INC,1702 S KNIGHT,WICHITA,KS,67213,"3P PROCESSING INC.1702 S KNIGHT, WICHITA KANSAS 67213 (SEDGWICK)",0,C,,110000446447
67217CPLND3200M,-97.381,37.659,False,20,173,009100,20,20173,20173009100,1400000US20173009100,COPELAND CORP,3200 MAY ST,WICHITA,KS,67213,"COPELAND CORP.3200 MAY ST, WICHITA KANSAS 67213 (SEDGWICK)",0,C,,
67217SMTHF2501S,-97.389,37.65,False,20,173,009100,20,20173,20173009100,1400000US20173009100,FIBER GLASS SYSTEMS WICHITA,2501 SW ST,WICHITA,KS,67217,"FIBER GLASS SYSTEMS WICHITA.2501 SW ST, WICHITA KANSAS 67217 (SEDGWICK)",0,C,,110001239810
67277TWCPR4200W,-97.39299999999999,37.666,False,20,173,009100,20,20173,20173009100,1400000US20173009100,EXACTA AEROSPACE INC,4200 W HARRY ST,WICHITA,KS,67209,"EXACTA AEROSPACE INC.4200 W HARRY ST, WICHITA KANSAS 67209 (SEDGWICK)",0,C,,110000446704
67277PLSTC1650S,-97.387,37.665,False,20,173,009100,20,20173,20173009100,1400000US20173009100,PLASTIC FABRICATING CO INC,1650 S MCCOMAS ST,WICHITA,KS,672131239,"PLASTIC FABRICATING CO INC.1650 S MCCOMAS ST, WICHITA KANSAS 67213 (SEDGWICK)",0,C,,
67209THRML1714S,-97.397,37.663000000000004,False,20,173,009100,20,20173,20173009100,1400000US20173009100,THERMAL TRADE INC,1714 S BAEHR,WICHITA,KS,67209,"THERMAL TRADE INC.1714 S BAEHR, WICHITA KANSAS 67209 (SEDGWICK)",0,C,,
67213FRMLN2323S,-97.38,37.652,False,20,173,009100,20,20173,20173009100,1400000US20173009100,SMITHFIELD PACKAGED MEATS CORP-WICHITA,2323 S SHERIDAN,WICHITA,KS,67213,"SMITHFIELD PACKAGED MEATS CORP-WICHITA.2323 S SHERIDAN, WICHITA KANSAS 67213 (SEDGWICK)",0,C,,110000553963
67217CSTMC2432S,-97.38,37.65,False,20,173,009100,20,20173,20173009100,1400000US20173009100,CUSTOM CUPBOARDS INC,2432 SOUTH SHERIDAN,WICHITA,KS,672171358,"CUSTOM CUPBOARDS INC.2432 SOUTH SHERIDAN, WICHITA KANSAS 67217 (SEDGWICK)",0,C,,
67277WSCNP2533S,-97.389,37.648,False,20,173,009100,20,20173,20173009100,1400000US20173009100,WESCON PRODUCTS CO,2533 S WEST ST,WICHITA,KS,67217,"WESCON PRODUCTS CO.2533 S WEST ST, WICHITA KANSAS 67217 (SEDGWICK)",0,C,,110000446713
67215BRDLN4420W,-97.39399999999999,37.64,False,20,173,009100,20,20173,20173009100,1400000US20173009100,ISF (DBA INFINITECH SURFACE FINISHING),4420 W 29TH CIR S,WICHITA,KS,67215,"ISF (DBA INFINITECH SURFACE FINISHING).4420 W 29TH CIR S, WICHITA KANSAS 67215 (SEDGWICK)",0,C,,110022441240
67213MRBLP2080S,-97.374,37.657,False,20,173,009100,20,20173,20173009100,1400000US20173009100,MARBLE PRODUCTS CO,2080 S EDWARDS,WICHITA,KS,67213,"MARBLE PRODUCTS CO.2080 S EDWARDS, WICHITA KANSAS 67213 (SEDGWICK)",0,C,,110008059616
67217CNTRN255SC,-97.37799999999999,37.65,False,20,173,009100,20,20173,20173009100,1400000US20173009100,CENTER INDUSTRIES CORP,2505 S CUSTER,WICHITA,KS,67217,"CENTER INDUSTRIES CORP.2505 S CUSTER, WICHITA KANSAS 67217 (SEDGWICK)",0,C,,110003160668
6721WBRTTN252SU,-97.38,37.649,False,20,173,009100,20,20173,20173009100,1400000US20173009100,BRITTAIN MACHINE INC,2520 S SHERIDAN ST,WICHITA,KS,67217,"BRITTAIN MACHINE INC.2520 S SHERIDAN ST, WICHITA KANSAS 67217 (SEDGWICK)",0,C,,110003154693
6721WCHRMP3939W,-97.38799999999999,37.641,False,20,173,009100,20,20173,20173009100,1400000US20173009100,CHROME PLUS INTERNATIONAL INC,3939 W 29TH STREET SOUTH,WICHITA,KS,67217,"CHROME PLUS INTERNATIONAL INC.3939 W 29TH STREET SOUTH, WICHITA KANSAS 67217 (SEDGWICK)",0,C,,110041701478
6720WTLSRS4425W,-97.39399999999999,37.659,False,20,173,009100,20,20173,20173009100,1400000US20173009100,ATLAS AEROSPACE,4425 W MAY,WICHITA,KS,67209,"ATLAS AEROSPACE.4425 W MAY, WICHITA KANSAS 67209 (SEDGWICK)",0,C,,110046279326
6720WMTLPR4323W,-97.39399999999999,37.664,False,20,173,009100,20,20173,20173009100,1400000US20173009100,METAL PROS LLC,4323 W. BOUNOUS STREET,WICHITA,KS,67209,"METAL PROS LLC.4323 W. BOUNOUS STREET, WICHITA KANSAS 67209 (SEDGWICK)",0,C,,110043439801
6720WSFTYK481WI,-97.399,37.672,False,20,173,009100,20,20173,20173009100,1400000US20173009100,SAFETY-KLEEN SYSTEMS WICHITA (WIB),4801 W IRVING ST,WICHITA,KS,67209,"SAFETY-KLEEN SYSTEMS WICHITA (WIB).4801 W IRVING ST, WICHITA KANSAS 67209 (SEDGWICK)",0,C,,110012155345
6721WLNRDS2621E,-97.37299999999999,37.661,False,20,173,009100,20,20173,20173009100,1400000US20173009100,LMI AEROSPACE,2621 ESTHNER CT,WICHITA,KS,672131849,"LMI AEROSPACE.2621 ESTHNER CT, WICHITA KANSAS 67213 (SEDGWICK)",0,C,,110023128471
6721WPRMRP32WES,-97.37799999999999,37.650999999999996,False,20,173,009100,20,20173,20173009100,1400000US20173009100,PREMIER PROCESSING,3002 W PAWNEE SUITE 104,WICHITA,KS,67213,"PREMIER PROCESSING.3002 W PAWNEE SUITE 104, WICHITA KANSAS 67213 (SEDGWICK)",0,C,,110039217969
67213VRYGR1950S,-97.384,37.66,True,20,173,009100,20,20173,20173009100,1400000US20173009100,AVERY GRAPHIC SYS DIV,1950 S W ST,WICHITA,KS,67213,"AVERY GRAPHIC SYS DIV 1950 S W ST, WICHITA, KS, 67213",0,C,,
67277LSMCH2019S,-97.384,37.651,True,20,173,009100,20,20173,20173009100,1400000US20173009100,L & S MACHINE CO INC,2019 SW BLVD,WICHITA,KS,672772264,"L & S MACHINE CO INC 2019 SW BLVD, WICHITA, KS, 672772264",0,C,,
67209LRJTC8220W,-97.439,37.667,False,20,173,009200,20,20173,20173009200,1400000US20173009200,LEARJET INC,1 LEARJET WAY,WICHITA,KS,67209,"LEARJET INC.1 LEARJET WAY, WICHITA KANSAS 67209 (SEDGWICK)",0,C,,110000446376
67209SHRPL1520S,-97.444,37.667,False,20,173,009200,20,20173,20173009200,1400000US20173009200,SHARPLINE CONVERTING INC.,1520 S TYLER RD,WICHITA,KS,672091851,"SHARPLINE CONVERTING INC..1520 S TYLER RD, WICHITA KANSAS 67209 (SEDGWICK)",0,C,,110000446385
67209TCHMR715WP,-97.42299999999999,37.669000000000004,False,20,173,009200,20,20173,20173009200,1400000US20173009200,TECHMER PM LLC WICHITA KS,7015 W PUEBLO,WICHITA,KS,67209,"TECHMER PM LLC WICHITA KS.7015 W PUEBLO, WICHITA KANSAS 67209 (SEDGWICK)",0,C,,110001242511
67211WCHTC3001E,-97.302,37.665,False,20,173,003800,20,20173,20173003800,1400000US20173003800,COCA-COLA BOTTLING CO WICHITA,3001 E HARRY,WICHITA,KS,67201,"COCA-COLA BOTTLING CO WICHITA.3001 E HARRY, WICHITA KANSAS 67201 (SEDGWICK)",0,C,,
67213BGPRD701SW,-97.34100000000001,37.678000000000004,False,20,173,002600,20,20173,20173002600,1400000US20173002600,BG PRODUCTS INC,701 S WICHITA,WICHITA,KS,67213,"BG PRODUCTS INC.701 S WICHITA, WICHITA KANSAS 67213 (SEDGWICK)",0,C,,110000446410
67213PRGNN1015S,-97.389,37.671,False,20,173,009000,20,20173,20173009000,1400000US20173009000,PARAGON SERVICES INC,1015 S WEST ST,WICHITA,KS,67213,"PARAGON SERVICES INC.1015 S WEST ST, WICHITA KANSAS 67213 (SEDGWICK)",0,C,,110000596668
67213GLBNG1539S,-97.376,37.666,False,20,173,009000,20,20173,20173009000,1400000US20173009000,GLOBE ENGINEERING CO INC,1539 S SAINT PAUL,WICHITA,KS,67213,"GLOBE ENGINEERING CO INC.1539 S SAINT PAUL, WICHITA KANSAS 67213 (SEDGWICK)",0,C,,110000446429
67213SSCTD1441S,-97.346,37.668,False,20,173,003100,20,20173,20173003100,1400000US20173003100,ASSOCIATED CO INC,1441 S MCLEAN BLVD,WICHITA,KS,67213,"ASSOCIATED CO INC.1441 S MCLEAN BLVD, WICHITA KANSAS 67213 (SEDGWICK)",0,C,,
67213MTLFN1423S,-97.346,37.668,False,20,173,003100,20,20173,20173003100,1400000US20173003100,METAL FINISHING CO INC,1423 S MCLEAN BLVD,WICHITA,KS,67213,"METAL FINISHING CO INC.1423 S MCLEAN BLVD, WICHITA KANSAS 67213 (SEDGWICK)",0,C,,110000446438
67213SSCTD1501S,-97.34700000000001,37.665,False,20,173,003100,20,20173,20173003100,1400000US20173003100,ASSOCIATED CO INC,1501 S MCLEAN BLVD,WICHITA,KS,67213,"ASSOCIATED CO INC.1501 S MCLEAN BLVD, WICHITA KANSAS 67213 (SEDGWICK)",0,C,,
67213HRLWR151MC,-97.346,37.666,False,20,173,003100,20,20173,20173003100,1400000US20173003100,HARLOW AEROSTRUCTURES LLC,1501 MCLEAN BLVD S,WICHITA,KS,67213,"HARLOW AEROSTRUCTURES LLC.1501 MCLEAN BLVD S, WICHITA KANSAS 67213 (SEDGWICK)",0,C,,110039508743
67215FRSYS10200,-97.46,37.623000000000005,False,20,173,009605,20,20173,20173009605,1400000US20173009605,IFR SYSTEMS INC,10200 W YORK ST,WICHITA,KS,672158935,"IFR SYSTEMS INC.10200 W YORK ST, WICHITA KANSAS 67215 (SEDGWICK)",0,C,,
67215RCNNC6040S,-97.426,37.585,False,20,173,009605,20,20173,20173009605,1400000US20173009605,ATOFINA CHEMICALS INC  WICHITA PLANT,6040 S RIDGE RD,WICHITA,KS,672150198,"ATOFINA CHEMICALS INC  WICHITA PLANT.6040 S RIDGE RD, WICHITA KANSAS 67215 (SEDGWICK)",1,C,,
67215VLCNC6200S,-97.425,37.582,False,20,173,009605,20,20173,20173009605,1400000US20173009605,OCCIDENTAL CHEMICAL CORP,6200 S RIDGE RD,WICHITA,KS,67215,"OCCIDENTAL CHEMICAL CORP.6200 S RIDGE RD, WICHITA KANSAS 67215 (SEDGWICK)",0,C,,110017424312
67231RPRDC6601S,-97.426,37.574,False,20,173,009605,20,20173,20173009605,1400000US20173009605,EVONIK CORP,6601 S RIDGE RD,HAYSVILLE,KS,67060,"EVONIK CORP.6601 S RIDGE RD, HAYSVILLE KANSAS 67060 (SEDGWICK)",0,C,,110000446679
67215CSTMC3738N,-97.454,37.626,False,20,173,009605,20,20173,20173009605,1400000US20173009605,RD HENRY & CO LLC,3738 S NORMAN ST,WICHITA,KS,67215,"RD HENRY & CO LLC.3738 S NORMAN ST, WICHITA KANSAS 67215 (SEDGWICK)",0,C,,110017523054
67214MRRYG6100W,-97.412,37.593,False,20,173,009605,20,20173,20173009605,1400000US20173009605,MURRAY GILL ENERGY CENTER,6100 W 55 ST S,WICHITA,KS,67214,"MURRAY GILL ENERGY CENTER.6100 W 55 ST S, WICHITA KANSAS 67214 (SEDGWICK)",0,C,,110002128518
67215JCSCM3301S,-97.40700000000001,37.635,False,20,173,009603,20,20173,20173009603,1400000US20173009603,CNH INDUSTRIAL AMERICA LLC,3301 S HOOVER RD,WICHITA,KS,67215,"CNH INDUSTRIAL AMERICA LLC.3301 S HOOVER RD, WICHITA KANSAS 67215 (SEDGWICK)",0,C,,110000446517
67277CSSNRK42AN,-97.42,37.637,False,20,173,009603,20,20173,20173009603,1400000US20173009603,TEXTRON AVIATION/WEST CAMPUS,1 CESSNA BLVD,WICHITA,KS,67215,"TEXTRON AVIATION/WEST CAMPUS.1 CESSNA BLVD, WICHITA KANSAS 67215 (SEDGWICK)",0,C,,110000446697
67209CSSNCNECIT,-97.42,37.637,False,20,173,009603,20,20173,20173009603,1400000US20173009603,CESSNA CITATION SERVICE CENTER,ONE CITATION LN 2121 S HOOVER RD,WICHITA,KS,67209,"CESSNA CITATION SERVICE CENTER.ONE CITATION LN 2121 S HOOVER RD, WICHITA KANSAS 67209 (SEDGWICK)",0,C,,110067042015
6721WTRMPH3258S,-97.40700000000001,37.635,False,20,173,009603,20,20173,20173009603,1400000US20173009603,TRIUMPH STRUCTURES,3258 SOUTH HOOVER ROAD,WICHITA,KS,67215,"TRIUMPH STRUCTURES.3258 SOUTH HOOVER ROAD, WICHITA KANSAS 67215 (SEDGWICK)",0,C,,110043230704
67216LBRCT1919E,-97.314,37.635999999999996,False,20,173,005900,20,20173,20173005900,1400000US20173005900,LUBRICATION ENGINEERS INC,1919 E TULSA ST,WICHITA,KS,67216,"LUBRICATION ENGINEERS INC.1919 E TULSA ST, WICHITA KANSAS 67216 (SEDGWICK)",0,C,,110000446544
67217KLLSM4729P,-97.34200000000001,37.609,False,20,173,005700,20,20173,20173005700,1400000US20173005700,KOLLSMAN AVIONICS DIV,4729 PALISADE,WICHITA,KS,67217,"KOLLSMAN AVIONICS DIV.4729 PALISADE, WICHITA KANSAS 67217 (SEDGWICK)",0,C,,
67217MRBLP4645P,-97.34200000000001,37.61,False,20,173,005700,20,20173,20173005700,1400000US20173005700,MARBLE PRODUCTS CO,4645 S PALISADE,WICHITA,KS,67217,"MARBLE PRODUCTS CO.4645 S PALISADE, WICHITA KANSAS 67217 (SEDGWICK)",0,C,,
67217PPSCL101W4,-97.336,37.606,False,20,173,005700,20,20173,20173005700,1400000US20173005700,BOTTLING GROUP LLC PEPSI BOTTLING GROUP,101 W 48TH ST S,WICHITA,KS,67217,"BOTTLING GROUP LLC PEPSI BOTTLING GROUP.101 W 48TH ST S, WICHITA KANSAS 67217 (SEDGWICK)",0,C,,
6721WCYBRT4747S,-97.33,37.609,False,20,173,005700,20,20173,20173005700,1400000US20173005700,CYBERTRON,4747 S EMPORIA ST,WICHITA,KS,67216,"CYBERTRON.4747 S EMPORIA ST, WICHITA KANSAS 67216 (SEDGWICK)",0,C,,110064436409
67218CSSNR5800E,-97.266,37.65,False,20,173,006600,20,20173,20173006600,1400000US20173006600,TEXTRON AVIATION/PAWNEE CAMPUS,5800 E PAWNEE,WICHITA,KS,67218,"TEXTRON AVIATION/PAWNEE CAMPUS.5800 E PAWNEE, WICHITA KANSAS 67218 (SEDGWICK)",0,C,,110000446571
67277BNGML3801S,-97.28299999999999,37.622,False,20,173,006600,20,20173,20173006600,1400000US20173006600,SPIRIT AEROSYSTEMS INC,3801 S OLIVER,WICHITA,KS,67210,"SPIRIT AEROSYSTEMS INC.3801 S OLIVER, WICHITA KANSAS 67210 (SEDGWICK)",0,C,,110000446688
67221SRFRC53000,-97.251,37.637,False,20,173,006600,20,20173,20173006600,1400000US20173006600,US DOD USAF MCCONNELL AFB,57830 PITTSBURG STE 120,MCCONNELL AFB,KS,67221,"US DOD USAF MCCONNELL AFB.57830 PITTSBURG STE 120, MCCONNELL AFB KANSAS 67221 (SEDGWICK)",0,F,,110064145394
67210BNGCN4615S,-97.28,37.609,False,20,173,006600,20,20173,20173006600,1400000US20173006600,BOEING DEFENSE SPACE & SECURITY WICHITA DIV,4615 S OLIVER M C K29-05,WICHITA,KS,67210,"BOEING DEFENSE SPACE & SECURITY WICHITA DIV.4615 S OLIVER M C K29-05, WICHITA KANSAS 67210 (SEDGWICK)",0,C,,110025404550
6721WMTKDV455SU,-97.291,37.61,False,20,173,006600,20,20173,20173006600,1400000US20173006600,AMETEK ADVANCE INDUSTRIES,4550 SE BLVD,WICHITA,KS,67210,"AMETEK ADVANCE INDUSTRIES.4550 SE BLVD, WICHITA KANSAS 67210 (SEDGWICK)",0,C,,110042002043
67226DLXCH9323E,-97.229,37.751999999999995,False,20,173,010802,20,20173,20173010802,1400000US20173010802,DELUXE CHECK PRINTERS INC,9323 E 37TH ST NE,WICHITA,KS,67226,"DELUXE CHECK PRINTERS INC.9323 E 37TH ST NE, WICHITA KANSAS 67226 (SEDGWICK)",0,C,,
67226CNTRY3550C,-97.23700000000001,37.749,False,20,173,010802,20,20173,20173010802,1400000US20173010802,CENTURY MFG INC,3550 COMOTARA,WICHITA,KS,67226,"CENTURY MFG INC.3550 COMOTARA, WICHITA KANSAS 67226 (SEDGWICK)",1,C,,
67226TTGSM3718N,-97.245,37.75,False,20,173,010802,20,20173,20173010802,1400000US20173010802,AT&T GIS MPD WICHITA,3718 N ROCK RD,WICHITA,KS,672261397,"AT&T GIS MPD WICHITA.3718 N ROCK RD, WICHITA KANSAS 67226 (SEDGWICK)",0,C,,
67226CNTRY975E5,-97.227,37.745,False,20,173,010802,20,20173,20173010802,1400000US20173010802,CENTURY MFG INC,9750 E 50TH ST N,BEL AIRE,KS,67226,"CENTURY MFG INC.9750 E 50TH ST N, BEL AIRE KANSAS 67226 (SEDGWICK)",0,C,,
67301HCKNY300HA,-95.736,37.227,False,20,125,950300,20,20125,20125950300,1400000US20125950300,VT HACKNEY INC,300 HACKNEY AVE,INDEPENDENCE,KS,67301,"VT HACKNEY INC.300 HACKNEY AVE, INDEPENDENCE KANSAS 67301 (MONTGOMERY)",0,C,,110000446731
67301MRSNL2400W,-95.73700000000001,37.226,False,20,125,950300,20,20125,20125950300,1400000US20125950300,MATCOR METAL FABRICATION INC,2400 W LAUREL,INDEPENDENCE,KS,67301,"MATCOR METAL FABRICATION INC.2400 W LAUREL, INDEPENDENCE KANSAS 67301 (MONTGOMERY)",0,C,,110000446759
67301TMTVC1300W,-95.723,37.236,False,20,125,950300,20,20125,20125950300,1400000US20125950300,STANDARD MOTOR PRODUCTS,1300 W OAK ST,INDEPENDENCE,KS,67301,"STANDARD MOTOR PRODUCTS.1300 W OAK ST, INDEPENDENCE KANSAS 67301 (MONTGOMERY)",0,C,,110015862137
67301FBRGL215EN,-95.73100000000001,37.231,False,20,125,950300,20,20125,20125950300,1400000US20125950300,COBALT BOATS LLC,2150 ENTERPRISE DR,INDEPENDENCE,KS,67301,"COBALT BOATS LLC.2150 ENTERPRISE DR, INDEPENDENCE KANSAS 67301 (MONTGOMERY)",0,C,,110024416336
67335CHRLMNHWY1,-95.557,37.277,False,20,125,950200,20,20125,20125950200,1400000US20125950200,FORTE PRODUCTS,727 N LIBERTY,CHERRYVALE,KS,67335,"FORTE PRODUCTS.727 N LIBERTY, CHERRYVALE KANSAS 67335 (MONTGOMERY)",0,C,,110012155274
67337CFFYV2410B,-95.618,37.016999999999996,False,20,125,950900,20,20125,20125950900,1400000US20125950900,COFFEYVILLE RECON INC,2410 BROWN ST,COFFEYVILLE,KS,67337,"COFFEYVILLE RECON INC.2410 BROWN ST, COFFEYVILLE KANSAS 67337 (MONTGOMERY)",1,C,,110000446786
67337FRMLNNORTH,-95.60600000000001,37.048,False,20,125,950900,20,20125,20125950900,1400000US20125950900,COFFEYVILLE RESOURCES REFINING & MARKETING,400 N LINDEN,COFFEYVILLE,KS,67337,"COFFEYVILLE RESOURCES REFINING & MARKETING.400 N LINDEN, COFFEYVILLE KANSAS 67337 (MONTGOMERY)",0,C,,110013703206
67337MRCNN3297N,-95.581,37.052,False,20,125,950900,20,20125,20125950900,1400000US20125950900,SOUTHWIRE CO COFFEYVILLE PLANT,3297 N HWY 169,COFFEYVILLE,KS,67337,"SOUTHWIRE CO COFFEYVILLE PLANT.3297 N HWY 169, COFFEYVILLE KANSAS 67337 (MONTGOMERY)",1,C,,110000748004
67337FRMLN701EN,-95.605,37.045,False,20,125,950900,20,20125,20125950900,1400000US20125950900,COFFEYVILLE RESOURCES NITROGEN FERTILIZERS LLC,701 E MARTIN ST -,COFFEYVILLE,KS,67337,"COFFEYVILLE RESOURCES NITROGEN FERTILIZERS LLC.701 E MARTIN ST -, COFFEYVILLE KANSAS 67337 (MONTGOMERY)",0,C,,110000579856
67337CMFND1502S,-95.62200000000001,37.027,False,20,125,951200,20,20125,20125951200,1400000US20125951200,ACME FOUNDRY INC,1502 SPRUCE ST,COFFEYVILLE,KS,67337,"ACME FOUNDRY INC.1502 SPRUCE ST, COFFEYVILLE KANSAS 67337 (MONTGOMERY)",0,C,,110000446795
67337MRRWF1115W,-95.632,37.032,False,20,125,951200,20,20125,20125951200,1400000US20125951200,MORROW FOUNDRY INC,1115 W 12TH ST,COFFEYVILLE,KS,67337,"MORROW FOUNDRY INC.1115 W 12TH ST, COFFEYVILLE KANSAS 67337 (MONTGOMERY)",0,C,,
67337JNSNM14THP,-95.62899999999999,37.029,False,20,125,951200,20,20125,20125951200,1400000US20125951200,SP FOUNDRY,14TH & PACIFIC ST,COFFEYVILLE,KS,67337,"SP FOUNDRY.14TH & PACIFIC ST, COFFEYVILLE KANSAS 67337 (MONTGOMERY)",0,C,,110000596695
67337SHRWN1700W,-95.64399999999999,37.041,False,20,125,950800,20,20125,20125950800,1400000US20125950800,SHERWIN-WILLIAMS CO,1700 W 4TH ST,COFFEYVILLE,KS,67337,"SHERWIN-WILLIAMS CO.1700 W 4TH ST, COFFEYVILLE KANSAS 67337 (MONTGOMERY)",0,C,,110000446802
67356CNSMN2300W,-95.13,37.167,False,20,099,950700,20,20099,20099950700,1400000US20099950700,DIAMOND COACH CORP,2300 W 4TH ST,OSWEGO,KS,67356,"DIAMOND COACH CORP.2300 W 4TH ST, OSWEGO KANSAS 67356 (LABETTE)",0,C,,
6735WBSSTN1257W,-95.12200000000001,37.169000000000004,False,20,099,950700,20,20099,20099950700,1400000US20099950700,TANK CONNECTION,12057 WEST HIGHWAY 59,OSWEGO,KS,67356,"TANK CONNECTION.12057 WEST HIGHWAY 59, OSWEGO KANSAS 67356 (LABETTE)",0,C,,110033116492
67357DYTNS1900W,-95.266,37.330999999999996,False,20,099,950200,20,20099,20099950200,1400000US20099950200,DAYTON SUPERIOR CORP,1900 WILSON AVE,PARSONS,KS,67357,"DAYTON SUPERIOR CORP.1900 WILSON AVE, PARSONS KANSAS 67357 (LABETTE)",0,C,,110000769188
67357SHRWD1915S,-95.264,37.326,False,20,099,950200,20,20099,20099950200,1400000US20099950200,SHERWOOD CABINETS INC,1915 SOUTHERN BLVD,PARSONS,KS,67357,"SHERWOOD CABINETS INC.1915 SOUTHERN BLVD, PARSONS KANSAS 67357 (LABETTE)",0,C,,
67357GRNDV1601S,-95.26899999999999,37.355,False,20,099,950100,20,20099,20099950100,1400000US20099950100,GRANDVIEW PRODUCTS,1601 SUPERIOR DR,PARSONS,KS,67357,"GRANDVIEW PRODUCTS.1601 SUPERIOR DR, PARSONS KANSAS 67357 (LABETTE)",0,C,,110000446820
67357RSKNM1700N,-95.26700000000001,37.357,False,20,099,950100,20,20099,20099950100,1400000US20099950100,RUSKIN CO,1700 N 21ST ST,PARSONS,KS,67357,"RUSKIN CO.1700 N 21ST ST, PARSONS KANSAS 67357 (LABETTE)",0,C,,110017607801
67357KNSSREASTM,-95.184,37.284,False,20,099,950500,20,20099,20099950500,1400000US20099950500,US ARMY KANSAS AMMUNITION PLANT - DAY & ZIMMERMAN INC,23018 ROOKS RD,PARSONS,KS,673578403,"US ARMY KANSAS AMMUNITION PLANT - DAY & ZIMMERMAN INC.23018 ROOKS RD, PARSONS KANSAS 67357 (LABETTE)",2,G,,
67357SRMYK23018,-95.184,37.284,False,20,099,950500,20,20099,20099950500,1400000US20099950500,US ARMY KANSAS ARMY AMMUNITION PLANT,23018 ROOKS RD,PARSONS,KS,673578403,"US ARMY KANSAS ARMY AMMUNITION PLANT.23018 ROOKS RD, PARSONS KANSAS 67357 (LABETTE)",2,F,,
67857NSHNR23652,-95.11200000000001,37.306,False,20,099,950500,20,20099,20099950500,1400000US20099950500,NEOSHO ENERGY CENTER,2365 22000 RD,PARSONS,KS,67357,"NEOSHO ENERGY CENTER.2365 22000 RD, PARSONS KANSAS 67357 (LABETTE)",0,C,,110008059885
67357PBDYT2101S,-95.27,37.319,False,20,099,950400,20,20099,20099950400,1400000US20099950400,COLUMBIAN TECTANK,2101 S 21ST ST,PARSONS,KS,673570996,"COLUMBIAN TECTANK.2101 S 21ST ST, PARSONS KANSAS 67357 (LABETTE)",0,C,,110011716848
67357PRSNS3333M,-95.289,37.34,False,20,099,950400,20,20099,20099950400,1400000US20099950400,DUCOMMUN AEROSTRUCTURES INC,3333 MAIN ST,PARSONS,KS,67357,"DUCOMMUN AEROSTRUCTURES INC.3333 MAIN ST, PARSONS KANSAS 67357 (LABETTE)",0,C,,110017375179
6735WTNKCN369NR,-95.26700000000001,37.321,False,20,099,950400,20,20099,20099950400,1400000US20099950400,TANK CONNECTION LLC,3609 NORTH 16TH STREET,PARSONS,KS,67357,"TANK CONNECTION LLC.3609 NORTH 16TH STREET, PARSONS KANSAS 67357 (LABETTE)",0,C,,110037064538
67401GRTPL1705D,-97.585,38.851,False,20,169,000100,20,20169,20169000100,1400000US20169000100,GREAT PLAINS MANUFACTURING CO INC FOUNDRY,1705 DEWEY,SALINA,KS,67401,"GREAT PLAINS MANUFACTURING CO INC FOUNDRY.1705 DEWEY, SALINA KANSAS 67401 (SALINE)",0,C,,
67401GRTPL1733D,-97.584,38.851,False,20,169,000100,20,20169,20169000100,1400000US20169000100,GREAT PLAINS MANUFACTURING INC SALINA 2,1733 DEWEY ST,SALINA,KS,67401,"GREAT PLAINS MANUFACTURING INC SALINA 2.1733 DEWEY ST, SALINA KANSAS 67401 (SALINE)",1,C,,110017497092
67401GRTPL601ID,-97.586,38.85,False,20,169,000100,20,20169,20169000100,1400000US20169000100,GREAT PLAINS MANUFACTURING INC SALINA COMPLEX,601 IDLEWILD PL,SALINA,KS,67401,"GREAT PLAINS MANUFACTURING INC SALINA COMPLEX.601 IDLEWILD PL, SALINA KANSAS 67401 (SALINE)",0,C,,110017497724
67401MCSHR1835E,-97.581,38.849000000000004,False,20,169,000100,20,20169,20169000100,1400000US20169000100,MCSHARES INC,1835 E NORTH ST,SALINA,KS,67401,"MCSHARES INC.1835 E NORTH ST, SALINA KANSAS 67401 (SALINE)",0,C,,110017497092
67401RMBKW625EN,-97.602,38.849000000000004,False,20,169,000100,20,20169,20169000100,1400000US20169000100,REMA BAKEWARE,625 E NORTH ST,SALINA,KS,67401,"REMA BAKEWARE.625 E NORTH ST, SALINA KANSAS 67401 (SALINE)",0,C,,
6740WWSTRN124NR,-97.60700000000001,38.849000000000004,False,20,169,000100,20,20169,20169000100,1400000US20169000100,WESTERN STAR MILL,124 NORTH 4TH STREET,SALINA,KS,674011400,"WESTERN STAR MILL.124 NORTH 4TH STREET, SALINA KANSAS 67401 (SALINE)",0,C,,110001243529
67402PCKNS500EF,-97.612,38.841,True,20,169,000100,20,20169,20169000100,1400000US20169000100,APAC KANSAS INC SHEARS ASPHALT PLANT 409,500 E FARRELLY RD,SALINA,KS,67402,"APAC KANSAS INC SHEARS ASPHALT PLANT 409 500 E FARRELLY RD, SALINA, KS, 67402",0,C,,
67401GRTPL244NO,-97.455,38.786,False,20,169,001200,20,20169,20169001200,1400000US20169001200,GREAT PLAINS MANUFACTURING INC KIPP,244 N HUGH ST,SALINA,KS,67401,"GREAT PLAINS MANUFACTURING INC KIPP.244 N HUGH ST, SALINA KANSAS 67401 (SALINE)",0,C,,110000769197
67401PHLPS3861S,-97.613,38.765,False,20,169,001200,20,20169,20169001200,1400000US20169001200,SIGNIFY NA CORP,3861 S 9TH ST,SALINA,KS,67401,"SIGNIFY NA CORP.3861 S 9TH ST, SALINA KANSAS 67401 (SALINE)",0,C,,110000446884
67401XDBTT413EB,-97.60600000000001,38.774,False,20,169,001200,20,20169,20169001200,1400000US20169001200,EXIDE TECHNOLOGIES,413 E BERG ROAD,SALINA,KS,67401,"EXIDE TECHNOLOGIES.413 E BERG ROAD, SALINA KANSAS 67401 (SALINE)",0,C,,110000446900
67416GRTPL108NO,-97.604,38.681,False,20,169,001200,20,20169,20169001200,1400000US20169001200,GREAT PLAINS MANUFACTURING CO INC,108 N 2ND ST,ASSARIA,KS,67416,"GREAT PLAINS MANUFACTURING CO INC.108 N 2ND ST, ASSARIA KANSAS 67416 (SALINE)",0,C,,
67401LDRDM304AV,-97.611,38.777,False,20,169,001200,20,20169,20169001200,1400000US20169001200,ELDORADO NATIONAL,304 AVE B,SALINA,KS,67401,"ELDORADO NATIONAL.304 AVE B, SALINA KANSAS 67401 (SALINE)",0,C,,
67401CRSTW353EA,-97.60799999999999,38.779,False,20,169,001200,20,20169,20169001200,1400000US20169001200,CRESTWOOD INC,353 E AVE A,SALINA,KS,67401,"CRESTWOOD INC.353 E AVE A, SALINA KANSAS 67401 (SALINE)",0,C,,
67401CRSTW601EA,-97.602,38.769,False,20,169,001200,20,20169,20169001200,1400000US20169001200,CRESTWOOD INC,601 E WATER WELL RD,SALINA,KS,67401,"CRESTWOOD INC.601 E WATER WELL RD, SALINA KANSAS 67401 (SALINE)",0,C,,110017561404
67401SRFRC8429W,-97.79,38.754,False,20,169,001200,20,20169,20169001200,1400000US20169001200,"U.S. DOD, USAF, SMOKY HILL ANG RANGE DET 1 184 IW KANSAS",8429 W FARRELLY RD,SALINA,KS,67401,"U.S. DOD, USAF, SMOKY HILL ANG RANGE DET 1 184 IW KANSAS.8429 W FARRELLY RD, SALINA KANSAS 67401 (SALINE)",0,F,,110015308601
67401HLDYM2328H,-97.639,38.799,False,20,169,000600,20,20169,20169000600,1400000US20169000600,HOLIDAY MANSION,2328 HEIN RD,SALINA,KS,67401,"HOLIDAY MANSION.2328 HEIN RD, SALINA KANSAS 67401 (SALINE)",0,C,,
67401TNYSP3019S,-97.63600000000001,38.784,False,20,169,000600,20,20169,20169000600,1400000US20169000600,SCHWAN'S GLOBAL SUPPLY CHAIN-SALINA KS,3019 SCANLAN,SALINA,KS,67401,"SCHWAN'S GLOBAL SUPPLY CHAIN-SALINA KS.3019 SCANLAN, SALINA KANSAS 67401 (SALINE)",0,C,,110000446893
67401RYTHN2656S,-97.63600000000001,38.792,False,20,169,000600,20,20169,20169000600,1400000US20169000600,RAYTHEON AIRCRAFT CO  SALINA DIV,2656 SCALAN AVE,SALINA,KS,67401,"RAYTHEON AIRCRAFT CO  SALINA DIV.2656 SCALAN AVE, SALINA KANSAS 67401 (SALINE)",0,C,,110011726374
67401LDRDN1655W,-97.635,38.775,False,20,169,000600,20,20169,20169000600,1400000US20169000600,ELDORADO NATIONAL,1655 WALL ST,SALINA,KS,67401,"ELDORADO NATIONAL.1655 WALL ST, SALINA KANSAS 67401 (SALINE)",0,C,,110003213157
67401SLNVR3024A,-97.64,38.782,False,20,169,000600,20,20169,20169000600,1400000US20169000600,SALINA VORTEX CORP,3024 ARNOLD AVE,SALINA,KS,67401,"SALINA VORTEX CORP.3024 ARNOLD AVE, SALINA KANSAS 67401 (SALINE)",0,C,,110012703903
67401SLNVR1725V,-97.633,38.771,False,20,169,000600,20,20169,20169000600,1400000US20169000600,SALINA VORTEX CORP,1725 VORTEX AVE,SALINA,KS,67401,"SALINA VORTEX CORP.1725 VORTEX AVE, SALINA KANSAS 67401 (SALINE)",0,C,,110056316188
6740WBLDRS261CE,-97.634,38.793,False,20,169,000600,20,20169,20169000600,1400000US20169000600,BUILDER'S CHOICE CONCRETE - SALINA,2601 CENTENNIAL ROAD,SALINA,KS,67401,"BUILDER'S CHOICE CONCRETE - SALINA.2601 CENTENNIAL ROAD, SALINA KANSAS 67401 (SALINE)",0,C,,110017465152
67401PWRVC500GR,-97.63600000000001,38.832,False,20,169,000300,20,20169,20169000300,1400000US20169000300,POWER VAC INC,508 GRAVES BLVD,SALINA,KS,67401,"POWER VAC INC.508 GRAVES BLVD, SALINA KANSAS 67401 (SALINE)",0,C,,110000769204
6740WSLNCN11WAS,-97.62200000000001,38.843,False,20,169,000300,20,20169,20169000300,1400000US20169000300,SALINA CONCRETE PRODUCTS INC,1100 W ASH ST,SALINA,KS,67401,"SALINA CONCRETE PRODUCTS INC.1100 W ASH ST, SALINA KANSAS 67401 (SALINE)",0,C,,110017547617
67401XLNNC3256E,-97.551,38.841,False,20,169,001100,20,20169,20169001100,1400000US20169001100,EXLINE INC,3256 EAST COUNTRY CLUB RD,SALINA,KS,67401,"EXLINE INC.3256 EAST COUNTRY CLUB RD, SALINA KANSAS 67401 (SALINE)",0,C,,
67410CNTRL1000N,-97.23299999999999,38.925,False,20,041,084300,20,20041,20041084300,1400000US20041084300,ADM ANIMAL NUTRITION,1000 N WASHINGTON ST,ABILENE,KS,67410,"ADM ANIMAL NUTRITION.1000 N WASHINGTON ST, ABILENE KANSAS 67410 (DICKINSON)",0,C,,110000446919
67410GRTPL1100N,-97.229,38.923,False,20,041,084300,20,20041,20041084300,1400000US20041084300,GREAT PLAINS MANUFACTURING INC ABILENE,1100 N.W. 8TH ST.,ABILENE,KS,67410,"GREAT PLAINS MANUFACTURING INC ABILENE.1100 N.W. 8TH ST., ABILENE KANSAS 67410 (DICKINSON)",0,C,,110017497083
67410RSSLL1993C,-97.256,38.93,False,20,041,084300,20,20041,20041084300,1400000US20041084300,RUSSELL STOVER CANDIES-ABILENE,1993 CARAMEL BLVD,ABILENE,KS,67410,"RUSSELL STOVER CANDIES-ABILENE.1993 CARAMEL BLVD, ABILENE KANSAS 67410 (DICKINSON)",0,C,,
67420SNFLWNO1SU,-98.088,39.459,False,20,123,176600,20,20123,20123176600,1400000US20123176600,AGCO CORP - BELOIT LOCATION,3154 US HIGHWAY 24 - PO BOX 566,BELOIT,KS,67420,"AGCO CORP - BELOIT LOCATION.3154 US HIGHWAY 24 - PO BOX 566, BELOIT KANSAS 67420 (MITCHELL)",0,C,,110064129633
67420FRMWYEHIWA,-98.10799999999999,39.463,False,20,123,176600,20,20123,20123176600,1400000US20123176600,HUBBARD FEEDS INC BELOIT KS,3154 E US HWY 24,BELOIT,KS,67420,"HUBBARD FEEDS INC BELOIT KS.3154 E US HWY 24, BELOIT KANSAS 67420 (MITCHELL)",0,C,,110008059572
67420PRTBL2MISO,-98.106,39.457,True,20,123,176600,20,20123,20123176600,1400000US20123176600,PORTABLE ASPHALT APAC-KANSAS INC SHEARS PLANT NO 400,2 MI S OF BELOIT KS E OF HWY K-14,BELOIT,KS,67420,"PORTABLE ASPHALT APAC-KANSAS INC SHEARS PLANT NO 400 2 MI S OF BELOIT KS E OF HWY K-14, BELOIT, KS, 67420",0,C,,
67432HTCHN514WC,-97.126,39.38,False,20,027,458200,20,20027,20027458200,1400000US20027458200,HUTCHINSON/MAYRATH,514 W CRAWFORD ST,CLAY CENTER,KS,67432,"HUTCHINSON/MAYRATH.514 W CRAWFORD ST, CLAY CENTER KANSAS 67432 (CLAY)",0,C,,
67432FRTHP4THPO,-97.12799999999999,39.371,False,20,027,458200,20,20027,20027458200,1400000US20027458200,FOURTH & POMEROY ASSOCIATES INC,105 4TH ST,CLAY CENTER,KS,67432,"FOURTH & POMEROY ASSOCIATES INC.105 4TH ST, CLAY CENTER KANSAS 67432 (CLAY)",0,C,,
67432PRTBL14MIL,-97.125,39.377,True,20,027,458200,20,20027,20027458200,1400000US20027458200,PORTABLE ASPHALT APAC-KANSAS INC SHEARS PLANT NO 411,14 MILE S OF CLAY CENTER KS ON HWY 15,CLAY CENTER,KS,67432,"PORTABLE ASPHALT APAC-KANSAS INC SHEARS PLANT NO 411 14 MILE S OF CLAY CENTER KS ON HWY 15, CLAY CENTER, KS, 67432",0,C,,
67439CSHCNHWY14,-98.235,38.74,False,20,053,086700,20,20053,20053086700,1400000US20053086700,CASHCO INC,607 W 15TH,ELLSWORTH,KS,67439,"CASHCO INC.607 W 15TH, ELLSWORTH KANSAS 67439 (ELLSWORTH)",0,C,,110000446955
67490GRGSC17THM,-98.47200000000001,38.827,False,20,053,086700,20,20167,20053086700,1400000US20053086700,GEORGE ESCHBAUGH ADVERTISING INC,17TH & M ST,WILSON,KS,67490,"GEORGE ESCHBAUGH ADVERTISING INC.17TH & M ST, WILSON KANSAS 67490 (RUSSELL)",0,C,,
67439CNTRY1706A,-98.219,38.743,False,20,053,086700,20,20053,20053086700,1400000US20053086700,CENTURY MANUFACTURING INC,1706 AYLWARD AVE,ELLSWORTH,KS,67439,"CENTURY MANUFACTURING INC.1706 AYLWARD AVE, ELLSWORTH KANSAS 67439 (ELLSWORTH)",0,C,,
6743WGRTPL91E8T,-98.21799999999999,38.731,False,20,053,086700,20,20053,20053086700,1400000US20053086700,GREAT PLAINS MANUFACTURING INC ELLSWORTH,910 E 8TH ST,ELLSWORTH,KS,67439,"GREAT PLAINS MANUFACTURING INC ELLSWORTH.910 E 8TH ST, ELLSWORTH KANSAS 67439 (ELLSWORTH)",0,C,,110037189592
67454CMBRCOHIOS,-98.149,38.711,False,20,053,086600,20,20053,20053086600,1400000US20053086600,ACME BRICK CO KANOPOLIS,1915 AVE L,KANOPOLIS,KS,67454,"ACME BRICK CO KANOPOLIS.1915 AVE L, KANOPOLIS KANSAS 67454 (ELLSWORTH)",0,C,,110017529584
67460MNVLLCOUNT,-97.61200000000001,38.388000000000005,False,20,113,788400,20,20113,20113788400,1400000US20113788400,JOHNS MANVILLE,1465 17TH AVE,MCPHERSON,KS,67460,"JOHNS MANVILLE.1465 17TH AVE, MCPHERSON KANSAS 67460 (MCPHERSON)",0,C,,110000447017
67460STRLN1776N,-97.63,38.389,False,20,113,788400,20,20113,20113788400,1400000US20113788400,HOSPIRA INC,1776 N CENTENNIAL DR,MC PHERSON,KS,67460,"HOSPIRA INC.1776 N CENTENNIAL DR, MC PHERSON KANSAS 67460 (MCPHERSON)",0,C,,
67460CRTNT500WE,-97.67200000000001,38.376999999999995,False,20,113,788400,20,20113,20113788400,1400000US20113788400,CERTAINTEED CORP,500 W FIRST ST,MC PHERSON,KS,67460,"CERTAINTEED CORP.500 W FIRST ST, MC PHERSON KANSAS 67460 (MCPHERSON)",0,C,,110000446982
67460NTNLC2000M,-97.67399999999999,38.347,False,20,113,788600,20,20113,20113788600,1400000US20113788600,CHS MCPHERSON REFINERY,2000 S MAIN ST,MCPHERSON,KS,67460,"CHS MCPHERSON REFINERY.2000 S MAIN ST, MCPHERSON KANSAS 67460 (MCPHERSON)",0,C,,110016678969
67460FMCNC500NO,-97.685,38.365,False,20,113,788600,20,20113,20113788600,1400000US20113788600,FEMCO INC,500 NORTH 81 BYPASS,MC PHERSON,KS,67460,"FEMCO INC.500 NORTH 81 BYPASS, MC PHERSON KANSAS 67460 (MCPHERSON)",0,C,,
67460CRGLL1STBA,-97.63600000000001,38.376999999999995,False,20,113,788600,20,20113,20113788600,1400000US20113788600,CARGILL FEED & NUTRITION MCPHERSON,2025 E 1ST ST,MCPHERSON,KS,67460,"CARGILL FEED & NUTRITION MCPHERSON.2025 E 1ST ST, MCPHERSON KANSAS 67460 (MCPHERSON)",0,C,,110017481385
67460SPRTC1132W,-97.682,38.376999999999995,False,20,113,788600,20,20113,20113788600,1400000US20113788600,SPARTECH PLASTICS INC,1132 W FIRST ST,MC PHERSON,KS,67460,"SPARTECH PLASTICS INC.1132 W FIRST ST, MC PHERSON KANSAS 67460 (MCPHERSON)",0,C,,
67460KCHNC1144W,-97.684,38.357,False,20,113,788600,20,20113,20113788600,1400000US20113788600,NATION PIZZA PRODUCTS,1144 W BRIDGER CT,MC PHERSON,KS,67460,"NATION PIZZA PRODUCTS.1144 W BRIDGER CT, MC PHERSON KANSAS 67460 (MCPHERSON)",0,C,,110000446991
6746WCHRMP115WW,-97.679,38.374,False,20,113,788600,20,20113,20113788600,1400000US20113788600,"CHROME PLUS INTERNATIONA, INC",1015 W WOODSIDE,MCPHERSON,KS,67460,"CHROME PLUS INTERNATIONA, INC.1015 W WOODSIDE, MCPHERSON KANSAS 67460 (MCPHERSON)",0,C,,110001307274
6746WCRTNT873NH,-97.676,38.378,False,20,113,788600,20,20113,20113788600,1400000US20113788600,CERTAINTEED CORP,873 N HICKORY ST,MCPHERSON,KS,67460,"CERTAINTEED CORP.873 N HICKORY ST, MCPHERSON KANSAS 67460 (MCPHERSON)",0,C,,110003144909
67473SBRNN120NO,-98.68700000000001,39.44,False,20,141,474100,20,20141,20141474100,1400000US20141474100,OSBORNE INDUSTRIES INC,120 N INDUSTRIAL AVE,OSBORNE,KS,67473,"OSBORNE INDUSTRIES INC.120 N INDUSTRIAL AVE, OSBORNE KANSAS 67473 (OSBORNE)",0,C,,110000447035
67480SLMNC103WM,-97.37200000000001,38.916,False,20,041,084200,20,20041,20041084200,1400000US20041084200,SOLOMON CORP,103 W MAIN ST,SOLOMON,KS,67480,"SOLOMON CORP.103 W MAIN ST, SOLOMON KANSAS 67480 (DICKINSON)",0,C,,110000447044
67501CRGLL609EA,-97.919,38.043,False,20,155,000800,20,20155,20155000800,1400000US20155000800,CARGILL INC  SALT DIV,609 EAST  AVE  G,HUTCHINSON,KS,67501,"CARGILL INC  SALT DIV.609 EAST  AVE  G, HUTCHINSON KANSAS 67501 (RENO)",0,C,,
67501LCHPR1430W,-97.958,38.056999999999995,False,20,155,000800,20,20155,20155000800,1400000US20155000800,LEECH PRODUCTS INC.,1430 W FOURTH ST,HUTCHINSON,KS,67501,"LEECH PRODUCTS INC..1430 W FOURTH ST, HUTCHINSON KANSAS 67501 (RENO)",0,C,,110000447080
67504MGMNF401SW,-97.93299999999999,38.046,False,20,155,000800,20,20155,20155000800,1400000US20155000800,MEGA MANUFACTURING INC,401 S WASHINGTON,HUTCHINSON,KS,67504,"MEGA MANUFACTURING INC.401 S WASHINGTON, HUTCHINSON KANSAS 67504 (RENO)",0,C,,
67504NVLCN401SA,-97.935,38.046,False,20,155,000800,20,20155,20155000800,1400000US20155000800,INVALCO INC,401 S ADAMS,HUTCHINSON,KS,675041183,"INVALCO INC.401 S ADAMS, HUTCHINSON KANSAS 67504 (RENO)",1,C,,
67501CRYSL1800C,-97.898,38.049,False,20,155,001000,20,20155,20155001000,1400000US20155001000,IMC SALT,1800 CAREY BLVD,HUTCHINSON,KS,67501,"IMC SALT.1800 CAREY BLVD, HUTCHINSON KANSAS 67501 (RENO)",1,C,,
6750WCNCRT243E1,-97.887,38.054,False,20,155,001000,20,20155,20155001000,1400000US20155001000,CONCRETE ENTERPRISES,2430 E 1ST AVE,HUTCHINSON,KS,67501,"CONCRETE ENTERPRISES.2430 E 1ST AVE, HUTCHINSON KANSAS 67501 (RENO)",0,C,,110001383351
67501KRSPL305SM,-97.941,38.047,False,20,155,000600,20,20155,20155000600,1400000US20155000600,KUHN KRAUSE INC,305 S MONROE,HUTCHINSON,KS,67501,"KUHN KRAUSE INC.305 S MONROE, HUTCHINSON KANSAS 67501 (RENO)",0,C,,110011222998
67505DSKCL9NORT,-97.93299999999999,38.052,False,20,155,000600,20,20155,20155000600,1400000US20155000600,TYSON PREPARED FOODS-SOUTH H UTCHINSON KS,9 N WASHINGTON,SOUTH HUTCHINSON,KS,67505,"TYSON PREPARED FOODS-SOUTH H UTCHINSON KS.9 N WASHINGTON, SOUTH HUTCHINSON KANSAS 67505 (RENO)",0,C,,110000447142
67501LWNCR1501N,-97.885,38.034,False,20,155,001400,20,20155,20155001400,1400000US20155001400,LOWEN CORPORATION HALSTEAD PLANT,1501 N HALSTEAD STREET,HUTCHINSON,KS,67501,"LOWEN CORPORATION HALSTEAD PLANT.1501 N HALSTEAD STREET, HUTCHINSON KANSAS 67501 (RENO)",0,C,,
67504CLNSMPOBOX,-97.899,37.929,False,20,155,001400,20,20155,20155001400,1400000US20155001400,WHEELED COACH INDUSTRIES,1619 ESSEX RD,HUTCHINSON,KS,67501,"WHEELED COACH INDUSTRIES.1619 ESSEX RD, HUTCHINSON KANSAS 67501 (RENO)",0,C,,
67543HVNST13206,-97.79299999999999,37.903,False,20,155,001400,20,20155,20155001400,1400000US20155001400,HAVEN STEEL PRODUCTS INC,13206 S WILLISON RD,HAVEN,KS,67543,"HAVEN STEEL PRODUCTS INC.13206 S WILLISON RD, HAVEN KANSAS 67543 (RENO)",0,C,,110000447188
67501WHLDC171ES,-97.898,37.93,False,20,155,001400,20,20155,20155001400,1400000US20155001400,WHEELED COACH INDUSTRIES,1701 ESSEX RD,HUTCHINSON,KS,67501,"WHEELED COACH INDUSTRIES.1701 ESSEX RD, HUTCHINSON KANSAS 67501 (RENO)",0,C,,110016951020
6750WSMNSNCMMER,-97.882,38.038000000000004,False,20,155,001400,20,20155,20155001400,1400000US20155001400,SIEMENS GAMESA RENEWABLE ENERGY INC,1000 COMMERCE ST,HUTCHINSON,KS,67501,"SIEMENS GAMESA RENEWABLE ENERGY INC.1000 COMMERCE ST, HUTCHINSON KANSAS 67501 (RENO)",0,C,,110038131973
67504RPBLCFIRST,-97.885,38.054,False,20,155,001100,20,20155,20155001100,1400000US20155001100,SONOCO - HUTCHINSON LLC,100 N. HALSTEAD ST.,HUTCHINSON,KS,67501,"SONOCO - HUTCHINSON LLC.100 N. HALSTEAD ST., HUTCHINSON KANSAS 67501 (RENO)",0,C,,110002076413
67501JCKSN2600E,-97.884,38.058,False,20,155,001100,20,20155,20155001100,1400000US20155001100,JACKSON DAIRY,2600 E 4TH AVE,HUTCHINSON,KS,67501,"JACKSON DAIRY.2600 E 4TH AVE, HUTCHINSON KANSAS 67501 (RENO)",0,C,,110000545045
67504CSSNFEAST4,-97.869,38.058,False,20,155,001100,20,20155,20155001100,1400000US20155001100,EATON CORP HYDRAULICS DIV,3401 E 4TH AVE,HUTCHINSON,KS,67501,"EATON CORP HYDRAULICS DIV.3401 E 4TH AVE, HUTCHINSON KANSAS 67501 (RENO)",0,C,,110000447115
67501CNSLD1600N,-97.885,38.07,False,20,155,001100,20,20155,20155001100,1400000US20155001100,CONSOLIDATED MANUFACTURING INC,1600 N HALSTEAD ST,HUTCHINSON,KS,67501,"CONSOLIDATED MANUFACTURING INC.1600 N HALSTEAD ST, HUTCHINSON KANSAS 67501 (RENO)",0,C,,
67501LWNCR2512E,-97.88,38.07,False,20,155,001100,20,20155,20155001100,1400000US20155001100,LOWNE CORP 14TH ST PLANT,2512 E 14TH ST,HUTCHINSON,KS,67501,"LOWNE CORP 14TH ST PLANT.2512 E 14TH ST, HUTCHINSON KANSAS 67501 (RENO)",0,C,,110000447099
67501RNTCH3310E,-97.87200000000001,38.058,False,20,155,001100,20,20155,20155001100,1400000US20155001100,RENO TECHNOLOGY,3310 E 4TH,HUTCHINSON,KS,67501,"RENO TECHNOLOGY.3310 E 4TH, HUTCHINSON KANSAS 67501 (RENO)",0,C,,
67504HTCHNE30K1,-97.87299999999999,38.091,False,20,155,001100,20,20155,20155001100,1400000US20155001100,HUTCHINSON ENERGY CENTER,E 30 & K-16 HWY,HUTCHINSON,KS,67504,"HUTCHINSON ENERGY CENTER.E 30 & K-16 HWY, HUTCHINSON KANSAS 67504 (RENO)",0,C,,110001964740
67504TSWPR715CR,-97.874,38.06,False,20,155,001100,20,20155,20155001100,1400000US20155001100,TAKAKO AMERICA CO INC,715 COREY RD,HUTCHINSON,KS,67501,"TAKAKO AMERICA CO INC.715 COREY RD, HUTCHINSON KANSAS 67501 (RENO)",0,C,,110003141074
67501LWNCR1111N,-97.87,38.067,False,20,155,001100,20,20155,20155001100,1400000US20155001100,LOWEN CORP - AIRPORT ROAD PLANT,1111 N AIRPORT RD,HUTCHINSON,KS,67501,"LOWEN CORP - AIRPORT ROAD PLANT.1111 N AIRPORT RD, HUTCHINSON KANSAS 67501 (RENO)",0,C,,110031387862
67505MRTNS1000M,-97.95200000000001,38.04,False,20,155,001300,20,20155,20155001300,1400000US20155001300,MORTON INTERNATIONAL INC MORTON SALT DIV,1000 MORTON RD,SOUTH HUTCHINSON,KS,67505,"MORTON INTERNATIONAL INC MORTON SALT DIV.1000 MORTON RD, SOUTH HUTCHINSON KANSAS 67505 (RENO)",0,C,,
67505CLLNS415WE,-97.948,38.035,False,20,155,001300,20,20155,20155001300,1400000US20155001300,COLLINS BUS CORP,415 W 6TH ST,SOUTH HUTCHINSON,KS,67505,"COLLINS BUS CORP.415 W 6TH ST, SOUTH HUTCHINSON KANSAS 67505 (RENO)",0,C,,110000447133
67504RNTCH10NWA,-97.94200000000001,38.029,False,20,155,001300,20,20155,20155001300,1400000US20155001300,RENO TECHNOLOGY,10 N WASHINGTON,SOUTH HUTCHINSON,KS,67504,"RENO TECHNOLOGY.10 N WASHINGTON, SOUTH HUTCHINSON KANSAS 67504 (RENO)",0,C,,
67505RCHPN14MOR,-97.941,38.04,False,20,155,001300,20,20155,20155001300,1400000US20155001300,RICH PAINT MANUFACTURING,14 MORTON DR,SOUTH HUTCHINSON,KS,67505,"RICH PAINT MANUFACTURING.14 MORTON DR, SOUTH HUTCHINSON KANSAS 67505 (RENO)",0,C,,
67522CLMNF110SO,-97.77,38.131,False,20,155,001500,20,20155,20155001500,1400000US20155001500,CAL-MAINE FOODS INC,110 S E ST,BUHLER,KS,67522,"CAL-MAINE FOODS INC.110 S E ST, BUHLER KANSAS 67522 (RENO)",0,C,,
67522DMMLL125SM,-97.771,38.135,False,20,155,001500,20,20155,20155001500,1400000US20155001500,ADM MILLING CO,125 S MAIN,BUHLER,KS,67522,"ADM MILLING CO.125 S MAIN, BUHLER KANSAS 67522 (RENO)",0,C,,
67502DWFCS83MED,-97.85,38.143,False,20,155,001500,20,20155,20155001500,1400000US20155001500,ADE-WIFCO STEEL PRODUCTS INC,8003 MEDORA RD,HUTCHINSON,KS,67502,"ADE-WIFCO STEEL PRODUCTS INC.8003 MEDORA RD, HUTCHINSON KANSAS 67502 (RENO)",0,C,,110030556306
67530GRTBNSOUTH,-98.76899999999999,38.347,False,20,009,971800,20,20009,20009971800,1400000US20009971800,JOHN MORRELL GREAT BEND,30 SE 10 RD,GREAT BEND,KS,67530,"JOHN MORRELL GREAT BEND.30 SE 10 RD, GREAT BEND KANSAS 67530 (BARTON)",0,C,,110017497573
67530PTRLT5801W,-98.814,38.361999999999995,False,20,009,971800,20,20009,20009971800,1400000US20009971800,PETROLITE CORP GREAT BEND BLEND PLANT,5801 W 10TH,GREAT BEND,KS,67530,"PETROLITE CORP GREAT BEND BLEND PLANT.5801 W 10TH, GREAT BEND KANSAS 67530 (BARTON)",0,C,,
67530THFLLWESTP,-98.851,38.358000000000004,False,20,009,971800,20,20009,20009971800,1400000US20009971800,FULLER INDUSTRIES LLC,ONE FULLER WAY,GREAT BEND,KS,67530,"FULLER INDUSTRIES LLC.ONE FULLER WAY, GREAT BEND KANSAS 67530 (BARTON)",0,C,,110011247711
67530SFLDN470CA,-98.852,38.344,False,20,009,971800,20,20009,20009971800,1400000US20009971800,MCDONALD TANK & EQUIPMENT CO INC,"470 C AVE, WESTPORT ADDITION",GREAT BEND,KS,67530,"MCDONALD TANK & EQUIPMENT CO INC.470 C AVE, WESTPORT ADDITION, GREAT BEND KANSAS 67530 (BARTON)",0,C,,110000447160
67530GRTBNRT1BO,-98.85,38.347,False,20,009,971800,20,20009,20009971800,1400000US20009971800,HAMPTON HYDRAULICS LLC (GREAT BEND INDUSTRIES),8701 6TH ST,GREAT BEND,KS,67530,"HAMPTON HYDRAULICS LLC (GREAT BEND INDUSTRIES).8701 6TH ST, GREAT BEND KANSAS 67530 (BARTON)",0,C,,110011247720
67530KMWLT198NH,-98.765,38.355,False,20,009,971800,20,20009,20009971800,1400000US20009971800,KMW LTD,198 N HWY 281,GREAT BEND,KS,67530,"KMW LTD.198 N HWY 281, GREAT BEND KANSAS 67530 (BARTON)",0,C,,110025333798
67530RCNGN1020H,-98.79899999999999,38.365,False,20,009,971500,20,20009,20009971500,1400000US20009971500,RICE ENGINEERING CORP,E HWY 56,GREAT BEND,KS,67530,"RICE ENGINEERING CORP.E HWY 56, GREAT BEND KANSAS 67530 (BARTON)",0,C,,
6753WDNNSP36NEH,-98.811,38.349000000000004,False,20,009,971500,20,20009,20009971500,1400000US20009971500,DOONAN SPECIALIZED TRAILER LLC,36 NE HWY 156 BUILDING B,GREAT BEND,KS,67530,"DOONAN SPECIALIZED TRAILER LLC.36 NE HWY 156 BUILDING B, GREAT BEND KANSAS 67530 (BARTON)",0,C,,110008352086
67544SSXGRRR1XX,-98.759,38.522,False,20,009,971300,20,20009,20009971300,1400000US20009971300,SUPERIOR ESSEX INTERNATIONAL LP,75 E STATE RD #4,HOISINGTON,KS,67544,"SUPERIOR ESSEX INTERNATIONAL LP.75 E STATE RD #4, HOISINGTON KANSAS 67544 (BARTON)",0,C,,110059458723
67545STFFRCHURC,-98.65899999999999,38.106,False,20,185,470600,20,20185,20185470600,1400000US20185470600,STAFFORD COUNTY FLOUR MILLS CO,CHURCH ST,HUDSON,KS,67545,"STAFFORD COUNTY FLOUR MILLS CO.CHURCH ST, HUDSON KANSAS 67545 (STAFFORD)",0,C,,
67554NRTHMAMERI,-98.191,38.329,False,20,159,967200,20,20159,20159967200,1400000US20159967200,COMPASS MINERALS AMERICA INC,1662 AVE N,LYONS,KS,67554,"COMPASS MINERALS AMERICA INC.1662 AVE N, LYONS KANSAS 67554 (RICE)",0,C,,110022447066
67565KNSSRWESTH,-99.065,38.538000000000004,False,20,165,972200,20,20165,20165972200,1400000US20165972200,KANSAS REFINED HELIUM CO,W HWY 4,OTIS,KS,67565,"KANSAS REFINED HELIUM CO.W HWY 4, OTIS KANSAS 67565 (RUSH)",0,C,,
67575KBKNDEASTH,-99.306,38.466,False,20,165,972100,20,20165,20165972100,1400000US20165972100,KBK INDUSTRIES LLC,2698 HIGHWAY 96,RUSH CENTER,KS,67575,"KBK INDUSTRIES LLC.2698 HIGHWAY 96, RUSH CENTER KANSAS 67575 (RUSH)",0,C,,110022440722
6757WKBKND1914U,-99.309,38.482,False,20,165,972100,20,20165,20165972100,1400000US20165972100,KBK INDUSTRIES LLC,1914 US-183,RUSH CENTER,KS,67575,"KBK INDUSTRIES LLC.1914 US-183, RUSH CENTER KANSAS 67575 (RUSH)",0,C,,
67661FRMLNNORTH,-99.33200000000001,39.774,False,20,147,475300,20,20147,20147475300,1400000US20147475300,COFFEYVILLE RESOURCES TERMINAL  LLC,1589 HWY 183,PHILLIPSBURG,KS,67661,"COFFEYVILLE RESOURCES TERMINAL  LLC.1589 HWY 183, PHILLIPSBURG KANSAS 67661 (PHILLIPS)",0,C,,110017517392
67661MNRLRNORTH,-99.334,39.772,False,20,147,475300,20,20147,20147475300,1400000US20147475300,MINERAL-RIGHT INC,NORTH PARK INDL PARK,PHILLIPSBURG,KS,676610427,"MINERAL-RIGHT INC.NORTH PARK INDL PARK, PHILLIPSBURG KANSAS 67661 (PHILLIPS)",0,C,,
67801FRMLN3MILE,-99.93,37.777,False,20,057,961800,20,20057,20057961800,1400000US20057961800,KOCH FERTILIZER DODGE CITY LLC,11559 US HWY 50,DODGE CITY,KS,67801,"KOCH FERTILIZER DODGE CITY LLC.11559 US HWY 50, DODGE CITY KANSAS 67801 (FORD)",0,C,,110021074317
67801KCHMT2600B,-99.978,37.748000000000005,False,20,057,961800,20,20057,20057961800,1400000US20057961800,ERGON ASPHALT & EMULSIONS INC - DODGE CITY,2600 BUTTER & EGG RD,DODGE CITY,KS,67801,"ERGON ASPHALT & EMULSIONS INC - DODGE CITY.2600 BUTTER & EGG RD, DODGE CITY KANSAS 67801 (FORD)",0,C,,110039508789
67801GRNPREHIGH,-99.99,37.751999999999995,False,20,057,962101,20,20057,20057962101,1400000US20057962101,ADM MILLING CO,1901 E WYATT EARP BLVD,DODGE CITY,KS,678010400,"ADM MILLING CO.1901 E WYATT EARP BLVD, DODGE CITY KANSAS 67801 (FORD)",0,C,,
67801KYPLN2000E,-99.985,37.748000000000005,False,20,057,962101,20,20057,20057962101,1400000US20057962101,NATIONAL BEEF PACKING CO LLC,2000 E TRAIL,DODGE CITY,KS,67801,"NATIONAL BEEF PACKING CO LLC.2000 E TRAIL, DODGE CITY KANSAS 67801 (FORD)",0,C,,110011457538
67801RFFNN2201E,-99.988,37.751999999999995,False,20,057,962101,20,20057,20057962101,1400000US20057962101,RUFFIN MICRONUTRIENTS,"2201 E WYATT EARP BLVD, PO BOX 940",DODGE CITY,KS,678010940,"RUFFIN MICRONUTRIENTS.2201 E WYATT EARP BLVD, PO BOX 940, DODGE CITY KANSAS 67801 (FORD)",1,C,,
67801RFFNN500ET,-100.022,37.751999999999995,False,20,057,962101,20,20057,20057962101,1400000US20057962101,RSA MICROTECH LLC,510 TRAIL ST,DODGE CITY,KS,67801,"RSA MICROTECH LLC.510 TRAIL ST, DODGE CITY KANSAS 67801 (FORD)",0,C,,110000447268
67801CRSTBFTDOD,-99.98299999999999,37.747,False,20,057,962101,20,20057,20057962101,1400000US20057962101,CRUST BUSTER / SPEED KING INC,FT  DODGE RD,DODGE CITY,KS,67801,"CRUST BUSTER / SPEED KING INC.FT  DODGE RD, DODGE CITY KANSAS 67801 (FORD)",0,C,,
67801WWMNF2400E,-99.98200000000001,37.747,False,20,057,962101,20,20057,20057962101,1400000US20057962101,W W MANUFACTURING CO INC,2400 E TRAIL,DODGE CITY,KS,67801,"W W MANUFACTURING CO INC.2400 E TRAIL, DODGE CITY KANSAS 67801 (FORD)",0,C,,
67801SFTYK600ET,-100.015,37.751,False,20,057,962101,20,20057,20057962101,1400000US20057962101,SAFETY-KLEEN SYS (619521),600 E TRAIL,DODGE CITY,KS,67801,"SAFETY-KLEEN SYS (619521).600 E TRAIL, DODGE CITY KANSAS 67801 (FORD)",0,C,,
6780WDDGCT115EW,-100.00200000000001,37.751999999999995,False,20,057,962101,20,20057,20057962101,1400000US20057962101,DODGE CITY CONCRETE,1105 E WYATT EARP BLVD,DODGE CITY,KS,67801,"DODGE CITY CONCRETE.1105 E WYATT EARP BLVD, DODGE CITY KANSAS 67801 (FORD)",0,C,,110001375672
67801XCLCREHIGH,-99.956,37.736,False,20,057,962102,20,20057,20057962102,1400000US20057962102,CARGILL MEAT SOLUTIONS CORP,3201 E HWY 154,DODGE CITY,KS,67801,"CARGILL MEAT SOLUTIONS CORP.3201 E HWY 154, DODGE CITY KANSAS 67801 (FORD)",0,C,,110011879057
67846FRRBT3680W,-100.929,37.989000000000004,False,20,055,960600,20,20055,20055960600,1400000US20055960600,CARGILL ANIMAL NUTRITION,3680 W JONES AVE,GARDEN CITY,KS,67846,"CARGILL ANIMAL NUTRITION.3680 W JONES AVE, GARDEN CITY KANSAS 67846 (FINNEY)",1,C,,110010330891
67846FBRCR2814W,-100.912,37.986999999999995,False,20,055,960600,20,20055,20055960600,1400000US20055960600,PALMER MANUFACTURING & TANK,2814 W JONES AVE,GARDEN CITY,KS,67846,"PALMER MANUFACTURING & TANK.2814 W JONES AVE, GARDEN CITY KANSAS 67846 (FINNEY)",0,C,,110015326128
67846HPLNS165NS,-100.939,37.98,False,20,055,960600,20,20055,20055960600,1400000US20055960600,HI PLAINS FEED LLC,1650 N SHERLOCK RD.,GARDEN CITY,KS,67846,"HI PLAINS FEED LLC.1650 N SHERLOCK RD., GARDEN CITY KANSAS 67846 (FINNEY)",0,C,,110037146175
6784WMLTCH356WJ,-100.926,37.989000000000004,False,20,055,960600,20,20055,20055960600,1400000US20055960600,MULTI-CHEM GROUP-GARDEN CITY,3560 W JONES AVE,GARDEN CITY,KS,67846,"MULTI-CHEM GROUP-GARDEN CITY.3560 W JONES AVE, GARDEN CITY KANSAS 67846 (FINNEY)",0,C,,110038125365
67846PBLCHSOUTH,-100.882,37.988,False,20,055,960200,20,20055,20055960200,1400000US20055960200,PUEBLO CHEMICAL & SUPPLY CO,S STAR RT,GARDEN CITY,KS,67846,"PUEBLO CHEMICAL & SUPPLY CO.S STAR RT, GARDEN CITY KANSAS 67846 (FINNEY)",0,C,,
67846HYCNC2005N,-100.883,37.985,False,20,055,960200,20,20055,20055960200,1400000US20055960200,HEYCO INC,2005 N TAYLOR,GARDEN CITY,KS,67846,"HEYCO INC.2005 N TAYLOR, GARDEN CITY KANSAS 67846 (FINNEY)",0,C,,
67846VLGRNEHWY5,-100.81,37.94,False,20,055,960503,20,20055,20055960503,1400000US20055960503,CONAGRA BEEF CO,RR 1 FARMLAND RD,GARDEN CITY,KS,67846,"CONAGRA BEEF CO.RR 1 FARMLAND RD, GARDEN CITY KANSAS 67846 (FINNEY)",0,C,,
67851BPNCXWESTH,-101.02600000000001,38.0,False,20,055,960100,20,20055,20055960100,1400000US20055960100,TYSON FRESH MEATS INC,HWY 50 W,HOLCOMB,KS,67851,"TYSON FRESH MEATS INC.HWY 50 W, HOLCOMB KANSAS 67851 (FINNEY)",0,C,,110057418888
67851BFPRDWESTH,-101.02600000000001,38.0,False,20,055,960100,20,20055,20055960100,1400000US20055960100,BEEF PRODUCTS INC (FC),W HWY 50,HOLCOMB,KS,67851,"BEEF PRODUCTS INC (FC).W HWY 50, HOLCOMB KANSAS 67851 (FINNEY)",0,C,,110057418888
67851HLCMB2440H,-100.993,37.975,False,20,055,960100,20,20055,20055960100,1400000US20055960100,HOLCOMB UNIT 1,3999 S HOLCOMB LN,HOLCOMB,KS,67851,"HOLCOMB UNIT 1.3999 S HOLCOMB LN, HOLCOMB KANSAS 67851 (FINNEY)",0,C,,110009570259
67851BPNCWRURAL,-100.916,37.788000000000004,False,20,055,960100,20,20055,20055960100,1400000US20055960100,IBP FINNEY CO WASTE WATER TREATMENT PLANT,HOLCOMB RIVER RD,HOLCOMB,KS,67851,"IBP FINNEY CO WASTE WATER TREATMENT PLANT.HOLCOMB RIVER RD, HOLCOMB KANSAS 67851 (FINNEY)",0,C,,
67880CLMBNRRROU,-101.199,37.544000000000004,False,20,067,963600,20,20067,20067963600,1400000US20067963600,BIRLA CARBON USA INC,3500 S RD S,ULYSSES,KS,67880,"BIRLA CARBON USA INC.3500 S RD S, ULYSSES KANSAS 67880 (GRANT)",0,C,,110009971977
67880KGLRLRR3BO,-101.272,37.571,False,20,067,963600,20,20067,20067963600,1400000US20067963600,KUGLER OIL CO,RR #3 BOX 9-A,ULYSSES,KS,67880,"KUGLER OIL CO.RR #3 BOX 9-A, ULYSSES KANSAS 67880 (GRANT)",0,C,,
67901NTNLB1501E,-100.9,37.053000000000004,False,20,175,965700,20,20175,20175965700,1400000US20175965700,NATIONAL BEEF PACKING CO LLC,1501 E 8TH ST,LIBERAL,KS,67901,"NATIONAL BEEF PACKING CO LLC.1501 E 8TH ST, LIBERAL KANSAS 67901 (SEWARD)",0,C,,110009969677
67901TRLMB2201N,-100.904,37.064,False,20,175,965700,20,20175,20175965700,1400000US20175965700,TRAILMOBILE TRAILER LLC,2201 N COUNTRY ESTATES RD,LIBERAL,KS,67901,"TRAILMOBILE TRAILER LLC.2201 N COUNTRY ESTATES RD, LIBERAL KANSAS 67901 (SEWARD)",0,C,,
66083FGNDS20400,-94.823,38.759,False,20,091,053801,20,20091,20091053801,1400000US20091053801,AGC FLAT GLASS NA SPRING HILL PLANT,20400 N WEBSTER,SPRING HILL,KS,66083,"AGC FLAT GLASS NA SPRING HILL PLANT.20400 N WEBSTER, SPRING HILL KANSAS 66083 (JOHNSON)",0,C,,110000445322
66083MPRDC705NO,-94.803,38.75,True,20,091,053801,20,20091,20091053801,1400000US20091053801,A & M PRODS,705 N LINCOLN,SPRING HILL,KS,66083,"A & M PRODS 705 N LINCOLN, SPRING HILL, KS, 66083",0,C,,
66215VTRNR12340,-94.728,38.967,False,20,091,052417,20,20091,20091052417,1400000US20091052417,VETERINARY LABS INC,12340 SANTA FE TRAIL DR,LENEXA,KS,662153591,"VETERINARY LABS INC.12340 SANTA FE TRAIL DR, LENEXA KANSAS 66215 (JOHNSON)",0,C,,
66215RMLNC1276S,-94.725,38.968,False,20,091,052417,20,20091,20091052417,1400000US20091052417,THERMO FISHER SCIENTIFIC INC,12076 SANTA FE TRAIL DR,LENEXA,KS,66215,"THERMO FISHER SCIENTIFIC INC.12076 SANTA FE TRAIL DR, LENEXA KANSAS 66215 (JOHNSON)",0,C,,110022523624
6621WBMNCX896RS,-94.73299999999999,38.967,False,20,091,052417,20,20091,20091052417,1400000US20091052417,BIOMUNE CO,8906 ROSEHILL,LENEXA,KS,66215,"BIOMUNE CO.8906 ROSEHILL, LENEXA KANSAS 66215 (JOHNSON)",0,C,,110001376868
66536STMRY61661,-96.071,39.194,False,20,149,000300,20,20149,20149000300,1400000US20149000300,ONYX COLLECTION INC,202 ANDERSON AVE,BELVUE,KS,66407,"ONYX COLLECTION INC.202 ANDERSON AVE, BELVUE KANSAS 66407 (POTTAWATOMIE)",0,C,,110005980947
66536CSTMW314EA,-96.05799999999999,39.19,False,20,149,000300,20,20149,20149000300,1400000US20149000300,CUSTOM WOOD PRODUCTS,415 E BERTRAND AVE,SAINT MARYS,KS,66536,"CUSTOM WOOD PRODUCTS.415 E BERTRAND AVE, SAINT MARYS KANSAS 66536 (POTTAWATOMIE)",0,C,,
66536JFFRY25905,-96.118,39.286,False,20,149,000300,20,20149,20149000300,1400000US20149000300,JEFFREY ENERGY CENTER,25905 JEFFREY RD,SAINT MARYS,KS,66536,"JEFFREY ENERGY CENTER.25905 JEFFREY RD, SAINT MARYS KANSAS 66536 (POTTAWATOMIE)",0,C,,110006011680
66536NYXCL22AND,-96.176,39.215,False,20,149,000300,20,20149,20149000300,1400000US20149000300,ONYX COLLECTION INC,202 ANDERSON AVE,BELVUE,KS,66407,"ONYX COLLECTION INC.202 ANDERSON AVE, BELVUE KANSAS 66407 (POTTAWATOMIE)",0,C,,110037145210
66608NDSTR834NE,-95.663,39.066,False,20,177,000800,20,20177,20177000800,1400000US20177000800,INDUSTRIAL CHROME INC DBA ICI MANUFACTURING,834 NE MADISON,TOPEKA,KS,66608,"INDUSTRIAL CHROME INC DBA ICI MANUFACTURING.834 NE MADISON, TOPEKA KANSAS 66608 (SHAWNEE)",0,C,,110011248006
66608HRTLN215NE,-95.65,39.084,False,20,177,000800,20,20177,20177000800,1400000US20177000800,HEARTLAND CHINA OF KANSAS INC,2015 NE GRANTVILLE,TOPEKA,KS,66608,"HEARTLAND CHINA OF KANSAS INC.2015 NE GRANTVILLE, TOPEKA KANSAS 66608 (SHAWNEE)",0,C,,110025333761
66609JSTNS4000S,-95.67,38.995,False,20,177,003002,20,20177,20177003002,1400000US20177003002,JOSTENS INC,4000 S ADAMS,TOPEKA,KS,66609,"JOSTENS INC.4000 S ADAMS, TOPEKA KANSAS 66609 (SHAWNEE)",0,C,,
66839TRCNMSOUTH,-95.759,38.171,False,20,031,966300,20,20031,20031966300,1400000US20031966300,TRICON AMERICA CORP,S 75 HWY IND PARK #2,BURLINGTON,KS,66839,"TRICON AMERICA CORP.S 75 HWY IND PARK #2, BURLINGTON KANSAS 66839 (COFFEY)",1,C,,
66839SHRWDRT1HW,-95.741,38.17,False,20,031,966300,20,20031,20031966300,1400000US20031966300,SHERWOOD CABINETS INC,1290 10TH RD SW,BURLINGTON,KS,66839,"SHERWOOD CABINETS INC.1290 10TH RD SW, BURLINGTON KANSAS 66839 (COFFEY)",1,C,,
66852CNTRT408AT,-95.884,38.096,False,20,031,966200,20,20031,20031966200,1400000US20031966200,COUNTERTOP SUPPLY INC,408 ATHERLY ST,GRIDLEY,KS,668520157,"COUNTERTOP SUPPLY INC.408 ATHERLY ST, GRIDLEY KANSAS 66852 (COFFEY)",0,C,,
67101CLMNT5605N,-97.48100000000001,37.784,False,20,173,010300,20,20173,20173010300,1400000US20173010300,WORTHINGTON CYLINDERS KANSAS LLC,5605 N 119TH ST W,MAIZE,KS,67101,"WORTHINGTON CYLINDERS KANSAS LLC.5605 N 119TH ST W, MAIZE KANSAS 67101 (SEDGWICK)",0,C,,110017476587
67205CRLSN4601N,-97.445,37.766999999999996,False,20,173,010300,20,20173,20173010300,1400000US20173010300,CARLSON PRODUCTS,4601 N TYLER RD,MAIZE,KS,67101,"CARLSON PRODUCTS.4601 N TYLER RD, MAIZE KANSAS 67101 (SEDGWICK)",0,C,,110017448430
67205WCHTS36NWS,-97.39,37.749,False,20,173,010300,20,20173,20173010300,1400000US20173010300,WICHITA ASPHALT,3600 N W ST,WICHITA,KS,67205,"WICHITA ASPHALT.3600 N W ST, WICHITA KANSAS 67205 (SEDGWICK)",0,C,,110017522288
67110MDWST110WM,-97.242,37.474000000000004,False,20,191,962100,20,20191,20191962100,1400000US20191962100,"MIDWEST URETHANE PROCESSING CO, INC",107 PRATHER ST,MULVANE,KS,67110,"MIDWEST URETHANE PROCESSING CO, INC.107 PRATHER ST, MULVANE KANSAS 67110 (SUMNER)",0,C,,
67013KNSSC508IN,-97.275,37.39,False,20,191,962100,20,20191,20191962100,1400000US20191962100,KANSAS CASTINGS,508 INDUSTRIAL DR,BELLE PLAINE,KS,67013,"KANSAS CASTINGS.508 INDUSTRIAL DR, BELLE PLAINE KANSAS 67013 (SUMNER)",0,C,,110001131695
67147NTNLP2600W,-97.374,37.826,False,20,173,010200,20,20173,20173010200,1400000US20173010200,NATIONAL PLASTICS COLOR INC,100 INDUSTRIAL ST,VALLEY CENTER,KS,67147,"NATIONAL PLASTICS COLOR INC.100 INDUSTRIAL ST, VALLEY CENTER KANSAS 67147 (SEDGWICK)",0,C,,110000446278
67147BRTNS201SC,-97.37700000000001,37.830999999999996,False,20,173,010200,20,20173,20173010200,1400000US20173010200,BARTON SOLVENTS INC WICHITA,201 S CEDAR,VALLEY CENTER,KS,67147,"BARTON SOLVENTS INC WICHITA.201 S CEDAR, VALLEY CENTER KANSAS 67147 (SEDGWICK)",1,C,,110000446269
6713WGRNNR25EIN,-97.42399999999999,37.907,False,20,173,010200,20,20173,20173010200,1400000US20173010200,"GREEN ENERGY PRODUCTS, LLC",250 E. INDUSTRIAL DRIVE,SEDGWICK,KS,67135,"GREEN ENERGY PRODUCTS, LLC.250 E. INDUSTRIAL DRIVE, SEDGWICK KANSAS 67135 (SEDGWICK)",0,C,,110054888822
67203HHPRT1234W,-97.339,37.705,False,20,173,000300,20,20173,20173000300,1400000US20173000300,CHROMALLOY AIRCRAFT STRUCTURES,1234 WELLINGTON PL,WICHITA,KS,67203,"CHROMALLOY AIRCRAFT STRUCTURES.1234 WELLINGTON PL, WICHITA KANSAS 67203 (SEDGWICK)",0,C,,
67211GRDFN805EB,-97.329,37.666,False,20,173,003400,20,20173,20173003400,1400000US20173003400,GREDE FOUNDRIES INC,805 E BOSTON ST,WICHITA,KS,672113314,"GREDE FOUNDRIES INC.805 E BOSTON ST, WICHITA KANSAS 67211 (SEDGWICK)",0,C,,110000446394
67211BRDLN1025E,-97.325,37.664,False,20,173,003400,20,20173,20173003400,1400000US20173003400,BRADLO INC (DBA B & G PLATING),1025 E HARRY,WICHITA,KS,67211,"BRADLO INC (DBA B & G PLATING).1025 E HARRY, WICHITA KANSAS 67211 (SEDGWICK)",0,C,,
67219HSFDS2300N,-97.336,37.725,False,20,173,000100,20,20173,20173000100,1400000US20173000100,OHSE FOODS INC,2300 N BROADWAY,WICHITA,KS,67219,"OHSE FOODS INC.2300 N BROADWAY, WICHITA KANSAS 67219 (SEDGWICK)",0,C,,
67402PPSCLPOBOX,-97.61200000000001,38.852,False,20,169,000200,20,20169,20169000200,1400000US20169000200,PEPSI-COLA BOTTLING CO OF SALINA,604 N 9TH ST,SALINA,KS,674011944,"PEPSI-COLA BOTTLING CO OF SALINA.604 N 9TH ST, SALINA KANSAS 67401 (SALINE)",0,C,,
67401PLSGL11NHI,-97.594,38.858000000000004,False,20,169,000200,20,20169,20169000200,1400000US20169000200,VALMONT COATINGS INC SALINA GALVANIZING,1100 N OHIO ST,SALINA,KS,67401,"VALMONT COATINGS INC SALINA GALVANIZING.1100 N OHIO ST, SALINA KANSAS 67401 (SALINE)",0,C,,110001307728
6740WRGNSP11WGR,-97.62,38.853,False,20,169,000200,20,20169,20169000200,1400000US20169000200,ERGON ASPHALT & EMULSIONS INC - SALINA,1100 W. GRAND AVENUE,SALINA,KS,67401,"ERGON ASPHALT & EMULSIONS INC - SALINA.1100 W. GRAND AVENUE, SALINA KANSAS 67401 (SALINE)",0,C,,110017507795
67430SNFLW812LO,-98.432,39.509,False,20,123,176700,20,20123,20123176700,1400000US20123176700,SUNFLOWER MFG CO INC,812 LOCUST,CAWKER CITY,KS,67430,"SUNFLOWER MFG CO INC.812 LOCUST, CAWKER CITY KANSAS 67430 (MITCHELL)",0,C,,
67485KNTMF607MA,-98.471,39.342,False,20,123,176700,20,20123,20123176700,1400000US20123176700,GREAT PLAINS MANUFACTURING INC TIPTON,607 MAIN ST.,TIPTON,KS,67485,"GREAT PLAINS MANUFACTURING INC TIPTON.607 MAIN ST., TIPTON KANSAS 67485 (MITCHELL)",0,C,,110000769213
67455CNTRYHWY18,-98.12700000000001,39.014,False,20,105,086100,20,20105,20105086100,1400000US20105086100,CENTURY MANUFACTURING INC,HWY 18 & NORTH ST,LINCOLN,KS,67455,"CENTURY MANUFACTURING INC.HWY 18 & NORTH ST, LINCOLN KANSAS 67455 (LINCOLN)",0,C,,
66547PRTBL112MI,-98.305,39.202,True,20,105,086100,20,20149,20105086100,1400000US20105086100,PORTABLE ASPHALT APAC-KANSAS INC SHEARS PLANT NO 400,1 1/2 MILES S OF WAMEGO KANSAS,WAMEGO,KS,66547,"PORTABLE ASPHALT APAC-KANSAS INC SHEARS PLANT NO 400 1 1/2 MILES S OF WAMEGO KANSAS, WAMEGO, KS, 66547",0,C,,
67456CNTRY300EM,-97.649,38.566,False,20,113,788200,20,20113,20113788200,1400000US20113788200,CENTURY MANUFACTURING INC,300 EAST UNION,LINDSBORG,KS,67456,"CENTURY MANUFACTURING INC.300 EAST UNION, LINDSBORG KANSAS 67456 (MCPHERSON)",0,C,,
67460KCHHY462US,-97.839,38.38,False,20,113,788300,20,20113,20113788300,1400000US20113788300,ONEOK HYDROCARBON LP MCPHERSON BUTANE ISOMERIZATION PLANT,462 US HWY 56,MCPHERSON,KS,67460,"ONEOK HYDROCARBON LP MCPHERSON BUTANE ISOMERIZATION PLANT.462 US HWY 56, MCPHERSON KANSAS 67460 (MCPHERSON)",0,C,,110000717243
67552CRSSM100FA,-99.25,37.94,False,20,047,969600,20,20047,20047969600,1400000US20047969600,CROSS MANUFACTURING INC,100 FACTORY ST,LEWIS,KS,67552,"CROSS MANUFACTURING INC.100 FACTORY ST, LEWIS KANSAS 67552 (EDWARDS)",0,C,,
67601YSXDBONEEX,-99.36,38.91,False,20,051,072800,20,20051,20051072800,1400000US20051072800,ENERSYS,0NE ENERSYS RD,HAYS,KS,67601,"ENERSYS.0NE ENERSYS RD, HAYS KANSAS 67601 (ELLIS)",0,C,,110003154899
6760WHSSSR17892,-99.354,38.942,False,20,051,072800,20,20051,20051072800,1400000US20051072800,HESS SERVICES INC-NORTH YARD,1789 230TH AVE,HAYS,KS,67601,"HESS SERVICES INC-NORTH YARD.1789 230TH AVE, HAYS KANSAS 67601 (ELLIS)",0,C,,110044321043
67871FRLGHEAST1,-100.898,38.486999999999995,False,20,171,957100,20,20171,20171957100,1400000US20171957100,MIDWEST PMS SCOTT PRO DIV,810 E 1ST ST,SCOTT CITY,KS,67871,"MIDWEST PMS SCOTT PRO DIV.810 E 1ST ST, SCOTT CITY KANSAS 67871 (SCOTT)",0,C,,110000447302
66012DMXNC800WE,-94.889,39.05,False,20,209,044805,20,20209,20209044805,1400000US20209044805,LITE MANUFACTURING,800 W FRONT ST,BONNER SPRINGS,KS,66012,"LITE MANUFACTURING.800 W FRONT ST, BONNER SPRINGS KANSAS 66012 (WYANDOTTE)",1,C,,
66040MDWST1INDU,-94.75200000000001,38.34,False,20,107,955100,20,20107,20107955100,1400000US20107955100,MIDWEST WOODWORKING INC,948 LINN CO DR 1 INDUSTRIAL PARK,LA CYGNE,KS,66040,"MIDWEST WOODWORKING INC.948 LINN CO DR 1 INDUSTRIAL PARK, LA CYGNE KANSAS 66040 (LINN)",0,C,,
66040LCYGNRR1BO,-94.645,38.348,False,20,107,955100,20,20107,20107955100,1400000US20107955100,GREAT PLAINS ENERGYLACYGNE GENERATING STATION,25166 E 2200 RD,LA CYGNE,KS,66040,"GREAT PLAINS ENERGYLACYGNE GENERATING STATION.25166 E 2200 RD, LA CYGNE KANSAS 66040 (LINN)",0,C,,110000747988
66061RNGRM2115E,-94.78200000000001,38.906,False,20,091,052905,20,20091,20091052905,1400000US20091052905,RINGIER AMERICA OLATHE DIV,2115 E KANSAS CITY RD,OLATHE,KS,66061,"RINGIER AMERICA OLATHE DIV.2115 E KANSAS CITY RD, OLATHE KANSAS 66061 (JOHNSON)",0,C,,
66103VLGLL101GR,-94.611,39.074,False,20,209,043000,20,20209,20209043000,1400000US20209043000,VILE-GOLLER/FINE ARTS PRINTING & LITHOGRAPHY CO,101 GREYSTONE,KANSAS CITY,KS,661033158,"VILE-GOLLER/FINE ARTS PRINTING & LITHOGRAPHY CO.101 GREYSTONE, KANSAS CITY KANSAS 66103 (WYANDOTTE)",0,C,,
66411GRGPC2127H,-96.647,39.707,False,20,117,070182,20,20117,20117070182,1400000US20117070182,GP INDUSTRIAL PLASTERS LLC,2127 HWY 77,BLUE RAPIDS,KS,66411,"GP INDUSTRIAL PLASTERS LLC.2127 HWY 77, BLUE RAPIDS KANSAS 66411 (MARSHALL)",0,C,,110002339229
66548TTNTR125WR,-96.749,39.691,False,20,117,070182,20,20117,20117070182,1400000US20117070182,TITAN TRAILER MANUFACTURING INC,125 W RAILROAD,WATERVILLE,KS,66548,"TITAN TRAILER MANUFACTURING INC.125 W RAILROAD, WATERVILLE KANSAS 66548 (MARSHALL)",0,C,,
66411TTNTR608SM,-96.65899999999999,39.681,False,20,117,070182,20,20117,20117070182,1400000US20117070182,TITAN TRAILER MANUFACTURING INC PLANT 2,609 S MAIN,BLUE RAPIDS,KS,66411,"TITAN TRAILER MANUFACTURING INC PLANT 2.609 S MAIN, BLUE RAPIDS KANSAS 66411 (MARSHALL)",0,C,,
66548LBRTY451HW,-96.741,39.69,False,20,117,070182,20,20117,20117070182,1400000US20117070182,LIBERTY INC,451 HWY 9,WATERVILLE,KS,66548,"LIBERTY INC.451 HWY 9, WATERVILLE KANSAS 66548 (MARSHALL)",0,C,,
66548TTNTR2306H,-96.75,39.681999999999995,False,20,117,070182,20,20117,20117070182,1400000US20117070182,TITAN TRAILER MANUFACTURING INC,2306 HWY 77,WATERVILLE,KS,66548,"TITAN TRAILER MANUFACTURING INC.2306 HWY 77, WATERVILLE KANSAS 66548 (MARSHALL)",0,C,,110017375240
66725CLCTRHWY69,-94.83200000000001,37.166,False,20,021,958300,20,20021,20021958300,1400000US20021958300,ACE ELECTRIC LLC,501 SE AVE,COLUMBUS,KS,66725,"ACE ELECTRIC LLC.501 SE AVE, COLUMBUS KANSAS 66725 (CHEROKEE)",0,C,,
66725SLRRYSPORT,-94.899,37.164,False,20,021,958300,20,20021,20021958300,1400000US20021958300,HALLOWELL MANUFACTURING LLC,3600 NW 74TH ST,COLUMBUS,KS,66725,"HALLOWELL MANUFACTURING LLC.3600 NW 74TH ST, COLUMBUS KANSAS 66725 (CHEROKEE)",0,C,,110017526541
66725TMKRF600EB,-94.825,37.193000000000005,False,20,021,958300,20,20021,20021958300,1400000US20021958300,TAMKO BUILDING PRODUCTS INC,600 E BETHLEHEM RD,COLUMBUS,KS,66725,"TAMKO BUILDING PRODUCTS INC.600 E BETHLEHEM RD, COLUMBUS KANSAS 66725 (CHEROKEE)",0,C,,110000445956
66755KLNTLRTE1B,-95.17,37.946,False,20,001,952600,20,20001,20001952600,1400000US20001952600,KLEIN TOOLS INC,RTE 1 BOX 183B,MORAN,KS,66755,"KLEIN TOOLS INC.RTE 1 BOX 183B, MORAN KANSAS 66755 (ALLEN)",0,C,,
67152GCPRC102EH,-97.40299999999999,37.289,False,20,191,962400,20,20191,20191962400,1400000US20191962400,GEC PRECISION CORP MIDWEST DIV,102 E HILLSIDE,WELLINGTON,KS,67152,"GEC PRECISION CORP MIDWEST DIV.102 E HILLSIDE, WELLINGTON KANSAS 67152 (SUMNER)",0,C,,
67152BSYST1515N,-97.395,37.274,False,20,191,962400,20,20191,20191962400,1400000US20191962400,TECT AEROSPACE,1515 N A ST,WELLINGTON,KS,67152,"TECT AEROSPACE.1515 N A ST, WELLINGTON KANSAS 67152 (SUMNER)",0,C,,110014379662
67301FBRGL1018W,-95.719,37.231,False,20,125,950500,20,20125,20125950500,1400000US20125950500,MFG CONSTRUCTION PRODUCTS,1018 W SYCAMORE ST,INDEPENDENCE,KS,67301,"MFG CONSTRUCTION PRODUCTS.1018 W SYCAMORE ST, INDEPENDENCE KANSAS 67301 (MONTGOMERY)",0,C,,110000446722
67337FNKMNHWY16,-95.586,37.097,False,20,125,950700,20,20125,20125950700,1400000US20125950700,JOHN DEERE COFFEYVILLE WORKS A DIV OF DEERE & COMPAN,2624 N HWY 169,COFFEYVILLE,KS,67337,"JOHN DEERE COFFEYVILLE WORKS A DIV OF DEERE & COMPAN.2624 N HWY 169, COFFEYVILLE KANSAS 67337 (MONTGOMERY)",0,C,,110000596686
67301HRTLNSOUTH,-95.678,37.211999999999996,False,20,125,950700,20,20125,20125950700,1400000US20125950700,HEARTLAND CEMENT CO DBA BUZZI UNICEM USA,1765 LIMESTONE LN,INDEPENDENCE,KS,67301,"HEARTLAND CEMENT CO DBA BUZZI UNICEM USA.1765 LIMESTONE LN, INDEPENDENCE KANSAS 67301 (MONTGOMERY)",0,C,,110017554341
67337SFTYKHWY16,-95.581,37.089,False,20,125,950700,20,20125,20125950700,1400000US20125950700,EMERALD TRANSFORMER PPM LLC,2474 HWY 169 N INDUSTRIAL PARK,COFFEYVILLE,KS,67337,"EMERALD TRANSFORMER PPM LLC.2474 HWY 169 N INDUSTRIAL PARK, COFFEYVILLE KANSAS 67337 (MONTGOMERY)",0,C,,110017392739
67337DXNNDAIRPO,-95.586,37.094,False,20,125,950700,20,20125,20125950700,1400000US20125950700,RSI HOME PRODUCTS,2612 N. HIGHWAY 169,COFFEYVILLE,KS,67337,"RSI HOME PRODUCTS.2612 N. HIGHWAY 169, COFFEYVILLE KANSAS 67337 (MONTGOMERY)",0,C,,110008346520
67301CSSNR1CESS,-95.76700000000001,37.169000000000004,False,20,125,950700,20,20125,20125950700,1400000US20125950700,TEXTRON AVIATION/INDEPENDENCE FACILITY,ONE CESSNA BLVD,INDEPENDENCE,KS,67301,"TEXTRON AVIATION/INDEPENDENCE FACILITY.ONE CESSNA BLVD, INDEPENDENCE KANSAS 67301 (MONTGOMERY)",0,C,,110057450903
67530GRTBN705SH,-98.78399999999999,38.358000000000004,False,20,009,971600,20,20009,20009971600,1400000US20009971600,GREAT BEND MANUFACTURING CO,705 S HARRISON,GREAT BEND,KS,675300829,"GREAT BEND MANUFACTURING CO.705 S HARRISON, GREAT BEND KANSAS 67530 (BARTON)",0,C,,
6753WNLCCM124SE,-98.789,38.365,False,20,009,971600,20,20009,20009971600,1400000US20009971600,NALCO COMPANY-GREAT BEND,124 S. E. 50TH ROAD,GREAT BEND,KS,67530,"NALCO COMPANY-GREAT BEND.124 S. E. 50TH ROAD, GREAT BEND KANSAS 67530 (BARTON)",0,C,,110069290314
67801LQDCREASTH,-100.10700000000001,37.695,False,20,057,961700,20,20057,20057961700,1400000US20057961700,PRAXAIR INC,11547 HWY 50,DODGE CITY,KS,678019315,"PRAXAIR INC.11547 HWY 50, DODGE CITY KANSAS 67801 (FORD)",0,C,,
67876CRSTBMAINS,-99.758,37.851,False,20,057,961600,20,20057,20057961600,1400000US20057961600,CRUST BUSTER INC,MAIN & SANTA FE,SPEARVILLE,KS,67876,"CRUST BUSTER INC.MAIN & SANTA FE, SPEARVILLE KANSAS 67876 (FORD)",0,C,,
67901PRNML705CO,-100.904,37.03,False,20,175,966000,20,20175,20175966000,1400000US20175966000,LAND O'LAKES PURINA FEED LLC LIBERAL,705 COUNTRY ESTATES RD,LIBERAL,KS,67901,"LAND O'LAKES PURINA FEED LLC LIBERAL.705 COUNTRY ESTATES RD, LIBERAL KANSAS 67901 (SEWARD)",0,C,,110000447339
67901NVRSX712CO,-100.904,37.03,False,20,175,966000,20,20175,20175966000,1400000US20175966000,UNIVAR USA,712 COUNTRY ESTATES RD,LIBERAL,KS,67901,"UNIVAR USA.712 COUNTRY ESTATES RD, LIBERAL KANSAS 67901 (SEWARD)",0,C,,
66025MPCTX1310K,-95.079,38.94,False,20,045,001202,20,20045,20045001202,1400000US20045001202,M-PACT,1310 KISTLER,EUDORA,KS,66025,"M-PACT.1310 KISTLER, EUDORA KANSAS 66025 (DOUGLAS)",0,C,,
66025RCNCX1201C,-95.08200000000001,38.939,False,20,045,001202,20,20045,20045001202,1400000US20045001202,HP PELZER AUTOMOTIVE SYSTEMS INC,1201 CARDINAL DR,EUDORA,KS,66025,"HP PELZER AUTOMOTIVE SYSTEMS INC.1201 CARDINAL DR, EUDORA KANSAS 66025 (DOUGLAS)",0,C,,110001238170
66062KNSSC151ST,-94.742,38.851,False,20,091,053406,20,20091,20091053406,1400000US20091053406,KANSAS CITY AVIATION CENTER,151ST & PFLUMM,OLATHE,KS,66062,"KANSAS CITY AVIATION CENTER.151ST & PFLUMM, OLATHE KANSAS 66062 (JOHNSON)",0,C,,
66214NVRSL9090N,-94.714,38.964,False,20,091,051903,20,20091,20091051903,1400000US20091051903,UNIVERSAL ENGRAVING INC,9090 NIEMAN RD,OVERLAND PARK,KS,66214,"UNIVERSAL ENGRAVING INC.9090 NIEMAN RD, OVERLAND PARK KANSAS 66214 (JOHNSON)",0,C,,110000445689
66508LNDLL1700M,-96.635,39.849000000000004,False,20,117,060510,20,20117,20117060510,1400000US20117060510,LANDOLL CORP,1900 N ST,MARYSVILLE,KS,66508,"LANDOLL CORP.1900 N ST, MARYSVILLE KANSAS 66508 (MARSHALL)",0,C,,110011247999
66547BLDRS600BA,-96.296,39.204,False,20,149,000200,20,20149,20149000200,1400000US20149000200,CATERPILLAR WORK TOOLS & SERVICES,600 BALDERSON BLVD,WAMEGO,KS,66547,"CATERPILLAR WORK TOOLS & SERVICES.600 BALDERSON BLVD, WAMEGO KANSAS 66547 (POTTAWATOMIE)",0,C,,110000445830
6654WPLNTX94BAL,-96.296,39.207,False,20,149,000200,20,20149,20149000200,1400000US20149000200,PLANT #1,904 BALDERSON BLVD,WAMEGO,KS,66547,"PLANT #1.904 BALDERSON BLVD, WAMEGO KANSAS 66547 (POTTAWATOMIE)",0,C,,110042002016
66547PRTBL3MILE,-96.305,39.202,True,20,149,000200,20,20149,20149000200,1400000US20149000200,PORTABLE ASPHALT APAC-KANSAS INC SHEARS PLANT NO 411,3 MILES S OF WAMEGO KS ON HWY 99,WAMEGO,KS,66547,"PORTABLE ASPHALT APAC-KANSAS INC SHEARS PLANT NO 411 3 MILES S OF WAMEGO KS ON HWY 99, WAMEGO, KS, 66547",0,C,,
66713ZRKSL100NO,-94.75399999999999,37.035,False,20,021,958600,20,20021,20021958600,1400000US20021958600,OZARK SALAD CO,100 N YOUNGMAN RD,BAXTER SPRINGS,KS,66713,"OZARK SALAD CO.100 N YOUNGMAN RD, BAXTER SPRINGS KANSAS 66713 (CHEROKEE)",0,C,,
66713PCKGN3400B,-94.74600000000001,37.001,False,20,021,958600,20,20021,20021958600,1400000US20021958600,PACKAGING DYNAMICS INC BAGCRAFT/PAPERCON DIV,3400 BAGCRAFT BLVD,BAXTER SPRINGS,KS,66713,"PACKAGING DYNAMICS INC BAGCRAFT/PAPERCON DIV.3400 BAGCRAFT BLVD, BAXTER SPRINGS KANSAS 66713 (CHEROKEE)",0,C,,110003203444
6671WTCSTL1WEST,-94.74700000000001,37.031,False,20,021,958600,20,20021,20021958600,1400000US20021958600,ATEC STEEL FABRICATION & CONSTRUCTION LLC,1000 WEST 5TH STREET,BAXTER SPRINGS,KS,66713,"ATEC STEEL FABRICATION & CONSTRUCTION LLC.1000 WEST 5TH STREET, BAXTER SPRINGS KANSAS 66713 (CHEROKEE)",0,C,,110043645222
66740RSKNMCORNE,-95.35700000000001,37.471,False,20,133,952000,20,20133,20133952000,1400000US20133952000,RUSKIN MANUFACTURING,CORNER OF FRONT & CENTER STS,GALESBURG,KS,66740,"RUSKIN MANUFACTURING.CORNER OF FRONT & CENTER STS, GALESBURG KANSAS 66740 (NEOSHO)",0,C,,
6674WTNKCN1CENT,-95.35600000000001,37.471,False,20,133,952000,20,20133,20133952000,1400000US20133952000,TANK CONNECTION-GALESBURG,100 CENTER ST,GALESBURG,KS,66740,"TANK CONNECTION-GALESBURG.100 CENTER ST, GALESBURG KANSAS 66740 (NEOSHO)",0,C,,110063755994
66748MNRCHRR2BO,-95.431,37.797,False,20,001,953000,20,20001,20001953000,1400000US20001953000,MONARCH CEMENT CO,449 1200TH ST,HUMBOLDT,KS,66748,"MONARCH CEMENT CO.449 1200TH ST, HUMBOLDT KANSAS 66748 (ALLEN)",0,C,,110017408303
6674WBWCST1216H,-95.43,37.82,False,20,001,953000,20,20001,20001953000,1400000US20001953000,B & W CUSTOM TRUCK BEDS INC,1216 HAWAII RD,HUMBOLDT,KS,66748,"B & W CUSTOM TRUCK BEDS INC.1216 HAWAII RD, HUMBOLDT KANSAS 66748 (ALLEN)",0,C,,110022896286
67209PRCSN1643S,-97.462,37.663000000000004,False,20,173,009511,20,20173,20173009511,1400000US20173009511,PRECISION PATTERN INC,1643 S MAIZE RD,WICHITA,KS,67209,"PRECISION PATTERN INC.1643 S MAIZE RD, WICHITA KANSAS 67209 (SEDGWICK)",0,C,,
67209GDRCH1745S,-97.462,37.661,False,20,173,009511,20,20173,20173009511,1400000US20173009511,GOODRICH INTERIORS CABIN SYSTEMS-PCI,1745 S MAIZE RD,WICHITA,KS,67209,"GOODRICH INTERIORS CABIN SYSTEMS-PCI.1745 S MAIZE RD, WICHITA KANSAS 67209 (SEDGWICK)",0,C,,110022446281
66048CHMTR1515S,-94.906,39.304,False,20,103,070400,20,20103,20103070400,1400000US20103070400,CHEM TRONICS INC,1515 S 2ND ST,LEAVENWORTH,KS,66048,"CHEM TRONICS INC.1515 S 2ND ST, LEAVENWORTH KANSAS 66048 (LEAVENWORTH)",0,C,,
66743TCSPC621WS,-94.85700000000001,37.514,False,20,037,956800,20,20037,20037956800,1400000US20037956800,ETCO SPECIALTY PRODUCTS INC,621 W ST JOHN,GIRARD,KS,66743,"ETCO SPECIALTY PRODUCTS INC.621 W ST JOHN, GIRARD KANSAS 66743 (CRAWFORD)",0,C,,110000445974
67438DNHCRDLRDX,-97.225,38.488,False,20,115,489500,20,20115,20115489500,1400000US20115489500,DONAHUE CORP,946 E 290TH ST,DURHAM,KS,67438,"DONAHUE CORP.946 E 290TH ST, DURHAM KANSAS 67438 (MARION)",0,C,,
67460CHMST503WG,-97.67299999999999,38.365,False,20,113,788500,20,20113,20113788500,1400000US20113788500,CHEMSTAR PRODUCTS,503 W HAYES,MCPHERSON,KS,67460,"CHEMSTAR PRODUCTS.503 W HAYES, MCPHERSON KANSAS 67460 (MCPHERSON)",0,C,,110000446973
67460CSNCX210NE,-97.675,38.371,False,20,113,788500,20,20113,20113788500,1400000US20113788500,ICS INC,210 N ELDER,MCPHERSON,KS,67460,"ICS INC.210 N ELDER, MCPHERSON KANSAS 67460 (MCPHERSON)",0,C,,110001241727
67546HBBRDRTE1B,-97.723,38.193000000000005,False,20,113,788700,20,20113,20113788700,1400000US20113788700,DOANE PET CARE CO,RR 1 BOX 184,INMAN,KS,675469530,"DOANE PET CARE CO.RR 1 BOX 184, INMAN KANSAS 67546 (MCPHERSON)",0,C,,
67107MRDGMOLDHW,-97.50399999999999,38.189,False,20,113,788700,20,20113,20113788700,1400000US20113788700,MORIDGE MANUFACTURING INC,OLD HWY 81 S,MOUNDRIDGE,KS,67107,"MORIDGE MANUFACTURING INC.OLD HWY 81 S, MOUNDRIDGE KANSAS 67107 (MCPHERSON)",0,C,,110017462878
66203CLRMN5012M,-94.685,39.038000000000004,False,20,091,052201,20,20091,20091052201,1400000US20091052201,CI LOR MANUFACTURING CO INC,5012 MACKEY,OVERLAND PARK,KS,66203,"CI LOR MANUFACTURING CO INC.5012 MACKEY, OVERLAND PARK KANSAS 66203 (JOHNSON)",0,C,,
67104NTNLGRR1BO,-98.59100000000001,37.281,False,20,007,968100,20,20007,20007968100,1400000US20007968100,NEW NGC INC D/B/A NATIONAL GYPSUM CO,1218 SW MILL RD,MEDICINE LODGE,KS,67104,"NEW NGC INC D/B/A NATIONAL GYPSUM CO.1218 SW MILL RD, MEDICINE LODGE KANSAS 67104 (BARBER)",0,C,,110002128402
66002NRTHW8154I,-95.249,39.564,False,20,005,081600,20,20005,20005081600,1400000US20005081600,NORTHWEST PIPE CO,8154 IND US TRIAL PARK LN,ATCHISON,KS,66002,"NORTHWEST PIPE CO.8154 IND US TRIAL PARK LN, ATCHISON KANSAS 66002 (ATCHISON)",0,C,,110000768964
66030PCKGS147WE,-94.93,38.796,False,20,091,053712,20,20091,20091053712,1400000US20091053712,PACKAGE SERVICE CO,147 W CHEROKEE,GARDNER,KS,66030,"PACKAGE SERVICE CO.147 W CHEROKEE, GARDNER KANSAS 66030 (JOHNSON)",0,C,,
66441LCFJK1002N,-96.821,39.033,False,20,061,000100,20,20061,20061000100,1400000US20061000100,ALCOA FUJIKURA LTD,1002 N PERRY,JUNCTION CITY,KS,664410045,"ALCOA FUJIKURA LTD.1002 N PERRY, JUNCTION CITY KANSAS 66441 (GEARY)",0,C,,
66442SDDSRAFZNE,-96.961,39.306999999999995,False,20,027,458100,20,20061,20027458100,1400000US20027458100,US ARMY FORT RILEY-GARRISON,BUILDING 580 FIRST DIVISION RD,FORT RILEY,KS,664425007,"US ARMY FORT RILEY-GARRISON.BUILDING 580 FIRST DIVISION RD, FORT RILEY KANSAS 66442 (GEARY)",0,F,,110020842310
67005HMTTMRTE2X,-97.065,37.07,False,20,035,493900,20,20035,20035493900,1400000US20035493900,SKYLINE MOBILE HOMES,"RTE 2, HWY 77 N",ARKANSAS CITY,KS,670050719,"SKYLINE MOBILE HOMES.RTE 2, HWY 77 N, ARKANSAS CITY KANSAS 67005 (COWLEY)",0,C,,
67648GRTPL240SO,-98.53399999999999,39.056999999999995,False,20,167,973900,20,20167,20167973900,1400000US20167973900,GREAT PLAINS MANUFACTURING INC LUCAS,240 S GREELEY AVE,LUCAS,KS,67648,"GREAT PLAINS MANUFACTURING INC LUCAS.240 S GREELEY AVE, LUCAS KANSAS 67648 (RUSSELL)",0,C,,110017375945
67648PRTBL12MIL,-98.537,39.057,True,20,167,973900,20,20167,20167973900,1400000US20167973900,PORTABLE ASPHALT APAC-KANSAS INC SHEARS PLANT NO 400,1/2 MILE E OF LUCAS KS BY K-232 & K-18,LUCAS,KS,67648,"PORTABLE ASPHALT APAC-KANSAS INC SHEARS PLANT NO 400 1/2 MILE E OF LUCAS KS BY K-232 & K-18, LUCAS, KS, 67648",0,C,,
66030MRBLC624WM,-94.943,38.809,False,20,091,053709,20,20091,20091053709,1400000US20091053709,MARBLE CREATIONS INC,624 MAIN,GARDNER,KS,66030,"MARBLE CREATIONS INC.624 MAIN, GARDNER KANSAS 66030 (JOHNSON)",0,C,,
66030RYLCH614WM,-94.943,38.809,False,20,091,053709,20,20091,20091053709,1400000US20091053709,ROYAL CHEMICAL CO,614 W MAIN ST,GARDNER,KS,66030,"ROYAL CHEMICAL CO.614 W MAIN ST, GARDNER KANSAS 66030 (JOHNSON)",0,C,,
66032STRCP410NC,-95.22200000000001,38.282,False,20,003,953600,20,20003,20003953600,1400000US20003953600,ASTRO TRUCK COVERS INC.,210 S CATALPA ST,GARNETT,KS,66032,"ASTRO TRUCK COVERS INC..210 S CATALPA ST, GARNETT KANSAS 66032 (ANDERSON)",0,C,,110000445144
66032STKNS134SM,-95.23700000000001,38.272,False,20,003,953600,20,20003,20003953600,1400000US20003953600,EAST KANSAS AGRI-ENERGY,1304 S MAIN ST,GARNETT,KS,66032,"EAST KANSAS AGRI-ENERGY.1304 S MAIN ST, GARNETT KANSAS 66032 (ANDERSON)",0,C,,110025333734
6603WTYLRF1312S,-95.249,38.272,False,20,003,953600,20,20003,20003953600,1400000US20003953600,"TAYLOR FORGE ENGINEERED SYSTEMS, INC GARNETT",1312 SO MAPLE,GARNETT,KS,66032,"TAYLOR FORGE ENGINEERED SYSTEMS, INC GARNETT.1312 SO MAPLE, GARNETT KANSAS 66032 (ANDERSON)",0,C,,110013328764
6603WTYLRF31911,-95.139,38.361,False,20,003,953600,20,20003,20003953600,1400000US20003953600,TAYLOR FORGE ENGINEERED SYSTEMS INC,31911 NE HWY 169,GREELEY,KS,66033,"TAYLOR FORGE ENGINEERED SYSTEMS INC.31911 NE HWY 169, GREELEY KANSAS 66033 (ANDERSON)",0,C,,110045403096
66227KCCTN8501H,-94.85700000000001,38.973,False,20,091,052604,20,20091,20091052604,1400000US20091052604,NAZDAR SHAWNEE,8501 HEDGE LN TERRACE,SHAWNEE,KS,66227,"NAZDAR SHAWNEE.8501 HEDGE LN TERRACE, SHAWNEE KANSAS 66227 (JOHNSON)",0,C,,110000445732
6622WPNNYS2337W,-94.855,38.98,False,20,091,052604,20,20091,20091052604,1400000US20091052604,PENNYS CONCRETE,23307 W 82ND ST,SHAWNEE,KS,66227,"PENNYS CONCRETE.23307 W 82ND ST, SHAWNEE KANSAS 66227 (JOHNSON)",0,C,,110016612110
6622WCMNFC2351W,-94.85799999999999,38.974000000000004,False,20,091,052604,20,20091,20091052604,1400000US20091052604,EC MANUFACTURING LLC,23501 W 84TH ST,SHAWNEE,KS,662273296,"EC MANUFACTURING LLC.23501 W 84TH ST, SHAWNEE KANSAS 66227 (JOHNSON)",0,C,,110064387319
66736RCHRD209WE,-95.833,37.531,False,20,205,097300,20,20205,20205097300,1400000US20205097300,ADM CO,209 W ADAMS,FREDONIA,KS,667360558,"ADM CO.209 W ADAMS, FREDONIA KANSAS 66736 (WILSON)",0,C,,
66801BNGCR700EF,-96.171,38.405,False,20,111,000100,20,20111,20111000100,1400000US20111000100,BUNGE NA INC,701 E SIXTH AVE,EMPORIA,KS,66801,"BUNGE NA INC.701 E SIXTH AVE, EMPORIA KANSAS 66801 (LYON)",0,C,,110011876997
67056SKYLN920WE,-97.516,38.004,False,20,079,030600,20,20079,20079030600,1400000US20079030600,SKYLINE HOMES,920 W SECOND,HALSTEAD,KS,67056,"SKYLINE HOMES.920 W SECOND, HALSTEAD KANSAS 67056 (HARVEY)",1,C,,
67056SMMTR3INDU,-97.521,38.004,False,20,079,030600,20,20079,20079030600,1400000US20079030600,ERGON ASPHALT & EMULSIONS INC - HALSTEAD,300 INDUSTRIAL RD,HALSTEAD,KS,67056,"ERGON ASPHALT & EMULSIONS INC - HALSTEAD.300 INDUSTRIAL RD, HALSTEAD KANSAS 67056 (HARVEY)",0,C,,110024523933
67226CNTRY3351N,-97.226,37.745,False,20,173,010116,20,20173,20173010116,1400000US20173010116,CENTURY MFG INC,9750 E. 50TH STREET NORTH,BEL AIRE,KS,67226,"CENTURY MFG INC.9750 E. 50TH STREET NORTH, BEL AIRE KANSAS 67226 (SEDGWICK)",0,C,,110000446660
67431RFMRT2020I,-97.024,38.992,False,20,041,084100,20,20041,20041084100,1400000US20041084100,ROOFMART INTERNATIONAL INC,2735 RAIN RD,CHAPMAN,KS,67431,"ROOFMART INTERNATIONAL INC.2735 RAIN RD, CHAPMAN KANSAS 67431 (DICKINSON)",0,C,,110001131793
67735NRTHR6425R,-101.818,39.34,False,20,181,453600,20,20181,20181453600,1400000US20181453600,NORTHERN SUN,6425 ROAD 14,GOODLAND,KS,67735,"NORTHERN SUN.6425 ROAD 14, GOODLAND KANSAS 67735 (SHERMAN)",0,C,,110000447231
66441RMRSW1920L,-96.867,39.001999999999995,False,20,061,000800,20,20061,20061000800,1400000US20061000800,CONAGRA FOODS,1920 LACY DR,JUNCTION CITY,KS,66441,"CONAGRA FOODS.1920 LACY DR, JUNCTION CITY KANSAS 66441 (GEARY)",0,C,,110000445741
67663SCHLT507IN,-99.309,39.258,False,20,163,974700,20,20163,20163974700,1400000US20163974700,SCHULT HOMES,507 N INDUSTRIAL RD,PLAINVILLE,KS,67663,"SCHULT HOMES.507 N INDUSTRIAL RD, PLAINVILLE KANSAS 67663 (ROOKS)",0,C,,110012339246
67801FRMLNEASTH,-100.035,37.734,False,20,057,962000,20,20057,20057962000,1400000US20057962000,HI PLAINS FEED LLC,10955 116 RD.,WRIGHT,KS,67882,"HI PLAINS FEED LLC.10955 116 RD., WRIGHT KANSAS 67882 (FORD)",0,C,,110000746275
66203LCNTT9501W,-94.695,39.008,False,20,091,052001,20,20091,20091052001,1400000US20091052001,LUCENT TECHNOLOGIES INC,9501 W 67TH STREET,MERRIAM,KS,66203,"LUCENT TECHNOLOGIES INC.9501 W 67TH STREET, MERRIAM KANSAS 66203 (JOHNSON)",0,C,,
66725BTTRBWK96X,-94.949,37.175,False,20,021,958200,20,20021,20021958200,1400000US20021958200,BUTTERBALL LLC,6410 SW HALLOWELL RD,COLUMBUS,KS,66725,"BUTTERBALL LLC.6410 SW HALLOWELL RD, COLUMBUS KANSAS 66725 (CHEROKEE)",0,C,,110003210276
66725HLLWL388SW,-95.0,37.174,False,20,021,958200,20,20021,20021958200,1400000US20021958200,HALLOWELL MANUFACTURING AN RAIL SITE,388 SW 92ND TERRACE,COLUMBUS,KS,66725,"HALLOWELL MANUFACTURING AN RAIL SITE.388 SW 92ND TERRACE, COLUMBUS KANSAS 66725 (CHEROKEE)",0,C,,110037145229
66744THRMX7MLWO,-95.007,37.16,True,20,021,958200,20,20021,20021958200,1400000US20021958200,THERMEX ENERGY CORP,"7 MLW OF COLUMBUS ON HWY 96, N SPORTMAN PIT RD",HALLOWELL,KS,66744,"THERMEX ENERGY CORP 7 MLW OF COLUMBUS ON HWY 96, N SPORTMAN PIT RD, HALLOWELL, KS, 66744",0,C,,
67003CNTRL124NO,-98.038,37.152,False,20,077,961800,20,20077,20077961800,1400000US20077961800,CENTRAL ELECTROPOLISHING CO,124 N LAWRENCE AVE,ANTHONY,KS,67003,"CENTRAL ELECTROPOLISHING CO.124 N LAWRENCE AVE, ANTHONY KANSAS 67003 (HARPER)",0,C,,110000446081
67209SPRTC1444S,-97.444,37.71,False,20,173,009513,20,20173,20173009513,1400000US20173009513,POLYONE DSS,1444 S TYLER RD,WICHITA,KS,67209,"POLYONE DSS.1444 S TYLER RD, WICHITA KANSAS 67209 (SEDGWICK)",0,C,,110055242893
66061DMNTB17400,-94.788,38.913000000000004,False,20,091,052910,20,20091,20091052910,1400000US20091052910,HUSQVARNA CONSTRUCTION PRODUCTS,17400 W 119TH ST,OLATHE,KS,66061,"HUSQVARNA CONSTRUCTION PRODUCTS.17400 W 119TH ST, OLATHE KANSAS 66061 (JOHNSON)",0,C,,110000445279
66104NRMNC4240N,-94.699,39.163000000000004,False,20,209,044601,20,20209,20209044601,1400000US20209044601,NEARMAN CREEK POWER STATION,4240 N 55TH ST,KANSAS CITY,KS,66104,"NEARMAN CREEK POWER STATION.4240 N 55TH ST, KANSAS CITY KANSAS 66104 (WYANDOTTE)",0,C,,110000445340
67058LCMFG939NS,-98.04,37.286,False,20,077,961600,20,20077,20077961600,1400000US20077961600,ELCO MANUFACTURING INC,939 NORTH STATE RD  14,HARPER,KS,67058,"ELCO MANUFACTURING INC.939 NORTH STATE RD  14, HARPER KANSAS 67058 (HARPER)",0,C,,110017584489
6705WHRPRN151EH,-98.014,37.282,False,20,077,961600,20,20077,20077961600,1400000US20077961600,HARPER INDUSTRIES,151 E HWY 160,HARPER,KS,67058,"HARPER INDUSTRIES.151 E HWY 160, HARPER KANSAS 67058 (HARPER)",0,C,,110006764000
67211KCNDS2040S,-97.329,37.656,False,20,173,003900,20,20173,20173003900,1400000US20173003900,KICE INDUSTRIES SOUTH FACILITY,2040 S MEAD,WICHITA,KS,67211,"KICE INDUSTRIES SOUTH FACILITY.2040 S MEAD, WICHITA KANSAS 67211 (SEDGWICK)",0,C,,
66061HNYWL23500,-94.85700000000001,38.936,False,20,091,052801,20,20091,20091052801,1400000US20091052801,HONEYWELL AEROSPACE OLATHE,23500 W 105TH ST,OLATHE,KS,66061,"HONEYWELL AEROSPACE OLATHE.23500 W 105TH ST, OLATHE KANSAS 66061 (JOHNSON)",0,C,,110012702646
66215NVRSL11801,-94.723,38.972,False,20,091,980002,20,20091,20091980002,1400000US20091980002,UNIVERSAL ENGRAVING INC,11801 86TH TERRACE,LENEXA,KS,66215,"UNIVERSAL ENGRAVING INC.11801 86TH TERRACE, LENEXA KANSAS 66215 (JOHNSON)",0,C,,110002128313
66214MCHNL84BND,-94.72,38.983000000000004,False,20,091,980002,20,20091,20091980002,1400000US20091980002,MACHINE LABORATORY,8040 BOND,LENEXA,KS,66214,"MACHINE LABORATORY.8040 BOND, LENEXA KANSAS 66214 (JOHNSON)",0,C,,110015822369
66762TKNSN1801E,-94.696,37.433,False,20,037,957100,20,20037,20037957100,1400000US20037957100,ATKINSON INDUSTRIES INC,1801 E 27TH ST TERRACE,PITTSBURG,KS,66762,"ATKINSON INDUSTRIES INC.1801 E 27TH ST TERRACE, PITTSBURG KANSAS 66762 (CRAWFORD)",0,C,,110000793151
66781CMBRC1000B,-94.77600000000001,37.3,False,20,021,958100,20,20021,20021958100,1400000US20021958100,ACME BRICK CO WEIR,1000 BRICKYARD ROAD,WEIR,KS,66781,"ACME BRICK CO WEIR.1000 BRICKYARD ROAD, WEIR KANSAS 66781 (CHEROKEE)",0,C,,
66967RLWNMEHWY3,-98.777,39.785,False,20,183,475800,20,20183,20183475800,1400000US20183475800,ARLWIN MANUFACTURING CO INC,720 E HWY 36,SMITH CENTER,KS,66967,"ARLWIN MANUFACTURING CO INC.720 E HWY 36, SMITH CENTER KANSAS 66967 (SMITH)",0,C,,110008345843
67337TSSND515NL,-95.611,37.049,False,20,125,951100,20,20125,20125951100,1400000US20125951100,TESSENDERLO KERLEY INC,515 N LAUREL,COFFEYVILLE,KS,67337,"TESSENDERLO KERLEY INC.515 N LAUREL, COFFEYVILLE KANSAS 67337 (MONTGOMERY)",0,C,,110000568920
67467FBRGL1110L,-97.684,39.132,False,20,143,085700,20,20143,20143085700,1400000US20143085700,A-1 FIBERGLASS,1110 LIMESTONE BLDG  E,MINNEAPOLIS,KS,67467,"A-1 FIBERGLASS.1110 LIMESTONE BLDG  E, MINNEAPOLIS KANSAS 67467 (OTTAWA)",1,C,,
67467DKPLS703WI,-97.725,39.13,False,20,143,085700,20,20143,20143085700,1400000US20143085700,DAK PLASTICS INC,703 W INDUSTRIAL RD,MINNEAPOLIS,KS,67467,"DAK PLASTICS INC.703 W INDUSTRIAL RD, MINNEAPOLIS KANSAS 67467 (OTTAWA)",1,C,,
67467DKPLS1125W,-97.725,39.131,False,20,143,085700,20,20143,20143085700,1400000US20143085700,DAK PLASTICS INC,1125 W INDUSTRIAL RD,MINNEAPOLIS,KS,67467,"DAK PLASTICS INC.1125 W INDUSTRIAL RD, MINNEAPOLIS KANSAS 67467 (OTTAWA)",0,C,,110064210679
67547CRGLL301US,-99.411,37.925,False,20,047,969700,20,20047,20047969700,1400000US20047969700,CARGILL INC,301 US HWY 56,KINSLEY,KS,67547,"CARGILL INC.301 US HWY 56, KINSLEY KANSAS 67547 (EDWARDS)",0,C,,
66211FRDYC11450,-94.654,38.922,False,20,091,053201,20,20091,20091053201,1400000US20091053201,FORDYCE CONCRETE CO INC SPRINT FACILITY,11450 OUTLOOK,OVERLAND PARK,KS,66211,"FORDYCE CONCRETE CO INC SPRINT FACILITY.11450 OUTLOOK, OVERLAND PARK KANSAS 66211 (JOHNSON)",0,C,,
66441GNMRM2321N,-96.84100000000001,39.049,False,20,061,000200,20,20061,20061000200,1400000US20061000200,GENMAR MANUFACTURING OF KANSAS LLC,2321 N JACKSON ST,JUNCTION CITY,KS,66441,"GENMAR MANUFACTURING OF KANSAS LLC.2321 N JACKSON ST, JUNCTION CITY KANSAS 66441 (GEARY)",0,C,,
66523LLMRC126NI,-95.805,38.634,False,20,139,010400,20,20139,20139010400,1400000US20139010400,ALL AMERICAN HOMES OF KANSAS LLC,126 NICHOLS RD,OSAGE CITY,KS,66523,"ALL AMERICAN HOMES OF KANSAS LLC.126 NICHOLS RD, OSAGE CITY KANSAS 66523 (OSAGE)",0,C,,110012711379
67217PCKKN3511S,-97.389,37.63,False,20,173,005400,20,20173,20173005400,1400000US20173005400,APAC KANSAS INC SHEARS ASPHALT PLANT 416,3511 S WEST ST,WICHITA,KS,67217,"APAC KANSAS INC SHEARS ASPHALT PLANT 416.3511 S WEST ST, WICHITA KANSAS 67217 (SEDGWICK)",0,C,,
6721WWVRMN4261S,-97.39,37.617,False,20,173,005400,20,20173,20173005400,1400000US20173005400,EXACTA SOUTH,4261 S WEST ST,WICHITA,KS,67217,"EXACTA SOUTH.4261 S WEST ST, WICHITA KANSAS 67217 (SEDGWICK)",0,C,,110064455076
6721WPRKRL4343S,-97.389,37.616,False,20,173,005400,20,20173,20173005400,1400000US20173005400,RELADYNE - PARKER OIL CO INC,4343 S WEST ST,WICHITA,KS,67217,"RELADYNE - PARKER OIL CO INC.4343 S WEST ST, WICHITA KANSAS 67217 (SEDGWICK)",0,C,,110022447128
67601PCKNS2170E,-99.29700000000001,38.861,False,20,051,072702,20,20051,20051072702,1400000US20051072702,APAC KANSAS INC SHEARS ASPHALT PLANT 421,2170 E 9TH,HAYS,KS,67601,"APAC KANSAS INC SHEARS ASPHALT PLANT 421.2170 E 9TH, HAYS KANSAS 67601 (ELLIS)",0,C,,
67601CHMPN119RE,-99.315,38.859,False,20,051,072702,20,20051,20051072702,1400000US20051072702,NALCO COMPANY-HAYS,1019 RESERVATION RD,HAYS,KS,67601,"NALCO COMPANY-HAYS.1019 RESERVATION RD, HAYS KANSAS 67601 (ELLIS)",0,C,,110020514745
6760WHSSSR267E9,-99.29,38.861,False,20,051,072702,20,20051,20051072702,1400000US20051072702,HESS SERVICES INC,2670 E. 9TH,HAYS,KS,67601,"HESS SERVICES INC.2670 E. 9TH, HAYS KANSAS 67601 (ELLIS)",0,C,,110003204354
67629PRTBL7MILE,-100.177,39.738,False,20,137,951700,20,20137,20137951700,1400000US20137951700,PORTABLE ASPHALT APAC-KANSAS INC SHEARS PLANT NO 422,7 MILES E OF CLAYTON KS ON HWY 383,CLAYTON,KS,67629,"PORTABLE ASPHALT APAC-KANSAS INC SHEARS PLANT NO 422.7 MILES E OF CLAYTON KS ON HWY 383, CLAYTON KANSAS 67629 (NORTON)",0,C,,
67661TMKRF1598H,-99.32799999999999,39.903,False,20,147,475100,20,20147,20147475100,1400000US20147475100,TAMKO BUILDING PRODUCTS INC,1598 HWY 183,PHILLIPSBURG,KS,67661,"TAMKO BUILDING PRODUCTS INC.1598 HWY 183, PHILLIPSBURG KANSAS 67661 (PHILLIPS)",0,C,,110006364120
67661PRRHR1664E,-99.31,39.852,False,20,147,475100,20,20147,20147475100,1400000US20147475100,PRAIRIE HORIZON AGRI-ENERGY LLC,1664 E 100 RD,PHILLIPSBURG,KS,67661,"PRAIRIE HORIZON AGRI-ENERGY LLC.1664 E 100 RD, PHILLIPSBURG KANSAS 67661 (PHILLIPS)",0,C,,110024930994
66118FRDYC211CE,-94.613,39.103,False,20,209,040002,20,20209,20209040002,1400000US20209040002,FORDYCE CONCRETE CO INC CENTRAL AVENUE FACILITY,211 CENTRAL AVE,KANSAS CITY,KS,66118,"FORDYCE CONCRETE CO INC CENTRAL AVENUE FACILITY.211 CENTRAL AVE, KANSAS CITY KANSAS 66118 (WYANDOTTE)",0,C,,110001307817
66118MDSTH213CE,-94.613,39.103,False,20,209,040002,20,20209,20209040002,1400000US20209040002,MID-SOUTH MILLING CO INC,213 CENTRAL AVE,KANSAS CITY,KS,66118,"MID-SOUTH MILLING CO INC.213 CENTRAL AVE, KANSAS CITY KANSAS 66118 (WYANDOTTE)",0,C,,110007364315
67005FTRBF604GO,-97.04799999999999,37.104,False,20,035,493800,20,20035,20035493800,1400000US20035493800,CREEKSTONE FARMS PREMIUM BEEF LLC,604 GOFF IND US TRIAL PARK RD,ARKANSAS CITY,KS,67005,"CREEKSTONE FARMS PREMIUM BEEF LLC.604 GOFF IND US TRIAL PARK RD, ARKANSAS CITY KANSAS 67005 (COWLEY)",0,C,,110012704118
67336FRNTR812N1,-95.101,37.046,False,20,099,950800,20,20099,20099950800,1400000US20099950800,FRONTIER CHARCOAL DIV OF PACKAGING SERVICE CO INC,812 N 11TH STR HWY 59,CHETOPA,KS,67336,"FRONTIER CHARCOAL DIV OF PACKAGING SERVICE CO INC.812 N 11TH STR HWY 59, CHETOPA KANSAS 67336 (LABETTE)",1,C,,
67336SMMTBHWY59,-95.117,37.06,True,20,099,950800,20,20099,20099950800,1400000US20099950800,SUMMIT BUILDINGS,HWY 59 N,CHETOPA,KS,67336,"SUMMIT BUILDINGS HWY 59 N, CHETOPA, KS, 67336",1,C,,
67665SNRGY1224E,-98.84100000000001,38.9,False,20,167,973800,20,20167,20167973800,1400000US20167973800,US ENERGY PARTNERS LLC DBA WHITE ENERGY,1224 E 15TH ST,RUSSELL,KS,67665,"US ENERGY PARTNERS LLC DBA WHITE ENERGY.1224 E 15TH ST, RUSSELL KANSAS 67665 (RUSSELL)",0,C,,110016688011
6766WSNRGY13E15,-98.844,38.9,False,20,167,973800,20,20167,20167973800,1400000US20167973800,US ENERGY PARTNERS LLC,1030 E 15TH,RUSSELL,KS,67665,"US ENERGY PARTNERS LLC.1030 E 15TH, RUSSELL KANSAS 67665 (RUSSELL)",0,C,,110003213273
66002NTRLN2604I,-95.154,39.556,False,20,005,081700,20,20005,20005081700,1400000US20005081700,PROGRESS RAIL- FASTENER DIV,2604 INDUSTRY ST,ATCHISON,KS,66002,"PROGRESS RAIL- FASTENER DIV.2604 INDUSTRY ST, ATCHISON KANSAS 66002 (ATCHISON)",0,C,,110001354392
6600WTCHSN153HI,-95.13799999999999,39.556999999999995,False,20,005,081700,20,20005,20005081700,1400000US20005081700,ATCHISON READY MIX PLANT 25,1503 HIGHWAY 59,ATCHISON,KS,66002,"ATCHISON READY MIX PLANT 25.1503 HIGHWAY 59, ATCHISON KANSAS 66002 (ATCHISON)",0,C,,110070244726
66061BRDWY1010W,-94.831,38.884,False,20,091,052803,20,20091,20091052803,1400000US20091052803,BROADWAY COLLECTION BY SCHLAGE,1010 W SANTA FE ST,OLATHE,KS,66061,"BROADWAY COLLECTION BY SCHLAGE.1010 W SANTA FE ST, OLATHE KANSAS 66061 (JOHNSON)",0,C,,
67152CLRKM1936N,-97.39399999999999,37.285,False,20,191,962500,20,20191,20191962500,1400000US20191962500,CLARK MANUFACTURING INC,1936 N A ST,WELLINGTON,KS,67152,"CLARK MANUFACTURING INC.1936 N A ST, WELLINGTON KANSAS 67152 (SUMNER)",0,C,,110011247953
67333SPRSMRR1BX,-95.89200000000001,37.025,False,20,125,951300,20,20125,20125951300,1400000US20125951300,SPEARS MANUFACTURING CO,1220 S STATE ST,CANEY,KS,67333,"SPEARS MANUFACTURING CO.1220 S STATE ST, CANEY KANSAS 67333 (MONTGOMERY)",0,C,,110022411362
67579JCMCH425S1,-98.21600000000001,38.203,False,20,159,967300,20,20159,20159967300,1400000US20159967300,JACAM MANUFACTURING 2013 LLC SOUTH PLANT,425 S 11TH ST,STERLING,KS,67579,"JACAM MANUFACTURING 2013 LLC SOUTH PLANT.425 S 11TH ST, STERLING KANSAS 67579 (RICE)",0,C,,110017581339
67579KMWLT535WG,-98.213,38.203,False,20,159,967300,20,20159,20159967300,1400000US20159967300,KMW LTD,535 W GARFIELD AVE,STERLING,KS,67579,"KMW LTD.535 W GARFIELD AVE, STERLING KANSAS 67579 (RICE)",0,C,,110001239188
6755WKNSST163AV,-98.195,38.29,False,20,159,967300,20,20159,20159967300,1400000US20159967300,KANSAS ETHANOL LLC,1630 AVENUE Q,LYONS,KS,67554,"KANSAS ETHANOL LLC.1630 AVENUE Q, LYONS KANSAS 67554 (RICE)",0,C,,110035798580
6757WJCMMN1656A,-98.20700000000001,38.208,False,20,159,967300,20,20159,20159967300,1400000US20159967300,JACAM MANUFACTURING 2013 LLC NORTH PLANT,1656 AVE Q,STERLING,KS,67579,"JACAM MANUFACTURING 2013 LLC NORTH PLANT.1656 AVE Q, STERLING KANSAS 67579 (RICE)",0,C,,110055233885
66012LDCST421PW,-94.853,39.053000000000004,False,20,091,052603,20,20091,20091052603,1400000US20091052603,OLDCASTLE MILLER BONNER SPRINGS,4201 POWELL DR,BONNER SPRINGS,KS,66012,"OLDCASTLE MILLER BONNER SPRINGS.4201 POWELL DR, BONNER SPRINGS KANSAS 66012 (JOHNSON)",0,C,,110017844305
6622WFRTRR236W4,-94.86,39.056,False,20,091,052603,20,20091,20091052603,1400000US20091052603,FORTERRA CONCRETE PRODUCTS - BONNER SPRINGS,23600 W 40TH ST,SHAWNEE,KS,66226,"FORTERRA CONCRETE PRODUCTS - BONNER SPRINGS.23600 W 40TH ST, SHAWNEE KANSAS 66226 (JOHNSON)",0,C,,110069312871
67068PGNCX1SPEN,-98.105,37.643,False,20,095,961200,20,20095,20095961200,1400000US20095961200,GREAT LAKES POLYMER TECHNOLOGIES LLC,100 FABPRO WAY,KINGMAN,KS,67068,"GREAT LAKES POLYMER TECHNOLOGIES LLC.100 FABPRO WAY, KINGMAN KANSAS 67068 (KINGMAN)",0,C,,110039494188
67219KCNDS55MIL,-97.321,37.782,False,20,173,008000,20,20173,20173008000,1400000US20173008000,KICE INDUSTRIES INC,5500 MILL HEIGHTS DR,WICHITA,KS,67219,"KICE INDUSTRIES INC.5500 MILL HEIGHTS DR, WICHITA KANSAS 67219 (SEDGWICK)",0,C,,110016757543
67748WSTRN322CU,-100.736,39.122,False,20,063,955200,20,20063,20063955200,1400000US20063955200,WESTERN PLAINS ENERGY LLC,3022 COUNTY RD 18,OAKLEY,KS,67748,"WESTERN PLAINS ENERGY LLC.3022 COUNTY RD 18, OAKLEY KANSAS 67748 (GOVE)",0,C,,110016798768
67062LFRGN355WW,-97.274,37.543,False,20,173,009801,20,20173,20173009801,1400000US20173009801,LAFARGE NORTH AMERICA INC DERBY READY MIX,355 W WASHINGTON ST,DERBY,KS,67037,"LAFARGE NORTH AMERICA INC DERBY READY MIX.355 W WASHINGTON ST, DERBY KANSAS 67037 (SEDGWICK)",0,C,,110025317253
67205LFRGN246NS,-97.417,37.73,False,20,173,009503,20,20173,20173009503,1400000US20173009503,LAFARGE NORTH AMERICA INC WICHITA NORTHSHORE READY MIX,2460 N SHORE BLVD,WICHITA,KS,67205,"LAFARGE NORTH AMERICA INC WICHITA NORTHSHORE READY MIX.2460 N SHORE BLVD, WICHITA KANSAS 67205 (SEDGWICK)",0,C,,110016705653
67449HDGDN1347S,-96.82,38.689,False,20,127,963600,20,20127,20127963600,1400000US20127963600,HODGDON POWDER CO HERINGTON FACILITY,1347 S 2600 RD,HERINGTON,KS,67449,"HODGDON POWDER CO HERINGTON FACILITY.1347 S 2600 RD, HERINGTON KANSAS 67449 (MORRIS)",0,C,,110024887559
67226SNCNM9313E,-97.23,37.755,False,20,173,010106,20,20173,20173010106,1400000US20173010106,FIGEAC AERO WICHITA,9313 E 39TH ST N,WICHITA,KS,67226,"FIGEAC AERO WICHITA.9313 E 39TH ST N, WICHITA KANSAS 67226 (SEDGWICK)",0,C,,110012205185
67846BNNZB283EU,-100.836,37.959,False,20,055,960501,20,20055,20055960501,1400000US20055960501,BONANZA BIOENERGY LLC,2830 E US HIGHWAY 50,GARDEN CITY,KS,67846,"BONANZA BIOENERGY LLC.2830 E US HIGHWAY 50, GARDEN CITY KANSAS 67846 (FINNEY)",0,C,,110030562772
67901BJCHM1WPAN,-100.93700000000001,37.03,False,20,175,965900,20,20175,20175965900,1400000US20175965900,BJ CHEMICAL SERVICES,1000 W PANCAKE,LIBERAL,KS,67905,"BJ CHEMICAL SERVICES.1000 W PANCAKE, LIBERAL KANSAS 67905 (SEWARD)",0,C,,110030557458
6650WFLRNC5935C,-96.677,39.141,False,20,161,000900,20,20161,20161000900,1400000US20161000900,FLORENCE CORP OF KANSAS,5935 CORPORATE DR.,MANHATTAN,KS,66503,"FLORENCE CORP OF KANSAS.5935 CORPORATE DR., MANHATTAN KANSAS 66503 (RILEY)",0,C,,110017376052
6650WPLNTX27W52,-96.663,39.135,False,20,161,000900,20,20161,20161000900,1400000US20161000900,PLANT #5,2070 W 52ND AVE,MANHATTAN,KS,66502,"PLANT #5.2070 W 52ND AVE, MANHATTAN KANSAS 66502 (RILEY)",0,C,,110042001990
6650WPLNTX71S4T,-96.56200000000001,39.173,False,20,161,000900,20,20161,20161000900,1400000US20161000900,PLANT #6,701 S 4TH ST.,MANHATTAN,KS,66502,"PLANT #6.701 S 4TH ST., MANHATTAN KANSAS 66502 (RILEY)",0,C,,110008343872
6650WPNNYS2633E,-96.65100000000001,39.150999999999996,False,20,161,000900,20,20161,20161000900,1400000US20161000900,PENNY'S CONCRETE INC,2633 EUREKA TERRACE,MANHATTAN,KS,66503,"PENNY'S CONCRETE INC.2633 EUREKA TERRACE, MANHATTAN KANSAS 66503 (RILEY)",0,C,,110038126275
6696WNSKNR127RA,-97.824,39.787,False,20,157,978200,20,20157,20157978200,1400000US20157978200,NESIKA ENERGY,1020 70 RD,SCANDIA,KS,66966,"NESIKA ENERGY.1020 70 RD, SCANDIA KANSAS 66966 (REPUBLIC)",0,C,,110033149064
6790WRKLNT481RA,-100.796,37.108000000000004,False,20,175,965600,20,20175,20175965600,1400000US20175965600,ARKALON ETHANOL LLC,8664 RD P,LIBERAL,KS,67901,"ARKALON ETHANOL LLC.8664 RD P, LIBERAL KANSAS 67901 (SEWARD)",0,C,,110032953294
6644WPLNTX2829A,-96.852,39.056,False,20,061,000300,20,20061,20061000300,1400000US20061000300,PLANT #9,2829 ALT HWY 77,JUNCTION CITY,KS,66441,"PLANT #9.2829 ALT HWY 77, JUNCTION CITY KANSAS 66441 (GEARY)",0,C,,110042001963
6604WFDRLB13MET,-94.935,39.328,False,20,103,981900,20,20103,20103981900,1400000US20103981900,FEDERAL BUREAU OF PRISONS US PENITENTIARY,1300 METROPOLITAN AVE.,LEAVENWORTH,KS,66048,"FEDERAL BUREAU OF PRISONS US PENITENTIARY.1300 METROPOLITAN AVE., LEAVENWORTH KANSAS 66048 (LEAVENWORTH)",0,F,,110001244546
6661WLDCST523NW,-95.743,39.08,False,20,177,003500,20,20177,20177003500,1400000US20177003500,OLDCASTLE PRECAST INC,5230 NW 17TH ST,TOPEKA,KS,66618,"OLDCASTLE PRECAST INC.5230 NW 17TH ST, TOPEKA KANSAS 66618 (SHAWNEE)",0,C,,110009969105
3119WSGRCR16WES,-94.723,37.454,False,20,037,956900,20,20037,20037956900,1400000US20037956900,SUGAR CREEK PACKING COMPANY,1600 WEST MCKAY STREET,FRONTENAC,KS,66763,"SUGAR CREEK PACKING COMPANY.1600 WEST MCKAY STREET, FRONTENAC KANSAS 66763 (CRAWFORD)",0,C,,110003143795
6676WRDLYB157SH,-94.647,37.443000000000005,False,20,037,956900,20,20037,20037956900,1400000US20037956900,RIDLEY BLOCK OPERATIONS,1057 S HWY 69,PITTSBURG,KS,66762,"RIDLEY BLOCK OPERATIONS.1057 S HWY 69, PITTSBURG KANSAS 66762 (CRAWFORD)",0,C,,110013323279
6788WLYSSS795SU,-101.363,37.569,False,20,067,963700,20,20067,20067963700,1400000US20067963700,KUGLER OIL CO - UDF,795 SOUTH ROAD H,ULYSSES,KS,67880,"KUGLER OIL CO - UDF.795 SOUTH ROAD H, ULYSSES KANSAS 67880 (GRANT)",0,C,,110064275500
6610WRGNSP152WL,-94.822,39.201,False,20,209,044804,20,20209,20209044804,1400000US20209044804,ERGON ASPHALT & EMULSIONS INC - WOLCOTT,10520 WOLCOTT DRIVE,KANSAS CITY,KS,66109,"ERGON ASPHALT & EMULSIONS INC - WOLCOTT.10520 WOLCOTT DRIVE, KANSAS CITY KANSAS 66109 (WYANDOTTE)",0,C,,110060259321
6643WHMMRS41CEN,-95.527,39.657,False,20,013,480800,20,20013,20013480800,1400000US20013480800,HAMMERSMITH MANUFACTURING & SALES INC,401 CENTRAL AVE,HORTON,KS,66439,"HAMMERSMITH MANUFACTURING & SALES INC.401 CENTRAL AVE, HORTON KANSAS 66439 (BROWN)",0,C,,110024704122
6676WCSTML48VER,-94.677,38.079,False,20,107,955200,20,20107,20107955200,1400000US20107955200,CUSTOM ALLOY SALES 34P LLC,4008 VERNON RD,PRESCOTT,KS,66767,"CUSTOM ALLOY SALES 34P LLC.4008 VERNON RD, PRESCOTT KANSAS 66767 (LINN)",1,C,,110058291138
6773WGRLQD16E19,-101.712,39.339,False,20,181,453700,20,20181,20181453700,1400000US20181453700,AGROLIQUID - GOODLAND,106 E 19TH ST,GOODLAND,KS,67735,"AGROLIQUID - GOODLAND.106 E 19TH ST, GOODLAND KANSAS 67735 (SHERMAN)",0,C,,110070055350
6606WFRTRR515US,-95.329,39.139,False,20,087,020300,20,20087,20087020300,1400000US20087020300,FORTERRA CONCRETE PRODUCTS - OSKALOOSA,5150 US-59,OSKALOOSA,KS,66066,"FORTERRA CONCRETE PRODUCTS - OSKALOOSA.5150 US-59, OSKALOOSA KANSAS 66066 (JEFFERSON)",0,C,,110069315468
6720WPXNGN1812W,-97.363,37.688,False,20,173,001500,20,20173,20173001500,1400000US20173001500,APEX ENGINEERING INTERNATIONAL LLC,1812 W SECOND ST N,WICHITA,KS,67203,"APEX ENGINEERING INTERNATIONAL LLC.1812 W SECOND ST N, WICHITA KANSAS 67203 (SEDGWICK)",0,C,,110017585237
6741WBLNCN28SMU,-97.21799999999999,38.914,False,20,041,084400,20,20041,20041084400,1400000US20041084400,PLANT #2 ABILENE KS,1101 N PORTLAND ST,ABILENE,KS,67410,"PLANT #2 ABILENE KS.1101 N PORTLAND ST, ABILENE KANSAS 67410 (DICKINSON)",0,C,,110017525917
6607WJFFRS778LE,-95.384,39.056,False,20,087,020102,20,20087,20087020102,1400000US20087020102,JEFFERSON COUNTY READY MIX CONCRETE PLANT 23,778 LECOMPTON RD,PERRY,KS,66073,"JEFFERSON COUNTY READY MIX CONCRETE PLANT 23.778 LECOMPTON RD, PERRY KANSAS 66073 (JEFFERSON)",0,C,,110069308671
6620WCNCRT99WES,-94.70100000000001,38.993,False,20,091,052004,20,20091,20091052004,1400000US20091052004,CONCRETE MATERIALS INC,9900 W 75TH ST,MERRIAM,KS,66204,"CONCRETE MATERIALS INC.9900 W 75TH ST, MERRIAM KANSAS 66204 (JOHNSON)",0,C,,110009972048
6642WFRNKF42W2N,-96.42399999999999,39.702,False,20,117,040701,20,20117,20117040701,1400000US20117040701,FRANKFORT READY MIX PLANT 24,402 W 2ND ST,FRANKFORT,KS,66427,"FRANKFORT READY MIX PLANT 24.402 W 2ND ST, FRANKFORT KANSAS 66427 (MARSHALL)",0,C,,110069290305
6721WZTMNC411E3,-97.29,37.635,False,20,173,006100,20,20173,20173006100,1400000US20173006100,ZTM INC,4011 E 31ST ST S,WICHITA,KS,67210,"ZTM INC.4011 E 31ST ST S, WICHITA KANSAS 67210 (SEDGWICK)",0,C,,110069246881
6608WLDCST71W16,-94.66799999999999,38.825,False,20,091,053803,20,20091,20091053803,1400000US20091053803,OLDCASTLE LAWN & GARDEN,7100 W 167TH ST,STILWELL,KS,66085,"OLDCASTLE LAWN & GARDEN.7100 W 167TH ST, STILWELL KANSAS 66085 (JOHNSON)",0,C,,110070035067
6660WCNCRT245NW,-95.706,39.071,False,20,177,004100,20,20177,20177004100,1400000US20177004100,CONCRETE SUPPLY OF TOPEKA,2450 NW WATER WORKS DR,TOPEKA,KS,66606,"CONCRETE SUPPLY OF TOPEKA.2450 NW WATER WORKS DR, TOPEKA KANSAS 66606 (SHAWNEE)",0,C,,110030563959
6784WCNCRT111JC,-100.851,37.961999999999996,False,20,055,960507,20,20055,20055960507,1400000US20055960507,CONCRETE INDUSTRIES,111 JC ST,GARDEN CITY,KS,67846,"CONCRETE INDUSTRIES.111 JC ST, GARDEN CITY KANSAS 67846 (FINNEY)",0,C,,110070208629
6784WDRYFR33SUT,-100.84100000000001,37.98,False,20,055,960507,20,20055,20055960507,1400000US20055960507,DAIRY FARMERS OF AMERICA - GARDEN CITY,330 SOUTH HIGHWAY 83,GARDEN CITY,KS,67846,"DAIRY FARMERS OF AMERICA - GARDEN CITY.330 SOUTH HIGHWAY 83, GARDEN CITY KANSAS 67846 (FINNEY)",0,C,,110070225845
6787WPCSBLHCR1H,-100.844,37.482,False,20,081,463100,20,20081,20081463100,1400000US20081463100,APC SUBLETTE,"HCR 1, HWY 83 NORTH",SUBLETTE,KS,67877,"APC SUBLETTE.HCR 1, HWY 83 NORTH, SUBLETTE KANSAS 67877 (HASKELL)",0,C,,110063652685
66523PRTBL7MILE,-95.743,39.634,True,20,085,082600,20,20139,20085082600,1400000US20085082600,PORTABLE ASPHALT APAC-KANSAS INC SHEARS PLANT NO 411,7 MILES S & 2 MILES E OF OSAGE,OSAGE CITY,KS,66523,"PORTABLE ASPHALT APAC-KANSAS INC SHEARS PLANT NO 411 7 MILES S & 2 MILES E OF OSAGE, OSAGE CITY, KS, 66523",0,C,,
66932PRTBL1MILE,-98.92,39.766,True,20,183,475900,20,20183,20183475900,1400000US20183475900,PORTABLE ASPHALT APAC-KANSAS INC SHEARS PLANT NO 405,1 MILE E OF ATHOL KS ON US-36,ATHOL,KS,66932,"PORTABLE ASPHALT APAC-KANSAS INC SHEARS PLANT NO 405 1 MILE E OF ATHOL KS ON US-36, ATHOL, KS, 66932",0,C,,
66940PRTBL12MIL,-97.456,39.803,True,20,157,978100,20,20157,20157978100,1400000US20157978100,PORTABLE ASPHALT APAC-KANSAS INC SHEARS PLANT NO 405,1/2 MILE E OF CUBA KANSAS ON US 36,CUBA,KS,66940,"PORTABLE ASPHALT APAC-KANSAS INC SHEARS PLANT NO 405 1/2 MILE E OF CUBA KANSAS ON US 36, CUBA, KS, 66940",0,C,,
66949PRTBL12MIL,-98.154,39.672,True,20,089,576200,20,20089,20089576200,1400000US20089576200,PORTABLE ASPHALT APAC-KANSAS INC SHEARS PLANT NO 405,12 MILES E OF JEWELL KS ON K-148,JEWELL,KS,66949,"PORTABLE ASPHALT APAC-KANSAS INC SHEARS PLANT NO 405 12 MILES E OF JEWELL KS ON K-148, JEWELL, KS, 66949",0,C,,
67010PCKNS11221,-96.977,38.237,True,20,115,489800,20,20015,20115489800,1400000US20115489800,APAC KANSAS INC SHEARS ASPHALT PLANT 417,11221 SW HWY 54,AUGUSTA,KS,67010,"APAC KANSAS INC SHEARS ASPHALT PLANT 417 11221 SW HWY 54, AUGUSTA, KS, 67010",0,C,,
67214KRNTN400EA,-97.298,37.72,True,20,173,000900,20,20173,20173000900,1400000US20173000900,KREONITE INC,400 E 18TH ST,WICHITA,KS,67214,"KREONITE INC 400 E 18TH ST, WICHITA, KS, 67214",0,C,,
67467LDRDM1200W,-97.596,39.154,True,20,143,085600,20,20143,20143085600,1400000US20143085600,EL DORADO MOTOR CORP,1200 WEST 10TH,MINNEAPOLIS,KS,67467,"EL DORADO MOTOR CORP 1200 WEST 10TH, MINNEAPOLIS, KS, 67467",0,C,,
67501PCKNS300AI,-97.93,38.061,True,20,155,000500,20,20155,20155000500,1400000US20155000500,APAC KANSAS INC SHEARS ASPHALT PLANT 401,300 AIRPORT RD,HUTCHINSON,KS,67501,"APAC KANSAS INC SHEARS ASPHALT PLANT 401 300 AIRPORT RD, HUTCHINSON, KS, 67501",0,C,,
