TRIFID,LONGITUDE,LATITUDE,ESTIMATE,STATEFP,COUNTYFP,TRACTCE,STATEGEOID,COUNTYGEOID,TRACTGEOID,AFFGEOID,FACILITY_NAME,STREET,CITY,STUSPS,ZIP_CODE,FACILITY,FAC_CLOSED_IND,ASGN_FEDERAL_IND,BIA_CODE,EPA_REGISTRY_ID
20604MBSSYRT301,-76.84899999999999,38.617,False,24,017,850802,24,24017,24017850802,1400000US24017850802,EMBASSY DAIRY INC,RT 301 & MATTAWOMAN DR,WALDORF,MD,20601,"EMBASSY DAIRY INC.RT 301 & MATTAWOMAN DR, WALDORF MARYLAND 20601 (CHARLES)",0,C,,
2060WWLDRF12475,-76.888,38.631,False,24,017,850802,24,24017,24017850802,1400000US24017850802,WALDORF PLANT,12475 ACTON LN,WALDORF,MD,20601,"WALDORF PLANT.12475 ACTON LN, WALDORF MARYLAND 20601 (CHARLES)",0,C,,110055497715
20695WLDRF6309T,-76.946,38.591,False,24,017,851500,24,24017,24017851500,1400000US24017851500,WALDORF MARBLE INC,4317 CHARLES CROSSING DR,WHITE PLAINS,MD,20695,"WALDORF MARBLE INC.4317 CHARLES CROSSING DR, WHITE PLAINS MARYLAND 20695 (CHARLES)",0,C,,110019859358
20705CHRKS7100M,-76.884,39.062,False,24,033,800208,24,24033,24033800208,1400000US24033800208,CHEROKEE SANFORD GROUP LLC LAUREL FACILITY,7100 MUIRKIRK RD,BELTSVILLE,MD,20705,"CHEROKEE SANFORD GROUP LLC LAUREL FACILITY.7100 MUIRKIRK RD, BELTSVILLE MARYLAND 20705 (PRINCE GEORGE'S)",0,C,,
20705DRNNC10406,-76.917,39.025,False,24,033,807404,24,24033,24033807404,1400000US24033807404,SHERWIN-WILLIAMS CO,10406 TUCKER ST,BELTSVILLE,MD,20705,"SHERWIN-WILLIAMS CO.10406 TUCKER ST, BELTSVILLE MARYLAND 20705 (PRINCE GEORGE'S)",0,C,,110000339170
20705BLTSV511DE,-76.902,39.042,False,24,033,807404,24,24033,24033807404,1400000US24033807404,BELTSVILLE READY MIX CONCRETE,5101 ODELL RD,BELTSVILLE,MD,20705,"BELTSVILLE READY MIX CONCRETE.5101 ODELL RD, BELTSVILLE MARYLAND 20705 (PRINCE GEORGE'S)",0,C,,110039071269
20705GGPRS11642,-76.89399999999999,39.045,False,24,033,807408,24,24033,24033807408,1400000US24033807408,EATON AEROSPACE,11642 OLD BALTIMORE PIKE,BELTSVILLE,MD,20705,"EATON AEROSPACE.11642 OLD BALTIMORE PIKE, BELTSVILLE MARYLAND 20705 (PRINCE GEORGE'S)",0,C,,110000856681
20705MNRLP7011M,-76.883,39.061,False,24,033,807408,24,24033,24033807408,1400000US24033807408,VENATOR AMERICAS LLC,7011 MUIRKIRK RD,BELTSVILLE,MD,20705,"VENATOR AMERICAS LLC.7011 MUIRKIRK RD, BELTSVILLE MARYLAND 20705 (PRINCE GEORGE'S)",0,C,,110000339189
20705CPHLN9000V,-76.892,39.062,False,24,033,807408,24,24033,24033807408,1400000US24033807408,CEPHALON INC.,"9000 VIRGINIA MANOR RD., STE. 290",BELTSVILLE,MD,20705,"CEPHALON INC..9000 VIRGINIA MANOR RD., STE. 290, BELTSVILLE MARYLAND 20705 (PRINCE GEORGE'S)",0,C,,
20705SDRSB10300,-76.885,39.029,False,24,033,807408,24,24033,24033807408,1400000US24033807408,USDA ARS BELTSVILLE AGRICULTURAL RESEARCH CENTER,10300 BALTIMORE AVE BUILDING 003 ROOM 117,BELTSVILLE,MD,20705,"USDA ARS BELTSVILLE AGRICULTURAL RESEARCH CENTER.10300 BALTIMORE AVE BUILDING 003 ROOM 117, BELTSVILLE MARYLAND 20705 (PRINCE GEORGE'S)",0,F,,110011748582
2070WNTNLL6AMME,-76.902,39.056,False,24,033,807408,24,24033,24033807408,1400000US24033807408,BUREAU OF ALCOHOL TOBACCO FIREARMS & EXPLOSIVES,6000 AMMENDALE RD,BELTSVILLE,MD,20705,"BUREAU OF ALCOHOL TOBACCO FIREARMS & EXPLOSIVES.6000 AMMENDALE RD, BELTSVILLE MARYLAND 20705 (PRINCE GEORGE'S)",0,F,,110014351030
20707MRYLNPOBOX,-76.87,39.141999999999996,False,24,027,606806,24,24027,24027606806,1400000US24027606806,MARYLAND & VIRGINIA LAUREL LLC,8321 LEISHEAR RD,LAUREL,MD,20723,"MARYLAND & VIRGINIA LAUREL LLC.8321 LEISHEAR RD, LAUREL MARYLAND 20723 (HOWARD)",0,C,,110000761765
20707STCST9090W,-76.829,39.114000000000004,False,24,027,606907,24,24027,24027606907,1400000US24027606907,DREYER'S GRAND ICE CREAM INC,9090 WHISKEY BOTTOM RD,LAUREL,MD,20723,"DREYER'S GRAND ICE CREAM INC.9090 WHISKEY BOTTOM RD, LAUREL MARYLAND 20723 (HOWARD)",0,C,,110000339205
20723PCNCB9893B,-76.832,39.113,False,24,027,606907,24,24027,24027606907,1400000US24027606907,PACE INC BREWERS CT FACILITY,9893 BREWERS CT,LAUREL,MD,20723,"PACE INC BREWERS CT FACILITY.9893 BREWERS CT, LAUREL MARYLAND 20723 (HOWARD)",0,C,,
20736TPZMR3BINN,-76.61,38.686,False,24,009,860200,24,24009,24009860200,1400000US24009860200,TOPAZ MARINE CORP,3 BINNACLE LN,OWINGS,MD,20736,"TOPAZ MARINE CORP.3 BINNACLE LN, OWINGS MARYLAND 20736 (CALVERT)",0,C,,
20740MCDVS5115C,-76.929,38.978,False,24,033,807102,24,24033,24033807102,1400000US24033807102,LITTON ADVANCED SYS.,5115 CALVERT RD.,COLLEGE PARK,MD,20740,"LITTON ADVANCED SYS..5115 CALVERT RD., COLLEGE PARK MARYLAND 20740 (PRINCE GEORGE'S)",0,C,,
20740STNND51STA,-76.919,39.004,False,24,033,807000,24,24033,24033807000,1400000US24033807000,STONE INDUSTRIAL,9207 51ST AVE,COLLEGE PARK,MD,20740,"STONE INDUSTRIAL.9207 51ST AVE, COLLEGE PARK MARYLAND 20740 (PRINCE GEORGE'S)",1,C,,110000492510
20747MLLPR7600P,-76.875,38.836,False,24,033,802104,24,24033,24033802104,1400000US24033802104,IONPURE TECHNOLOGIES CORP.,7600 PENN BELT DR.,FORESTVILLE,MD,20747,"IONPURE TECHNOLOGIES CORP..7600 PENN BELT DR., FORESTVILLE MARYLAND 20747 (PRINCE GEORGE'S)",0,C,,
20763BXTRH9299W,-76.816,39.134,False,24,027,606905,24,24027,24027606905,1400000US24027606905,BAXTER HEALTHCARE CORP,9299 WASHINGTON BLVD,SAVAGE,MD,20763,"BAXTER HEALTHCARE CORP.9299 WASHINGTON BLVD, SAVAGE MARYLAND 20763 (HOWARD)",0,C,,
20701GRPHC9025J,-76.804,39.126,False,24,027,606905,24,24027,24027606905,1400000US24027606905,GRAPHIC FINE COLOR INC,9025 JUNCTION DR,ANNAPOLIS JUNCTION,MD,20701,"GRAPHIC FINE COLOR INC.9025 JUNCTION DR, ANNAPOLIS JUNCTION MARYLAND 20701 (HOWARD)",0,C,,
20763BRDNS8600L,-76.81,39.135999999999996,False,24,027,606905,24,24027,24027606905,1400000US24027606905,BRADEN SUTPHIN INK CO,8600 LARKIN RD,SAVAGE,MD,20763,"BRADEN SUTPHIN INK CO.8600 LARKIN RD, SAVAGE MARYLAND 20763 (HOWARD)",0,C,,
20701PCNCJ9030J,-76.804,39.126,False,24,027,606905,24,24027,24027606905,1400000US24027606905,"PACE, INC.",9030 JUNCTION DR,ANNAPOLIS JUNCTION,MD,20701,"PACE, INC..9030 JUNCTION DR, ANNAPOLIS JUNCTION MARYLAND 20701 (HOWARD)",0,C,,110019856100
20781PPSCLPEPSI,-76.926,38.926,False,24,033,804200,24,24033,24033804200,1400000US24033804200,BOTTLING GROUP L.L.C.,2611 PEPSI PL.,CHEVERLY,MD,20781,"BOTTLING GROUP L.L.C..2611 PEPSI PL., CHEVERLY MARYLAND 20781 (PRINCE GEORGE'S)",0,C,,
20785GNTFD6300S,-76.917,38.917,True,24,033,804200,24,24033,24033804200,1400000US24033804200,GIANT FOOD DAIRY,6300 SHERIFF RD.,LANDOVER,MD,20785,"GIANT FOOD DAIRY 6300 SHERIFF RD., LANDOVER, MD, 20785",0,C,,
20781RPRDC29005,-76.934,38.928000000000004,False,24,033,804300,24,24033,24033804300,1400000US24033804300,AIR PRODUCTS & CHEMICALS INC.,2900 52ND AVE.,HYATTSVILLE,MD,20781,"AIR PRODUCTS & CHEMICALS INC..2900 52ND AVE., HYATTSVILLE MARYLAND 20781 (PRINCE GEORGE'S)",0,C,,
20781WHTCP25751,-76.928,38.921,False,24,033,804300,24,24033,24033804300,1400000US24033804300,HD SUPPLY CONSTRUCTION SUPPLY LTD (MD300C-6246),2507 51ST AVE,HYATTSVILLE,MD,20781,"HD SUPPLY CONSTRUCTION SUPPLY LTD (MD300C-6246).2507 51ST AVE, HYATTSVILLE MARYLAND 20781 (PRINCE GEORGE'S)",0,C,,110025331120
2078WBLDNS28252,-76.931,38.927,False,24,033,804300,24,24033,24033804300,1400000US24033804300,BLADENSBURG READY MIX CONCRETE FACILITY,2820 52ND AVE,HYATTSVILLE,MD,20781,"BLADENSBURG READY MIX CONCRETE FACILITY.2820 52ND AVE, HYATTSVILLE MARYLAND 20781 (PRINCE GEORGE'S)",0,C,,110043670284
20785SFWYS6200C,-76.9,38.918,False,24,033,803300,24,24033,24033803300,1400000US24033803300,SAFEWAY INC. MILK PLANT,6200 COLUMBIA PARK RD.,LANDOVER,MD,20785,"SAFEWAY INC. MILK PLANT.6200 COLUMBIA PARK RD., LANDOVER MARYLAND 20785 (PRINCE GEORGE'S)",0,C,,
20785MRVMD5SCLU,-76.896,38.915,False,24,033,803300,24,24033,24033803300,1400000US24033803300,MARVA MAID DAIRY,5 S CLUB DR,HYATTSVILLE,MD,20785,"MARVA MAID DAIRY.5 S CLUB DR, HYATTSVILLE MARYLAND 20785 (PRINCE GEORGE'S)",0,C,,110037071726
20794MGNDS8025D,-76.78699999999999,39.15,False,24,027,606901,24,24027,24027606901,1400000US24027606901,MG INDUSTRIES,8025 DORSEY RUN RD,JESSUP,MD,20794,"MG INDUSTRIES.8025 DORSEY RUN RD, JESSUP MARYLAND 20794 (HOWARD)",0,C,,
20794LCRNC8280P,-76.797,39.147,False,24,027,606901,24,24027,24027606901,1400000US24027606901,ALCORE INC,8280 PATUXENT RANGE RD,JESSUP,MD,20794,"ALCORE INC.8280 PATUXENT RANGE RD, JESSUP MARYLAND 20794 (HOWARD)",1,C,,
20794WNSCR8235P,-76.788,39.145,False,24,027,606901,24,24027,24027606901,1400000US24027606901,OWENS CORNING ROOFING & ASPHALT LLC,8235 PATUXENT RD,JESSUP,MD,20794,"OWENS CORNING ROOFING & ASPHALT LLC.8235 PATUXENT RD, JESSUP MARYLAND 20794 (HOWARD)",0,C,,110001275860
20794HNSNP797WA,-76.778,39.152,False,24,027,606901,24,24027,24027606901,1400000US24027606901,CONCRETE PIPE & PRECAST LLC - JESSUP PLANT,7970 WATERLOO RD,JESSUP,MD,20794,"CONCRETE PIPE & PRECAST LLC - JESSUP PLANT.7970 WATERLOO RD, JESSUP MARYLAND 20794 (HOWARD)",0,C,,110001250716
20701SPRRC1921G,-76.793,39.13,False,24,027,606901,24,24027,24027606901,1400000US24027606901,SUPERIOR CONCRETE MATERIALS INC,10921 GUILFORD RD,ANNAPOLIS JUNCTION,MD,20701,"SUPERIOR CONCRETE MATERIALS INC.10921 GUILFORD RD, ANNAPOLIS JUNCTION MARYLAND 20701 (HOWARD)",0,C,,110006631181
20701NNPLS8BRCK,-76.78699999999999,39.129,False,24,027,606901,24,24003,24027606901,1400000US24027606901,ANNAPOLIS JUNCTION READY-MIX CONCRETE,8000 BROCK BRIDGE RD,ANNAPOLIS JUNCTION,MD,20701,"ANNAPOLIS JUNCTION READY-MIX CONCRETE.8000 BROCK BRIDGE RD, ANNAPOLIS JUNCTION MARYLAND 20701 (ANNE ARUNDEL)",0,C,,
2079WWTRLX7751W,-76.779,39.157,False,24,027,606901,24,24027,24027606901,1400000US24027606901,ELITE SPICE INC,7751 WATERLOO RD,JESSUP,MD,20794,"ELITE SPICE INC.7751 WATERLOO RD, JESSUP MARYLAND 20794 (HOWARD)",0,C,,110070056823
2079WSCHST1782G,-76.798,39.132,False,24,027,606901,24,24027,24027606901,1400000US24027606901,SCHUSTER CONCRETE READY MIX LLC-GUILFORD RD,10782 GUILFORD RD,JESSUP,MD,20794,"SCHUSTER CONCRETE READY MIX LLC-GUILFORD RD.10782 GUILFORD RD, JESSUP MARYLAND 20794 (HOWARD)",0,C,,110070244710
20794WMTBR2112M,-76.765,39.162,False,24,003,740102,24,24003,24003740102,1400000US24003740102,WM T BURNETT & CO,2112 MONTEVIDEO RD,JESSUP,MD,20794,"WM T BURNETT & CO.2112 MONTEVIDEO RD, JESSUP MARYLAND 20794 (ANNE ARUNDEL)",0,C,,110000339287
20794LFRGM797LD,-76.774,39.153,False,24,003,740102,24,24003,24003740102,1400000US24003740102,LAFARGE MID ATLANTIC JESSUP RMX,7970 OLD JESSUP RD,JESSUP,MD,20794,"LAFARGE MID ATLANTIC JESSUP RMX.7970 OLD JESSUP RD, JESSUP MARYLAND 20794 (ANNE ARUNDEL)",0,C,,110003532080
20850MRYLN235EA,-77.15100000000001,39.105,False,24,031,701211,24,24031,24031701211,1400000US24031701211,MARYLAND WOOD PRESERVING CORP,235 DERWOOD CIR,ROCKVILLE,MD,20850,"MARYLAND WOOD PRESERVING CORP.235 DERWOOD CIR, ROCKVILLE MARYLAND 20850 (MONTGOMERY)",0,C,,
20850LFRGM14824,-77.137,39.1,False,24,031,701211,24,24031,24031701211,1400000US24031701211,LAFARGE MID ATLANTIC LLC -ROCKVILLE EAST CONCRETE,14824 S LAWN LN,ROCKVILLE,MD,20850,"LAFARGE MID ATLANTIC LLC -ROCKVILLE EAST CONCRETE.14824 S LAWN LN, ROCKVILLE MARYLAND 20850 (MONTGOMERY)",0,C,,110022522377
20850PRTCR14674,-77.133,39.1,False,24,031,700903,24,24031,24031700903,1400000US24031700903,PROTO CIRCUITS INC,14674 SOUTHLAWN LN,ROCKVILLE,MD,20850,"PROTO CIRCUITS INC.14674 SOUTHLAWN LN, ROCKVILLE MARYLAND 20850 (MONTGOMERY)",0,C,,
2085WSCHST15121,-77.13,39.106,False,24,031,700903,24,24031,24031700903,1400000US24031700903,SCHUSTER CONCRETE READY MIX LLC-SOUTHLAWN LN,15121 SOUTHLAWN LN,ROCKVILLE,MD,20850,"SCHUSTER CONCRETE READY MIX LLC-SOUTHLAWN LN.15121 SOUTHLAWN LN, ROCKVILLE MARYLAND 20850 (MONTGOMERY)",0,C,,110070244711
20851MCCRM2355L,-77.122,39.065,False,24,031,701102,24,24031,24031701102,1400000US24031701102,MCCORMICK PAINT WORKS CO,2355 LEWIS AVE,ROCKVILLE,MD,20851,"MCCORMICK PAINT WORKS CO.2355 LEWIS AVE, ROCKVILLE MARYLAND 20851 (MONTGOMERY)",0,C,,110000339321
20874PTMLC12401,-77.256,39.176,False,24,031,700818,24,24031,24031700818,1400000US24031700818,OPTIM ELECTRONICS CORP,"12401 MIDDLEBROOK RD, STE 240",GERMANTOWN,MD,20874,"OPTIM ELECTRONICS CORP.12401 MIDDLEBROOK RD, STE 240, GERMANTOWN MARYLAND 20874 (MONTGOMERY)",0,C,,
20878WTKNS700QU,-77.223,39.138000000000005,False,24,031,700822,24,24031,24031700822,1400000US24031700822,DRS-SIGNAL SOLUTIONS INC,700 QUINCE ORCHARD RD,GAITHERSBURG,MD,20878,"DRS-SIGNAL SOLUTIONS INC.700 QUINCE ORCHARD RD, GAITHERSBURG MARYLAND 20878 (MONTGOMERY)",1,C,,110000796390
20903MDTLN1710E,-76.97399999999999,39.02,False,24,031,701509,24,24033,24031701509,1400000US24031701509,COCA-COLA BOTTLING CO INC MID-ATLANTIC,1710 ELTON RD,SILVER SPRING,MD,20903,"COCA-COLA BOTTLING CO INC MID-ATLANTIC.1710 ELTON RD, SILVER SPRING MARYLAND 20903 (PRINCE GEORGE'S)",0,C,,
21017BTSHC4501P,-76.24,39.468,False,24,025,301702,24,24025,24025301702,1400000US24025301702,ONGUARD INDUSTRIES LLC,4501 PULASKI HWY,BELCAMP,MD,210171445,"ONGUARD INDUSTRIES LLC.4501 PULASKI HWY, BELCAMP MARYLAND 21017 (HARFORD)",0,C,,
21017JHNSN1207B,-76.232,39.474000000000004,False,24,025,301702,24,24025,24025301702,1400000US24025301702,JOHNSON CONTROLS INC,1207 BELMAR DR,BELCAMP,MD,21017,"JOHNSON CONTROLS INC.1207 BELMAR DR, BELCAMP MARYLAND 21017 (HARFORD)",0,C,,
21017FLLWS1350B,-76.235,39.483000000000004,False,24,025,301702,24,24025,24025301702,1400000US24025301702,FELLOWES WORCESTER DIV,1350 BRASS MILL RD,BELCAMP,MD,210170060,"FELLOWES WORCESTER DIV.1350 BRASS MILL RD, BELCAMP MARYLAND 21017 (HARFORD)",0,C,,
21017MNRCH2RICH,-76.233,39.477,False,24,025,301702,24,24025,24025301702,1400000US24025301702,MONARCH MANUFACTURING INC,2 RICHLYNN DR,BELCAMP,MD,21017,"MONARCH MANUFACTURING INC.2 RICHLYNN DR, BELCAMP MARYLAND 21017 (HARFORD)",0,C,,
21017NDPND1300B,-76.235,39.479,False,24,025,301702,24,24025,24025301702,1400000US24025301702,INDEPENDENT CAN CO,1300 BRASS MILL RD,BELCAMP,MD,21017,"INDEPENDENT CAN CO.1300 BRASS MILL RD, BELCAMP MARYLAND 21017 (HARFORD)",0,C,,110000869178
21017CTRSL4620M,-76.227,39.479,False,24,025,301702,24,24025,24025301702,1400000US24025301702,CITRUS & ALLIED ESSENCES LTD,4620 MERCEDES DR,BELCAMP,MD,21017,"CITRUS & ALLIED ESSENCES LTD.4620 MERCEDES DR, BELCAMP MARYLAND 21017 (HARFORD)",0,C,,110000339367
21017LCRNC1324B,-76.235,39.481,False,24,025,301702,24,24025,24025301702,1400000US24025301702,ALCORE INC,1324 BRASS MILL ROAD,BELCAMP,MD,21017,"ALCORE INC.1324 BRASS MILL ROAD, BELCAMP MARYLAND 21017 (HARFORD)",0,C,,
21017NWNGC4611M,-76.227,39.479,False,24,025,301702,24,24025,24025301702,1400000US24025301702,NEW NGC INC (DBA NATIONAL GYPSUM CO),4611 MERCEDES DR,BELCAMP,MD,21017,"NEW NGC INC (DBA NATIONAL GYPSUM CO).4611 MERCEDES DR, BELCAMP MARYLAND 21017 (HARFORD)",0,C,,110037142758
2101WLFMND121BA,-76.235,39.469,False,24,025,301702,24,24025,24025301702,1400000US24025301702,LIFOAM INDUSTRIES LLC,"121 BATA BLVD, SUITE D",BELCAMP,MD,21017,"LIFOAM INDUSTRIES LLC.121 BATA BLVD, SUITE D, BELCAMP MARYLAND 21017 (HARFORD)",0,C,,110024888898
2101WTLLYL1211B,-76.232,39.478,False,24,025,301702,24,24025,24025301702,1400000US24025301702,TILLEY LUBRICANTS,1211 BELMAR DR,BELCAMP,MD,21017,"TILLEY LUBRICANTS.1211 BELMAR DR, BELCAMP MARYLAND 21017 (HARFORD)",0,C,,110070550499
21030CRPRTYORKR,-76.643,39.466,False,24,005,408400,24,24005,24005408400,1400000US24005408400,TEXTRON SYSTEMS HUNT  VALLEY,124 INDUSTRY LN,COCKEYSVILLE,MD,21030,"TEXTRON SYSTEMS HUNT  VALLEY.124 INDUSTRY LN, COCKEYSVILLE MARYLAND 21030 (BALTIMORE)",0,C,,110055098585
21030MCCRM10950,-76.661,39.481,False,24,005,408400,24,24005,24005408400,1400000US24005408400,MCCORMICK & CO INC HUNT VALLEY CONDIMENT PLANT,10950 BEAVER DAM RD,COCKEYSVILLE,MD,21030,"MCCORMICK & CO INC HUNT VALLEY CONDIMENT PLANT.10950 BEAVER DAM RD, COCKEYSVILLE MARYLAND 21030 (BALTIMORE)",0,C,,
21030MRRYC260SC,-76.66199999999999,39.489000000000004,False,24,005,408400,24,24005,24005408400,1400000US24005408400,MURRAY CORP,260 SCHILLING CIRCLE,COCKEYSVILLE,MD,210300128,"MURRAY CORP.260 SCHILLING CIRCLE, COCKEYSVILLE MARYLAND 21030 (BALTIMORE)",0,C,,
21030MRYLN100CO,-76.646,39.482,False,24,005,408400,24,24005,24005408400,1400000US24005408400,MARYLAND SPECIALTY WIRE INC,100 COCKEYSVILLE RD,COCKEYSVILLE,MD,21030,"MARYLAND SPECIALTY WIRE INC.100 COCKEYSVILLE RD, COCKEYSVILLE MARYLAND 21030 (BALTIMORE)",0,C,,
21030NTGRT1111S,-76.655,39.492,False,24,005,408400,24,24005,24005408400,1400000US24005408400,WESTINGHOUSE ELECTRIC CORP INTEGRATED LOGISTICS SUPPORT,111 SCHILLING RD MCCORMICK INDUSTRIAL PARK,HUNT VALLEY,MD,21030,"WESTINGHOUSE ELECTRIC CORP INTEGRATED LOGISTICS SUPPORT.111 SCHILLING RD MCCORMICK INDUSTRIAL PARK, HUNT VALLEY MARYLAND 21030 (BALTIMORE)",0,C,,
21030NXLLC11050,-76.64699999999999,39.488,False,24,005,408400,24,24005,24005408400,1400000US24005408400,NOXELL CORP,11050 YORK RD,HUNT VALLEY,MD,21030,"NOXELL CORP.11050 YORK RD, HUNT VALLEY MARYLAND 21030 (BALTIMORE)",0,C,,
21030NXLLC93BEA,-76.649,39.477,False,24,005,408400,24,24005,24005408400,1400000US24005408400,NOXELL CORP,93 BEAVER CT,HUNT VALLEY,MD,21030,"NOXELL CORP.93 BEAVER CT, HUNT VALLEY MARYLAND 21030 (BALTIMORE)",0,C,,110000772218
21030NXLLCMICHE,-76.648,39.479,False,24,005,408400,24,24005,24005408400,1400000US24005408400,NOXELL CORP,19 STENERSON LN,HUNT VALLEY,MD,210302098,"NOXELL CORP.19 STENERSON LN, HUNT VALLEY MARYLAND 21030 (BALTIMORE)",0,C,,
21030THWRD10615,-76.653,39.477,False,24,005,408400,24,24005,24005408400,1400000US24005408400,BW PAPERSYSTEMS,10615 BEAVER DAM RD,COCKEYSVILLE,MD,21030,"BW PAPERSYSTEMS.10615 BEAVER DAM RD, COCKEYSVILLE MARYLAND 21030 (BALTIMORE)",0,C,,110000796327
21031MCCRM10901,-76.66199999999999,39.482,False,24,005,408400,24,24005,24005408400,1400000US24005408400,MCCORMICK SPICE MILL,10901 GILROY RD,HUNT VALLEY,MD,21031,"MCCORMICK SPICE MILL.10901 GILROY RD, HUNT VALLEY MARYLAND 21031 (BALTIMORE)",0,C,,110000339429
21030FYPNL1BEAV,-76.65,39.477,False,24,005,408400,24,24005,24005408400,1400000US24005408400,FYPON LTD,1 BEAVER CT,HUNT VALLEY,MD,21030,"FYPON LTD.1 BEAVER CT, HUNT VALLEY MARYLAND 21030 (BALTIMORE)",0,C,,
21030MRYLN1BEAV,-76.64399999999999,39.464,False,24,005,408400,24,24005,24005408400,1400000US24005408400,MARYLAND PAVING INC,10000 BEAVERDAM RD,COCKEYSVILLE,MD,21030,"MARYLAND PAVING INC.10000 BEAVERDAM RD, COCKEYSVILLE MARYLAND 21030 (BALTIMORE)",0,C,,110023128738
21031CRPTR300CL,-76.661,39.484,False,24,005,408400,24,24005,24005408400,1400000US24005408400,AAI CORP TRANSPORTATION SERVICES,300 CLUBHOUSE LN,HUNT VALLEY,MD,21031,"AAI CORP TRANSPORTATION SERVICES.300 CLUBHOUSE LN, HUNT VALLEY MARYLAND 21031 (BALTIMORE)",0,C,,
21030LFRGM1BEAV,-76.645,39.464,False,24,005,408400,24,24005,24005408400,1400000US24005408400,LAFARGE TEXAS RMX,10000 BEAVER DAM RD,COCKEYSVILLE,MD,21030,"LAFARGE TEXAS RMX.10000 BEAVER DAM RD, COCKEYSVILLE MARYLAND 21030 (BALTIMORE)",0,C,,110019867875
2103WBYNNS16ALT,-76.646,39.481,False,24,005,408400,24,24005,24005408400,1400000US24005408400,BEYNON SPORTS SURFACES,16 ALT RD,HUNT VALLEY,MD,21030,"BEYNON SPORTS SURFACES.16 ALT RD, HUNT VALLEY MARYLAND 21030 (BALTIMORE)",0,C,,110043326479
21031TLDYN177GI,-76.663,39.476,False,24,005,408400,24,24005,24005408400,1400000US24005408400,TELEDYNE ENERGY SYSTEMS INC,10707 GILROY RD,HUNT VALLEY,MD,21031,"TELEDYNE ENERGY SYSTEMS INC.10707 GILROY RD, HUNT VALLEY MARYLAND 21031 (BALTIMORE)",0,C,,
2103WSFTMR17BEA,-76.65,39.478,False,24,005,408400,24,24005,24005408400,1400000US24005408400,SAFT AMERICA INC,107 BEAVER CT,COCKEYSVILLE,MD,21030,"SAFT AMERICA INC.107 BEAVER CT, COCKEYSVILLE MARYLAND 21030 (BALTIMORE)",0,C,,110001276244
21043WLKNS27FRE,-76.793,39.266999999999996,False,24,005,401503,24,24005,24005401503,1400000US24005401503,WILKINS-ROGERS INC,27 FREDERICK RD,ELLICOTT CITY,MD,21043,"WILKINS-ROGERS INC.27 FREDERICK RD, ELLICOTT CITY MARYLAND 21043 (BALTIMORE)",0,C,,110000339447
21044WRGRC7379R,-76.89699999999999,39.192,False,24,027,605505,24,24027,24027605505,1400000US24027605505,W R GRACE & CO-CONN,7500 GRACE DR,COLUMBIA,MD,21044,"W R GRACE & CO-CONN.7500 GRACE DR, COLUMBIA MARYLAND 21044 (HOWARD)",0,C,,110000339456
21045HTTMN9190R,-76.825,39.231,False,24,027,602302,24,24027,24027602302,1400000US24027602302,GREATBATCH-HITTMAN INC,9190 RED BRANCH RD,COLUMBIA,MD,210452015,"GREATBATCH-HITTMAN INC.9190 RED BRANCH RD, COLUMBIA MARYLAND 21045 (HOWARD)",0,C,,
21045LLDSG9140O,-76.83,39.233000000000004,False,24,027,602302,24,24027,24027602302,1400000US24027602302,ALLIED-SIGNAL AEROSPACE CO MICROELECTRONICS & TECHNOLOGY CNT,9140 OLD ANNAPOLIS RD MD RTE 108,COLUMBIA,MD,21045,"ALLIED-SIGNAL AEROSPACE CO MICROELECTRONICS & TECHNOLOGY CNT.9140 OLD ANNAPOLIS RD MD RTE 108, COLUMBIA MARYLAND 21045 (HOWARD)",0,C,,
2104WGPRCS9165R,-76.821,39.233000000000004,False,24,027,602302,24,24027,24027602302,1400000US24027602302,GEA PROCESS ENGINEERING INC,9165 RUMSEY ROAD,COLUMBIA,MD,210451991,"GEA PROCESS ENGINEERING INC.9165 RUMSEY ROAD, COLUMBIA MARYLAND 21045 (HOWARD)",0,C,,110038254527
21045RHMXN9000M,-76.827,39.186,False,24,027,606707,24,24027,24027606707,1400000US24027606707,RHEEMAX INC,9000 MENDENHALL CT,COLUMBIA,MD,21045,"RHEEMAX INC.9000 MENDENHALL CT, COLUMBIA MARYLAND 21045 (HOWARD)",0,C,,
21046GNRLL9001S,-76.818,39.186,False,24,027,606707,24,24027,24027606707,1400000US24027606707,GE CO APPLIANCE PARK E,9001 SNOWDEN RIVER PKY,COLUMBIA,MD,21046,"GE CO APPLIANCE PARK E.9001 SNOWDEN RIVER PKY, COLUMBIA MARYLAND 21046 (HOWARD)",0,C,,
21045PLYFB8919M,-76.825,39.19,False,24,027,606707,24,24027,24027606707,1400000US24027606707,POLY FAB CORP,8919 MCGAW CT,COLUMBIA,MD,21045,"POLY FAB CORP.8919 MCGAW CT, COLUMBIA MARYLAND 21045 (HOWARD)",0,C,,
21050LDLNP1515D,-76.365,39.568000000000005,False,24,025,303203,24,24025,24025303203,1400000US24025303203,OLD LINE PLASTICS INC,1515-D MELROSE LN,FOREST HILL,MD,21050,"OLD LINE PLASTICS INC.1515-D MELROSE LN, FOREST HILL MARYLAND 21050 (HARFORD)",0,C,,
21055BLTMR9740R,-76.762,39.407,False,24,005,403701,24,24005,24005403701,1400000US24005403701,FUCHS NORTH AMERICA INC BALTIMORE SPICE INC,9740 REISTERSTOWN RD,OWINGS MILLS,MD,211174120,"FUCHS NORTH AMERICA INC BALTIMORE SPICE INC.9740 REISTERSTOWN RD, OWINGS MILLS MARYLAND 21117 (BALTIMORE)",0,C,,110000339474
21061LCTRN314SO,-76.65100000000001,39.18,False,24,003,980000,24,24003,24003980000,1400000US24003980000,ELECTRONICS SYS GROUP MATERIALS ACQUISITION CTR,314 S HAMMONDS RD,GLEN BURNIE,MD,21061,"ELECTRONICS SYS GROUP MATERIALS ACQUISITION CTR.314 S HAMMONDS RD, GLEN BURNIE MARYLAND 21061 (ANNE ARUNDEL)",0,C,,
21090LCTRNROUTE,-76.689,39.181,False,24,003,980000,24,24003,24003980000,1400000US24003980000,NORTHROP GRUMMAN SYSTEMS CORP,7323 AVIATION BLVD,LINTHICUM,MD,21090,"NORTHROP GRUMMAN SYSTEMS CORP.7323 AVIATION BLVD, LINTHICUM MARYLAND 21090 (ANNE ARUNDEL)",0,C,,110000339526
21061LTPHT180JP,-76.666,39.167,False,24,003,980000,24,24003,24003980000,1400000US24003980000,ALTA PHOTOGRAPHIC INC,180 J PENROD CT,GLEN BURNIE,MD,21061,"ALTA PHOTOGRAPHIC INC.180 J PENROD CT, GLEN BURNIE MARYLAND 21061 (ANNE ARUNDEL)",0,C,,
21061MRTNM6711B,-76.597,39.19,False,24,003,751102,24,24003,24003751102,1400000US24003751102,MARTIN MARIETTA OCEAN SYSTEMS OPERATIONS,6711 BAYMEADOW DR,GLEN BURNIE,MD,21060,"MARTIN MARIETTA OCEAN SYSTEMS OPERATIONS.6711 BAYMEADOW DR, GLEN BURNIE MARYLAND 21060 (ANNE ARUNDEL)",0,C,,
21225STHRNSTAHL,-76.586,39.207,False,24,003,751102,24,24003,24003751102,1400000US24003751102,SOUTHERN STATES CO-OP INC,23 STAHL POINT RD,BALTIMORE,MD,21226,"SOUTHERN STATES CO-OP INC.23 STAHL POINT RD, BALTIMORE MARYLAND 21226 (ANNE ARUNDEL)",1,C,,
21226SDFNS710OR,-76.595,39.201,False,24,003,751102,24,24510,24003751102,1400000US24003751102,US DEFENSE NATIONAL STOCKPILE CENTER CURTIS BAY DEPOT,710 ORDENANCE RD,BALTIMORE,MD,21226,"US DEFENSE NATIONAL STOCKPILE CENTER CURTIS BAY DEPOT.710 ORDENANCE RD, BALTIMORE MARYLAND 21226 (BALTIMORE (CITY))",0,F,,
21061MXWLL7364B,-76.635,39.173,False,24,003,750801,24,24003,24003750801,1400000US24003750801,QUEBECOR PRINTING MEMPHIS INC,"7364 BALTIMORE & ANNAPOLIS, BLVD",GLEN BURNIE,MD,21061,"QUEBECOR PRINTING MEMPHIS INC.7364 BALTIMORE & ANNAPOLIS, BLVD, GLEN BURNIE MARYLAND 21061 (ANNE ARUNDEL)",0,C,,
21074BLCKD626HA,-76.845,39.591,False,24,013,508200,24,24013,24013508200,1400000US24013508200,BLACK & DECKER (US) INC,626 HANOVER PIKE,HAMPSTEAD,MD,21074,"BLACK & DECKER (US) INC.626 HANOVER PIKE, HAMPSTEAD MARYLAND 21074 (CARROLL)",0,C,,110000339483
21077KPFLXHARMA,-76.686,39.158,False,24,003,751400,24,24003,24003751400,1400000US24003751400,KOP-FLEX INC,7565 HARMANS RD,HANOVER,MD,21077,"KOP-FLEX INC.7565 HARMANS RD, HANOVER MARYLAND 21077 (ANNE ARUNDEL)",0,C,,110000339492
21077MDTLN7457S,-76.72,39.195,False,24,027,601201,24,24003,24027601201,1400000US24027601201,"MID-ATLANTIC WOOD PRESERVERS, INC",7457 SHIPLEY AVE,HANOVER,MD,210760955,"MID-ATLANTIC WOOD PRESERVERS, INC.7457 SHIPLEY AVE, HANOVER MARYLAND 21076 (ANNE ARUNDEL)",1,C,,
21227DVSHM5710F,-76.705,39.214,False,24,027,601201,24,24027,24027601201,1400000US24027601201,DAVIS & HEMPHILL INC,5710 FURNACE AVE,ELKRIDGE,MD,21227,"DAVIS & HEMPHILL INC.5710 FURNACE AVE, ELKRIDGE MARYLAND 21227 (HOWARD)",0,C,,
21227GMCLC4701W,-76.722,39.22,True,24,027,601201,24,24005,24027601201,1400000US24027601201,GENERAL MOTORS CORP ELECTRO-MOTIVE DIV,4701 WASHINGTON BLVD,HALETHORPE,MD,21227,"GENERAL MOTORS CORP ELECTRO-MOTIVE DIV 4701 WASHINGTON BLVD, HALETHORPE, MD, 21227",0,C,,
21078BYCRF1700C,-76.11,39.533,False,24,025,306300,24,24025,24025306300,1400000US24025306300,BAYCRAFT FIBERGLASS ENGINEERING INC,1700 CLARK RD,HAVRE DE GRACE,MD,21078,"BAYCRAFT FIBERGLASS ENGINEERING INC.1700 CLARK RD, HAVRE DE GRACE MARYLAND 21078 (HARFORD)",0,C,,
21078DGLSL1601C,-76.111,39.533,False,24,025,306300,24,24025,24025306300,1400000US24025306300,DOUGLAS & LOMASON CO,1601 CLARK RD,HAVRE DE GRACE,MD,21078,"DOUGLAS & LOMASON CO.1601 CLARK RD, HAVRE DE GRACE MARYLAND 21078 (HARFORD)",0,C,,
21001HRFRDPOBOX,-76.134,39.527,False,24,025,306300,24,24025,24025306300,1400000US24025306300,HARFORD DURACOOL LLC,2129 PULASKI HWY,ABERDEEN,MD,21001,"HARFORD DURACOOL LLC.2129 PULASKI HWY, ABERDEEN MARYLAND 21001 (HARFORD)",0,C,,110000339349
21078NGRDC185CL,-76.115,39.531,False,24,025,306300,24,24025,24025306300,1400000US24025306300,ONGUARD INDUSTRIES,1850 CLARK RD,HAVRE DE GRACE,MD,21078,"ONGUARD INDUSTRIES.1850 CLARK RD, HAVRE DE GRACE MARYLAND 21078 (HARFORD)",0,C,,110014456560
21078TNNRN175CL,-76.111,39.532,False,24,025,306300,24,24025,24025306300,1400000US24025306300,TANNER INDUSTRIES INC,1750 CLARK RD,HAVRE DE GRACE,MD,21078,"TANNER INDUSTRIES INC.1750 CLARK RD, HAVRE DE GRACE MARYLAND 21078 (HARFORD)",0,C,,110031018645
21078CLLCR1354O,-76.11,39.537,False,24,025,306200,24,24025,24025306200,1400000US24025306200,CELLO PROFESSIONAL PRODUCTS,1354 OLD POST RD,HAVRE DE GRACE,MD,210788036,"CELLO PROFESSIONAL PRODUCTS.1354 OLD POST RD, HAVRE DE GRACE MARYLAND 21078 (HARFORD)",0,C,,110029444073
21078MRCNC1300R,-76.107,39.537,False,24,025,306200,24,24025,24025306200,1400000US24025306200,CYTEC ENGINEERED INC,1300 REVOLUTION ST,HAVRE DE GRACE,MD,21078,"CYTEC ENGINEERED INC.1300 REVOLUTION ST, HAVRE DE GRACE MARYLAND 21078 (HARFORD)",0,C,,110012464001
21078JMHBRFOUNT,-76.1,39.543,False,24,025,306100,24,24025,24025306100,1400000US24025306100,JM HUBER CORP,701 FOUNTAIN ST,HAVRE DE GRACE,MD,21078,"JM HUBER CORP.701 FOUNTAIN ST, HAVRE DE GRACE MARYLAND 21078 (HARFORD)",0,C,,110019864547
21087BLKCR11931,-76.385,39.449,False,24,005,411102,24,24005,24005411102,1400000US24005411102,BELKO CORP,11931 JERICHO RD,KINGSVILLE,MD,21087,"BELKO CORP.11931 JERICHO RD, KINGSVILLE MARYLAND 21087 (BALTIMORE)",0,C,,
21090DVNCDNURSE,-76.686,39.204,False,24,003,751200,24,24003,24003751200,1400000US24003751200,WESTINGHOUSE ELECTRIC CORP ADVANCED TECH LAB ATL-ES,1212 WINTERSON RD,LINTHICUM HEIGHTS,MD,21090,"WESTINGHOUSE ELECTRIC CORP ADVANCED TECH LAB ATL-ES.1212 WINTERSON RD, LINTHICUM HEIGHTS MARYLAND 21090 (ANNE ARUNDEL)",0,C,,
21090SGNTR786EL,-76.683,39.193000000000005,False,24,003,751200,24,24003,24003751200,1400000US24003751200,"USG INTERIORS INC, FLOOR DIV",786 ELKRIDGE LANDING RD,LINTHICUM HEIGHTS,MD,21090,"USG INTERIORS INC, FLOOR DIV.786 ELKRIDGE LANDING RD, LINTHICUM HEIGHTS MARYLAND 21090 (ANNE ARUNDEL)",1,C,,
21076DLXCR7480C,-76.704,39.161,False,24,003,751200,24,24003,24003751200,1400000US24003751200,DELUXE CORP,7480 CANDLEWOOD RD,HANOVER,MD,21076,"DELUXE CORP.7480 CANDLEWOOD RD, HANOVER MARYLAND 21076 (ANNE ARUNDEL)",0,C,,
21076LTSPC1415M,-76.71600000000001,39.176,False,24,003,751200,24,24003,24003751200,1400000US24003751200,ELITE SPICE INC,1415 MAGELLAN DR,HANOVER,MD,21076,"ELITE SPICE INC.1415 MAGELLAN DR, HANOVER MARYLAND 21076 (ANNE ARUNDEL)",0,C,,110037142776
21093CTRNC1941G,-76.62899999999999,39.431999999999995,False,24,005,408800,24,24005,24005408800,1400000US24005408800,WESTRONIX INC LUTHERVILLE,1941 GREENSPRING DR,LUTHERVILLE,MD,21093,"WESTRONIX INC LUTHERVILLE.1941 GREENSPRING DR, LUTHERVILLE MARYLAND 21093 (BALTIMORE)",0,C,,110003510530
21093KRSCH10WES,-76.626,39.433,False,24,005,408800,24,24005,24005408800,1400000US24005408800,KIRSCHNER MEDICAL CORP,10 W AYLESBURY RD,LUTHERVILLE,MD,21093,"KIRSCHNER MEDICAL CORP.10 W AYLESBURY RD, LUTHERVILLE MARYLAND 21093 (BALTIMORE)",0,C,,
21093MMTCM2033G,-76.631,39.438,False,24,005,408800,24,24005,24005408800,1400000US24005408800,MEMTEC AMERICA CORP PLANT I,2033 GREENSPRING DR,LUTHERVILLE,MD,21093,"MEMTEC AMERICA CORP PLANT I.2033 GREENSPRING DR, LUTHERVILLE MARYLAND 21093 (BALTIMORE)",1,C,,
21093MMTCM5WEST,-76.626,39.433,False,24,005,408800,24,24005,24005408800,1400000US24005408800,PALL FILTRATION & SEPARATION S GROUP INC,5 W AYLESBURY RD,TIMONIUM,MD,21093,"PALL FILTRATION & SEPARATION S GROUP INC.5 W AYLESBURY RD, TIMONIUM MARYLAND 21093 (BALTIMORE)",0,C,,110000339535
21113NVMRC8339T,-76.694,39.089,False,24,003,740304,24,24003,24003740304,1400000US24003740304,NEVAMAR DECORATIVE SURFACES DIV ODENTON FACILITY,8339 TELEGRAPH RD,ODENTON,MD,21113,"NEVAMAR DECORATIVE SURFACES DIV ODENTON FACILITY.8339 TELEGRAPH RD, ODENTON MARYLAND 21113 (ANNE ARUNDEL)",0,C,,
21113FRMCC8305T,-76.696,39.093,False,24,003,740304,24,24003,24003740304,1400000US24003740304,FORMICA CORP / SOLID SURFACING DIV,8305 TELEGRAPH RD,ODENTON,MD,211131322,"FORMICA CORP / SOLID SURFACING DIV.8305 TELEGRAPH RD, ODENTON MARYLAND 21113 (ANNE ARUNDEL)",0,C,,110003546869
21117CTLYS3706C,-76.778,39.434,False,24,005,404202,24,24005,24005404202,1400000US24005404202,CATALYST RESEARCH,3706 CRONDALL LN,OWINGS MILLS,MD,211172200,"CATALYST RESEARCH.3706 CRONDALL LN, OWINGS MILLS MARYLAND 21117 (BALTIMORE)",0,C,,
21117FRTHW10100,-76.77199999999999,39.414,False,24,005,404202,24,24005,24005404202,1400000US24005404202,SOLO CUP OPERATING CORP,10100 REISTERSTOWN RD,OWINGS MILLS,MD,21117,"SOLO CUP OPERATING CORP.10100 REISTERSTOWN RD, OWINGS MILLS MARYLAND 21117 (BALTIMORE)",0,C,,110003507651
2111WSCHST3713C,-76.778,39.434,False,24,005,404202,24,24005,24005404202,1400000US24005404202,SCHUSTER CONCRETE READY MIX LLC-CRONDALL LN,3713 CRONDALL LN - BALTIMORE COUNTY,OWINGS MILLS,MD,21117,"SCHUSTER CONCRETE READY MIX LLC-CRONDALL LN.3713 CRONDALL LN - BALTIMORE COUNTY, OWINGS MILLS MARYLAND 21117 (BALTIMORE)",0,C,,110070007399
21202NTDGL506SO,-76.59899999999999,39.285,False,24,510,020300,24,24510,24510020300,1400000US24510020300,UNITED GLAZED PRODUCTS MARYLAND,506 S CENTRAL AVE,BALTIMORE,MD,21202,"UNITED GLAZED PRODUCTS MARYLAND.506 S CENTRAL AVE, BALTIMORE MARYLAND 21202 (BALTIMORE (CITY))",1,C,,
21231DYNSR1426F,-76.597,39.284,False,24,510,020300,24,24510,24510020300,1400000US24510020300,DYNASURF CHEMICAL CORP,1426 FLEET ST,BALTIMORE,MD,212312891,"DYNASURF CHEMICAL CORP.1426 FLEET ST, BALTIMORE MARYLAND 21231 (BALTIMORE (CITY))",0,C,,
21203THVLS1401S,-76.632,39.275999999999996,False,24,510,210100,24,24510,24510210100,1400000US24510210100,VALSPAR CORP,1401 SEVERN ST,BALTIMORE,MD,21203,"VALSPAR CORP.1401 SEVERN ST, BALTIMORE MARYLAND 21203 (BALTIMORE (CITY))",2,C,,
21230BLLMT901WO,-76.63,39.279,False,24,510,210100,24,24510,24510210100,1400000US24510210100,US CAN CO,901 W OSTEND ST,BALTIMORE,MD,212301922,"US CAN CO.901 W OSTEND ST, BALTIMORE MARYLAND 21230 (BALTIMORE (CITY))",1,C,,
21230CMTHY1809B,-76.63,39.275,False,24,510,210100,24,24510,24510210100,1400000US24510210100,C M ATHEY PAINT CO,1809 BAYARD ST,BALTIMORE,MD,21230,"C M ATHEY PAINT CO.1809 BAYARD ST, BALTIMORE MARYLAND 21230 (BALTIMORE (CITY))",0,C,,
21230PRKRM1301S,-76.62100000000001,39.275999999999996,False,24,510,210100,24,24510,24510210100,1400000US24510210100,PARKER METAL DECORATING CO INC,1301 S HOWARD ST,BALTIMORE,MD,21230,"PARKER METAL DECORATING CO INC.1301 S HOWARD ST, BALTIMORE MARYLAND 21230 (BALTIMORE (CITY))",0,C,,
21230MRYLN1551R,-76.628,39.274,False,24,510,210100,24,24510,24510210100,1400000US24510210100,MARYLAND CHEMICAL CO INC,3310 CHILDS STREET,BALTIMORE,MD,21226,"MARYLAND CHEMICAL CO INC.3310 CHILDS STREET, BALTIMORE MARYLAND 21226 (BALTIMORE (CITY))",0,C,,110000340113
21230STFLD1501R,-76.628,39.274,True,24,510,210100,24,24510,24510210100,1400000US24510210100,EASTFIELD CORP,1501 RUSSELL ST,BALTIMORE,MD,21230,"EASTFIELD CORP 1501 RUSSELL ST, BALTIMORE, MD, 21230",0,C,,
21204BNDXC1300E,-76.575,39.396,False,24,005,491201,24,24005,24005491201,1400000US24005491201,ALLIED-SIGNAL INC COMMUNICATIONS SYS,1300 E JOPPA RD,TOWSON,MD,212865999,"ALLIED-SIGNAL INC COMMUNICATIONS SYS.1300 E JOPPA RD, TOWSON MARYLAND 21286 (BALTIMORE)",0,C,,
21205CHMCL3001E,-76.575,39.3,False,24,510,070100,24,24510,24510070100,1400000US24510070100,CHEMSPEC INC,3001 E MADISON ST,BALTIMORE,MD,212051799,"CHEMSPEC INC.3001 E MADISON ST, BALTIMORE MARYLAND 21205 (BALTIMORE (CITY))",0,C,,
21205LLDMT4000E,-76.565,39.3,False,24,510,260404,24,24510,24510260404,1400000US24510260404,ATLANTIC ALLIANCE CORP,4004 E MONUMENT ST,BALTIMORE,MD,21205,"ATLANTIC ALLIANCE CORP.4004 E MONUMENT ST, BALTIMORE MARYLAND 21205 (BALTIMORE (CITY))",0,C,,
21205THMDT701NK,-76.56,39.3,False,24,510,260404,24,24510,24510260404,1400000US24510260404,MID-ATLANTIC COCA-COLA BOTTLING CO,701 N KRESSON ST,BALTIMORE,MD,21205,"MID-ATLANTIC COCA-COLA BOTTLING CO.701 N KRESSON ST, BALTIMORE MARYLAND 21205 (BALTIMORE (CITY))",0,C,,
21213BLTMR3501E,-76.565,39.305,False,24,510,260404,24,24510,24510260404,1400000US24510260404,REPUBLIC TECHS INTL BALTIMORE S & S,3501 E BIDDLE ST,BALTIMORE,MD,21213,"REPUBLIC TECHS INTL BALTIMORE S & S.3501 E BIDDLE ST, BALTIMORE MARYLAND 21213 (BALTIMORE (CITY))",0,C,,
21213CNTNN3701D,-76.567,39.309,False,24,510,260404,24,24510,24510260404,1400000US24510260404,CROWN BEVERAGE PACKAGING INC PLANT #16,3701 DUNCANWOOD LN,BALTIMORE,MD,21213,"CROWN BEVERAGE PACKAGING INC PLANT #16.3701 DUNCANWOOD LN, BALTIMORE MARYLAND 21213 (BALTIMORE (CITY))",0,C,,
21224SSKYX3800E,-76.565,39.293,False,24,510,260404,24,24510,24510260404,1400000US24510260404,ESSKAY,3800 E BALTIMORE ST,BALTIMORE,MD,21224,"ESSKAY.3800 E BALTIMORE ST, BALTIMORE MARYLAND 21224 (BALTIMORE (CITY))",0,C,,
21213SNCLR3520E,-76.568,39.309,False,24,510,260404,24,24510,24510260404,1400000US24510260404,SINCLAIR & VALENTINE LP,3520 EAST FEDERAL ST,BALTIMORE,MD,21213,"SINCLAIR & VALENTINE LP.3520 EAST FEDERAL ST, BALTIMORE MARYLAND 21213 (BALTIMORE (CITY))",0,C,,
21224MNRCH3500P,-76.568,39.296,False,24,510,260404,24,24510,24510260404,1400000US24510260404,MONARCH RUBBER CO,3500 PULASKI HWY,BALTIMORE,MD,212241592,"MONARCH RUBBER CO.3500 PULASKI HWY, BALTIMORE MARYLAND 21224 (BALTIMORE (CITY))",0,C,,
21224THNTDBALTI,-76.563,39.293,False,24,510,260404,24,24510,24510260404,1400000US24510260404,UNITED OIL CO INC,4405 E BALTIMORE ST,BALTIMORE,MD,21224,"UNITED OIL CO INC.4405 E BALTIMORE ST, BALTIMORE MARYLAND 21224 (BALTIMORE (CITY))",0,C,,110000764254
21237HVNCR6630Q,-76.535,39.301,False,24,510,260404,24,24510,24510260404,1400000US24510260404,HAVEN CORP,6630 QUAD AVE,BALTIMORE,MD,21237,"HAVEN CORP.6630 QUAD AVE, BALTIMORE MARYLAND 21237 (BALTIMORE (CITY))",0,C,,
21224JJBBT120SJ,-76.561,39.294000000000004,False,24,510,260404,24,24510,24510260404,1400000US24510260404,J J ABBOTT INC,120 S JANNEY ST,BALTIMORE,MD,21224,"J J ABBOTT INC.120 S JANNEY ST, BALTIMORE MARYLAND 21224 (BALTIMORE (CITY))",0,C,,
21205CHMSP901NN,-76.558,39.302,False,24,510,260404,24,24510,24510260404,1400000US24510260404,SAPPHIRE SCIENTIFIC,901 N NEWKIRK ST,BALTIMORE,MD,21205,"SAPPHIRE SCIENTIFIC.901 N NEWKIRK ST, BALTIMORE MARYLAND 21205 (BALTIMORE (CITY))",0,C,,110000339606
2120WSCHST3625E,-76.568,39.299,False,24,510,260404,24,24510,24510260404,1400000US24510260404,SCHUSTER CONCRETE READY MIX LLC-MONUMENT ST,3625 E MONUMENT ST,BALTIMORE,MD,21205,"SCHUSTER CONCRETE READY MIX LLC-MONUMENT ST.3625 E MONUMENT ST, BALTIMORE MARYLAND 21205 (BALTIMORE (CITY))",0,C,,110019905209
21208NDSTR7GREE,-76.741,39.375,False,24,005,403300,24,24005,24005403300,1400000US24005403300,INDUSTRIAL CHEMICAL PRODS,7 GREENWOOD PL,PIKESVILLE,MD,21208,"INDUSTRIAL CHEMICAL PRODS.7 GREENWOOD PL, PIKESVILLE MARYLAND 21208 (BALTIMORE)",0,C,,
21209CTLYS1421C,-76.657,39.381,False,24,005,403602,24,24510,24005403602,1400000US24005403602,CATALYST RESEARCH,1421 CLARKVIEW RD,BALTIMORE,MD,21209,"CATALYST RESEARCH.1421 CLARKVIEW RD, BALTIMORE MARYLAND 21209 (BALTIMORE (CITY))",1,C,,
21211FXNDS3100F,-76.632,39.326,False,24,510,130600,24,24510,24510130600,1400000US24510130600,SIMPSON STRONG TIE CO INC,3100 FALLS CLIFF RD,BALTIMORE,MD,21211,"SIMPSON STRONG TIE CO INC.3100 FALLS CLIFF RD, BALTIMORE MARYLAND 21211 (BALTIMORE (CITY))",0,C,,110000339633
21211KRKST800WY,-76.62899999999999,39.321999999999996,False,24,510,130600,24,24510,24510130600,1400000US24510130600,LENOX INC (DBA KIRK STIEFF CO DIV),800 WYMAN PARK DR,BALTIMORE,MD,212110821,"LENOX INC (DBA KIRK STIEFF CO DIV).800 WYMAN PARK DR, BALTIMORE MARYLAND 21211 (BALTIMORE (CITY))",1,C,,
21211PPSCL1650U,-76.642,39.332,False,24,510,130804,24,24510,24510130804,1400000US24510130804,BOTTLING GROUP LLC,1650 UNION AVE,BALTIMORE,MD,21211,"BOTTLING GROUP LLC.1650 UNION AVE, BALTIMORE MARYLAND 21211 (BALTIMORE (CITY))",0,C,,110000339642
21211HDWNC1600R,-76.637,39.331,True,24,510,130804,24,24510,24510130804,1400000US24510130804,HEDWIN CORP,1600 ROLAND HEIGHTS AVE,BALTIMORE,MD,21211,"HEDWIN CORP 1600 ROLAND HEIGHTS AVE, BALTIMORE, MD, 21211",0,C,,
21213CLNDN4309E,-76.566,39.312,False,24,510,260303,24,24510,24510260303,1400000US24510260303,CLENDENIN BROTHERS INC,4309 ERDMAN AVE,BALTIMORE,MD,21213,"CLENDENIN BROTHERS INC.4309 ERDMAN AVE, BALTIMORE MARYLAND 21213 (BALTIMORE (CITY))",0,C,,110000339660
21213RCKLN1601E,-76.57300000000001,39.31,False,24,510,260303,24,24510,24510260303,1400000US24510260303,ROCKLAND BLEACH & DYE WORKS,1601 EDISON HWY,BALTIMORE,MD,212131500,"ROCKLAND BLEACH & DYE WORKS.1601 EDISON HWY, BALTIMORE MARYLAND 21213 (BALTIMORE (CITY))",0,C,,110000339679
21217BCRLC20014,-76.652,39.302,False,24,510,160500,24,24510,24510160500,1400000US24510160500,ABC RAIL CORP,2001-45 WINCHESTER ST,BALTIMORE,MD,21217,"ABC RAIL CORP.2001-45 WINCHESTER ST, BALTIMORE MARYLAND 21217 (BALTIMORE (CITY))",0,C,,
21218MBSSY2020H,-76.59899999999999,39.314,False,24,510,090800,24,24510,24510090800,1400000US24510090800,EMBASSY DAIRY INC,2020 HARFORD RD,BALTIMORE,MD,21218,"EMBASSY DAIRY INC.2020 HARFORD RD, BALTIMORE MARYLAND 21218 (BALTIMORE (CITY))",0,C,,
21219BTHLHBALTI,-76.49600000000001,39.214,False,24,005,980000,24,24005,24005980000,1400000US24005980000,BETHLEHEM STEEL CORP BETHSHIP DIV,SPARROWS POINT SHIPYARD,SPARROWS POINT,MD,212192599,"BETHLEHEM STEEL CORP BETHSHIP DIV.SPARROWS POINT SHIPYARD, SPARROWS POINT MARYLAND 21219 (BALTIMORE)",2,C,,
21219BTHLHDUALH,-76.476,39.217,False,24,005,980000,24,24005,24005980000,1400000US24005980000,RG STEEL SPARROWS POINT LLC,1430 SPARROWS POINT BLVD,BALTIMORE,MD,21219,"RG STEEL SPARROWS POINT LLC.1430 SPARROWS POINT BLVD, BALTIMORE MARYLAND 21219 (BALTIMORE)",0,C,,110035428551
21219MRCNN2010R,-76.467,39.243,False,24,005,980000,24,24005,24005980000,1400000US24005980000,"US CAN CO, PLANT 32",2010 RESERVOIR RD,SPARROWS POINT,MD,21219,"US CAN CO, PLANT 32.2010 RESERVOIR RD, SPARROWS POINT MARYLAND 21219 (BALTIMORE)",1,C,,
21219PRNTR90BET,-76.473,39.234,False,24,005,980000,24,24005,24005980000,1400000US24005980000,PORI INTERNATIONAL INC,"C/O BETHLEHEM STEEL'S, SPARROWS POINT PLANT",SPARROWS POINT,MD,21219,"PORI INTERNATIONAL INC.C/O BETHLEHEM STEEL'S, SPARROWS POINT PLANT, SPARROWS POINT MARYLAND 21219 (BALTIMORE)",0,C,,
21219BLTMR600SH,-76.492,39.224000000000004,False,24,005,980000,24,24005,24005980000,1400000US24005980000,BALTIMORE MARINE INDUSTRIES INC,600 SHIPYARD RD,BALTIMORE,MD,212191023,"BALTIMORE MARINE INDUSTRIES INC.600 SHIPYARD RD, BALTIMORE MARYLAND 21219 (BALTIMORE)",0,C,,
21219RPRDC2005R,-76.467,39.241,False,24,005,980000,24,24005,24005980000,1400000US24005980000,AIR PRODUCTS & CHEMICALS INC,2005 RESERVOIR RD,SPARROWS POINT,MD,21219,"AIR PRODUCTS & CHEMICALS INC.2005 RESERVOIR RD, SPARROWS POINT MARYLAND 21219 (BALTIMORE)",0,C,,
21219DPNCX4630N,-76.458,39.249,False,24,005,452400,24,24005,24005452400,1400000US24005452400,DAP PRODUCTS INC,4630 N POINT BLVD,SPARROWS POINT,MD,21219,"DAP PRODUCTS INC.4630 N POINT BLVD, SPARROWS POINT MARYLAND 21219 (BALTIMORE)",0,C,,110003512002
21219SGNDS4505N,-76.461,39.254,False,24,005,452400,24,24005,24005452400,1400000US24005452400,SIGNODE EASTERN OPERATIONS,4505 N POINT BLVD,BALTIMORE,MD,21219,"SIGNODE EASTERN OPERATIONS.4505 N POINT BLVD, BALTIMORE MARYLAND 21219 (BALTIMORE)",0,C,,110000339704
21222CLNRS8801W,-76.464,39.257,False,24,005,452400,24,24510,24005452400,1400000US24005452400,CHC INDUSTRIAL CLEANERS HANGER CO,8801 WISE AVE,BALTIMORE,MD,21222,"CHC INDUSTRIAL CLEANERS HANGER CO.8801 WISE AVE, BALTIMORE MARYLAND 21222 (BALTIMORE (CITY))",0,C,,
21222GRFBR2500G,-76.462,39.245,False,24,005,452400,24,24005,24005452400,1400000US24005452400,GREIF BROTHERS CORP SPARROWS POINT,2500 GRAYS RD,BALTIMORE,MD,21222,"GREIF BROTHERS CORP SPARROWS POINT.2500 GRAYS RD, BALTIMORE MARYLAND 21222 (BALTIMORE)",0,C,,
21222NTNLW8203F,-76.462,39.275,False,24,005,452400,24,24005,24005452400,1400000US24005452400,SIVACO/NATIONAL WIRE MARYLAND,8203 FISCHER RD,BALTIMORE,MD,212228909,"SIVACO/NATIONAL WIRE MARYLAND.8203 FISCHER RD, BALTIMORE MARYLAND 21222 (BALTIMORE)",0,C,,
21222VLCNM2415G,-76.468,39.245,False,24,005,452400,24,24005,24005452400,1400000US24005452400,AMG RESOURCES CORP,2415 GRAYS RD,BALTIMORE,MD,21222,"AMG RESOURCES CORP.2415 GRAYS RD, BALTIMORE MARYLAND 21222 (BALTIMORE)",0,C,,110000339848
21222HSPRC2121G,-76.468,39.251,False,24,005,452400,24,24005,24005452400,1400000US24005452400,HS PROCESSING LP,2121 GRAYS RD,BALTIMORE,MD,21222,"HS PROCESSING LP.2121 GRAYS RD, BALTIMORE MARYLAND 21222 (BALTIMORE)",0,C,,
21222MRCNY8215B,-76.464,39.275999999999996,False,24,005,452400,24,24005,24005452400,1400000US24005452400,AMERICAN YEAST CORP,8215 BEACHWOOD RD,BALTIMORE,MD,21222,"AMERICAN YEAST CORP.8215 BEACHWOOD RD, BALTIMORE MARYLAND 21222 (BALTIMORE)",0,C,,110013980362
21222FRBLC8200F,-76.462,39.275,False,24,005,452400,24,24510,24005452400,1400000US24005452400,VALSPAR CORP,8200 FISCHER RD,BALTIMORE,MD,21222,"VALSPAR CORP.8200 FISCHER RD, BALTIMORE MARYLAND 21222 (BALTIMORE (CITY))",2,C,,
21222VLCNH3600N,-76.48,39.278,False,24,005,452400,24,24005,24005452400,1400000US24005452400,VULCAN-HART A DIV OF ITW FOOD EQUIPMENT GROUP LLC,3600 N POINT BLVD,BALTIMORE,MD,21222,"VULCAN-HART A DIV OF ITW FOOD EQUIPMENT GROUP LLC.3600 N POINT BLVD, BALTIMORE MARYLAND 21222 (BALTIMORE)",0,C,,110001769051
21220MRTNM103CH,-76.433,39.332,False,24,005,451600,24,24005,24005451600,1400000US24005451600,MIDDLE RIVER AIRCRAFT SYSTEMS,103 CHESAPEAKE PARK PLAZA,BALTIMORE,MD,21220,"MIDDLE RIVER AIRCRAFT SYSTEMS.103 CHESAPEAKE PARK PLAZA, BALTIMORE MARYLAND 21220 (BALTIMORE)",0,C,,110000339731
21220TLLYC501CH,-76.432,39.327,False,24,005,451600,24,24005,24005451600,1400000US24005451600,TILLEY CHEMICAL CO INC,501 CHESAPEAKE PARK PLAZA,MIDDLE RIVER,MD,21220,"TILLEY CHEMICAL CO INC.501 CHESAPEAKE PARK PLAZA, MIDDLE RIVER MARYLAND 21220 (BALTIMORE)",0,C,,110019855192
21221CNTNN8801C,-76.477,39.336999999999996,False,24,005,451200,24,24510,24005451200,1400000US24005451200,CROWN FOOD PACKAGING,8801 CITATION RD,BALTIMORE,MD,21221,"CROWN FOOD PACKAGING.8801 CITATION RD, BALTIMORE MARYLAND 21221 (BALTIMORE (CITY))",1,C,,110000339759
21221WRTHN8911K,-76.46600000000001,39.339,False,24,005,451200,24,24510,24005451200,1400000US24005451200,WORTHINGTON STEEL CO,8911 KELSO DR,BALTIMORE,MD,21221,"WORTHINGTON STEEL CO.8911 KELSO DR, BALTIMORE MARYLAND 21221 (BALTIMORE (CITY))",1,C,,110000339768
21220DRYDN9300P,-76.46,39.349000000000004,False,24,005,451200,24,24005,24005451200,1400000US24005451200,BP LUBRICANTS USA INC,9300 PULASKI HWY,BALTIMORE,MD,21220,"BP LUBRICANTS USA INC.9300 PULASKI HWY, BALTIMORE MARYLAND 21220 (BALTIMORE)",0,C,,110000339722
21237SFTNC8989Y,-76.475,39.343,False,24,005,451200,24,24005,24005451200,1400000US24005451200,SFT INC,8989 YELLOW BRICK RD,BALTIMORE,MD,21237,"SFT INC.8989 YELLOW BRICK RD, BALTIMORE MARYLAND 21237 (BALTIMORE)",0,C,,
2122WMRYLN89KEL,-76.469,39.338,False,24,005,451200,24,24005,24005451200,1400000US24005451200,MARYLAND PRECISION SPRING,8900 KELSO DRIVE,ESSEX,MD,21221,"MARYLAND PRECISION SPRING.8900 KELSO DRIVE, ESSEX MARYLAND 21221 (BALTIMORE)",0,C,,110001771609
21222HSFSG1919W,-76.52600000000001,39.268,False,24,005,420900,24,24005,24005420900,1400000US24005420900,HOUSE OF SEAGRAM,1919 WILLOW SPRING RD,BALTIMORE,MD,21222,"HOUSE OF SEAGRAM.1919 WILLOW SPRING RD, BALTIMORE MARYLAND 21222 (BALTIMORE)",1,C,,
21222SCMGL2701B,-76.53399999999999,39.257,False,24,510,260605,24,24510,24510260605,1400000US24510260605,MILLENNIUM SPECIALTY CHEMICALS,2701 BROENING HWY,BALTIMORE,MD,21222,"MILLENNIUM SPECIALTY CHEMICALS.2701 BROENING HWY, BALTIMORE MARYLAND 21222 (BALTIMORE (CITY))",0,C,,110038170207
21222TCHLL2310C,-76.533,39.262,False,24,510,260605,24,24510,24510260605,1400000US24510260605,TECHALLOY CO INC (BALTIMORE),2310 CHESAPEAKE AVE,BALTIMORE,MD,21222,"TECHALLOY CO INC (BALTIMORE).2310 CHESAPEAKE AVE, BALTIMORE MARYLAND 21222 (BALTIMORE (CITY))",0,C,,
21222TNMCC2300E,-76.536,39.263000000000005,False,24,510,260605,24,24510,24510260605,1400000US24510260605,TNEMEC CO INC,2300 EDGEWATER AVE,BALTIMORE,MD,21222,"TNEMEC CO INC.2300 EDGEWATER AVE, BALTIMORE MARYLAND 21222 (BALTIMORE (CITY))",0,C,,110000339820
21224GLDBN2301S,-76.555,39.264,False,24,510,260605,24,24510,24510260605,1400000US24510260605,NEW NGC INC (DBA NATIONAL GYPSUM CO),2301 S NEWKIRK ST,BALTIMORE,MD,21224,"NEW NGC INC (DBA NATIONAL GYPSUM CO).2301 S NEWKIRK ST, BALTIMORE MARYLAND 21224 (BALTIMORE (CITY))",0,C,,110001251797
21224GNRLM2122B,-76.543,39.268,False,24,510,260605,24,24510,24510260605,1400000US24510260605,GM NORTH AMERICAN TRUCK GROUP BALTIMORE,2122 BROENING HWY,BALTIMORE,MD,21224,"GM NORTH AMERICAN TRUCK GROUP BALTIMORE.2122 BROENING HWY, BALTIMORE MARYLAND 21224 (BALTIMORE (CITY))",0,C,,110000339893
21224LBNNC2400S,-76.568,39.260999999999996,False,24,510,260605,24,24510,24510260605,1400000US24510260605,LEBANON CHEMICAL CORP,2400 S CLINTON ST,BALTIMORE,MD,21224,"LEBANON CHEMICAL CORP.2400 S CLINTON ST, BALTIMORE MARYLAND 21224 (BALTIMORE (CITY))",0,C,,
21224LVRBR5300H,-76.54899999999999,39.272,False,24,510,260605,24,24510,24510260605,1400000US24510260605,"SUN PRODUCTS CORPORATION, BALTIMORE PLANT",5300 HOLABIRD AVE,BALTIMORE,MD,212246094,"SUN PRODUCTS CORPORATION, BALTIMORE PLANT.5300 HOLABIRD AVE, BALTIMORE MARYLAND 21224 (BALTIMORE (CITY))",0,C,,110019876455
21224RDSTRHOLAB,-76.538,39.268,False,24,510,260605,24,24510,24510260605,1400000US24510260605,LESAFFRE YEAST CORP,2100 VAN DEMAN ST,BALTIMORE,MD,21224,"LESAFFRE YEAST CORP.2100 VAN DEMAN ST, BALTIMORE MARYLAND 21224 (BALTIMORE (CITY))",0,C,,110019875946
21224FBLLN2200F,-76.543,39.265,False,24,510,260605,24,24510,24510260605,1400000US24510260605,FABALL USA LLC,2200-F BROENING HWY,BALTIMORE,MD,21224,"FABALL USA LLC.2200-F BROENING HWY, BALTIMORE MARYLAND 21224 (BALTIMORE (CITY))",0,C,,
21224BLTMR4200B,-76.56,39.277,False,24,510,260605,24,24510,24510260605,1400000US24510260605,BALTIMORE QUALITY ASSURANCE,4200 BOSTON ST,BALTIMORE,MD,21224,"BALTIMORE QUALITY ASSURANCE.4200 BOSTON ST, BALTIMORE MARYLAND 21224 (BALTIMORE (CITY))",1,C,,110000339875
21224PTRLM1622S,-76.569,39.273,False,24,510,260605,24,24510,24510260605,1400000US24510260605,PETROLEUM FUEL & TERMINAL CO,1622 S CLINTON,BALTIMORE,MD,21224,"PETROLEUM FUEL & TERMINAL CO.1622 S CLINTON, BALTIMORE MARYLAND 21224 (BALTIMORE (CITY))",0,C,,110000339946
21224XXNBL3801B,-76.565,39.277,False,24,510,260605,24,24510,24510260605,1400000US24510260605,EXXON BALTIMORE TERMINAL,3801 BOSTON ST,BALTIMORE,MD,21224,"EXXON BALTIMORE TERMINAL.3801 BOSTON ST, BALTIMORE MARYLAND 21224 (BALTIMORE (CITY))",0,C,,
21224BLDNG1500P,-76.554,39.275,False,24,510,260605,24,24510,24510260605,1400000US24510260605,GAF,1500 S PONCA ST,BALTIMORE,MD,21224,"GAF.1500 S PONCA ST, BALTIMORE MARYLAND 21224 (BALTIMORE (CITY))",0,C,,110001767464
2122WPLYSL181PR,-76.536,39.271,False,24,510,260605,24,24005,24510260605,1400000US24510260605,POLYSEAL CORP,1810 PORTAL ST.,BALTIMORE,MD,21224,"POLYSEAL CORP.1810 PORTAL ST., BALTIMORE MARYLAND 21224 (BALTIMORE)",0,C,,110000796746
21223LNMRN150SC,-76.556,39.281,False,24,510,260700,24,24510,24510260700,1400000US24510260700,COMPLEMENTARY COATINGS CORP,4701 O'DONNELL STREET,BALTIMORE,MD,21224,"COMPLEMENTARY COATINGS CORP.4701 O'DONNELL STREET, BALTIMORE MARYLAND 21224 (BALTIMORE (CITY))",1,C,,110001284048
21224BRNNG601SO,-76.562,39.285,False,24,510,260700,24,24510,24510260700,1400000US24510260700,INSL-X PRODUCTS CORP,601 S HAVEN ST,BALTIMORE,MD,21224,"INSL-X PRODUCTS CORP.601 S HAVEN ST, BALTIMORE MARYLAND 21224 (BALTIMORE (CITY))",0,C,,110019876008
21224CRTNY4401E,-76.559,39.287,False,24,510,260700,24,24510,24510260700,1400000US24510260700,COURTNEY INDUSTRY INC,4401 EASTERN AVE,BALTIMORE,MD,21224,"COURTNEY INDUSTRY INC.4401 EASTERN AVE, BALTIMORE MARYLAND 21224 (BALTIMORE (CITY))",0,C,,
21223MNRHL1200B,-76.65899999999999,39.273,False,24,510,250206,24,24510,24510250206,1400000US24510250206,MANOR HILL FOOD,1200 BERNARD DR,BALTIMORE,MD,21223,"MANOR HILL FOOD.1200 BERNARD DR, BALTIMORE MARYLAND 21223 (BALTIMORE (CITY))",0,C,,
21230TRNST3101W,-76.66199999999999,39.259,False,24,510,250206,24,24510,24510250206,1400000US24510250206,TRANSIT STORAGE CORP,3101 WASHINGTON BLVD,BALTIMORE,MD,21230,"TRANSIT STORAGE CORP.3101 WASHINGTON BLVD, BALTIMORE MARYLAND 21230 (BALTIMORE (CITY))",0,C,,
21230SFTYK1448D,-76.65899999999999,39.268,False,24,510,250206,24,24510,24510250206,1400000US24510250206,SAFETY-KLEEN SYSTEMS BALTIMORE (BAL),1448 DESOTO RD,BALTIMORE,MD,21230,"SAFETY-KLEEN SYSTEMS BALTIMORE (BAL).1448 DESOTO RD, BALTIMORE MARYLAND 21230 (BALTIMORE (CITY))",0,C,,110000340122
2122WCLNDG3121W,-76.66199999999999,39.27,False,24,510,250206,24,24510,24510250206,1400000US24510250206,CLEANEDGE LLP,3121 WILMARCO DR,BALTIMORE,MD,21223,"CLEANEDGE LLP.3121 WILMARCO DR, BALTIMORE MARYLAND 21223 (BALTIMORE (CITY))",0,C,,110003512477
21224MBYCR5601E,-76.548,39.287,False,24,510,260501,24,24510,24510260501,1400000US24510260501,PEMCO CORP,5601 EASTERN AVE,BALTIMORE,MD,21224,"PEMCO CORP.5601 EASTERN AVE, BALTIMORE MARYLAND 21224 (BALTIMORE (CITY))",0,C,,110000339928
21224NCHRF6500E,-76.53699999999999,39.288000000000004,False,24,510,260501,24,24510,24510260501,1400000US24510260501,ANCHOR FENCE INC,6500 EASTERN AVE,BALTIMORE,MD,21224,"ANCHOR FENCE INC.6500 EASTERN AVE, BALTIMORE MARYLAND 21224 (BALTIMORE (CITY))",0,C,,
21224WNSBR201KA,-76.53699999999999,39.292,False,24,510,260501,24,24510,24510260501,1400000US24510260501,OWENS-BROCKWAY PLASTIC PRODUCTS INC,201 KANE ST,BALTIMORE,MD,21224,"OWENS-BROCKWAY PLASTIC PRODUCTS INC.201 KANE ST, BALTIMORE MARYLAND 21224 (BALTIMORE (CITY))",0,C,,
21224MRCNNBOSTO,-76.542,39.284,True,24,510,260501,24,24510,24510260501,1400000US24510260501,AMERICAN NATIONAL CAN CO,BOSTON & HUDSON ST,BALTIMORE,MD,21224,"AMERICAN NATIONAL CAN CO BOSTON & HUDSON ST, BALTIMORE, MD, 21224",0,C,,
21224PLTNG311ST,-76.563,39.288000000000004,False,24,510,260800,24,24510,24510260800,1400000US24510260800,A-1 PLATING CO INC,311 S HAVEN ST,BALTIMORE,MD,21224,"A-1 PLATING CO INC.311 S HAVEN ST, BALTIMORE MARYLAND 21224 (BALTIMORE (CITY))",0,C,,
21224SGKYW7600R,-76.515,39.301,False,24,005,452300,24,24510,24005452300,1400000US24005452300,KEYWELL CORP PLANT DIV,7600 ROLLING MILL RD,BALTIMORE,MD,212247600,"KEYWELL CORP PLANT DIV.7600 ROLLING MILL RD, BALTIMORE MARYLAND 21224 (BALTIMORE (CITY))",0,C,,
21224STRNS7700R,-76.512,39.299,False,24,005,452300,24,24510,24005452300,1400000US24005452300,AVESTA SHEFFIELD EAST INC,7700 ROLLING MILL RD,BALTIMORE,MD,21224,"AVESTA SHEFFIELD EAST INC.7700 ROLLING MILL RD, BALTIMORE MARYLAND 21224 (BALTIMORE (CITY))",0,C,,
21225KNSCL6118R,-76.627,39.208,False,24,003,750201,24,24003,24003750201,1400000US24003750201,CONSOLIDATED PHARMACEUTICAL GROUP INC,6110 ROBINWOOD RD,BALTIMORE,MD,21225,"CONSOLIDATED PHARMACEUTICAL GROUP INC.6110 ROBINWOOD RD, BALTIMORE MARYLAND 21225 (ANNE ARUNDEL)",0,C,,
21226BLTMR1955C,-76.572,39.239000000000004,False,24,510,250600,24,24510,24510250600,1400000US24510250600,CHEVRON USA INC  BALTIMORE ASPHALT TERMINAL,1955 CHESAPEAKE AVE,BALTIMORE,MD,21226,"CHEVRON USA INC  BALTIMORE ASPHALT TERMINAL.1955 CHESAPEAKE AVE, BALTIMORE MARYLAND 21226 (BALTIMORE (CITY))",0,C,,
21226DLTCH2601C,-76.564,39.231,False,24,510,250600,24,24510,24510250600,1400000US24510250600,USALCO BALTIMORE PLANT LLC,2601 CANNERY AVE,BALTIMORE,MD,21226,"USALCO BALTIMORE PLANT LLC.2601 CANNERY AVE, BALTIMORE MARYLAND 21226 (BALTIMORE (CITY))",0,C,,110000867161
21226FMCCR1701E,-76.577,39.226,False,24,510,250600,24,24510,24510250600,1400000US24510250600,FMC CORP,1701 E PATAPSCO AVE,BALTIMORE,MD,21226,"FMC CORP.1701 E PATAPSCO AVE, BALTIMORE MARYLAND 21226 (BALTIMORE (CITY))",0,C,,110000867170
21226LCLCX3440F,-76.579,39.236999999999995,False,24,510,250600,24,24510,24510250600,1400000US24510250600,SOLVAY USA INC,3440 FAIRFIELD RD,BALTIMORE,MD,21226,"SOLVAY USA INC.3440 FAIRFIELD RD, BALTIMORE MARYLAND 21226 (BALTIMORE (CITY))",0,C,,110000867321
21226MTCHM1900C,-76.574,39.238,False,24,510,250600,24,24510,24510250600,1400000US24510250600,ATOTECH USA INC,1900 CHESAPEAKE AVE,BALTIMORE,MD,21226,"ATOTECH USA INC.1900 CHESAPEAKE AVE, BALTIMORE MARYLAND 21226 (BALTIMORE (CITY))",1,C,,110000867018
21226SSXND3520F,-76.577,39.234,False,24,510,250600,24,24510,24510250600,1400000US24510250600,ESSEX INDL CHEMICALS INC,3520 FAIRFIELD RD,BALTIMORE,MD,21226,"ESSEX INDL CHEMICALS INC.3520 FAIRFIELD RD, BALTIMORE MARYLAND 21226 (BALTIMORE (CITY))",1,C,,
21226VSTCH3441F,-76.578,39.235,False,24,510,250600,24,24510,24510250600,1400000US24510250600,SASOL NA INC,3441 FAIRFIELD RD,BALTIMORE,MD,21226,"SASOL NA INC.3441 FAIRFIELD RD, BALTIMORE MARYLAND 21226 (BALTIMORE (CITY))",0,C,,110009048333
21226BLTMR2400P,-76.565,39.235,False,24,510,250600,24,24510,24510250600,1400000US24510250600,BALTIMORE TERMINAL,2400 PETROLIA AVE,BALTIMORE,MD,21226,"BALTIMORE TERMINAL.2400 PETROLIA AVE, BALTIMORE MARYLAND 21226 (BALTIMORE (CITY))",0,C,,110008432650
21226CTGPT2201S,-76.569,39.23,False,24,510,250600,24,24510,24510250600,1400000US24510250600,CITGO PETROLEUM CORP,2201 SOUTHPORT AVE,BALTIMORE,MD,21226,"CITGO PETROLEUM CORP.2201 SOUTHPORT AVE, BALTIMORE MARYLAND 21226 (BALTIMORE (CITY))",0,C,,110019893329
21226TSCBL2155N,-76.572,39.23,False,24,510,250600,24,24510,24510250600,1400000US24510250600,SUNOCO PARTNERS MARKETING & TERMINALS LP BALTIMORE TERMINAL,2155 NORTHBRIDGE AVE,BALTIMORE,MD,21226,"SUNOCO PARTNERS MARKETING & TERMINALS LP BALTIMORE TERMINAL.2155 NORTHBRIDGE AVE, BALTIMORE MARYLAND 21226 (BALTIMORE (CITY))",0,C,,110016741659
21226MRYLN331CH,-76.587,39.238,False,24,510,250600,24,24005,24510250600,1400000US24510250600,MARYLAND CHEMICAL CO INC,3310 CHILDS ST,BALTIMORE,MD,21226,"MARYLAND CHEMICAL CO INC.3310 CHILDS ST, BALTIMORE MARYLAND 21226 (BALTIMORE)",0,C,,110008424936
2122WSGCNC5FRAN,-76.601,39.242,False,24,510,250600,24,24510,24510250600,1400000US24510250600,S&G CONCRETE BROOKLYN PLANT,500 FRANKFURST AVENUE,BALTIMORE,MD,21225,"S&G CONCRETE BROOKLYN PLANT.500 FRANKFURST AVENUE, BALTIMORE MARYLAND 21225 (BALTIMORE (CITY))",0,C,,110022841709
21226CHMTL711PI,-76.564,39.195,False,24,003,730100,24,24003,24003730100,1400000US24003730100,PRINCE SPECIALTY PRODUCTS LLC,610 PITTMAN RD,BALTIMORE,MD,21226,"PRINCE SPECIALTY PRODUCTS LLC.610 PITTMAN RD, BALTIMORE MARYLAND 21226 (ANNE ARUNDEL)",0,C,,110000867036
21226NNCRB7350C,-76.564,39.189,False,24,003,730100,24,24003,24003730100,1400000US24003730100,UNION CARBIDE CORP INDUSTRIAL GASES INC,7350 CARBIDE RD,BALTIMORE,MD,21226,"UNION CARBIDE CORP INDUSTRIAL GASES INC.7350 CARBIDE RD, BALTIMORE MARYLAND 21226 (ANNE ARUNDEL)",0,C,,
21226SPNCR6401C,-76.574,39.203,False,24,003,730100,24,24003,24003730100,1400000US24003730100,REICHHOLD CHEMICALS INC COATING POLYMERS & RESINS,6401 CHEMICAL RD,BALTIMORE,MD,212261758,"REICHHOLD CHEMICALS INC COATING POLYMERS & RESINS.6401 CHEMICAL RD, BALTIMORE MARYLAND 21226 (ANNE ARUNDEL)",0,C,,
21226SCSTG2401H,-76.57300000000001,39.2,False,24,003,730100,24,24003,24003730100,1400000US24003730100,US COAST GUARD YARD,2401 HAWKINS POINT RD,BALTIMORE,MD,212261797,"US COAST GUARD YARD.2401 HAWKINS POINT RD, BALTIMORE MARYLAND 21226 (ANNE ARUNDEL)",0,F,,
21226BRNDN1000B,-76.533,39.18,False,24,003,730100,24,24003,24003730100,1400000US24003730100,BRANDON SHORES & WAGNER COMPLEX,1005 BRANDON SHORES RD,BALTIMORE,MD,21226,"BRANDON SHORES & WAGNER COMPLEX.1005 BRANDON SHORES RD, BALTIMORE MARYLAND 21226 (ANNE ARUNDEL)",0,C,,110038162902
2122WSPRTN21BRA,-76.535,39.181,False,24,003,730100,24,24003,24003730100,1400000US24003730100,SEPARATION TECHNOLOGIES LLC,2010 BRANDON SHORES RD,BALTIMORE,MD,21226,"SEPARATION TECHNOLOGIES LLC.2010 BRANDON SHORES RD, BALTIMORE MARYLAND 21226 (ANNE ARUNDEL)",0,C,,110046604126
2122WCNBRF65PIT,-76.565,39.195,False,24,003,730100,24,24003,24003730100,1400000US24003730100,CIANBRO FABRICATION & COATING,605 PITTMAN ROAD,BALTIMORE,MD,21226,"CIANBRO FABRICATION & COATING.605 PITTMAN ROAD, BALTIMORE MARYLAND 21226 (ANNE ARUNDEL)",0,C,,110038105207
21226SBRDS3601F,-76.547,39.194,True,24,003,730100,24,24510,24003730100,1400000US24003730100,SEABOARD ASPHALT PRODS CO,3601 FAIRFIELD RD,BALTIMORE,MD,21226,"SEABOARD ASPHALT PRODS CO 3601 FAIRFIELD RD, BALTIMORE, MD, 21226",0,C,,
21226CRTNY1920B,-76.582,39.221,False,24,510,250500,24,24510,24510250500,1400000US24510250500,GEO SPECIALTY CHEMICALS,1920 BENHILL AVE,BALTIMORE,MD,212261491,"GEO SPECIALTY CHEMICALS.1920 BENHILL AVE, BALTIMORE MARYLAND 21226 (BALTIMORE (CITY))",0,C,,
21226RCNDS3901F,-76.544,39.207,False,24,510,250500,24,24510,24510250500,1400000US24510250500,BOC GASES,3901 FORT ARMISTEAD RD,BALTIMORE,MD,21226,"BOC GASES.3901 FORT ARMISTEAD RD, BALTIMORE MARYLAND 21226 (BALTIMORE (CITY))",0,C,,
21226SCMCH3901G,-76.542,39.205,False,24,510,250500,24,24510,24510250500,1400000US24510250500,"CRISTAL, USA INC.",3901 FORT ARMISTEAD RD,BALTIMORE,MD,21226,"CRISTAL, USA INC..3901 FORT ARMISTEAD RD, BALTIMORE MARYLAND 21226 (BALTIMORE (CITY))",1,C,,110000867241
21226SSXND5501P,-76.58800000000001,39.217,False,24,510,250500,24,24510,24510250500,1400000US24510250500,PERIDOT CHEMICALS (NJ) INC,5501 PENNINGTON AVE,BALTIMORE,MD,21226,"PERIDOT CHEMICALS (NJ) INC.5501 PENNINGTON AVE, BALTIMORE MARYLAND 21226 (BALTIMORE (CITY))",0,C,,
21226WRGRC5500C,-76.57,39.216,False,24,510,250500,24,24510,24510250500,1400000US24510250500,GRACE DAVISON-CURTIS BAY WORKS,5500 CHEMICAL RD,BALTIMORE,MD,21226,"GRACE DAVISON-CURTIS BAY WORKS.5500 CHEMICAL RD, BALTIMORE MARYLAND 21226 (BALTIMORE (CITY))",0,C,,110000867214
21226NTDST5500Q,-76.555,39.214,False,24,510,250500,24,24510,24510250500,1400000US24510250500,US GYPSUM CO,5500 QUARANTINE RD,BALTIMORE,MD,21226,"US GYPSUM CO.5500 QUARANTINE RD, BALTIMORE MARYLAND 21226 (BALTIMORE (CITY))",0,C,,110002463833
21226MRDHS6200P,-76.585,39.21,False,24,510,250500,24,24510,24510250500,1400000US24510250500,"BUCKEYE TERMINALS, LLC -  BALTIMORE TERMINAL",6200 PENNINGTON AVE,BALTIMORE,MD,21226,"BUCKEYE TERMINALS, LLC -  BALTIMORE TERMINAL.6200 PENNINGTON AVE, BALTIMORE MARYLAND 21226 (BALTIMORE (CITY))",0,C,,110000340015
21226BTMRS6000P,-76.587,39.211999999999996,False,24,510,250500,24,24003,24510250500,1400000US24510250500,BITUMAR USA INC,6000 PENNINGTON AVE,CURTIS BAY,MD,21226,"BITUMAR USA INC.6000 PENNINGTON AVE, CURTIS BAY MARYLAND 21226 (ANNE ARUNDEL)",0,C,,110009025508
21226STLCL4000H,-76.551,39.203,False,24,510,250500,24,24510,24510250500,1400000US24510250500,EASTALCO ALUMINUM CO PIER,4000 FORT ARMISTEAD RD,BALTIMORE,MD,21226,"EASTALCO ALUMINUM CO PIER.4000 FORT ARMISTEAD RD, BALTIMORE MARYLAND 21226 (BALTIMORE (CITY))",0,C,,110002468892
2122WKMRWT3925F,-76.544,39.205999999999996,False,24,510,250500,24,24510,24510250500,1400000US24510250500,KEMIRA WATER SOLUTIONS INC,3925 FORT ARMISTEAD RD,BALTIMORE,MD,21226,"KEMIRA WATER SOLUTIONS INC.3925 FORT ARMISTEAD RD, BALTIMORE MARYLAND 21226 (BALTIMORE (CITY))",0,C,,110041352791
21227CHSPK6754S,-76.743,39.187,False,24,027,601204,24,24027,24027601204,1400000US24027601204,PRECOAT METALS,6754 SANTA BARBARA CT,ELKRIDGE,MD,21075,"PRECOAT METALS.6754 SANTA BARBARA CT, ELKRIDGE MARYLAND 21075 (HOWARD)",0,C,,110000340024
21227CTLRH6671S,-76.74600000000001,39.19,False,24,027,601204,24,24027,24027601204,1400000US24027601204,EATON CORPORATION,7451 COCA COLA DR - SUITE C,HANOVER,MD,21076,"EATON CORPORATION.7451 COCA COLA DR - SUITE C, HANOVER MARYLAND 21076 (HOWARD)",1,C,,110003546798
21075GRCDV6945S,-76.749,39.185,False,24,027,601204,24,24027,24027601204,1400000US24027601204,GRACE DAVISON ELKRIDGE WAREHOUSE,6945 SAN TOMAS RD,ELKRIDGE,MD,210756218,"GRACE DAVISON ELKRIDGE WAREHOUSE.6945 SAN TOMAS RD, ELKRIDGE MARYLAND 21075 (HOWARD)",0,C,,
21076TNCRP7451C,-76.73,39.19,False,24,027,601204,24,24027,24027601204,1400000US24027601204,EATON CORP,7451 COCA COLA DR SUITE C,HANOVER,MD,21076,"EATON CORP.7451 COCA COLA DR SUITE C, HANOVER MARYLAND 21076 (HOWARD)",0,C,,
21227GHLMN4501H,-76.669,39.236,False,24,005,980200,24,24005,24005980200,1400000US24005980200,STROH BREWERY CO,4501 HOLLINS FERRY RD,BALTIMORE,MD,21227,"STROH BREWERY CO.4501 HOLLINS FERRY RD, BALTIMORE MARYLAND 21227 (BALTIMORE)",0,C,,
21227HLTHR2000H,-76.686,39.229,False,24,005,980200,24,24005,24005980200,1400000US24005980200,HALETHORPE EXTRUSIONS INC,1954 HALETHORPE FARMS RD,HALETHORPE,MD,21227,"HALETHORPE EXTRUSIONS INC.1954 HALETHORPE FARMS RD, HALETHORPE MARYLAND 21227 (BALTIMORE)",0,C,,110000340042
21227CHMST4615H,-76.67699999999999,39.232,False,24,005,980200,24,24005,24005980200,1400000US24005980200,CLEANEDGE,4615 HOLLINS FERRY RD SUITE A,BALTIMORE,MD,21227,"CLEANEDGE.4615 HOLLINS FERRY RD SUITE A, BALTIMORE MARYLAND 21227 (BALTIMORE)",0,C,,110015583705
21227HSFSG5001W,-76.69800000000001,39.225,False,24,005,430600,24,24005,24005430600,1400000US24005430600,SEAGRAM AMERICAS,5001 WASHINGTON BLVD,BALTIMORE HIGHLANDS,MD,212275000,"SEAGRAM AMERICAS.5001 WASHINGTON BLVD, BALTIMORE HIGHLANDS MARYLAND 21227 (BALTIMORE)",0,C,,
21227JHNSN3721O,-76.679,39.247,False,24,005,430400,24,24510,24005430400,1400000US24005430400,JOHNSON & BLOY INC,3721 OLD GERORGETOWN RD,BALTIMORE,MD,21227,"JOHNSON & BLOY INC.3721 OLD GERORGETOWN RD, BALTIMORE MARYLAND 21227 (BALTIMORE (CITY))",0,C,,
21227TTNDL1941L,-76.666,39.253,False,24,005,430400,24,24005,24005430400,1400000US24005430400,TATE ANDALE INC,1941 LANSDOWNE RD,BALTIMORE,MD,21227,"TATE ANDALE INC.1941 LANSDOWNE RD, BALTIMORE MARYLAND 21227 (BALTIMORE)",0,C,,
21227BRTNC1405P,-76.686,39.26,False,24,005,430400,24,24005,24005430400,1400000US24005430400,BARTON-COTTON INC,1405 PARKER RD,BALTIMORE,MD,21227,"BARTON-COTTON INC.1405 PARKER RD, BALTIMORE MARYLAND 21227 (BALTIMORE)",0,C,,
21227PTMCR1400B,-76.688,39.257,False,24,005,430400,24,24005,24005430400,1400000US24005430400,POTOMAC AIRGAS INC,1400  BENSON CT,BALTIMORE,MD,21227,"POTOMAC AIRGAS INC.1400  BENSON CT, BALTIMORE MARYLAND 21227 (BALTIMORE)",0,C,,
21227CHMST1772S,-76.679,39.246,False,24,005,430400,24,24510,24005430400,1400000US24005430400,CHEMSTATION MID-ATLANTIC,1772 SULPHUR SPRINGS RD SUITE 105,BALTIMORE,MD,21227,"CHEMSTATION MID-ATLANTIC.1772 SULPHUR SPRINGS RD SUITE 105, BALTIMORE MARYLAND 21227 (BALTIMORE (CITY))",0,C,,
21227MRYLN4545A,-76.641,39.228,False,24,005,430104,24,24005,24005430104,1400000US24005430104,MARYLAND PAPER BOX CO,4545 ANNAPOLIS RD,BALTIMORE,MD,21227,"MARYLAND PAPER BOX CO.4545 ANNAPOLIS RD, BALTIMORE MARYLAND 21227 (BALTIMORE)",0,C,,
21230HRSMN3515M,-76.634,39.243,False,24,005,430104,24,24510,24005430104,1400000US24005430104,H R SIMON & CO INC,3515 MARMENCO CT,BALTIMORE,MD,212303411,"H R SIMON & CO INC.3515 MARMENCO CT, BALTIMORE MARYLAND 21230 (BALTIMORE (CITY))",0,C,,
21230TRNBL3501M,-76.634,39.244,False,24,005,430104,24,24510,24005430104,1400000US24005430104,TURNBULL ENTS INC,3501 MARMENCO CT,BALTIMORE,MD,21230,"TURNBULL ENTS INC.3501 MARMENCO CT, BALTIMORE MARYLAND 21230 (BALTIMORE (CITY))",0,C,,
21228SMKNSLOWER,-76.764,39.251999999999995,False,24,005,400500,24,24005,24005400500,1400000US24005400500,SIMKINS IND INC,201 RIVER RD,CATONSVILLE,MD,21228,"SIMKINS IND INC.201 RIVER RD, CATONSVILLE MARYLAND 21228 (BALTIMORE)",0,C,,
21229SHDDS3701S,-76.683,39.269,False,24,510,250103,24,24510,24510250103,1400000US24510250103,VAN DEN BERGH FOODS CO,3701 SOUTHWESTERN BLVD,BALTIMORE,MD,21229,"VAN DEN BERGH FOODS CO.3701 SOUTHWESTERN BLVD, BALTIMORE MARYLAND 21229 (BALTIMORE (CITY))",0,C,,
21227TRNBL3635B,-76.675,39.265,False,24,510,250103,24,24510,24510250103,1400000US24510250103,TURNBULL ENTS INC,3635 BENSON AVE,BALTIMORE,MD,21227,"TURNBULL ENTS INC.3635 BENSON AVE, BALTIMORE MARYLAND 21227 (BALTIMORE (CITY))",0,C,,
21227MTLLB1700C,-76.665,39.259,False,24,510,250103,24,24510,24510250103,1400000US24510250103,FUCHS LUBRICANTS CO MIDLANTIC DIV,1700 S CATON AVE,BALTIMORE,MD,21227,"FUCHS LUBRICANTS CO MIDLANTIC DIV.1700 S CATON AVE, BALTIMORE MARYLAND 21227 (BALTIMORE (CITY))",0,C,,110000340051
21230CCCLS1215E,-76.597,39.27,False,24,510,240100,24,24510,24510240100,1400000US24510240100,COCA-COLA USA FOUNTAIN,1215 E FORT AVE,BALTIMORE,MD,212305104,"COCA-COLA USA FOUNTAIN.1215 E FORT AVE, BALTIMORE MARYLAND 21230 (BALTIMORE (CITY))",1,C,,
21230THPQC1301E,-76.596,39.27,False,24,510,240100,24,24510,24510240100,1400000US24510240100,PQ CORP,1301 E FORT AVE,BALTIMORE,MD,21230,"PQ CORP.1301 E FORT AVE, BALTIMORE MARYLAND 21230 (BALTIMORE (CITY))",0,C,,
21230THPRC1422N,-76.59100000000001,39.274,False,24,510,240100,24,24510,24510240100,1400000US24510240100,PROCTER & GAMBLE MFG CO,1422 NICHOLSON ST,BALTIMORE,MD,21230,"PROCTER & GAMBLE MFG CO.1422 NICHOLSON ST, BALTIMORE MARYLAND 21230 (BALTIMORE (CITY))",0,C,,
21230CRGLL1055H,-76.59,39.275,False,24,510,240100,24,24510,24510240100,1400000US24510240100,WESTWAY FEED PRODUCTS LLC,1055 HULL ST,BALTIMORE,MD,212305315,"WESTWAY FEED PRODUCTS LLC.1055 HULL ST, BALTIMORE MARYLAND 21230 (BALTIMORE (CITY))",0,C,,110041248628
21230STHRN2101E,-76.585,39.266,False,24,510,240100,24,24510,24510240100,1400000US24510240100,SOUTHERN STATES COOP INC,2101 E FORT AVE,BALTIMORE,MD,21230,"SOUTHERN STATES COOP INC.2101 E FORT AVE, BALTIMORE MARYLAND 21230 (BALTIMORE (CITY))",0,C,,
21230CRRLW2201K,-76.631,39.263000000000005,False,24,510,250301,24,24510,24510250301,1400000US24510250301,CARR LOWREY GLASS COMPANY,2201 KLOMAN ST,BALTIMORE,MD,21230,"CARR LOWREY GLASS COMPANY.2201 KLOMAN ST, BALTIMORE MARYLAND 21230 (BALTIMORE (CITY))",0,C,,
21230SHRWN2325H,-76.638,39.266,False,24,510,250301,24,24510,24510250301,1400000US24510250301,SHERWIN-WILLIAMS CO,2325 HOLLINS FERRY RD,BALTIMORE,MD,21230,"SHERWIN-WILLIAMS CO.2325 HOLLINS FERRY RD, BALTIMORE MARYLAND 21230 (BALTIMORE (CITY))",0,C,,110000340131
21230KYDNR1400B,-76.63600000000001,39.274,False,24,510,210200,24,24510,24510210200,1400000US24510210200,KAYDON RING & SEAL INC,1600 WICOMICO ST,BALTIMORE,MD,21230,"KAYDON RING & SEAL INC.1600 WICOMICO ST, BALTIMORE MARYLAND 21230 (BALTIMORE (CITY))",0,C,,110000340104
21230STHRN1620B,-76.633,39.275,False,24,510,210200,24,24510,24510210200,1400000US24510210200,SOUTHERN GALVANIZING CO,1620 BUSH ST,BALTIMORE,MD,21230,"SOUTHERN GALVANIZING CO.1620 BUSH ST, BALTIMORE MARYLAND 21230 (BALTIMORE (CITY))",0,C,,110000870914
21230WMTBR1500B,-76.635,39.275999999999996,False,24,510,210200,24,24510,24510210200,1400000US24510210200,W T BURNETT & CO INC,1500 BUSH ST,BALTIMORE,MD,21230,"W T BURNETT & CO INC.1500 BUSH ST, BALTIMORE MARYLAND 21230 (BALTIMORE (CITY))",0,C,,
21230NVRNM1700R,-76.631,39.273,False,24,510,210200,24,24510,24510210200,1400000US24510210200,DOVCO INDUSTRIAL FABRICATORS INC,1700 RIDGELY ST,BALTIMORE,MD,21230,"DOVCO INDUSTRIAL FABRICATORS INC.1700 RIDGELY ST, BALTIMORE MARYLAND 21230 (BALTIMORE (CITY))",0,C,,110001769140
21230LFRDP2631M,-76.643,39.258,False,24,510,250205,24,24510,24510250205,1400000US24510250205,ALFORD PACKAGING,2631 MERCHANT DR,BALTIMORE,MD,21230,"ALFORD PACKAGING.2631 MERCHANT DR, BALTIMORE MARYLAND 21230 (BALTIMORE (CITY))",0,C,,
21230LMGPL1800C,-76.633,39.257,False,24,510,250207,24,24510,24510250207,1400000US24510250207,ALMAG PLATING CORP,1800 CHERRY HILL RD,BALTIMORE,MD,21230,"ALMAG PLATING CORP.1800 CHERRY HILL RD, BALTIMORE MARYLAND 21230 (BALTIMORE (CITY))",0,C,,
21230MSTRS1100K,-76.571,39.28,False,24,510,261100,24,24510,24510261100,1400000US24510261100,AMERICAN SUGAR REFINING INC BALTIMORE DOMINO SUGAR REFINERY,1100 KEY HWY E,BALTIMORE,MD,21230,"AMERICAN SUGAR REFINING INC BALTIMORE DOMINO SUGAR REFINERY.1100 KEY HWY E, BALTIMORE MARYLAND 21230 (BALTIMORE (CITY))",0,C,,110000732823
21237BLTMR7110Q,-76.518,39.305,False,24,005,450100,24,24510,24005450100,1400000US24005450100,GALVCO MARYLAND LLC,7110 QUAD AVE,BALTIMORE,MD,21237,"GALVCO MARYLAND LLC.7110 QUAD AVE, BALTIMORE MARYLAND 21237 (BALTIMORE (CITY))",0,C,,110000340159
21237STLTN1101T,-76.5,39.321999999999996,False,24,005,450100,24,24005,24005450100,1400000US24005450100,US CAN CO PLANT 41,1101 TODDS LN,BALTIMORE,MD,21237,"US CAN CO PLANT 41.1101 TODDS LN, BALTIMORE MARYLAND 21237 (BALTIMORE)",0,C,,
21237THGBS1101H,-76.503,39.321999999999996,False,24,005,450100,24,24005,24005450100,1400000US24005450100,GIBSON-HOMANS CO,1101 HANZLIK AVE,BALTIMORE,MD,21237,"GIBSON-HOMANS CO.1101 HANZLIK AVE, BALTIMORE MARYLAND 21237 (BALTIMORE)",0,C,,
21237CNTRY6801Q,-76.529,39.301,False,24,005,450100,24,24510,24005450100,1400000US24005450100,COUNTRY FLORAL SUPPLY INC,6801 QUAD AVE SUITE B,BALTIMORE,MD,21237,"COUNTRY FLORAL SUPPLY INC.6801 QUAD AVE SUITE B, BALTIMORE MARYLAND 21237 (BALTIMORE (CITY))",0,C,,
21237FBLLS8303P,-76.502,39.323,False,24,005,450100,24,24005,24005450100,1400000US24005450100,FABALL USA  LLC,8303 PULASKI HWY,ROSEDALE,MD,212372941,"FABALL USA  LLC.8303 PULASKI HWY, ROSEDALE MARYLAND 21237 (BALTIMORE)",0,C,,
2123WMRYLN619BA,-76.495,39.316,False,24,005,450100,24,24005,24005450100,1400000US24005450100,MARYLAND PAVING ROSEDALE LLC,619 BATAVIA FARM RD,ROSEDALE,MD,21237,"MARYLAND PAVING ROSEDALE LLC.619 BATAVIA FARM RD, ROSEDALE MARYLAND 21237 (BALTIMORE)",0,C,,110001276262
21502BYLNRDAYRD,-78.752,39.59,False,24,001,000200,24,24001,24001000200,1400000US24001000200,US MARINE/ BRUNSWICK FAMILY BOATS CO INC.,11000 PITTSBURGH PLATEGLASS RD,CUMBERLAND,MD,21502,"US MARINE/ BRUNSWICK FAMILY BOATS CO INC..11000 PITTSBURGH PLATEGLASS RD, CUMBERLAND MARYLAND 21502 (ALLEGANY)",0,C,,110000340195
21502BYLNRDAYRO,-78.758,39.591,False,24,001,000200,24,24001,24001000200,1400000US24001000200,U.S. MARINE/BRUNSWICK FAMILY BOAT CO INC,10801 DAY RD SE,CUMBERLAND,MD,21502,"U.S. MARINE/BRUNSWICK FAMILY BOAT CO INC.10801 DAY RD SE, CUMBERLAND MARYLAND 21502 (ALLEGANY)",0,C,,110000867438
21502FBRDNRT4BO,-78.757,39.591,False,24,001,000200,24,24001,24001000200,1400000US24001000200,FIBRED-MARYLAND INC,10900 DAY RD  SE,CUMBERLAND,MD,21502,"FIBRED-MARYLAND INC.10900 DAY RD  SE, CUMBERLAND MARYLAND 21502 (ALLEGANY)",0,C,,
21502SWRRR11600,-78.74600000000001,39.599000000000004,False,24,001,000200,24,24001,24001000200,1400000US24001000200,AES WARRIOR RUN INC,11600 MEXICO FARMS RD SE,CUMBERLAND,MD,21502,"AES WARRIOR RUN INC.11600 MEXICO FARMS RD SE, CUMBERLAND MARYLAND 21502 (ALLEGANY)",0,C,,110000551055
21540WSTVC300PR,-79.058,39.472,False,24,001,002200,24,24001,24001002200,1400000US24001002200,VERSO LUKE LLC,300 PRATT ST,LUKE,MD,21540,"VERSO LUKE LLC.300 PRATT ST, LUKE MARYLAND 21540 (ALLEGANY)",0,C,,110007334072
21545MTSVGFOUND,-78.88,39.694,False,24,001,001503,24,24001,24001001503,1400000US24001001503,MOUNT SAVAGE SPECIALTY REFRACTORIES CO,FOUNDRY ROW,MOUNT SAVAGE,MD,21545,"MOUNT SAVAGE SPECIALTY REFRACTORIES CO.FOUNDRY ROW, MOUNT SAVAGE MARYLAND 21545 (ALLEGANY)",0,C,,
21550BSCHLRT135,-79.35,39.4,False,24,023,000700,24,24023,24023000700,1400000US24023000700,BAUSCH & LOMB INC,265 BAUSCH & LOMB DR,OAKLAND,MD,215503997,"BAUSCH & LOMB INC.265 BAUSCH & LOMB DR, OAKLAND MARYLAND 21550 (GARRETT)",0,C,,
21550MTTKC293TA,-79.428,39.262,False,24,023,000700,24,24023,24023000700,1400000US24023000700,METTIKI COAL LLC,293 TABLE ROCK RD,OAKLAND,MD,21550,"METTIKI COAL LLC.293 TABLE ROCK RD, OAKLAND MARYLAND 21550 (GARRETT)",0,C,,110006039054
21601BLCKD515GL,-76.081,38.79,False,24,041,960501,24,24041,24041960501,1400000US24041960501,BLACK & DECKER US POWER TOOL GROUP,28712 BLEBE RD,EASTON,MD,21601,"BLACK & DECKER US POWER TOOL GROUP.28712 BLEBE RD, EASTON MARYLAND 21601 (TALBOT)",1,C,,
21610SCHLGBLD11,-76.07300000000001,39.213,False,24,029,950300,24,24029,24029950300,1400000US24029950300,SCHLEGEL MARYLAND INC,BLD 115 LYNCHBURG DR,CHESTERTOWN,MD,21610,"SCHLEGEL MARYLAND INC.BLD 115 LYNCHBURG DR, CHESTERTOWN MARYLAND 21610 (KENT)",0,C,,
21620DXNVL800HI,-76.074,39.214,False,24,029,950300,24,24029,24029950300,1400000US24029950300,DIXON VALVE & COUPLING CO,800 HIGH ST,CHESTERTOWN,MD,21620,"DIXON VALVE & COUPLING CO.800 HIGH ST, CHESTERTOWN MARYLAND 21620 (KENT)",0,C,,110000340266
21613CMBRD105GO,-76.07300000000001,38.559,False,24,019,970600,24,24019,24019970600,1400000US24019970600,CAMBRIDGE INC,105 GOODWILL RD,CAMBRIDGE,MD,21613,"CAMBRIDGE INC.105 GOODWILL RD, CAMBRIDGE MARYLAND 21613 (DORCHESTER)",0,C,,
21613CLDWT904WO,-76.064,38.551,False,24,019,970600,24,24019,24019970600,1400000US24019970600,PROTENERGY NATURAL FOODS INC,904 WOODS RD,CAMBRIDGE,MD,21613,"PROTENERGY NATURAL FOODS INC.904 WOODS RD, CAMBRIDGE MARYLAND 21613 (DORCHESTER)",0,C,,110000554454
21613RPXCXWOODS,-76.061,38.556999999999995,False,24,019,970400,24,24019,24019970400,1400000US24019970400,PHILIPS TECHS AIRPAX PROTECTOR GROUP,807 WOODS RD,CAMBRIDGE,MD,216130520,"PHILIPS TECHS AIRPAX PROTECTOR GROUP.807 WOODS RD, CAMBRIDGE MARYLAND 21613 (DORCHESTER)",0,C,,
21613WSTRNWOODS,-76.061,38.555,False,24,019,970702,24,24019,24019970702,1400000US24019970702,WESTERN PUBLISHING CO INC,WOODS RD,CAMBRIDGE,MD,21613,"WESTERN PUBLISHING CO INC.WOODS RD, CAMBRIDGE MARYLAND 21613 (DORCHESTER)",0,C,,
2161WCMBRD2757G,-76.055,38.547,False,24,019,970702,24,24019,24019970702,1400000US24019970702,CAMBRIDGE PLANT,2757 GYPSY HILL RD.,CAMBRIDGE,MD,21613,"CAMBRIDGE PLANT.2757 GYPSY HILL RD., CAMBRIDGE MARYLAND 21613 (DORCHESTER)",0,C,,110006640322
21620HLSMRMDRTE,-76.087,39.263000000000005,False,24,029,950200,24,24029,24029950200,1400000US24029950200,EASTMAN SPECIALTIES CORP,10380 WORTON RD,CHESTERTOWN,MD,21620,"EASTMAN SPECIALTIES CORP.10380 WORTON RD, CHESTERTOWN MARYLAND 21620 (KENT)",0,C,,110000340275
21635CMPBLRT291,-76.032,39.242,False,24,029,950200,24,24029,24029950200,1400000US24029950200,CHESTERTOWN FOODS INC,27030 MORGNEC RD,CHESTERTOWN,MD,21620,"CHESTERTOWN FOODS INC.27030 MORGNEC RD, CHESTERTOWN MARYLAND 21620 (KENT)",0,C,,
21625LLNFMHWY30,-75.993,38.879,False,24,041,960100,24,24041,24041960100,1400000US24041960100,ALLEN HARIM FOODS LLC- CORDOVA,12041 CORDOVA RD,CORDOVA,MD,21625,"ALLEN HARIM FOODS LLC- CORDOVA.12041 CORDOVA RD, CORDOVA MARYLAND 21625 (TALBOT)",0,C,,110000496437
21629LBNNCROUTE,-75.83800000000001,38.893,False,24,011,955202,24,24011,24011955202,1400000US24011955202,ROYSTER-CLARK INC,10413 RIVER LANDING RD,DENTON,MD,21629,"ROYSTER-CLARK INC.10413 RIVER LANDING RD, DENTON MARYLAND 21629 (CAROLINE)",0,C,,
21632RLNCWFEDER,-75.753,38.684,False,24,011,955600,24,24011,24011955600,1400000US24011955600,RELIANCE TREATED WOOD,2000 INDUSTRIAL PARK RD,FEDERALSBURG,MD,21632,"RELIANCE TREATED WOOD.2000 INDUSTRIAL PARK RD, FEDERALSBURG MARYLAND 21632 (CAROLINE)",0,C,,110000340293
21632BNMTT1001C,-75.782,38.684,False,24,011,955600,24,24011,24011955600,1400000US24011955600,BENMATT INDUSTRIES,1001 CAROLINA DR,FEDERALSBURG,MD,21632,"BENMATT INDUSTRIES.1001 CAROLINA DR, FEDERALSBURG MARYLAND 21632 (CAROLINE)",0,C,,
2163WVLPCN14IND,-75.759,38.687,False,24,011,955600,24,24011,24011955600,1400000US24011955600,VALPAC INC,1400 INDUSTRIAL PARK ROAD,FEDERALSBURG,MD,21632,"VALPAC INC.1400 INDUSTRIAL PARK ROAD, FEDERALSBURG MARYLAND 21632 (CAROLINE)",0,C,,110015308273
21632STRNMCLARK,-75.785,38.677,False,24,019,970200,24,24019,24019970200,1400000US24019970200,EASTERN MARYLAND WOOD TREATING CO,CLARK'S CANNING HOUSE RD,FEDERALSBURG,MD,21632,"EASTERN MARYLAND WOOD TREATING CO.CLARK'S CANNING HOUSE RD, FEDERALSBURG MARYLAND 21632 (DORCHESTER)",0,C,,
21643CNGRBBOX34,-75.859,38.632,False,24,019,970200,24,24019,24019970200,1400000US24019970200,AMICK FARMS LLC,274 NEALSON ST,HURLOCK,MD,21643,"AMICK FARMS LLC.274 NEALSON ST, HURLOCK MARYLAND 21643 (DORCHESTER)",0,C,,110000340300
21643HRLCK37DEL,-75.87,38.629,False,24,019,970200,24,24019,24019970200,1400000US24019970200,HURLOCK FEED MILL/HATCHERY,37 DELAWARE AVE,HURLOCK,MD,21643,"HURLOCK FEED MILL/HATCHERY.37 DELAWARE AVE, HURLOCK MARYLAND 21643 (DORCHESTER)",0,C,,110000340319
21643CNTNN200NE,-75.86,38.635,False,24,019,970200,24,24019,24019970200,1400000US24019970200,CROWN BEVERAGE PACKAGING INC,200 NELSON ST,HURLOCK,MD,21643,"CROWN BEVERAGE PACKAGING INC.200 NELSON ST, HURLOCK MARYLAND 21643 (DORCHESTER)",0,C,,
21643BGFDS4715H,-75.85300000000001,38.632,False,24,019,970200,24,24019,24019970200,1400000US24019970200,"B&G FOODS NORTH AMERICA, INC (BLOCH & GUGGENHEIMER DIVISION)",4715 HARRISON FERRY RD,HURLOCK,MD,21643,"B&G FOODS NORTH AMERICA, INC (BLOCH & GUGGENHEIMER DIVISION).4715 HARRISON FERRY RD, HURLOCK MARYLAND 21643 (DORCHESTER)",0,C,,110008055451
21701HGHSD424EP,-77.40100000000001,39.414,False,24,021,772200,24,24021,24021772200,1400000US24021772200,MORNINGSTAR FOODS LLC,428 E PATRICK ST,FREDERICK,MD,21701,"MORNINGSTAR FOODS LLC.428 E PATRICK ST, FREDERICK MARYLAND 21701 (FREDERICK)",0,C,,110000565763
21701PMNGN1308B,-77.384,39.408,False,24,021,772200,24,24021,24021772200,1400000US24021772200,PAM ENGINEERING INC,1308 BAILE'S LN,FREDERICK,MD,21701,"PAM ENGINEERING INC.1308 BAILE'S LN, FREDERICK MARYLAND 21701 (FREDERICK)",0,C,,
21701RPXCDPOBOX,-77.398,39.416,False,24,021,772200,24,24021,24021772200,1400000US24021772200,PHILIPS TECHNOLOGIES AIRPAX PROTECTOR GROUP,550 HIGHLAND ST,FREDERICK,MD,217010500,"PHILIPS TECHNOLOGIES AIRPAX PROTECTOR GROUP.550 HIGHLAND ST, FREDERICK MARYLAND 21701 (FREDERICK)",0,C,,
21701THCLR605EC,-77.39699999999999,39.418,False,24,021,772200,24,24021,24021772200,1400000US24021772200,CLOROX CO,605 E CHURCH ST,FREDERICK,MD,21701,"CLOROX CO.605 E CHURCH ST, FREDERICK MARYLAND 21701 (FREDERICK)",0,C,,
21701GRFFT200ES,-77.405,39.409,False,24,021,772200,24,24021,24021772200,1400000US24021772200,GRIFFITH ENERGY SERVICES INC FREDERICK BULK PLANT,200 E S ST,FREDERICK,MD,21701,"GRIFFITH ENERGY SERVICES INC FREDERICK BULK PLANT.200 E S ST, FREDERICK MARYLAND 21701 (FREDERICK)",0,C,,110000340337
2170WSCHST53EAS,-77.4,39.409,False,24,021,772200,24,24021,24021772200,1400000US24021772200,SCHUSTER CONCRETE READY MIX LLC-SOUTH ST,530 EAST SOUTH STREET,FREDERICK,MD,21701,"SCHUSTER CONCRETE READY MIX LLC-SOUTH ST.530 EAST SOUTH STREET, FREDERICK MARYLAND 21701 (FREDERICK)",0,C,,110009681433
21701STLCL5601M,-77.47399999999999,39.339,False,24,021,752302,24,24021,24021752302,1400000US24021752302,EASTALCO ALUMINUM CO,5601 MANOR WOODS RD,FREDERICK,MD,21703,"EASTALCO ALUMINUM CO.5601 MANOR WOODS RD, FREDERICK MARYLAND 21703 (FREDERICK)",1,C,,110000340355
21701MCCRM7202M,-77.418,39.361,False,24,021,752302,24,24021,24021752302,1400000US24021752302,MCCORMICK PAINT WORKS CO,7202 MCCKINNEY CIR,FREDERICK,MD,21701,"MCCORMICK PAINT WORKS CO.7202 MCCKINNEY CIR, FREDERICK MARYLAND 21701 (FREDERICK)",0,C,,110000340346
21702SSRCM4120B,-77.437,39.346,False,24,021,752302,24,24021,24021752302,1400000US24021752302,ESSROC CEMENT CORP FREDERICK MD,4120 BUCKEYSTOWN PIKE,FREDERICK,MD,21704,"ESSROC CEMENT CORP FREDERICK MD.4120 BUCKEYSTOWN PIKE, FREDERICK MARYLAND 21704 (FREDERICK)",0,C,,110001262400
21710TRNST5520A,-77.473,39.312,False,24,021,752302,24,24021,24021752302,1400000US24021752302,TRANS-TECH INC,5520 ADAMSTOWN RD,ADAMSTOWN,MD,21710,"TRANS-TECH INC.5520 ADAMSTOWN RD, ADAMSTOWN MARYLAND 21710 (FREDERICK)",0,C,,110019871290
21713MRCNMRT2BO,-77.64399999999999,39.552,False,24,043,011302,24,24043,24043011302,1400000US24043011302,LARSON-JUHL,20823 SAN MAR RD,BOONSBORO,MD,21713,"LARSON-JUHL.20823 SAN MAR RD, BOONSBORO MARYLAND 21713 (WASHINGTON)",1,C,,
21740FLTCN200N0,-77.722,39.647,False,24,043,000400,24,24043,24043000400,1400000US24043000400,FIL-TEC INC,200 N PROSPECT ST,HAGERSTOWN,MD,21740,"FIL-TEC INC.200 N PROSPECT ST, HAGERSTOWN MARYLAND 21740 (WASHINGTON)",1,C,,
21741STRNR403NP,-77.721,39.649,False,24,043,000400,24,24043,24043000400,1400000US24043000400,EASTERN ORGAN PIPES INC,403 N PROSPECT ST,HAGERSTOWN,MD,21741,"EASTERN ORGAN PIPES INC.403 N PROSPECT ST, HAGERSTOWN MARYLAND 21741 (WASHINGTON)",0,C,,
21740JMSND55MAP,-77.71300000000001,39.650999999999996,False,24,043,000500,24,24043,24043000500,1400000US24043000500,JAMISON DOOR CO,55 MAPLE AVE,HAGERSTOWN,MD,217400070,"JAMISON DOOR CO.55 MAPLE AVE, HAGERSTOWN MARYLAND 21740 (WASHINGTON)",0,C,,
21740PNGBRPANGB,-77.699,39.65,False,24,043,000500,24,24043,24043000500,1400000US24043000500,PANGBORN CORP,PANGBORN BLVD,HAGERSTOWN,MD,21740,"PANGBORN CORP.PANGBORN BLVD, HAGERSTOWN MARYLAND 21740 (WASHINGTON)",0,C,,
21740MCKTR1999P,-77.72,39.679,False,24,043,010300,24,24043,24043010300,1400000US24043010300,MACK TRUCKS INC,13302 PENNSYLVANIA AVE,HAGERSTOWN,MD,21742,"MACK TRUCKS INC.13302 PENNSYLVANIA AVE, HAGERSTOWN MARYLAND 21742 (WASHINGTON)",0,C,,110000340391
21740RHRNDSHOWA,-77.734,39.702,False,24,043,010300,24,24043,24043010300,1400000US24043010300,ROHR INC,18238 SHOWALTER RD,HAGERSTOWN,MD,217421371,"ROHR INC.18238 SHOWALTER RD, HAGERSTOWN MARYLAND 21742 (WASHINGTON)",0,C,,
21742HGRST19227,-77.702,39.684,False,24,043,010300,24,24043,24043010300,1400000US24043010300,HAGERSTOWN KITCHENS INC,19227 LONGMEADOW RD,HAGERSTOWN,MD,21742,"HAGERSTOWN KITCHENS INC.19227 LONGMEADOW RD, HAGERSTOWN MARYLAND 21742 (WASHINGTON)",0,C,,
21742PHNXC18249,-77.738,39.714,False,24,043,010300,24,24043,24043010300,1400000US24043010300,PHOENIX COLOR CORP,18249 PHOENIX DR,HAGERSTOWN,MD,21742,"PHOENIX COLOR CORP.18249 PHOENIX DR, HAGERSTOWN MARYLAND 21742 (WASHINGTON)",0,C,,110056138291
21740MRYLN857WI,-77.711,39.623000000000005,False,24,043,000602,24,24043,24043000602,1400000US24043000602,MARYLAND RIBBON CO,857 WILLOW CIRCLE,HAGERSTOWN,MD,21740,"MARYLAND RIBBON CO.857 WILLOW CIRCLE, HAGERSTOWN MARYLAND 21740 (WASHINGTON)",0,C,,
21740STTTN504EF,-77.72,39.624,False,24,043,000602,24,24043,24043000602,1400000US24043000602,STATTON FURNITURE MFG CO,504 E FIRST ST,HAGERSTOWN,MD,21740,"STATTON FURNITURE MFG CO.504 E FIRST ST, HAGERSTOWN MARYLAND 21740 (WASHINGTON)",0,C,,
21740MTLFN743BO,-77.709,39.628,False,24,043,000602,24,24043,24043000602,1400000US24043000602,METAL FINISHING INC,743 BOWMAN AVE,HAGERSTOWN,MD,21740,"METAL FINISHING INC.743 BOWMAN AVE, HAGERSTOWN MARYLAND 21740 (WASHINGTON)",0,C,,
21742GLDBN1100F,-77.711,39.618,False,24,043,000602,24,24043,24043000602,1400000US24043000602,PINNACLE FOODS GROUP LLC,1100 FREDERICK ST,HAGERSTOWN,MD,21740,"PINNACLE FOODS GROUP LLC.1100 FREDERICK ST, HAGERSTOWN MARYLAND 21740 (WASHINGTON)",0,C,,110000543234
21741FRSTR551EA,-77.714,39.631,False,24,043,000602,24,24043,24043000602,1400000US24043000602,FIRST URBAN FIBER,551 EASTERN BLVD S,HAGERSTOWN,MD,21741,"FIRST URBAN FIBER.551 EASTERN BLVD S, HAGERSTOWN MARYLAND 21741 (WASHINGTON)",0,C,,
21740NDPNDSECUR,-77.681,39.652,False,24,043,011202,24,24043,24043011202,1400000US24043011202,HOLCIM(US) INC,1260 SECURITY RD,HAGERSTOWN,MD,21742,"HOLCIM(US) INC.1260 SECURITY RD, HAGERSTOWN MARYLAND 21742 (WASHINGTON)",0,C,,110000340408
21740RVWHR55WES,-77.736,39.613,False,24,043,001001,24,24043,24043001001,1400000US24043001001,REVIEW & HERALD PUBLISHING ASSOC,55 W OAKRIDGE DR,HAGERSTOWN,MD,21740,"REVIEW & HERALD PUBLISHING ASSOC.55 W OAKRIDGE DR, HAGERSTOWN MARYLAND 21740 (WASHINGTON)",0,C,,
21741RCKYT1201M,-77.737,39.62,False,24,043,001001,24,24043,24043001001,1400000US24043001001,GREAT SOUTHERN WOOD - MD INC,1201 MARYLAND AVE,HAGERSTOWN,MD,21740,"GREAT SOUTHERN WOOD - MD INC.1201 MARYLAND AVE, HAGERSTOWN MARYLAND 21740 (WASHINGTON)",0,C,,110000340417
21741RSTLMINTER,-77.795,39.6,False,24,043,010802,24,24043,24043010802,1400000US24043010802,RUST-OLEUM CORP IN MD,16410 INDUSTRIAL LN,WILLIAMSPORT,MD,21795,"RUST-OLEUM CORP IN MD.16410 INDUSTRIAL LN, WILLIAMSPORT MARYLAND 21795 (WASHINGTON)",0,C,,110000555907
21795CRTNTPOBOX,-77.807,39.593,False,24,043,010802,24,24043,24043010802,1400000US24043010802,CERTAINTEED CORP,10131 GOVERNOR LN BLVD,WILLIAMSPORT,MD,21795,"CERTAINTEED CORP.10131 GOVERNOR LN BLVD, WILLIAMSPORT MARYLAND 21795 (WASHINGTON)",0,C,,110000340505
21795GNRLPINDUS,-77.79899999999999,39.596,False,24,043,010802,24,24043,24043010802,1400000US24043010802,SUN CHEMICAL CORP,10319 GRUMBACKER LN,WILLIAMSPORT,MD,21795,"SUN CHEMICAL CORP.10319 GRUMBACKER LN, WILLIAMSPORT MARYLAND 21795 (WASHINGTON)",0,C,,110000340514
21795RQPCR10402,-77.804,39.599000000000004,False,24,043,010802,24,24043,24043010802,1400000US24043010802,EATON AEROQUIP INC,10402 GOVERNOR LN BLVD,WILLIAMSPORT,MD,21795,"EATON AEROQUIP INC.10402 GOVERNOR LN BLVD, WILLIAMSPORT MARYLAND 21795 (WASHINGTON)",0,C,,110000340550
21795PSNCH16414,-77.8,39.598,False,24,043,010802,24,24043,24043010802,1400000US24043010802,ENGINEERED POLYMER SOLUTIONS INC,16414 INDUSTRIAL LN,WILLIAMSPORT,MD,21795,"ENGINEERED POLYMER SOLUTIONS INC.16414 INDUSTRIAL LN, WILLIAMSPORT MARYLAND 21795 (WASHINGTON)",0,C,,110000340523
21795FLTWD10233,-77.805,39.595,False,24,043,010802,24,24043,24043010802,1400000US24043010802,FLEETWOOD TRAVEL TRAILERS OF MARYLAND INC 53,10233 GOVERNOR LN BLVD,WILLIAMSPORT,MD,21795,"FLEETWOOD TRAVEL TRAILERS OF MARYLAND INC 53.10233 GOVERNOR LN BLVD, WILLIAMSPORT MARYLAND 21795 (WASHINGTON)",0,C,,
21795RPLSM15952,-77.827,39.595,False,24,043,010802,24,24043,24043010802,1400000US24043010802,ALLEGHENY ENERGY INC R. PAUL SMITH POWER STATION,15952 LOCKWOOD RD,WILLIAMSPORT,MD,21795,"ALLEGHENY ENERGY INC R. PAUL SMITH POWER STATION.15952 LOCKWOOD RD, WILLIAMSPORT MARYLAND 21795 (WASHINGTON)",1,C,,110022381545
21750GNNPR100RA,-78.154,39.702,False,24,043,010700,24,24043,24043010700,1400000US24043010700,RAYLOC,100  RAYLOC  DR,HANCOCK,MD,217501518,"RAYLOC.100  RAYLOC  DR, HANCOCK MARYLAND 21750 (WASHINGTON)",0,C,,
21750FLTWD35SOU,-78.19,39.696999999999996,False,24,043,010700,24,24043,24043010700,1400000US24043010700,FLEETWOOD TRAVEL TRAILERS OF MARYLAND INC #28,35 S ST,HANCOCK,MD,21750,"FLEETWOOD TRAVEL TRAILERS OF MARYLAND INC #28.35 S ST, HANCOCK MARYLAND 21750 (WASHINGTON)",0,C,,
21750JFFRS14738,-78.182,39.714,False,24,043,010700,24,24043,24043010700,1400000US24043010700,LANCO PENNLAND,14738 WARFORDSBURG RD,HANCOCK,MD,21750,"LANCO PENNLAND.14738 WARFORDSBURG RD, HANCOCK MARYLAND 21750 (WASHINGTON)",0,C,,110000492547
21793THRTR8301B,-77.378,39.47,False,24,021,740200,24,24021,24021740200,1400000US24021740200,ROTOREX CO,8301-B RETREAT RD,WALKERSVILLE,MD,21793,"ROTOREX CO.8301-B RETREAT RD, WALKERSVILLE MARYLAND 21793 (FREDERICK)",0,C,,
21795WDBYR312NC,-77.824,39.606,False,24,043,010801,24,24043,24043010801,1400000US24043010801,GST AUTOLEATHER  INC,15717 CLEAR SPRING RD,WILLIAMSPORT,MD,21795,"GST AUTOLEATHER  INC.15717 CLEAR SPRING RD, WILLIAMSPORT MARYLAND 21795 (WASHINGTON)",1,C,,
21795BYCHM312NC,-77.824,39.606,False,24,043,010801,24,24043,24043010801,1400000US24043010801,BY-CHEM CORP,15717 CLEAR SPRING RD,WILLIAMSPORT,MD,21795,"BY-CHEM CORP.15717 CLEAR SPRING RD, WILLIAMSPORT MARYLAND 21795 (WASHINGTON)",1,C,,
21795CSHWBRTE68,-77.824,39.605,False,24,043,010801,24,24043,24043010801,1400000US24043010801,REDLAND BRICK INC CUSHWA PLANT,15718 CLEAR SPRING RD,WILLIAMSPORT,MD,21795,"REDLAND BRICK INC CUSHWA PLANT.15718 CLEAR SPRING RD, WILLIAMSPORT MARYLAND 21795 (WASHINGTON)",0,C,,110000340532
21795XRXSCRTE3B,-77.801,39.621,False,24,043,010801,24,24043,24043010801,1400000US24043010801,XERXES CORP,16404 ELLIOTT PKWY,WILLIAMSPORT,MD,21795,"XERXES CORP.16404 ELLIOTT PKWY, WILLIAMSPORT MARYLAND 21795 (WASHINGTON)",0,C,,110000340578
21801BYLNR2305N,-75.577,38.406,False,24,045,010101,24,24045,24045010101,1400000US24045010101,US MARINE/BRUNSWICK FAMILY BOAT CO INC.,2305 NORTHWOOD DR,SALISBURY,MD,21801,"US MARINE/BRUNSWICK FAMILY BOAT CO INC..2305 NORTHWOOD DR, SALISBURY MARYLAND 21801 (WICOMICO)",0,C,,110000340596
21801CCDNTRT11B,-75.586,38.402,False,24,045,010101,24,24045,24045010101,1400000US24045010101,SPARTECH LLC,601 MARVEL ROAD,SALISBURY,MD,21801,"SPARTECH LLC.601 MARVEL ROAD, SALISBURY MARYLAND 21801 (WICOMICO)",0,C,,110000340603
21801HFFMN601BE,-75.587,38.395,False,24,045,010101,24,24045,24045010101,1400000US24045010101,HOFFMANN-LA ROCHE INC,601 BEAM ST,SALISBURY,MD,218012493,"HOFFMANN-LA ROCHE INC.601 BEAM ST, SALISBURY MARYLAND 21801 (WICOMICO)",0,C,,
21801PLYMT2000I,-75.59,38.397,False,24,045,010101,24,24045,24045010101,1400000US24045010101,PLYMOUTH TUBE CO,2000 INDUSTRIAL PKWY,SALISBURY,MD,21801,"PLYMOUTH TUBE CO.2000 INDUSTRIAL PKWY, SALISBURY MARYLAND 21801 (WICOMICO)",0,C,,110000340630
21801WBCRF2015I,-75.58800000000001,38.397,False,24,045,010101,24,24045,24045010101,1400000US24045010101,WEBCRAFT TECH INC,2015 INDUSTRIAL PKY,SALISBURY,MD,21801,"WEBCRAFT TECH INC.2015 INDUSTRIAL PKY, SALISBURY MARYLAND 21801 (WICOMICO)",0,C,,
21801KLMCR2250N,-75.578,38.405,False,24,045,010101,24,24045,24045010101,1400000US24045010101,K & L MICROWAVE INC,2250 NORTHWOOD DR,SALISBURY,MD,21801,"K & L MICROWAVE INC.2250 NORTHWOOD DR, SALISBURY MARYLAND 21801 (WICOMICO)",0,C,,
21801TNCRP2300N,-75.577,38.406,False,24,045,010101,24,24045,24045010101,1400000US24045010101,EATON CORP HEINEMANN PRODUCTS,2300 NORTHWOOD DR,SALISBURY,MD,21801,"EATON CORP HEINEMANN PRODUCTS.2300 NORTHWOOD DR, SALISBURY MARYLAND 21801 (WICOMICO)",0,C,,
21801PRCSN620NA,-75.585,38.407,False,24,045,010101,24,24045,24045010101,1400000US24045010101,PRECISION TUBE CO,620 NAYLOR MILL ROAD,SALISBURY,MD,21801,"PRECISION TUBE CO.620 NAYLOR MILL ROAD, SALISBURY MARYLAND 21801 (WICOMICO)",0,C,,
21801MRCHM7MARV,-75.589,38.400999999999996,False,24,045,010101,24,24045,24045010101,1400000US24045010101,AMERICHEM INC SMD,700 MARVEL RD,SALISBURY,MD,21801,"AMERICHEM INC SMD.700 MARVEL RD, SALISBURY MARYLAND 21801 (WICOMICO)",0,C,,110001283575
21801STNDR600MA,-75.558,38.367,True,24,045,010101,24,24045,24045010101,1400000US24045010101,STANDARD REGISTER CO,600 MARVEL RD,SALISBURY,MD,21801,"STANDARD REGISTER CO 600 MARVEL RD, SALISBURY, MD, 21801",0,C,,
21801CMPBLPOBOX,-75.583,38.334,False,24,045,010502,24,24045,24045010502,1400000US24045010502,ROYAL QUALITY FOODS,510 W RD,SALISBURY,MD,21803,"ROYAL QUALITY FOODS.510 W RD, SALISBURY MARYLAND 21803 (WICOMICO)",0,C,,
21801DRSSR124WC,-75.6,38.347,False,24,045,010502,24,24045,24045010502,1400000US24045010502,DRESSER INC WAYNE DIV,124 W COLLEGE AVE,SALISBURY,MD,21801,"DRESSER INC WAYNE DIV.124 W COLLEGE AVE, SALISBURY MARYLAND 21801 (WICOMICO)",1,C,,
21801PRDNCROUTE,-75.605,38.366,False,24,045,000300,24,24045,24045000300,1400000US24045000300,PERDUE FARMS INC SALISBURY PROCESSING PLANT,521 WILLOW ST,SALISBURY,MD,21801,"PERDUE FARMS INC SALISBURY PROCESSING PLANT.521 WILLOW ST, SALISBURY MARYLAND 21801 (WICOMICO)",0,C,,110000563462
21801PRDNCZIONC,-75.52600000000001,38.383,False,24,045,010603,24,24045,24045010603,1400000US24045010603,SALISBURY (ZCR)FEED & GRAIN,7036 ZION CHURCH RD,SALISBURY,MD,21804,"SALISBURY (ZCR)FEED & GRAIN.7036 ZION CHURCH RD, SALISBURY MARYLAND 21804 (WICOMICO)",0,C,,110009684010
21811HDSNFRT346,-75.212,38.335,False,24,047,951000,24,24047,24047951000,1400000US24047951000,TYSON FOODS INC BERLIN PROCESSING,10129 OLD OCEAN CITY BLVD,BERLIN,MD,218110007,"TYSON FOODS INC BERLIN PROCESSING.10129 OLD OCEAN CITY BLVD, BERLIN MARYLAND 21811 (WORCESTER)",0,C,,
21811PRDNCBRYAN,-75.22,38.332,False,24,047,951000,24,24047,24047951000,1400000US24047951000,PERDUE FARMS INC BERLIN GRAIN ELEVATOR,114 BRYAN AVE,BERLIN,MD,21811,"PERDUE FARMS INC BERLIN GRAIN ELEVATOR.114 BRYAN AVE, BERLIN MARYLAND 21811 (WORCESTER)",0,C,,110000764316
21817CRVLHRT413,-75.831,38.0,False,24,039,930500,24,24039,24039930500,1400000US24039930500,CARVEL HALL,RT 413,CRISFIELD,MD,218170271,"CARVEL HALL.RT 413, CRISFIELD MARYLAND 21817 (SOMERSET)",0,C,,
21826CRWNCPOBOX,-75.622,38.333,False,24,045,010400,24,24045,24045010400,1400000US24045010400,CROWN CORK & SEAL CO INC,RTE #13,SALISBURY,MD,21826,"CROWN CORK & SEAL CO INC.RTE #13, SALISBURY MARYLAND 21826 (WICOMICO)",0,C,,
21826TLNTCEDENR,-75.619,38.321999999999996,False,24,045,010400,24,24045,24045010400,1400000US24045010400,EDEN WOOD PRESERVING LLC,28114 OLD EDEN RD,FRUITLAND,MD,21826,"EDEN WOOD PRESERVING LLC.28114 OLD EDEN RD, FRUITLAND MARYLAND 21826 (WICOMICO)",0,C,,110000340667
21830LNGLFOLDRA,-75.696,38.417,False,24,045,010702,24,24045,24045010702,1400000US24045010702,LONG LIFE TREATED WOOD INC,8150 OLD RAILROAD RD,HEBRON,MD,21830,"LONG LIFE TREATED WOOD INC.8150 OLD RAILROAD RD, HEBRON MARYLAND 21830 (WICOMICO)",0,C,,110056012826
21835STRNSRFD1X,-75.936,38.556,False,24,019,970300,24,24019,24019970300,1400000US24019970300,VALLEY PROTEINS INC-LINKWOOD FACILITY,5420 LINKWOOD RD,LINKWOOD,MD,21835,"VALLEY PROTEINS INC-LINKWOOD FACILITY.5420 LINKWOOD RD, LINKWOOD MARYLAND 21835 (DORCHESTER)",0,C,,110000340685
21851CHSPKUS13N,-75.544,38.056999999999995,False,24,047,951400,24,24039,24047951400,1400000US24047951400,CHESAPEAKE WOOD TREATING,33675 COSTEN RD,POCOMOKE CITY,MD,21851,"CHESAPEAKE WOOD TREATING.33675 COSTEN RD, POCOMOKE CITY MARYLAND 21851 (SOMERSET)",1,C,,
21851CMPBLCLARK,-75.578,38.067,False,24,047,951500,24,24047,24047951500,1400000US24047951500,CAMPBELL SOUP CO,CLARKE AVE,POCOMOKE CITY,MD,218510089,"CAMPBELL SOUP CO.CLARKE AVE, POCOMOKE CITY MARYLAND 21851 (WORCESTER)",1,C,,
21851LBNNCCLARK,-75.55199999999999,38.079,False,24,047,951500,24,24047,24047951500,1400000US24047951500,LEBANON CHEMICAL CORP,CLARKE AVE,POCOMOKE CITY,MD,21851,"LEBANON CHEMICAL CORP.CLARKE AVE, POCOMOKE CITY MARYLAND 21851 (WORCESTER)",0,C,,
21851RCCCH1841B,-75.564,38.061,False,24,047,951500,24,24047,24047951500,1400000US24047951500,RICCA CHEMICAL CO LLC,1841 BROAD ST,POCOMOKE CITY,MD,21851,"RICCA CHEMICAL CO LLC.1841 BROAD ST, POCOMOKE CITY MARYLAND 21851 (WORCESTER)",0,C,,110029000088
21863HLLYF207BA,-75.385,38.177,False,24,047,951300,24,24047,24047951300,1400000US24047951300,TYSON FARMS INC FEED MILL SNOW HILL,207 BAY ST,SNOW HILL,MD,21863,"TYSON FARMS INC FEED MILL SNOW HILL.207 BAY ST, SNOW HILL MARYLAND 21863 (WORCESTER)",0,C,,110000340694
21901CHSPK102PE,-75.958,39.621,False,24,015,030906,24,24015,24015030906,1400000US24015030906,UNIVERSAL FOREST PRODUCTS EASTERN CO INC,102 PENINSULA DR,NORTH EAST,MD,21901,"UNIVERSAL FOREST PRODUCTS EASTERN CO INC.102 PENINSULA DR, NORTH EAST MARYLAND 21901 (CECIL)",0,C,,
21901CMPSTONEPE,-75.955,39.621,False,24,015,030906,24,24015,24015030906,1400000US24015030906,COMPOSITE & METAL PRODUCTS USA INC DBA COMPOSITES USA,ONE PENINSULA DR,NORTH EAST,MD,21901,"COMPOSITE & METAL PRODUCTS USA INC DBA COMPOSITES USA.ONE PENINSULA DR, NORTH EAST MARYLAND 21901 (CECIL)",0,C,,110000340701
2190WSMNSN97NRT,-75.952,39.619,False,24,015,030906,24,24015,24015030906,1400000US24015030906,SIEMENS INDUSTRY INC.NORTH EAST FACILITY,97 NORTH LESLIE DRIVE BUILDING J,NORTH EAST,MD,21901,"SIEMENS INDUSTRY INC.NORTH EAST FACILITY.97 NORTH LESLIE DRIVE BUILDING J, NORTH EAST MARYLAND 21901 (CECIL)",0,C,,110046123422
21903CSTLN950PR,-76.063,39.564,False,24,015,031202,24,24015,24015031202,1400000US24015031202,COASTAL UNILUBE INC,950 PRINCIPIO FURNACE RD,PERRYVILLE,MD,21903,"COASTAL UNILUBE INC.950 PRINCIPIO FURNACE RD, PERRYVILLE MARYLAND 21903 (CECIL)",0,C,,
21921CNTRLZEITL,-75.851,39.621,False,24,015,030503,24,24015,24015030503,1400000US24015030503,CENTRAL CHEMICAL CORP,505 BLUE BALL RD BLDG  160,ELKTON,MD,21921,"CENTRAL CHEMICAL CORP.505 BLUE BALL RD BLDG  160, ELKTON MARYLAND 21921 (CECIL)",0,C,,
21921MRTNT55THI,-75.865,39.611,False,24,015,030503,24,24015,24015030503,1400000US24015030503,THIOKOL CORP ELKTON DLV OPS,55 THIOKOL RD,ELKTON,MD,219210241,"THIOKOL CORP ELKTON DLV OPS.55 THIOKOL RD, ELKTON MARYLAND 21921 (CECIL)",0,C,,
21921PDVSN505BL,-75.851,39.621,False,24,015,030503,24,24015,24015030503,1400000US24015030503,IPI NORTH EAST INC,505 BLUE BALL RD,ELKTON,MD,21921,"IPI NORTH EAST INC.505 BLUE BALL RD, ELKTON MARYLAND 21921 (CECIL)",0,C,,
21921TRJNY2440O,-75.854,39.594,False,24,015,030503,24,24015,24015030503,1400000US24015030503,BERTRAM-TROJAN INC TROJAN YACHT DIV,2440 OLDFIELD,ELKTON,MD,21921,"BERTRAM-TROJAN INC TROJAN YACHT DIV.2440 OLDFIELD, ELKTON MARYLAND 21921 (CECIL)",0,C,,
21921WLGRS3BLUE,-75.847,39.614000000000004,False,24,015,030503,24,24015,24015030503,1400000US24015030503,WL GORE & ASSOCIATES INC ELK CREEK 1/2/3 SITE,295 BLUE BALL RD,ELKTON,MD,21921,"WL GORE & ASSOCIATES INC ELK CREEK 1/2/3 SITE.295 BLUE BALL RD, ELKTON MARYLAND 21921 (CECIL)",0,C,,110054317271
21921WLGRS100AI,-75.809,39.644,False,24,015,030503,24,24015,24015030503,1400000US24015030503,W L GORE & ASSOCIATES INC,100 AIRPORT RD BLDG 2,ELKTON,MD,21921,"W L GORE & ASSOCIATES INC.100 AIRPORT RD BLDG 2, ELKTON MARYLAND 21921 (CECIL)",0,C,,
21921CLNLM505BL,-75.851,39.621,False,24,015,030503,24,24015,24015030503,1400000US24015030503,COLONIAL METALS INC,505 BLUE BALL RD,ELKTON,MD,21921,"COLONIAL METALS INC.505 BLUE BALL RD, ELKTON MARYLAND 21921 (CECIL)",0,C,,110000340710
21921WLGRS100AA,-75.809,39.644,False,24,015,030503,24,24015,24015030503,1400000US24015030503,W L GORE & ASSOCIATES INC APPLETON SOUTH SITE,100 AIRPORT RD,ELKTON,MD,21921,"W L GORE & ASSOCIATES INC APPLETON SOUTH SITE.100 AIRPORT RD, ELKTON MARYLAND 21921 (CECIL)",0,C,,
21921BRRSR451FL,-75.805,39.653,False,24,015,030503,24,24015,24015030503,1400000US24015030503,BURRIS REFRIGERATED LOGISTICS,451 FLETCHWOODE RD,ELKTON,MD,21921,"BURRIS REFRIGERATED LOGISTICS.451 FLETCHWOODE RD, ELKTON MARYLAND 21921 (CECIL)",0,C,,110031018707
2192WWLGRS11LVE,-75.8,39.645,False,24,015,030503,24,24015,24015030503,1400000US24015030503,WL GORE & ASSOCIATES INC - LOVETT I,101 LOVETT DRIVE,ELKTON,MD,21921,"WL GORE & ASSOCIATES INC - LOVETT I.101 LOVETT DRIVE, ELKTON MARYLAND 21921 (CECIL)",0,C,,110058274264
21921RPRDC329WE,-75.842,39.606,False,24,015,030400,24,24015,24015030400,1400000US24015030400,ASHLAND INC.,329 W MAIN ST,ELKTON,MD,21921,"ASHLAND INC..329 W MAIN ST, ELKTON MARYLAND 21921 (CECIL)",0,C,,110000340738
21921TRMMD950EL,-75.842,39.61,False,24,015,030400,24,24015,24015030400,1400000US24015030400,TERUMO MEDICAL CORP,950 ELKTON BLVD,ELKTON,MD,21921,"TERUMO MEDICAL CORP.950 ELKTON BLVD, ELKTON MARYLAND 21921 (CECIL)",0,C,,110000340747
20607BRTTS17601,-77.039,38.648,False,24,033,801302,24,24033,24033801302,1400000US24033801302,BERETTA USA CORP,17601 BERETTA DR,ACCOKEEK,MD,20607,"BERETTA USA CORP.17601 BERETTA DR, ACCOKEEK MARYLAND 20607 (PRINCE GEORGE'S)",0,C,,110000764281
20743NKCXX9020E,-76.84899999999999,38.881,False,24,033,802204,24,24033,24033802204,1400000US24033802204,INK CO.,9020 EDGEWORTH DR.,CAPITOL HEIGHTS,MD,20743,"INK CO..9020 EDGEWORTH DR., CAPITOL HEIGHTS MARYLAND 20743 (PRINCE GEORGE'S)",1,C,,
20769HLLDY7100H,-76.811,38.986,False,24,033,800408,24,24033,24033800408,1400000US24033800408,HOLLADAY TYLER PRINTING CORP,7100 HOLLADAY-TYLER RD,GLENN DALE,MD,20769,"HOLLADAY TYLER PRINTING CORP.7100 HOLLADAY-TYLER RD, GLENN DALE MARYLAND 20769 (PRINCE GEORGE'S)",0,C,,
20794TTCCS7510M,-76.77,39.165,False,24,027,601203,24,24027,24027601203,1400000US24027601203,TATE ACCESS FLOORS INC,7510 MONTEVIDEO RD,JESSUP,MD,20794,"TATE ACCESS FLOORS INC.7510 MONTEVIDEO RD, JESSUP MARYLAND 20794 (HOWARD)",0,C,,110000339278
20794BLTMR7595M,-76.768,39.163000000000004,False,24,027,601203,24,24027,24027601203,1400000US24027601203,BALTIMORE AIRCOIL CO,7595 MONTEVIDEO RD,JESSUP,MD,20794,"BALTIMORE AIRCOIL CO.7595 MONTEVIDEO RD, JESSUP MARYLAND 20794 (HOWARD)",0,C,,
20794LTSPC7151M,-76.777,39.175,False,24,027,601203,24,24027,24027601203,1400000US24027601203,ELITE SPICE INC,7151 MONTEVIDEO RD,JESSUP,MD,20794,"ELITE SPICE INC.7151 MONTEVIDEO RD, JESSUP MARYLAND 20794 (HOWARD)",0,C,,110000339269
2079WJSSPR7926L,-76.777,39.154,False,24,027,601203,24,24027,24027601203,1400000US24027601203,JESSUP READY MIX CONCRETE,7926 OLD JESSUP RD,JESSUP,MD,20794,"JESSUP READY MIX CONCRETE.7926 OLD JESSUP RD, JESSUP MARYLAND 20794 (HOWARD)",0,C,,110060259394
20842NTRNP22301,-77.42,39.221,False,24,031,700400,24,24031,24031700400,1400000US24031700400,NEUTRON PRODUCTS INC,22301 MOUNT EPHRAIM RD,DICKERSON,MD,20842,"NEUTRON PRODUCTS INC.22301 MOUNT EPHRAIM RD, DICKERSON MARYLAND 20842 (MONTGOMERY)",0,C,,110003510576
21046GTCCR7125R,-76.874,39.176,False,24,027,606803,24,24027,24027606803,1400000US24027606803,GTCO CALCOMP PERIPHERALS,7125 RIVERWOOD DR,COLUMBIA,MD,21046,"GTCO CALCOMP PERIPHERALS.7125 RIVERWOOD DR, COLUMBIA MARYLAND 21046 (HOWARD)",0,C,,
21055MLCPL9800R,-76.764,39.408,False,24,005,403702,24,24005,24005403702,1400000US24005403702,AXALTO INC (FORMERLY SCHLUMBERGER MALCO INC),9800 REISTERSTOWN RD,OWINGS MILLS,MD,21117,"AXALTO INC (FORMERLY SCHLUMBERGER MALCO INC).9800 REISTERSTOWN RD, OWINGS MILLS MARYLAND 21117 (BALTIMORE)",0,C,,
21157TLMCN2002B,-76.931,39.539,False,24,013,504201,24,24013,24013504201,1400000US24013504201,TELEMECANIQUE INC,2002 BETHEL RD,WESTMINSTER,MD,21157,"TELEMECANIQUE INC.2002 BETHEL RD, WESTMINSTER MARYLAND 21157 (CARROLL)",1,C,,
21160MCCRQ2737W,-76.382,39.718,False,24,025,305100,24,24025,24025305100,1400000US24025305100,COMMUNISIS MCCORQUODALE,2737 WHITEFORD RD,WHITEFORD,MD,21160,"COMMUNISIS MCCORQUODALE.2737 WHITEFORD RD, WHITEFORD MARYLAND 21160 (HARFORD)",0,C,,
21218DPNTX400EA,-76.61,39.323,False,24,510,120300,24,24510,24510120300,1400000US24510120300,DU PONT BALTIMORE WAREHOUSE,400 E 29TH ST,BALTIMORE,MD,21218,"DU PONT BALTIMORE WAREHOUSE.400 E 29TH ST, BALTIMORE MARYLAND 21218 (BALTIMORE (CITY))",0,C,,
21223LSTNG200SF,-76.658,39.285,False,24,510,200400,24,24510,24510200400,1400000US24510200400,LASTING PAINTS INC,200 S FRANKLINTOWN RD,BALTIMORE,MD,21223,"LASTING PAINTS INC.200 S FRANKLINTOWN RD, BALTIMORE MARYLAND 21223 (BALTIMORE (CITY))",0,C,,
21229RBBRM709SC,-76.672,39.275999999999996,False,24,510,200800,24,24510,24510200800,1400000US24510200800,RUBBER MILLERS INC,709 S CATON AVE,BALTIMORE,MD,21229,"RUBBER MILLERS INC.709 S CATON AVE, BALTIMORE MARYLAND 21229 (BALTIMORE (CITY))",0,C,,
21401LCTRN895OC,-76.406,39.009,False,24,003,730902,24,24003,24003730902,1400000US24003730902,OCEANIC & NAVAL SYSTEMS,895 OCEANIC DR,ANNAPOLIS,MD,21401,"OCEANIC & NAVAL SYSTEMS.895 OCEANIC DR, ANNAPOLIS MARYLAND 21401 (ANNE ARUNDEL)",0,C,,110000796274
21777CNMSTRTE28,-77.529,39.275,False,24,021,752303,24,24021,24021752303,1400000US24021752303,CANAM STEEL CORP POINT OF ROCKS PLANT,4010 CLAY ST,POINT OF ROCKS,MD,21777,"CANAM STEEL CORP POINT OF ROCKS PLANT.4010 CLAY ST, POINT OF ROCKS MARYLAND 21777 (FREDERICK)",0,C,,110000340453
21801PPSCL330SN,-75.59100000000001,38.361999999999995,False,24,045,000500,24,24045,24045000500,1400000US24045000500,PEPSI BOTTLING VENTURES LLC,330 SNOW HILL RD,SALISBURY,MD,21801,"PEPSI BOTTLING VENTURES LLC.330 SNOW HILL RD, SALISBURY MARYLAND 21801 (WICOMICO)",0,C,,
21921WLGRS2401S,-75.857,39.671,False,24,015,030501,24,24015,24015030501,1400000US24015030501,W L GORE & ASSOCIATES INC CHERRY HILL SITE,2401 SINGERLY RD,ELKTON,MD,21921,"W L GORE & ASSOCIATES INC CHERRY HILL SITE.2401 SINGERLY RD, ELKTON MARYLAND 21921 (CECIL)",0,C,,
20602NKCXX108RO,-76.90899999999999,38.616,False,24,017,850901,24,24017,24017850901,1400000US24017850901,FLINT INK NA CORP,108 ROCKEFELLER CT,WALDORF,MD,20602,"FLINT INK NA CORP.108 ROCKEFELLER CT, WALDORF MARYLAND 20602 (CHARLES)",0,C,,
20710SCRTY43014,-76.94,38.941,False,24,033,804002,24,24033,24033804002,1400000US24033804002,SECURITY FENCE SUPPLY CO. INC.,4301 46TH ST.,BLADENSBURG,MD,20710,"SECURITY FENCE SUPPLY CO. INC..4301 46TH ST., BLADENSBURG MARYLAND 20710 (PRINCE GEORGE'S)",0,C,,
20775SPCLP9700S,-76.768,39.1,False,24,003,740603,24,24033,24003740603,1400000US24003740603,U.S. DEPARTMENT OF DEFENSE SPECIAL PROCESS LAB,9700 SAMFORD RD.,LARGO-KETTERING,MD,20775,"U.S. DEPARTMENT OF DEFENSE SPECIAL PROCESS LAB.9700 SAMFORD RD., LARGO-KETTERING MARYLAND 20775 (PRINCE GEORGE'S)",0,C,,
20755DRCTR239RO,-76.715,39.083,False,24,003,740603,24,24003,24003740603,1400000US24003740603,U.S. ARMY DIRECTORATE OF PUBLIC WORKS FORT GEORGE G. MEADE,239 CHISHOLM AVE,FORT GEORGE G MEADE,MD,207555115,"U.S. ARMY DIRECTORATE OF PUBLIC WORKS FORT GEORGE G. MEADE.239 CHISHOLM AVE, FORT GEORGE G MEADE MARYLAND 20755 (ANNE ARUNDEL)",0,F,,110008055022
2075WFRTGR24685,-76.726,39.101,False,24,003,740603,24,24003,24003740603,1400000US24003740603,FORT GEORGE G MEADE,4216 ROBERTS AVE,FORT GEORGE G MEADE,MD,20755,"FORT GEORGE G MEADE.4216 ROBERTS AVE, FORT GEORGE G MEADE MARYLAND 20755 (ANNE ARUNDEL)",0,F,,110064273003
20755FRTGR212ST,-76.767,39.05,True,24,003,740603,24,24003,24003740603,1400000US24003740603,US ARMY GARRISON FORT GEORGE G MEADE,"2 1/2 ST & ROSS ST, BLDG T-239",FORT GEORGE G MEADE,MD,207555155,"US ARMY GARRISON FORT GEORGE G MEADE 2 1/2 ST & ROSS ST, BLDG T-239, FORT GEORGE G MEADE, MD, 207555155",0,F,,
20781LNMRQ4507B,-76.94,38.948,False,24,033,806300,24,24033,24033806300,1400000US24033806300,LINE MARQUE PRINTING INC.,4507 BUCAHANAN ST.,HYATTSVILLE,MD,20781,"LINE MARQUE PRINTING INC..4507 BUCAHANAN ST., HYATTSVILLE MARYLAND 20781 (PRINCE GEORGE'S)",1,C,,
20791DYCNP9001E,-76.837,38.957,False,24,033,803608,24,24033,24033803608,1400000US24033803608,DAYCON PRODUCTS CO INC,4901 FORBES BLVD,LANHAM,MD,20706,"DAYCON PRODUCTS CO INC.4901 FORBES BLVD, LANHAM MARYLAND 20706 (PRINCE GEORGE'S)",0,C,,
20874FRCHL20301,-77.263,39.19,False,24,031,700309,24,24031,24031700309,1400000US24031700309,FAIRCHILD SPACE & DEFENSE CORP,20301 CENTURY BLVD,GERMANTOWN,MD,20874,"FAIRCHILD SPACE & DEFENSE CORP.20301 CENTURY BLVD, GERMANTOWN MARYLAND 20874 (MONTGOMERY)",0,C,,
21113HTCHC1721M,-76.696,39.109,False,24,003,740303,24,24003,24003740303,1400000US24003740303,HI-TECH COLOR INC,1721 MIDWAY RD,ODENTON,MD,21113,"HI-TECH COLOR INC.1721 MIDWAY RD, ODENTON MARYLAND 21113 (ANNE ARUNDEL)",0,C,,110000339544
2111WSGCNC1852J,-76.696,39.102,False,24,003,740303,24,24003,24003740303,1400000US24003740303,S&G CONCRETE ODENTON,1852 JACKSON GROVE ROAD,ODENTON,MD,21113,"S&G CONCRETE ODENTON.1852 JACKSON GROVE ROAD, ODENTON MARYLAND 21113 (ANNE ARUNDEL)",0,C,,110002473430
21117MLCPL76GWY,-76.781,39.417,False,24,005,404102,24,24005,24005404102,1400000US24005404102,SCHLUMBERGER MALCO INC,76 GWYNNS MILL CT,OWINGS MILLS,MD,211174145,"SCHLUMBERGER MALCO INC.76 GWYNNS MILL CT, OWINGS MILLS MARYLAND 21117 (BALTIMORE)",0,C,,
21117PRTNC810GW,-76.782,39.414,False,24,005,404102,24,24005,24005404102,1400000US24005404102,PURITAN/CHURCHILL CHEMICAL CO,8-10 GWYNN'S MILL CT,OWINGS MILLS,MD,21117,"PURITAN/CHURCHILL CHEMICAL CO.8-10 GWYNN'S MILL CT, OWINGS MILLS MARYLAND 21117 (BALTIMORE)",1,C,,
21130PRCBR1501P,-76.20100000000001,39.474000000000004,False,24,025,302400,24,24025,24025302400,1400000US24025302400,PRICE BROTHERS CO - PERRYMAN MD,1501 PERRYMAN RD,PERRYMAN,MD,21130,"PRICE BROTHERS CO - PERRYMAN MD.1501 PERRYMAN RD, PERRYMAN MARYLAND 21130 (HARFORD)",0,C,,
21130PRRYM900CH,-76.221,39.442,False,24,025,302400,24,24025,24025302400,1400000US24025302400,PERRYMAN GENERATING STATION,900 CHELSEA RD,PERRYMAN,MD,21130,"PERRYMAN GENERATING STATION.900 CHELSEA RD, PERRYMAN MARYLAND 21130 (HARFORD)",0,C,,110000499559
21001CLRXP1319P,-76.193,39.481,False,24,025,302400,24,24025,24025302400,1400000US24025302400,CLOROX PRODUCTS CO,1319 PERRYMAN RD,ABERDEEN,MD,21001,"CLOROX PRODUCTS CO.1319 PERRYMAN RD, ABERDEEN MARYLAND 21001 (HARFORD)",0,C,,110001781787
21215NTNLC4820S,-76.709,39.341,False,24,510,280102,24,24510,24510280102,1400000US24510280102,ATLANTIC ELECTRONICS INC,4820 SETON DR,BALTIMORE,MD,21215,"ATLANTIC ELECTRONICS INC.4820 SETON DR, BALTIMORE MARYLAND 21215 (BALTIMORE (CITY))",0,C,,
21215PRKSS3330H,-76.66,39.325,False,24,510,150500,24,24510,24510150500,1400000US24510150500,PARKS SAUSAGE CO,3330 H G PARKS CIRCLE,BALTIMORE,MD,21215,"PARKS SAUSAGE CO.3330 H G PARKS CIRCLE, BALTIMORE MARYLAND 21215 (BALTIMORE (CITY))",0,C,,
21227NVRNM4549A,-76.66,39.227,False,24,003,750300,24,24003,24003750300,1400000US24003750300,ENVIRONMENTAL INKS & COATINGS,810-H OREGON CENTER,LINTHICUM HEIGHTS,MD,210903200,"ENVIRONMENTAL INKS & COATINGS.810-H OREGON CENTER, LINTHICUM HEIGHTS MARYLAND 21090 (ANNE ARUNDEL)",0,C,,
21701SQRXC630SQ,-77.434,39.400999999999996,False,24,021,765100,24,24021,24021765100,1400000US24021765100,BP SOLAR INTERNATIONAL LLC,630 SOLAREX CT,FREDERICK,MD,21703,"BP SOLAR INTERNATIONAL LLC.630 SOLAREX CT, FREDERICK MARYLAND 21703 (FREDERICK)",0,C,,110000835277
21740LRSTN9317E,-77.726,39.569,False,24,043,010900,24,24043,24043010900,1400000US24043010900,LARSTAN INDUSTRIES,9317 EARLEY DR,HAGERSTOWN,MD,21740,"LARSTAN INDUSTRIES.9317 EARLEY DR, HAGERSTOWN MARYLAND 21740 (WASHINGTON)",0,C,,
20871SPCTR22250,-77.275,39.218,False,24,031,700311,24,24031,24031700311,1400000US24031700311,SPECTRA INC,22250 COMSAT DR,CLARKSBURG,MD,20871,"SPECTRA INC.22250 COMSAT DR, CLARKSBURG MARYLAND 20871 (MONTGOMERY)",0,C,,
20871THLSC2265G,-77.28,39.23,False,24,031,700311,24,24031,24031700311,1400000US24031700311,THALES COMMUNICATIONS INC,22065 GATEWAY CENTER DR,CLARKSBURG,MD,20871,"THALES COMMUNICATIONS INC.22065 GATEWAY CENTER DR, CLARKSBURG MARYLAND 20871 (MONTGOMERY)",0,C,,110022811536
21120THMSM500DA,-76.664,39.647,False,24,005,407002,24,24005,24005407002,1400000US24005407002,THOMAS MANUFACTURING CORP,500 DAIRY RD,PARKTON,MD,21120,"THOMAS MANUFACTURING CORP.500 DAIRY RD, PARKTON MARYLAND 21120 (BALTIMORE)",0,C,,110000339580
21244BRRNT7205W,-76.753,39.333,False,24,005,402407,24,24005,24005402407,1400000US24005402407,BARRE-NATIONAL INC,7205 WINDSOR BLVD,BALTIMORE,MD,21244,"BARRE-NATIONAL INC.7205 WINDSOR BLVD, BALTIMORE MARYLAND 21244 (BALTIMORE)",0,C,,
21813SHWLLBISHO,-75.221,38.428000000000004,False,24,047,950800,24,24047,24047950800,1400000US24047950800,BISHOPVILLE GRAIN ELEVATOR,9924 BISHOP RD,BISHOP,MD,21813,"BISHOPVILLE GRAIN ELEVATOR.9924 BISHOP RD, BISHOP MARYLAND 21813 (WORCESTER)",0,C,,110000340658
21862SHWLL10048,-75.215,38.398,False,24,047,950800,24,24047,24047950800,1400000US24047950800,SHOWELL PROCESSING PLANT,10048 PITTS RD,SHOWELL,MD,21862,"SHOWELL PROCESSING PLANT.10048 PITTS RD, SHOWELL MARYLAND 21862 (WORCESTER)",0,C,,
21922WLGRS1320A,-75.807,39.664,False,24,015,030602,24,24015,24015030602,1400000US24015030602,W L GORE & ASSOCIATES INC,501 VIEVES WAY,ELKTON,MD,21921,"W L GORE & ASSOCIATES INC.501 VIEVES WAY, ELKTON MARYLAND 21921 (CECIL)",0,C,,110038161093
20782DTRSP6200E,-76.959,38.966,False,24,033,806000,24,24033,24033806000,1400000US24033806000,EDITORS PRESS INC,6200 EDITORS PARK DR,HYATTSVILLE,MD,20782,"EDITORS PRESS INC.6200 EDITORS PARK DR, HYATTSVILLE MARYLAND 20782 (PRINCE GEORGE'S)",0,C,,
20785SMTHF5801C,-76.908,38.917,False,24,033,803200,24,24033,24033803200,1400000US24033803200,SMITHFIELD PACKING CO INC LANDOVER,5801 COLUMBIA PARK RD,LANDOVER,MD,20785,"SMITHFIELD PACKING CO INC LANDOVER.5801 COLUMBIA PARK RD, LANDOVER MARYLAND 20785 (PRINCE GEORGE'S)",0,C,,110000339232
21502SCHRD45QUE,-78.768,39.633,False,24,001,000800,24,24001,24001000800,1400000US24001000800,SCHROEDER INDUSTRIES,45 QUEEN ST,CUMBERLAND,MD,21502,"SCHROEDER INDUSTRIES.45 QUEEN ST, CUMBERLAND MARYLAND 21502 (ALLEGANY)",0,C,,
21720FLTCN12129,-77.581,39.649,False,24,043,011301,24,24043,24043011301,1400000US24043011301,FIL-TEC INC,12129 MAPLEVILLE RD,SMITHSBURG,MD,21783,"FIL-TEC INC.12129 MAPLEVILLE RD, SMITHSBURG MARYLAND 21783 (WASHINGTON)",0,C,,110000340373
21502PTMCFRACES,-78.76100000000001,39.632,False,24,001,000700,24,24001,24001000700,1400000US24001000700,POTOMAC FARMS DAIRY,RACE ST & W INDL BLVD,CUMBERLAND,MD,21502,"POTOMAC FARMS DAIRY.RACE ST & W INDL BLVD, CUMBERLAND MARYLAND 21502 (ALLEGANY)",0,C,,
21787NGRSL5310T,-77.185,39.665,False,24,013,501002,24,24013,24013501002,1400000US24013501002,FLOWSERVE FSG,5310 TANEYTOWN PIKE,TANEYTOWN,MD,21787,"FLOWSERVE FSG.5310 TANEYTOWN PIKE, TANEYTOWN MARYLAND 21787 (CARROLL)",0,C,,110003513305
20640SDDND101ST,-77.17699999999999,38.597,False,24,017,850201,24,24017,24017850201,1400000US24017850201,US NAVY  NAVAL SUPPORT FACILITY INDIAN HEAD,101 STRAUSS AVE,INDIAN HEAD,MD,20640,"US NAVY  NAVAL SUPPORT FACILITY INDIAN HEAD.101 STRAUSS AVE, INDIAN HEAD MARYLAND 20640 (CHARLES)",0,F,,110000492495
20640NVLXP2008S,-77.238,38.543,True,24,017,850201,24,24017,24017850201,1400000US24017850201,US NAVY NAVAL EXPLOSIVE ORDINANCE DISPOSAL TECH DIV,2008 STUMP NECK RD,INDIAN HEAD,MD,206405070,"US NAVY NAVAL EXPLOSIVE ORDINANCE DISPOSAL TECH DIV 2008 STUMP NECK RD, INDIAN HEAD, MD, 206405070",0,F,,
20670SDDNVNAVAL,-76.419,38.271,False,24,037,875801,24,24037,24037875801,1400000US24037875801,US NAVAL AIR STATION PATUXENT RIVER (RANGE ACTIVITIES),22445 PEARY RD BUILDING 504 PWD ENVIRONMENTAL DEPT,PATUXENT RIVER,MD,206701181,"US NAVAL AIR STATION PATUXENT RIVER (RANGE ACTIVITIES).22445 PEARY RD BUILDING 504 PWD ENVIRONMENTAL DEPT, PATUXENT RIVER MARYLAND 20670 (ST MARY'S)",0,F,,110011748118
20707JMSJR9200P,-76.846,39.034,False,24,033,800206,24,24033,24033800206,1400000US24033800206,US DHS JAMES J ROWLEY TRAINING CENTER,9200 POWDER MILL RD,LAUREL,MD,20708,"US DHS JAMES J ROWLEY TRAINING CENTER.9200 POWDER MILL RD, LAUREL MARYLAND 20708 (PRINCE GEORGE'S)",0,F,,110000339198
20755SDPTF9800S,-76.773,39.111999999999995,False,24,003,740601,24,24003,24003740601,1400000US24003740601,NATIONAL SECURITY AGENCY FIRING RANGE,9800 SAVAGE RD,FORT GEORGE G MEADE,MD,20755,"NATIONAL SECURITY AGENCY FIRING RANGE.9800 SAVAGE RD, FORT GEORGE G MEADE MARYLAND 20755 (ANNE ARUNDEL)",0,F,,110000796112
20892NTNLN9000R,-77.09899999999999,39.004,False,24,031,705000,24,24031,24031705000,1400000US24031705000,US PUBLIC HEALTH SERVICE NATIONAL INSTITUTES OF HEALTH,9000 ROCKVILLE PIKE,BETHESDA,MD,20892,"US PUBLIC HEALTH SERVICE NATIONAL INSTITUTES OF HEALTH.9000 ROCKVILLE PIKE, BETHESDA MARYLAND 20892 (MONTGOMERY)",0,F,,110000869720
21001FRTLY800HI,-76.188,39.496,False,24,025,302902,24,24025,24025302902,1400000US24025302902,FRITO LAY INC,800 HICKORY DR,ABERDEEN,MD,21001,"FRITO LAY INC.800 HICKORY DR, ABERDEEN MARYLAND 21001 (HARFORD)",0,C,,
2100WHRFRD2225P,-76.164,39.508,False,24,025,302902,24,24025,24025302902,1400000US24025302902,HARFORD SYSTEMS INC,2225 PULASKI HWY,ABERDEEN,MD,21001,"HARFORD SYSTEMS INC.2225 PULASKI HWY, ABERDEEN MARYLAND 21001 (HARFORD)",0,C,,110006637979
21005BRDNPSTEAP,-76.141,39.461,False,24,025,306500,24,24025,24025306500,1400000US24025306500,U.S. ARMY ABERDEEN PROVING GROUND,"IMNE-APG-PWE, BLDG. 4304",ABERDEEN PROVING GROUND,MD,21005,"U.S. ARMY ABERDEEN PROVING GROUND.IMNE-APG-PWE, BLDG. 4304, ABERDEEN PROVING GROUND MARYLAND 21005 (HARFORD)",0,F,,110017936117
21702SHHSNBLDG4,-77.42399999999999,39.434,False,24,021,750702,24,24021,24021750702,1400000US24021750702,US NATIONAL CANCER INSTITUTE RESEARCH & DEVELOPMENT CENTER,BLDG 427 MILLER DR FORT DETRICK,FREDERICK,MD,217021201,"US NATIONAL CANCER INSTITUTE RESEARCH & DEVELOPMENT CENTER.BLDG 427 MILLER DR FORT DETRICK, FREDERICK MARYLAND 21702 (FREDERICK)",0,F,,
21791LHGHP117SO,-77.171,39.56,False,24,013,512000,24,24013,24013512000,1400000US24013512000,LEHIGH CEMENT CO LLC,675 QUAKER HILL RD,UNION BRIDGE,MD,21791,"LEHIGH CEMENT CO LLC.675 QUAKER HILL RD, UNION BRIDGE MARYLAND 21791 (CARROLL)",0,C,,110003507385
21801KLMCR408CO,-75.586,38.375,False,24,045,000100,24,24045,24045000100,1400000US24045000100,K & L MICROWAVE INC,408 COLES CIR,SALISBURY,MD,218043214,"K & L MICROWAVE INC.408 COLES CIR, SALISBURY MARYLAND 21804 (WICOMICO)",0,C,,
21804KLMCR822BR,-75.58800000000001,38.376,False,24,045,000100,24,24045,24045000100,1400000US24045000100,K & L MICROWAVE INC,822 BROWN ST,SALISBURY,MD,21804,"K & L MICROWAVE INC.822 BROWN ST, SALISBURY MARYLAND 21804 (WICOMICO)",0,C,,
21853HDSNFUSRTE,-75.692,38.150999999999996,False,24,039,980400,24,24039,24039980400,1400000US24039980400,MOUNTAIRE FARMS INC-PRINCESS ANNE FEED MILL,30607 REVELS NECK RD,WESTOVER,MD,21871,"MOUNTAIRE FARMS INC-PRINCESS ANNE FEED MILL.30607 REVELS NECK RD, WESTOVER MARYLAND 21871 (SOMERSET)",0,C,,110000585251
21901LKTNSHANCE,-75.95,39.575,False,24,015,030904,24,24015,24015030904,1400000US24015030904,ELKTON SPARKLER CO INC,HANCES POINT RD,NORTH EAST,MD,21901,"ELKTON SPARKLER CO INC.HANCES POINT RD, NORTH EAST MARYLAND 21901 (CECIL)",0,C,,
20743MDTLN4656A,-76.92699999999999,38.911,False,24,033,803100,24,24033,24033803100,1400000US24033803100,MID ATLANTIC FINISHING CORP,4656 ADDISON RD,CAPITOL HEIGHTS,MD,20743,"MID ATLANTIC FINISHING CORP.4656 ADDISON RD, CAPITOL HEIGHTS MARYLAND 20743 (PRINCE GEORGE'S)",0,C,,110000339214
21218CLVRL2701L,-76.604,39.321,False,24,510,090500,24,24510,24510090500,1400000US24510090500,CLOVERLAND FARMS DAIRY,2701 LOCH RAVEN RD,BALTIMORE,MD,21218,"CLOVERLAND FARMS DAIRY.2701 LOCH RAVEN RD, BALTIMORE MARYLAND 21218 (BALTIMORE (CITY))",0,C,,110000496419
21650LBNNC12200,-75.825,39.31,False,24,029,950100,24,24029,24029950100,1400000US24029950100,LEBANON CHEMICAL CORP,"12200 MASSEY RD, RTE 299",MASSEY,MD,21650,"LEBANON CHEMICAL CORP.12200 MASSEY RD, RTE 299, MASSEY MARYLAND 21650 (KENT)",0,C,,
21650WNGRS12201,-75.825,39.31,False,24,029,950100,24,24029,24029950100,1400000US24029950100,WENGER FEED MILL INC-MASSEY,12201 MASSEY RD,MASSEY,MD,21650,"WENGER FEED MILL INC-MASSEY.12201 MASSEY RD, MASSEY MARYLAND 21650 (KENT)",0,C,,110008055442
21651CLRNT3011M,-75.855,39.251,False,24,035,810100,24,24035,24035810100,1400000US24035810100,CLARIANT CORP MASTERB ATCHES DIV,3011 MILLINGTON RD,MILLINGTON,MD,21651,"CLARIANT CORP MASTERB ATCHES DIV.3011 MILLINGTON RD, MILLINGTON MARYLAND 21651 (QUEEN ANNES)",0,C,,110019903684
20636MPHLL43979,-76.554,38.319,False,24,037,875600,24,24037,24037875600,1400000US24037875600,MP HOLLYWOOD LLC,43979 AIRPORT VIEW DR,HOLLYWOOD,MD,206360429,"MP HOLLYWOOD LLC.43979 AIRPORT VIEW DR, HOLLYWOOD MARYLAND 20636 (ST MARY'S)",0,C,,
21601STNDR28320,-76.093,38.779,False,24,041,960201,24,24041,24041960201,1400000US24041960201,STANDARD FUSEE CORP,28320 ST MICHAELS RD,EASTON,MD,21601,"STANDARD FUSEE CORP.28320 ST MICHAELS RD, EASTON MARYLAND 21601 (TALBOT)",0,C,,110000340248
21162MRCNS10300,-76.436,39.369,False,24,005,411302,24,24005,24005411302,1400000US24005411302,ANCHOR AN OLDCASTLE CO,10300 PULASKI HWY,WHITE MARSH,MD,21162,"ANCHOR AN OLDCASTLE CO.10300 PULASKI HWY, WHITE MARSH MARYLAND 21162 (BALTIMORE)",0,C,,110001276976
21162GMBLT10301,-76.443,39.373000000000005,False,24,005,411302,24,24005,24005411302,1400000US24005411302,GENERAL MOTORS BALTIMORE OPERATIONS,10301 PHILADELPHIA RD,WHITE MARSH,MD,21162,"GENERAL MOTORS BALTIMORE OPERATIONS.10301 PHILADELPHIA RD, WHITE MARSH MARYLAND 21162 (BALTIMORE)",0,C,,110012706599
21778BRLBR9801R,-77.327,39.605,False,24,021,767500,24,24021,24021767500,1400000US24021767500,REDLAND BRICK INC. ROCKY RIDGE PLANT,9801 ROCKY RIDGE RD,ROCKY RIDGE,MD,21778,"REDLAND BRICK INC. ROCKY RIDGE PLANT.9801 ROCKY RIDGE RD, ROCKY RIDGE MARYLAND 21778 (FREDERICK)",0,C,,110000340462
20608CHLKP25100,-76.686,38.544000000000004,False,24,033,800900,24,24033,24033800900,1400000US24033800900,CHALK POINT GENERATING STATION,25100 CHALK POINT RD,AQUASCO,MD,20608,"CHALK POINT GENERATING STATION.25100 CHALK POINT RD, AQUASCO MARYLAND 20608 (PRINCE GEORGE'S)",0,C,,110005974286
20664MRGNT12620,-76.976,38.359,False,24,017,851200,24,24017,24017851200,1400000US24017851200,MORGANTOWN GENERATING STATION,12620 CRAIN HWY,NEWBURG,MD,20664,"MORGANTOWN GENERATING STATION.12620 CRAIN HWY, NEWBURG MARYLAND 20664 (CHARLES)",0,C,,110000339143
20664BMSRV12620,-76.972,38.364000000000004,False,24,017,851200,24,24017,24017851200,1400000US24017851200,BMA SERVICES LLC / MORGANTOWN PLANT,12620 CRAIN HWY,NEWBURG,MD,20664,"BMA SERVICES LLC / MORGANTOWN PLANT.12620 CRAIN HWY, NEWBURG MARYLAND 20664 (CHARLES)",1,C,,110000339143
20842DCKRS21200,-77.465,39.207,False,24,031,700500,24,24031,24031700500,1400000US24031700500,GENON MID ATLANTIC LLC DICKERSON GENERATING STATION,21200 MARTINSBURG RD,DICKERSON,MD,20842,"GENON MID ATLANTIC LLC DICKERSON GENERATING STATION.21200 MARTINSBURG RD, DICKERSON MARYLAND 20842 (MONTGOMERY)",0,C,,110000339303
21040LCRNC1502Q,-76.314,39.446999999999996,False,24,025,301301,24,24025,24025301301,1400000US24025301301,ALCORE INC - LAKESIDE,1502 QUARRY DR,EDGEWOOD,MD,21040,"ALCORE INC - LAKESIDE.1502 QUARRY DR, EDGEWOOD MARYLAND 21040 (HARFORD)",0,C,,110000339438
21085LFRGM81PUL,-76.347,39.43,False,24,025,301301,24,24025,24025301301,1400000US24025301301,LAFARGE JOPPA CONCRETE BATCH PLANT,810 PULASKI HWY,JOPPA,MD,21085,"LAFARGE JOPPA CONCRETE BATCH PLANT.810 PULASKI HWY, JOPPA MARYLAND 21085 (HARFORD)",0,C,,110001259584
2104WSGCNC21PHI,-76.312,39.444,False,24,025,301301,24,24025,24025301301,1400000US24025301301,S&G CONCRETE EDGEWOOD,2100 PHILADELPHIA ROAD,EDGEWOOD,MD,21040,"S&G CONCRETE EDGEWOOD.2100 PHILADELPHIA ROAD, EDGEWOOD MARYLAND 21040 (HARFORD)",0,C,,110039203992
21220CPCRN1001C,-76.365,39.325,False,24,005,451803,24,24005,24005451803,1400000US24005451803,CP CRANE GENERATING STATION,1001 CARROLL ISLAND RD,CHASE,MD,21220,"CP CRANE GENERATING STATION.1001 CARROLL ISLAND RD, CHASE MARYLAND 21220 (BALTIMORE)",1,C,,110000339713
21222RVWRSMAINS,-76.514,39.238,False,24,005,421300,24,24005,24005421300,1400000US24005421300,EXELON CORP RIVERSIDE GENERATING STATION,4000 BROENING HIGHWAY,DUNDALK,MD,21222,"EXELON CORP RIVERSIDE GENERATING STATION.4000 BROENING HIGHWAY, DUNDALK MARYLAND 21222 (BALTIMORE)",0,C,,110043089635
21226MCLC0801OR,-76.587,39.208,False,24,003,750203,24,24003,24003750203,1400000US24003750203,BP PRODUCTS NA INC CURTIS BAY TERMINAL,801 ORDNANCE RD,CURTIS BAY,MD,21226,"BP PRODUCTS NA INC CURTIS BAY TERMINAL.801 ORDNANCE RD, CURTIS BAY MARYLAND 21226 (ANNE ARUNDEL)",0,C,,110000340006
21230GLDST2105G,-76.604,39.266999999999996,False,24,510,240400,24,24510,24510240400,1400000US24510240400,GOULD STREET GENERATING STATION,2105 GOULD ST & MCCOMAS ST,BALTIMORE,MD,21230,"GOULD STREET GENERATING STATION.2105 GOULD ST & MCCOMAS ST, BALTIMORE MARYLAND 21230 (BALTIMORE (CITY))",0,C,,
21539LNCNNRTE36,-78.96,39.580999999999996,False,24,001,001900,24,24001,24001001900,1400000US24001001900,LONACONING MINE 5,RTE 36,LONACONING,MD,21539,"LONACONING MINE 5.RTE 36, LONACONING MARYLAND 21539 (ALLEGANY)",0,C,,
21532VNDXNMIDLT,-78.972,39.622,False,24,001,001900,24,24023,24001001900,1400000US24001001900,VINDEX ENERGY CORP CARLOS MINE,MIDLOTHIAN RD,FROSTBURG,MD,21532,"VINDEX ENERGY CORP CARLOS MINE.MIDLOTHIAN RD, FROSTBURG MARYLAND 21532 (GARRETT)",0,C,,110031018672
21704NVTRG7300G,-77.41199999999999,39.368,False,24,021,751003,24,24021,24021751003,1400000US24021751003,LIFE TECHNOLOGIES CORP,7300 GOVERNORS WAY,FREDERICK,MD,21704,"LIFE TECHNOLOGIES CORP.7300 GOVERNORS WAY, FREDERICK MARYLAND 21704 (FREDERICK)",0,C,,110003551326
21703PTPSC5350P,-77.418,39.382,False,24,021,751003,24,24021,24021751003,1400000US24021751003,AMERICAN COMPUTER DEVELOPMENT INC (DBA ACDI),7435 NEW TECHNOLOGY WAY STE. A,FREDERICK,MD,21703,"AMERICAN COMPUTER DEVELOPMENT INC (DBA ACDI).7435 NEW TECHNOLOGY WAY STE. A, FREDERICK MARYLAND 21703 (FREDERICK)",0,C,,110003525784
2170WLFRGF1ESUT,-77.393,39.403,False,24,021,751003,24,24021,24021751003,1400000US24021751003,LAFARGE FREDERICK READY MIX,1000 E SOUTH STREET,FREDERICK,MD,21701,"LAFARGE FREDERICK READY MIX.1000 E SOUTH STREET, FREDERICK MARYLAND 21701 (FREDERICK)",0,C,,110022522402
21741PRNML11671,-77.778,39.633,False,24,043,010500,24,24043,24043010500,1400000US24043010500,LAND O'LAKES PURINA FEED LLC - HAGERSTOWN,11671 HOPEWELL RD,HAGERSTOWN,MD,21740,"LAND O'LAKES PURINA FEED LLC - HAGERSTOWN.11671 HOPEWELL RD, HAGERSTOWN MARYLAND 21740 (WASHINGTON)",0,C,,110000340426
21740CHVRN11711,-77.77600000000001,39.635,False,24,043,010500,24,24043,24043010500,1400000US24043010500,CHEVRON PHILLIPS CHEMICAL CO PERFORMANCE PIPE DIV,11711 HOPEWELL RD,HAGERSTOWN,MD,21740,"CHEVRON PHILLIPS CHEMICAL CO PERFORMANCE PIPE DIV.11711 HOPEWELL RD, HAGERSTOWN MARYLAND 21740 (WASHINGTON)",0,C,,110001824928
21740MGNMP1195W,-77.811,39.641999999999996,False,24,043,010500,24,24043,24043010500,1400000US24043010500,MAGNUM PRODUCTS,11905 WHEATFIELD DR,HAGERSTOWN,MD,21740,"MAGNUM PRODUCTS.11905 WHEATFIELD DR, HAGERSTOWN MARYLAND 21740 (WASHINGTON)",0,C,,110019903755
2174WKNTNT11431,-77.789,39.626999999999995,False,24,043,010500,24,24043,24043010500,1400000US24043010500,KENT NUTRITION GROUP INC,11431 HOPEWELL RD,HAGERSTOWN,MD,21740,"KENT NUTRITION GROUP INC.11431 HOPEWELL RD, HAGERSTOWN MARYLAND 21740 (WASHINGTON)",0,C,,110057701429
21797PRMRY929HO,-77.03,39.37,False,24,013,514201,24,24027,24013514201,1400000US24013514201,KINDER MORGAN OPERATING LP A,929 HOODS MILL RD,WOODBINE,MD,21797,"KINDER MORGAN OPERATING LP A.929 HOODS MILL RD, WOODBINE MARYLAND 21797 (HOWARD)",0,C,,
21801MRDHS1116M,-75.62,38.361,False,24,045,010300,24,24045,24045010300,1400000US24045010300,AMERADA HESS CORP SALISBURY TERMINAL,1116 MARINE RD,SALISBURY,MD,21801,"AMERADA HESS CORP SALISBURY TERMINAL.1116 MARINE RD, SALISBURY MARYLAND 21801 (WICOMICO)",0,C,,
2180WSLSBR1PARS,-75.61399999999999,38.364000000000004,False,24,045,010300,24,24045,24045010300,1400000US24045010300,SALISBURY,1000 PARSONS RD,SALISBURY,MD,21801,"SALISBURY.1000 PARSONS RD, SALISBURY MARYLAND 21801 (WICOMICO)",0,C,,110070071186
21869VNNPWCHAPE,-75.821,38.488,False,24,019,970100,24,24019,24019970100,1400000US24019970100,VIENNA GENERATING STATION,CHAPEL OF EASE RD,VIENNA,MD,21869,"VIENNA GENERATING STATION.CHAPEL OF EASE RD, VIENNA MARYLAND 21869 (DORCHESTER)",0,C,,110000585260
20774NWDWN16001,-76.72800000000001,38.88,False,24,033,800507,24,24033,24033800507,1400000US24033800507,NEW DAWN MANUFACTURING CO,16001 TRADE ZONE AVE,UPPER MARLBORO,MD,20774,"NEW DAWN MANUFACTURING CO.16001 TRADE ZONE AVE, UPPER MARLBORO MARYLAND 20774 (PRINCE GEORGE'S)",0,C,,110002096794
2077WGCPPP673CM,-76.73,38.879,False,24,033,800507,24,24033,24033800507,1400000US24033800507,GCP APPLIED TECHNOLOGIES INC,673 COMMERCE DR,UPPER MARLBORO,MD,20774,"GCP APPLIED TECHNOLOGIES INC.673 COMMERCE DR, UPPER MARLBORO MARYLAND 20774 (PRINCE GEORGE'S)",0,C,,110070070066
20707LRLRD5501V,-76.913,39.08,False,24,033,800203,24,24033,24033800203,1400000US24033800203,SCHUSTER CONCRETE READY MIX LLC-VAN DUSEN RD,5501 VAN DUSEN RD,LAUREL,MD,20707,"SCHUSTER CONCRETE READY MIX LLC-VAN DUSEN RD.5501 VAN DUSEN RD, LAUREL MARYLAND 20707 (PRINCE GEORGE'S)",0,C,,110008055013
20850RCKVL13900,-77.219,39.085,False,24,031,700608,24,24031,24031700608,1400000US24031700608,ROCKVILLE READY MIX CONCRETE,13900 PINEY MEETINGHOUSE RD,ROCKVILLE,MD,20850,"ROCKVILLE READY MIX CONCRETE.13900 PINEY MEETINGHOUSE RD, ROCKVILLE MARYLAND 20850 (MONTGOMERY)",0,C,,110005968355
20895KNSNG10450,-77.071,39.027,False,24,031,704200,24,24031,24031704200,1400000US24031704200,KENSINGTON READY MIX PLANT,10450 METROPOLITAN AVE,KENSINGTON,MD,20895,"KENSINGTON READY MIX PLANT.10450 METROPOLITAN AVE, KENSINGTON MARYLAND 20895 (MONTGOMERY)",0,C,,
21152MNSFT38LOV,-76.65,39.515,False,24,005,408100,24,24005,24005408100,1400000US24005408100,TELEDYNE ENERGY SYSTEMS,38 LOVETON CIR,SPARKS,MD,21152,"TELEDYNE ENERGY SYSTEMS.38 LOVETON CIR, SPARKS MARYLAND 21152 (BALTIMORE)",0,C,,110006844031
21219LFRGB2001W,-76.464,39.226,False,24,005,452100,24,24005,24005452100,1400000US24005452100,LAFARGE NA - SPARROWS POINT,"2001 WHARF ROAD, GATE B",SPARROWS POINT,MD,21219,"LAFARGE NA - SPARROWS POINT.2001 WHARF ROAD, GATE B, SPARROWS POINT MARYLAND 21219 (BALTIMORE)",0,C,,110002477392
21219DTSPR5111N,-76.456,39.236999999999995,False,24,005,452100,24,24005,24005452100,1400000US24005452100,DTE SPARROWS POINT LLC,5111 N POINT BLVD GATE C DOCK 439 A,SPARROWS POINT,MD,21219,"DTE SPARROWS POINT LLC.5111 N POINT BLVD GATE C DOCK 439 A, SPARROWS POINT MARYLAND 21219 (BALTIMORE)",0,C,,110020515842
21702SRMYF81SCH,-77.447,39.434,False,24,021,751203,24,24021,24021751203,1400000US24021751203,US ARMY FORT DETRICK AREA A,810 SCHREIDER ST,FORT DETRICK,MD,21702,"US ARMY FORT DETRICK AREA A.810 SCHREIDER ST, FORT DETRICK MARYLAND 21702 (FREDERICK)",0,F,,110019861568
21703TMKRF4500T,-77.425,39.356,False,24,021,752301,24,24021,24021752301,1400000US24021752301,TAMKO BUILDING PRODUCTS INC,4500 TAMKO DR,FREDERICK,MD,21703,"TAMKO BUILDING PRODUCTS INC.4500 TAMKO DR, FREDERICK MARYLAND 21703 (FREDERICK)",0,C,,110001262437
21798LHGHP10642,-77.297,39.525999999999996,False,24,021,767600,24,24021,24021767600,1400000US24021767600,LEHIGH CEMENT CO,10642 WOODSBORO RD,WOODSBORO,MD,21798,"LEHIGH CEMENT CO.10642 WOODSBORO RD, WOODSBORO MARYLAND 21798 (FREDERICK)",0,C,,110006631911
21798WDSBRLEGRE,-77.313,39.55,False,24,021,767600,24,24021,24021767600,1400000US24021767600,WOODSBORO READY MIX CONCRETE,LEGORE BRIDGE RD,WOODSBORO,MD,21798,"WOODSBORO READY MIX CONCRETE.LEGORE BRIDGE RD, WOODSBORO MARYLAND 21798 (FREDERICK)",0,C,,
21798WDSBR1325A,-77.306,39.556,False,24,021,767600,24,24021,24021767600,1400000US24021767600,WOODSBORO READY MIX CONCRETE,10325 OAK HILL RD,WOODSBORO,MD,21798,"WOODSBORO READY MIX CONCRETE.10325 OAK HILL RD, WOODSBORO MARYLAND 21798 (FREDERICK)",0,C,,110022841273
20708PTXNT12100,-76.816,39.054,False,24,033,800411,24,24033,24033800411,1400000US24033800411,U.S. DOI U.S. FISH & WILDLIFE PATUXENT RESEARCH REFUGE,12100 BEECH FOREST RD.,LAUREL,MD,20708,"U.S. DOI U.S. FISH & WILDLIFE PATUXENT RESEARCH REFUGE.12100 BEECH FOREST RD., LAUREL MARYLAND 20708 (PRINCE GEORGE'S)",0,F,,
20771NSGDDGREEN,-76.855,38.991,False,24,033,806711,24,24033,24033806711,1400000US24033806711,NASA GODDARD SPACE FLIGHT CENTER,GREENBELT RD,GREENBELT,MD,20771,"NASA GODDARD SPACE FLIGHT CENTER.GREENBELT RD, GREENBELT MARYLAND 20771 (PRINCE GEORGE'S)",0,F,,110006526679
20876WBTCR21200,-77.266,39.204,False,24,031,700304,24,24031,24031700304,1400000US24031700304,WABTEC RAILWAY ELECTRONICS,21200 DORSEY MILL RD,GERMANTOWN,MD,20876,"WABTEC RAILWAY ELECTRONICS.21200 DORSEY MILL RD, GERMANTOWN MARYLAND 20876 (MONTGOMERY)",0,C,,110012707838
2087WVSTNC2511S,-77.259,39.196,False,24,031,700304,24,24031,24031700304,1400000US24031700304,"VIASAT, INC.",20511 SENECA MEADOWS PKWY,GERMANTOWN,MD,20876,"VIASAT, INC..20511 SENECA MEADOWS PKWY, GERMANTOWN MARYLAND 20876 (MONTGOMERY)",0,C,,110070071517
20877LTTND9318G,-77.192,39.118,False,24,031,700718,24,24031,24031700718,1400000US24031700718,NORTHROP GRUMMAN ELECTRONIC SYSTEMS DENRO SYSTEMS,9318 GAITHER RD,GAITHERSBURG,MD,20877,"NORTHROP GRUMMAN ELECTRONIC SYSTEMS DENRO SYSTEMS.9318 GAITHER RD, GAITHERSBURG MARYLAND 20877 (MONTGOMERY)",0,C,,
20877HGHSN166IN,-77.189,39.122,False,24,031,700718,24,24031,24031700718,1400000US24031700718,HUGHES NETWORK SYSTEMS LLC,16060 INDUSTRIAL DR,GAITHERSBURG,MD,20877,"HUGHES NETWORK SYSTEMS LLC.16060 INDUSTRIAL DR, GAITHERSBURG MARYLAND 20877 (MONTGOMERY)",0,C,,110025331139
20877SPRNT630ED,-77.182,39.14,False,24,031,700719,24,24031,24031700719,1400000US24031700719,SPIRENT COMMUNICATIONS,630 E DIAMOND AVE,GAITHERSBURG,MD,20877,"SPIRENT COMMUNICATIONS.630 E DIAMOND AVE, GAITHERSBURG MARYLAND 20877 (MONTGOMERY)",0,C,,110012707847
21034CNSTG3502H,-76.25,39.652,False,24,025,305200,24,24025,24025305200,1400000US24025305200,CONESTOGA WOOD SPECIALTIES,3502 HUGHES RD,DARLINGTON,MD,21034,"CONESTOGA WOOD SPECIALTIES.3502 HUGHES RD, DARLINGTON MARYLAND 21034 (HARFORD)",0,C,,
21114CRFTN1268C,-76.699,39.013000000000005,False,24,003,702205,24,24003,24003702205,1400000US24003702205,CROFTON READY MIX CONCRETE,1268 CRONSON BLVD,CROFTON,MD,21114,"CROFTON READY MIX CONCRETE.1268 CRONSON BLVD, CROFTON MARYLAND 21114 (ANNE ARUNDEL)",0,C,,110001769587
21206BLTMR6240F,-76.54,39.318000000000005,False,24,510,260402,24,24510,24510260402,1400000US24510260402,BALTIMORE GLASS DECORATORS INC,6240 FRANKFORD AVE,BALTIMORE,MD,21206,"BALTIMORE GLASS DECORATORS INC.6240 FRANKFORD AVE, BALTIMORE MARYLAND 21206 (BALTIMORE (CITY))",0,C,,110013284766
21220PRTCL9600P,-76.45,39.354,False,24,005,451701,24,24510,24005451701,1400000US24005451701,PRACTICAL TECHNOLOGIES INC,9600 PULASKI PARK DR,BALTIMORE,MD,21220,"PRACTICAL TECHNOLOGIES INC.9600 PULASKI PARK DR, BALTIMORE MARYLAND 21220 (BALTIMORE (CITY))",0,C,,
20735KRBYR5401K,-76.919,38.781,False,24,033,801211,24,24033,24033801211,1400000US24033801211,KIRBY ROAD READY MIX CONCRETE,5401 KIRBY RD,CLINTON,MD,20735,"KIRBY ROAD READY MIX CONCRETE.5401 KIRBY RD, CLINTON MARYLAND 20735 (PRINCE GEORGE'S)",0,C,,110001768891
21001MRYLN141CA,-76.227,39.52,False,24,025,303700,24,24025,24025303700,1400000US24025303700,MARYLAND PAVING INC,1401 CARSINS RUN RD,ABERDEEN,MD,21001,"MARYLAND PAVING INC.1401 CARSINS RUN RD, ABERDEEN MARYLAND 21001 (HARFORD)",0,C,,110009684092
21037GRFFT3173S,-76.567,38.935,False,24,003,701102,24,24003,24003701102,1400000US24003701102,GRIFFITH ENERGY SERVICES INC EDGEWATER OFFICE,3173 SOLOMONS ISLAND RD,EDGEWATER,MD,21037,"GRIFFITH ENERGY SERVICES INC EDGEWATER OFFICE.3173 SOLOMONS ISLAND RD, EDGEWATER MARYLAND 21037 (ANNE ARUNDEL)",0,C,,110015583689
21048MRYLN2914I,-76.892,39.499,False,24,013,504100,24,24013,24013504100,1400000US24013504100,MARYLAND PAVING INC,2914 INDUSTRIAL PARK DR,FINKSBURG,MD,21048,"MARYLAND PAVING INC.2914 INDUSTRIAL PARK DR, FINKSBURG MARYLAND 21048 (CARROLL)",0,C,,110023128747
21114BLCNX2630C,-76.708,39.027,False,24,003,740702,24,24003,24003740702,1400000US24003740702,BETCO SUPREME INC,2630 CONWAY RD,ODENTON,MD,21114,"BETCO SUPREME INC.2630 CONWAY RD, ODENTON MARYLAND 21114 (ANNE ARUNDEL)",0,C,,
2105WWGHCH2641B,-76.691,39.04,False,24,003,740702,24,24003,24003740702,1400000US24003740702,WAUGH CHAPEL PLANT,2641 BRICKHEAD RD,GAMBRILLS,MD,21054,"WAUGH CHAPEL PLANT.2641 BRICKHEAD RD, GAMBRILLS MARYLAND 21054 (ANNE ARUNDEL)",0,C,,110043726518
21157GRFFT732SP,-77.01100000000001,39.553000000000004,False,24,013,507801,24,24013,24013507801,1400000US24013507801,GRIFFITH ENERGY SERVICES INC SPRING MILL,732 SPRING MILL RD,WESTMINSTER,MD,21157,"GRIFFITH ENERGY SERVICES INC SPRING MILL.732 SPRING MILL RD, WESTMINSTER MARYLAND 21157 (CARROLL)",0,C,,110006632322
21157GRFFT8SULL,-76.99600000000001,39.588,False,24,013,507601,24,24013,24013507601,1400000US24013507601,GRIFFITH ENERGY SERVICES INC BARE,8 SULLIVAN AVE,WESTMINSTER,MD,21157,"GRIFFITH ENERGY SERVICES INC BARE.8 SULLIVAN AVE, WESTMINSTER MARYLAND 21157 (CARROLL)",0,C,,110002341476
21157MRDND12IND,-76.99600000000001,39.607,False,24,013,507601,24,24013,24013507601,1400000US24013507601,MARADA INDUSTRIES INC.,1200 INDEPENDENCE WAY,WESTMINSTER,MD,21157,"MARADA INDUSTRIES INC..1200 INDEPENDENCE WAY, WESTMINSTER MARYLAND 21157 (CARROLL)",1,C,,110022811545
21235SHHSS6201S,-76.73,39.312,False,24,005,401102,24,24510,24005401102,1400000US24005401102,US HHS SOCIAL SECURITY ADMINISTRATION NCC UTILITY BLDG,6201 SECURITY BLVD,BALTIMORE,MD,21235,"US HHS SOCIAL SECURITY ADMINISTRATION NCC UTILITY BLDG.6201 SECURITY BLVD, BALTIMORE MARYLAND 21235 (BALTIMORE (CITY))",0,F,,
21921WLGRS101LE,-75.868,39.707,False,24,015,030601,24,24015,24015030601,1400000US24015030601,"W.L. GORE & ASSOCIATES, INC. FAIRHILL",101 LEWISVILLE RD,ELKTON,MD,21921,"W.L. GORE & ASSOCIATES, INC. FAIRHILL.101 LEWISVILLE RD, ELKTON MARYLAND 21921 (CECIL)",0,C,,110001832349
21157MRDND151AI,-77.001,39.607,False,24,013,507500,24,24013,24013507500,1400000US24013507500,MARADA INDUSTRIES INC.,151 AIRPORT DR,WESTMINSTER,MD,21157,"MARADA INDUSTRIES INC..151 AIRPORT DR, WESTMINSTER MARYLAND 21157 (CARROLL)",1,C,,110001691232
21219HRSCCCNSTR,-76.432,39.226,False,24,005,451900,24,24005,24005451900,1400000US24005451900,HARSCO CO MULTISERV PLANT 80,CONSTRUCTION VILLAGE C/O ISG GATE G,SPARROWS POINT,MD,21219,"HARSCO CO MULTISERV PLANT 80.CONSTRUCTION VILLAGE C/O ISG GATE G, SPARROWS POINT MARYLAND 21219 (BALTIMORE)",0,C,,110020515851
21502BLTPV11521,-78.80199999999999,39.629,False,24,001,001300,24,24001,24001001300,1400000US24001001300,BELT PAVING INC,11521 MILNOR AVE,CUMBERLAND,MD,21502,"BELT PAVING INC.11521 MILNOR AVE, CUMBERLAND MARYLAND 21502 (ALLEGANY)",0,C,,110006643515
20623SDPRT9CMMR,-76.84899999999999,38.747,False,24,033,801207,24,24033,24033801207,1400000US24033801207,US DHS FLETC CHELTENHAM MD,9000 COMMO RD,CHELTENHAM,MD,20623,"US DHS FLETC CHELTENHAM MD.9000 COMMO RD, CHELTENHAM MARYLAND 20623 (PRINCE GEORGE'S)",0,F,,110042010098
20785RDDYC71BLD,-76.89,38.93,False,24,033,803509,24,24033,24033803509,1400000US24033803509,REDDY ICE #427-LANDOVER,7100 B OLD LANDOVER RD,LANDOVER,MD,20785,"REDDY ICE #427-LANDOVER.7100 B OLD LANDOVER RD, LANDOVER MARYLAND 20785 (PRINCE GEORGE'S)",0,C,,
21040LDCST141TR,-76.316,39.416,False,24,025,301601,24,24025,24025301601,1400000US24025301601,OLDCASTLE PRECAST INC,1401 TRIMBLE RD,EDGEWOOD,MD,21040,"OLDCASTLE PRECAST INC.1401 TRIMBLE RD, EDGEWOOD MARYLAND 21040 (HARFORD)",0,C,,110014457355
21104LFRGM11411,-76.875,39.368,False,24,005,402201,24,24005,24005402201,1400000US24005402201,LAFARGE MID-ATLANTIC INC MARRIOTTSVILLE RMX,11411 MARRIOTTSVILLE RD,MARRIOTTSVILLE,MD,21104,"LAFARGE MID-ATLANTIC INC MARRIOTTSVILLE RMX.11411 MARRIOTTSVILLE RD, MARRIOTTSVILLE MARYLAND 21104 (BALTIMORE)",0,C,,110022381368
21401GMLJK1841M,-76.52199999999999,38.979,False,24,003,706500,24,24003,24003706500,1400000US24003706500,GOMOLJAK,1841 MCGUCKIAN ST,ANNAPOLIS,MD,21401,"GOMOLJAK.1841 MCGUCKIAN ST, ANNAPOLIS MARYLAND 21401 (ANNE ARUNDEL)",0,C,,
21701RNKRM1751M,-77.376,39.436,False,24,021,751701,24,24021,24021751701,1400000US24021751701,RINKER MATERIALS HYDRO CONDUIT,1751 MONOCACY BLVD,FREDERICK,MD,21701,"RINKER MATERIALS HYDRO CONDUIT.1751 MONOCACY BLVD, FREDERICK MARYLAND 21701 (FREDERICK)",0,C,,
21740SNTLP185DU,-77.689,39.61,False,24,043,011100,24,24043,24043011100,1400000US24043011100,C &O CANAL NATIONAL HISTORICAL PARK,1850 DUAL HWY,HAGERSTOWN,MD,21740,"C &O CANAL NATIONAL HISTORICAL PARK.1850 DUAL HWY, HAGERSTOWN MARYLAND 21740 (WASHINGTON)",0,F,,
21205PTRLM511ER,-76.557,39.305,False,24,510,260401,24,24510,24510260401,1400000US24510260401,PETROLEUM FUEL & TERMINAL CO BALTIMORE NORTH,5101 ERDMAN AVE,BALTIMORE,MD,21205,"PETROLEUM FUEL & TERMINAL CO BALTIMORE NORTH.5101 ERDMAN AVE, BALTIMORE MARYLAND 21205 (BALTIMORE (CITY))",0,C,,110001767507
21740PHNXC11TAN,-77.762,39.639,False,24,043,000900,24,24043,24043000900,1400000US24043000900,PHOENIX COLOR CORP,101 TANDY DR /  540 WESTERN MARYLAND PKWY,HAGERSTOWN,MD,21740,"PHOENIX COLOR CORP.101 TANDY DR /  540 WESTERN MARYLAND PKWY, HAGERSTOWN MARYLAND 21740 (WASHINGTON)",0,C,,110025331148
2174WSCHST1SHER,-77.738,39.631,False,24,043,000900,24,24043,24043000900,1400000US24043000900,SCHUSTER CONCRETE READY MIX LLC-SHERMAN AVE,1000 SHERMAN AVE,HAGERSTOWN,MD,21740,"SCHUSTER CONCRETE READY MIX LLC-SHERMAN AVE.1000 SHERMAN AVE, HAGERSTOWN MARYLAND 21740 (WASHINGTON)",0,C,,110062900124
21788SNTLP662FX,-77.426,39.62,False,24,021,753001,24,24021,24021753001,1400000US24021753001,U.S. NATL. PARK SERVICE CATOCTIN MOUNTAIN PARK (CATO),6602 FOXVILLE RD,THURMONT,MD,21788,"U.S. NATL. PARK SERVICE CATOCTIN MOUNTAIN PARK (CATO).6602 FOXVILLE RD, THURMONT MARYLAND 21788 (FREDERICK)",0,F,,110003505902
20745WDRWW6711X,-77.003,38.799,False,24,033,801404,24,24033,24033801404,1400000US24033801404,WOODROW WILSON BRIDGE READY MIX CONCRETE DIV,6711 OXON HILL RD,OXON HILL,MD,20745,"WOODROW WILSON BRIDGE READY MIX CONCRETE DIV.6711 OXON HILL RD, OXON HILL MARYLAND 20745 (PRINCE GEORGE'S)",0,C,,110016695744
21046HDSPP9325S,-76.837,39.176,False,24,027,606705,24,24027,24027606705,1400000US24027606705,HD SUPPLY WATERWORKS LTD.  (MD022-7847),9325 SNOWDEN RIVER PKWY,COLUMBIA,MD,21046,"HD SUPPLY WATERWORKS LTD.  (MD022-7847).9325 SNOWDEN RIVER PKWY, COLUMBIA MARYLAND 21046 (HOWARD)",0,C,,110031000217
21521VNDXNPTMAC,-79.006,39.532,False,24,001,002100,24,24001,24001002100,1400000US24001002100,VINDEX ENERGY CORP JACKSON MOUNTAIN MINE,POTOMAC HOLLOW RD,BARTON,MD,21521,"VINDEX ENERGY CORP JACKSON MOUNTAIN MINE.POTOMAC HOLLOW RD, BARTON MARYLAND 21521 (ALLEGANY)",0,C,,110031018663
21236BTTRN8361T,-76.458,39.375,False,24,005,440600,24,24005,24005440600,1400000US24005440600,BETTER ENGINEERING MFG INC,8361 TOWN CENTER CT,BALTIMORE,MD,212364964,"BETTER ENGINEERING MFG INC.8361 TOWN CENTER CT, BALTIMORE MARYLAND 21236 (BALTIMORE)",0,C,,
21921MTSBS1KNIK,-75.789,39.602,False,24,015,030505,24,24015,24015030505,1400000US24015030505,MITSUBISHI KAGUKU IMAGING CORP,1000 KONIKA DR,ELKTON,MD,21921,"MITSUBISHI KAGUKU IMAGING CORP.1000 KONIKA DR, ELKTON MARYLAND 21921 (CECIL)",0,C,,110039019371
2121WSGCNC311GR,-76.671,39.336,False,24,510,151300,24,24510,24510151300,1400000US24510151300,S&G CONCRETE GRANTLEY AVE,3101 GRANTLEY AVENUE,BALTIMORE,MD,21215,"S&G CONCRETE GRANTLEY AVE.3101 GRANTLEY AVENUE, BALTIMORE MARYLAND 21215 (BALTIMORE (CITY))",0,C,,110039204009
21227DLLPL453AN,-76.642,39.23,False,24,005,430101,24,24005,24005430101,1400000US24005430101,ADELL PLASTICS,4530 ANNAPOLIS RD,BALTIMORE,MD,21227,"ADELL PLASTICS.4530 ANNAPOLIS RD, BALTIMORE MARYLAND 21227 (BALTIMORE)",0,C,,110001259799
21402SDDNS58BEN,-76.468,38.988,False,24,003,730901,24,24003,24003730901,1400000US24003730901,US DOD NSA ANNAPOLIS,58 BENNION RD,ANNAPOLIS,MD,21402,"US DOD NSA ANNAPOLIS.58 BENNION RD, ANNAPOLIS MARYLAND 21402 (ANNE ARUNDEL)",0,F,,110039498987
21502MRCNW176BA,-78.85300000000001,39.566,False,24,001,002000,24,24001,24001002000,1400000US24001002000,AMERICAN WOODMARK CORP ALLEGANY PLANT,17600 BARTON PARK DR SW,CUMBERLAND,MD,21502,"AMERICAN WOODMARK CORP ALLEGANY PLANT.17600 BARTON PARK DR SW, CUMBERLAND MARYLAND 21502 (ALLEGANY)",0,C,,110039071287
2089WNTNLN1BURE,-77.218,39.141999999999996,False,24,031,700706,24,24031,24031700706,1400000US24031700706,NATIONAL INSTITUTE OF STANDARDS & TECHNOLOGY,"100 BUREAU DRIVE, MS 1730",GAITHERSBURG,MD,20899,"NATIONAL INSTITUTE OF STANDARDS & TECHNOLOGY.100 BUREAU DRIVE, MS 1730, GAITHERSBURG MARYLAND 20899 (MONTGOMERY)",0,F,,110037102587
2156WVNDXN148SH,-79.21300000000001,39.436,False,24,023,000400,24,24023,24023000400,1400000US24023000400,VINDEX ENERGY CORPORATION ISLAND MINE,1048 SHARPLESS MINE ROAD,SWANTON,MD,21561,"VINDEX ENERGY CORPORATION ISLAND MINE.1048 SHARPLESS MINE ROAD, SWANTON MARYLAND 21561 (GARRETT)",0,C,,110041625881
21108L3CHS1127B,-76.634,39.094,False,24,003,741000,24,24003,24003741000,1400000US24003741000,L-3 CHESAPEAKE SCIENCES CORP,1127B BENFIELD BLVD,MILLERSVILLE,MD,21108,"L-3 CHESAPEAKE SCIENCES CORP.1127B BENFIELD BLVD, MILLERSVILLE MARYLAND 21108 (ANNE ARUNDEL)",0,C,,110038921904
2063WHLLYW23344,-76.53,38.309,False,24,037,875802,24,24037,24037875802,1400000US24037875802,HOLLYWOOD PLANT,23344 THREE NOTCH RD.,HOLLYWOOD,MD,20636,"HOLLYWOOD PLANT.23344 THREE NOTCH RD., HOLLYWOOD MARYLAND 20636 (ST MARY'S)",0,C,,110037396298
2074WSTPLS45YST,-76.904,38.889,False,24,033,802901,24,24033,24033802901,1400000US24033802901,SEAT PLEASANT PLANT,45 YOST PL,CAPITOL HEIGHTS,MD,20743,"SEAT PLEASANT PLANT.45 YOST PL, CAPITOL HEIGHTS MARYLAND 20743 (PRINCE GEORGE'S)",0,C,,110002022533
2077WPPRMR52CHR,-76.73899999999999,38.817,False,24,033,800608,24,24033,24033800608,1400000US24033800608,UPPER MARLBORO PLANT,5200 CHRYSLER WAY,UPPER MARLBORO,MD,20772,"UPPER MARLBORO PLANT.5200 CHRYSLER WAY, UPPER MARLBORO MARYLAND 20772 (PRINCE GEORGE'S)",0,C,,110006641483
2140WNNPLS215IN,-76.546,38.995,False,24,003,702702,24,24003,24003702702,1400000US24003702702,ANNAPOLIS/BESTGATE PLANT,2015 INDUSTRIAL DR.,ANNAPOLIS,MD,21401,"ANNAPOLIS/BESTGATE PLANT.2015 INDUSTRIAL DR., ANNAPOLIS MARYLAND 21401 (ANNE ARUNDEL)",0,C,,110001691964
2153WVNDXN1871C,-78.97399999999999,39.681,False,24,023,000300,24,24001,24023000300,1400000US24023000300,VINDEX ENERGY CORP CABIN RUN SURFACE MINE,18710 CABIN RUN RD SW,FROSTBURG,MD,21532,"VINDEX ENERGY CORP CABIN RUN SURFACE MINE.18710 CABIN RUN RD SW, FROSTBURG MARYLAND 21532 (ALLEGANY)",0,C,,110055497724
2165WQNSTW22JSE,-76.137,39.003,False,24,035,810600,24,24035,24035810600,1400000US24035810600,QUEENSTOWN PLANT,220 JOSEPH BOYLES RD.,QUEENSTOWN,MD,21658,"QUEENSTOWN PLANT.220 JOSEPH BOYLES RD., QUEENSTOWN MARYLAND 21658 (QUEEN ANNES)",0,C,,110055497733
2170WDRYMD259E7,-77.405,39.422,False,24,021,750100,24,24021,24021750100,1400000US24021750100,DAIRY MAID DAIRY INC,259 E 7TH ST,FREDERICK,MD,21701,"DAIRY MAID DAIRY INC.259 E 7TH ST, FREDERICK MARYLAND 21701 (FREDERICK)",0,C,,110015763431
2067WPRNCF31SKI,-76.641,38.513000000000005,False,24,009,860701,24,24009,24009860701,1400000US24009860701,PRINCE FREDRICK PLANT,301 SKIPJACK RD,PRINCE FREDERICK,MD,20678,"PRINCE FREDRICK PLANT.301 SKIPJACK RD, PRINCE FREDERICK MARYLAND 20678 (CALVERT)",0,C,,110001691456
2064WLPLTR9622R,-76.979,38.56,False,24,017,851002,24,24017,24017851002,1400000US24017851002,LA PLATA READY MIX CONCRETE,9622 ROSEWICK RD,LA PLATA,MD,20646,"LA PLATA READY MIX CONCRETE.9622 ROSEWICK RD, LA PLATA MARYLAND 20646 (CHARLES)",0,C,,110070071371
2076WJNTBS3466N,-76.88,38.806,False,24,033,801104,24,24033,24033801104,1400000US24033801104,US DOD USAF JOINT BASE ANDREWS,3466 NORTH CAROLINA AVE - C/O 11 CES/CEIE,ANDREWS AIR FORCE BASE,MD,20762,"US DOD USAF JOINT BASE ANDREWS.3466 NORTH CAROLINA AVE - C/O 11 CES/CEIE, ANDREWS AIR FORCE BASE MARYLAND 20762 (PRINCE GEORGE'S)",0,F,,110070057475
20850SRVCS649NO,-77.265,39.103,True,24,031,700604,24,24031,24031700604,1400000US24031700604,EU SERVICES,649 N HORNERS LN,ROCKVILLE,MD,20850,"EU SERVICES 649 N HORNERS LN, ROCKVILLE, MD, 20850",0,C,,
21078BYCRF414WE,-76.12,39.54,True,24,025,306400,24,24025,24025306400,1400000US24025306400,BAYCRAFT FIBERGLASS ENGINEERING INC,414 WEBB LN,HAVRE DE GRACE,MD,21078,"BAYCRAFT FIBERGLASS ENGINEERING INC 414 WEBB LN, HAVRE DE GRACE, MD, 21078",0,C,,
21078PPSCLOLDPO,-76.12,39.54,True,24,025,306400,24,24025,24025306400,1400000US24025306400,PEPSI-COLA BOTTLING CO HAVRE DE GRACE,OLD POST RD,HAVRE DE GRACE,MD,21078,"PEPSI-COLA BOTTLING CO HAVRE DE GRACE OLD POST RD, HAVRE DE GRACE, MD, 21078",0,C,,
21093FLTRT2120G,-76.634,39.442,True,24,005,408505,24,24005,24005408505,1400000US24005408505,FILTERITE PLANT 2,2120 GREENSPRING DR,TIMONIUM,MD,21093,"FILTERITE PLANT 2 2120 GREENSPRING DR, TIMONIUM, MD, 21093",0,C,,
21228SVNPB6159E,-76.747,39.271,True,24,005,401000,24,24005,24005401000,1400000US24005401000,"SEVEN-UP BOTTLING CO, OF BALTIMORE",6159 EDMONDSON AVE,BALTIMORE,MD,21228,"SEVEN-UP BOTTLING CO, OF BALTIMORE 6159 EDMONDSON AVE, BALTIMORE, MD, 21228",0,C,,
21740THSTT1000F,-77.728,39.657,True,24,043,000301,24,24043,24043000301,1400000US24043000301,STATIONERY HOUSE,1000 FLORIDA AVE,HAGERSTOWN,MD,21740,"STATIONERY HOUSE 1000 FLORIDA AVE, HAGERSTOWN, MD, 21740",0,C,,
