TRIFID,LONGITUDE,LATITUDE,ESTIMATE,STATEFP,COUNTYFP,TRACTCE,STATEGEOID,COUNTYGEOID,TRACTGEOID,AFFGEOID,FACILITY_NAME,STREET,CITY,STUSPS,ZIP_CODE,FACILITY,FAC_CLOSED_IND,ASGN_FEDERAL_IND,BIA_CODE,EPA_REGISTRY_ID
03901PRMTNSULLI,-70.865,43.268,False,23,031,032000,23,23031,23031032000,1400000US23031032000,PRIME TANNING CO INC,20 SULLIVAN ST,BERWICK,ME,3901,"PRIME TANNING CO INC.20 SULLIVAN ST, BERWICK MAINE 03901 (YORK)",1,C,,110000603008
03906PRTTWROUTE,-70.729,43.308,False,23,031,033000,23,23031,23031033000,1400000US23031033000,PRATT & WHITNEY,113 WELLS ST M/S 801-38,NORTH BERWICK,ME,3906,"PRATT & WHITNEY.113 WELLS ST M/S 801-38, NORTH BERWICK MAINE 03906 (YORK)",0,C,,110000314204
03906HSSYSDYERS,-70.73,43.303000000000004,False,23,031,033000,23,23031,23031033000,1400000US23031033000,HUSSEY SEATING CO,38 DYER ST EXTENSION,NORTH BERWICK,ME,3906,"HUSSEY SEATING CO.38 DYER ST EXTENSION, NORTH BERWICK MAINE 03906 (YORK)",0,C,,110000797095
04005FBRGLAIRPO,-70.528,43.49100000000001,False,23,031,025100,23,23031,23031025100,1400000US23031025100,FIBERGLASS PLUS RECREATIONAL INDUSTRIES INC,RT 1 & MORIN,BIDDEFORD,ME,4005,"FIBERGLASS PLUS RECREATIONAL INDUSTRIES INC.RT 1 & MORIN, BIDDEFORD MAINE 04005 (YORK)",0,C,,
04005VXTNT69LAN,-70.47800000000001,43.467,False,23,031,025100,23,23031,23031025100,1400000US23031025100,AVX TANTALUM CORP,401 HILL ST,BIDDEFORD,ME,4005,"AVX TANTALUM CORP.401 HILL ST, BIDDEFORD MAINE 04005 (YORK)",0,C,,110012516269
04005FBRMT5MORI,-70.491,43.47,False,23,031,025100,23,23031,23031025100,1400000US23031025100,FIBER MATERIALS INC,5 MORIN ST,BIDDEFORD,ME,4005,"FIBER MATERIALS INC.5 MORIN ST, BIDDEFORD MAINE 04005 (YORK)",0,C,,110007273351
04005MTSPP516AL,-70.49600000000001,43.478,False,23,031,025100,23,23031,23031025100,1400000US23031025100,VALMET INC,516 ALFRED ST,BIDDEFORD,ME,4005,"VALMET INC.516 ALFRED ST, BIDDEFORD MAINE 04005 (YORK)",0,C,,110013763793
04005NTRMT389HI,-70.477,43.468,False,23,031,025100,23,23031,23031025100,1400000US23031025100,INTERMAT,389 HILL ST,BIDDEFORD,ME,4005,"INTERMAT.389 HILL ST, BIDDEFORD MAINE 04005 (YORK)",0,C,,110003557561
04005SLRSL589EL,-70.488,43.466,False,23,031,025100,23,23031,23031025100,1400000US23031025100,SOLERAS LIMITED,589 ELM ST,BIDDEFORD,ME,4005,"SOLERAS LIMITED.589 ELM ST, BIDDEFORD MAINE 04005 (YORK)",0,C,,110037143089
04005SRMTC24LAN,-70.483,43.465,False,23,031,025100,23,23031,23031025100,1400000US23031025100,PRAXAIR SURFACE TECHNOLOGIES,24 LANDRY ST,BIDDEFORD,ME,4005,"PRAXAIR SURFACE TECHNOLOGIES.24 LANDRY ST, BIDDEFORD MAINE 04005 (YORK)",0,C,,110000865699
04005GWNCC8LINC,-70.456,43.495,False,23,031,025202,23,23031,23031025202,1400000US23031025202,GWN CO,8 LINCOLN ST,BIDDEFORD,ME,4005,"GWN CO.8 LINCOLN ST, BIDDEFORD MAINE 04005 (YORK)",1,C,,
04005WSTPNYORKS,-70.455,43.492,False,23,031,025202,23,23031,23031025202,1400000US23031025202,WESTPOINT STEVENS INC BIDDEFORD PLANT,YORK ST,BIDDEFORD,ME,4005,"WESTPOINT STEVENS INC BIDDEFORD PLANT.YORK ST, BIDDEFORD MAINE 04005 (YORK)",0,C,,
04011BTHRNROUTE,-69.885,43.916000000000004,False,23,005,011100,23,23005,23005011100,1400000US23005011100,BATH IRON WORKS,RTE ONE OLD BATH RD,BRUNSWICK,ME,4011,"BATH IRON WORKS.RTE ONE OLD BATH RD, BRUNSWICK MAINE 04011 (CUMBERLAND)",0,C,,110039678346
04011BTHRNMALLE,-69.884,43.913999999999994,False,23,005,011100,23,23005,23005011100,1400000US23005011100,BATH IRON WORKS EBMF FACILITY,MALLET LAND DR,BRUNSWICK,ME,4011,"BATH IRON WORKS EBMF FACILITY.MALLET LAND DR, BRUNSWICK MAINE 04011 (CUMBERLAND)",0,C,,110000581362
04011SNVYN437HU,-69.925,43.898,False,23,005,011100,23,23005,23005011100,1400000US23005011100,U.S. NAVY NAVAL AIR STATION BRUNSWICK,437 HUEY DR,BRUNSWICK,ME,4011,"U.S. NAVY NAVAL AIR STATION BRUNSWICK.437 HUEY DR, BRUNSWICK MAINE 04011 (CUMBERLAND)",0,F,,110013835181
04011RRWHR1CRES,-69.96300000000001,43.918,False,23,005,011202,23,23005,23005011202,1400000US23005011202,COOPER WIRING DEVICES,1 CRESSEY RD,BRUNSWICK,ME,4011,"COOPER WIRING DEVICES.1 CRESSEY RD, BRUNSWICK MAINE 04011 (CUMBERLAND)",0,C,,110000314222
04037CRPNT82POR,-70.977,44.015,False,23,017,966700,23,23017,23017966700,1400000US23017966700,CARPENTER TECHNOLOGY CORP,82 PORTLAND ST,FRYEBURG,ME,4037,"CARPENTER TECHNOLOGY CORP.82 PORTLAND ST, FRYEBURG MAINE 04037 (OXFORD)",0,C,,
04037DRBRN80POR,-70.977,44.015,False,23,017,966700,23,23017,23017966700,1400000US23017966700,DEARBORN PRECISION TUBULAR PRODS INC,80 PORTLAND ST,FRYEBURG,ME,4037,"DEARBORN PRECISION TUBULAR PRODS INC.80 PORTLAND ST, FRYEBURG MAINE 04037 (OXFORD)",0,C,,
04038THRCCGORHA,-70.38600000000001,43.681999999999995,False,23,005,004001,23,23005,23005004001,1400000US23005004001,AMF REECE INC,GORHAM INDUSTRIAL PARK,GORHAM,ME,4038,"AMF REECE INC.GORHAM INDUSTRIAL PARK, GORHAM MAINE 04038 (CUMBERLAND)",1,C,,
04058RWNCX37BAR,-70.388,43.681999999999995,False,23,005,004001,23,23005,23005004001,1400000US23005004001,IRWIN CO GORHAM DIV,37 BARTLETT RD,GORHAM,ME,4038,"IRWIN CO GORHAM DIV.37 BARTLETT RD, GORHAM MAINE 04038 (CUMBERLAND)",0,C,,110000797086
04038MNRBB9LAUR,-70.38600000000001,43.681999999999995,False,23,005,004001,23,23005,23005004001,1400000US23005004001,MAINE INDUSTRIAL TIRE LLC,9 LAURENCE DR,GORHAM,ME,4038,"MAINE INDUSTRIAL TIRE LLC.9 LAURENCE DR, GORHAM MAINE 04038 (CUMBERLAND)",0,C,,110037186461
0403WHLCLS29SAN,-70.39399999999999,43.68,False,23,005,004001,23,23005,23005004001,1400000US23005004001,HELICAL SOLUTIONS LLC,29 SANFORD DR,GORHAM,ME,4038,"HELICAL SOLUTIONS LLC.29 SANFORD DR, GORHAM MAINE 04038 (CUMBERLAND)",0,C,,110064784489
04047VLCNL100MO,-70.968,43.693000000000005,False,23,031,022500,23,23031,23031022500,1400000US23031022500,VULCAN ELECTRIC CO,100 MOUNTAIN VIEW RD EXT,PARSONFIELD,ME,4047,"VULCAN ELECTRIC CO.100 MOUNTAIN VIEW RD EXT, PARSONFIELD MAINE 04047 (YORK)",0,C,,
04047KZRFLFEDER,-70.887,43.806999999999995,False,23,031,022500,23,23031,23031022500,1400000US23031022500,KEZAR FALLS WOOLEN CO,FEDERAL RD,PARSONFIELD,ME,4047,"KEZAR FALLS WOOLEN CO.FEDERAL RD, PARSONFIELD MAINE 04047 (YORK)",0,C,,
04067STRYMMAINS,-70.023,43.958,False,23,023,970301,23,23023,23023970301,1400000US23023970301,ST RAYMOND CORP PEJEPSCOT MILL,MAIN ST,PEJEPSCOT,ME,4086,"ST RAYMOND CORP PEJEPSCOT MILL.MAIN ST, PEJEPSCOT MAINE 04086 (SAGADAHOC)",0,C,,
04071DLCTRTOWER,-70.488,43.927,False,23,005,012000,23,23005,23005012000,1400000US23005012000,DIELECTRIC LLC,22 TOWER RD,RAYMOND,ME,4071,"DIELECTRIC LLC.22 TOWER RD, RAYMOND MAINE 04071 (CUMBERLAND)",0,C,,110021297434
04071SBRYCHAWTH,-70.508,43.91,False,23,005,012000,23,23005,23005012000,1400000US23005012000,SABRE CORP,12 HAWTHORNE RD,RAYMOND,ME,4071,"SABRE CORP.12 HAWTHORNE RD, RAYMOND MAINE 04071 (CUMBERLAND)",0,C,,110000314240
04071MCRWVROUTE,-70.432,43.883,False,23,005,004701,23,23005,23005004701,1400000US23005004701,MICROWAVE TECHNIQUES,RTE 302,RAYMOND,ME,4071,"MICROWAVE TECHNIQUES.RTE 302, RAYMOND MAINE 04071 (CUMBERLAND)",0,C,,
04072NRGBR15LUN,-70.453,43.523,False,23,031,005200,23,23031,23031005200,1400000US23031005200,JOHNS MANVILLE INTERNATIONAL,15 LUND RD,SACO,ME,4072,"JOHNS MANVILLE INTERNATIONAL.15 LUND RD, SACO MAINE 04072 (YORK)",0,C,,
04072SCDFN291NO,-70.446,43.516000000000005,False,23,031,005200,23,23031,23031005200,1400000US23031005200,GD OTS INC,291 NORTH ST,SACO,ME,4072,"GD OTS INC.291 NORTH ST, SACO MAINE 04072 (YORK)",0,C,,110000314268
04072LYNFLONELE,-70.452,43.519,False,23,031,005200,23,23031,23031005200,1400000US23031005200,DER TEX CORP,1 LEHNER RD,SACO,ME,4072,"DER TEX CORP.1 LEHNER RD, SACO MAINE 04072 (YORK)",0,C,,
04072NTLLG92IND,-70.442,43.535,False,23,031,005200,23,23031,23031005200,1400000US23031005200,INTELLIGENT CONTROLS,92 INDUSTRIAL PARK RD,SACO,ME,4072,"INTELLIGENT CONTROLS.92 INDUSTRIAL PARK RD, SACO MAINE 04072 (YORK)",1,C,,110012708971
0407WFRNKL34SPR,-70.43,43.535,False,23,031,005200,23,23031,23031005200,1400000US23031005200,FRANKLIN FUELING SYSTEMS - INCON (34 SPRING HILL RD),34 SPRING HILL RD.,SACO,ME,4072,"FRANKLIN FUELING SYSTEMS - INCON (34 SPRING HILL RD).34 SPRING HILL RD., SACO MAINE 04072 (YORK)",1,C,,110039203885
04073CYRNDINDUS,-70.711,43.403999999999996,False,23,031,030300,23,23031,23031030300,1400000US23031030300,EVONIK CYRO LLC,1796 MAIN ST,SANFORD,ME,4073,"EVONIK CYRO LLC.1796 MAIN ST, SANFORD MAINE 04073 (YORK)",0,C,,110000603026
04073SPRGLROUTE,-70.719,43.402,False,23,031,030300,23,23031,23031030300,1400000US23031030300,VISHAY SPRAGUE INC,1754 MAIN ST,SANFORD,ME,4073,"VISHAY SPRAGUE INC.1754 MAIN ST, SANFORD MAINE 04073 (YORK)",0,C,,
04073THBKRAIRPO,-70.72,43.39,False,23,031,030300,23,23031,23031030300,1400000US23031030300,BAKER CO INC,161 GATE HOUSE RD,SANFORD,ME,4073,"BAKER CO INC.161 GATE HOUSE RD, SANFORD MAINE 04073 (YORK)",0,C,,
04073SFLTMSMADA,-70.7,43.403999999999996,False,23,031,030300,23,23031,23031030300,1400000US23031030300,US FELT MANUFACTURING CO INC,ADAMS INDL PARK,SANFORD,ME,4073,"US FELT MANUFACTURING CO INC.ADAMS INDL PARK, SANFORD MAINE 04073 (YORK)",0,C,,
04073XPNDDONERI,-70.69800000000001,43.403,False,23,031,030300,23,23031,23031030300,1400000US23031030300,EXPANDED RUBBER PRODUCTS INC,81 INDUSTRIAL AVE,SANFORD,ME,4073,"EXPANDED RUBBER PRODUCTS INC.81 INDUSTRIAL AVE, SANFORD MAINE 04073 (YORK)",1,C,,110020059657
04073YRKMF43COM,-70.699,43.406000000000006,False,23,031,030300,23,23031,23031030300,1400000US23031030300,YORK MFG INC,43 COMMUNITY DR,SANFORD,ME,4073,"YORK MFG INC.43 COMMUNITY DR, SANFORD MAINE 04073 (YORK)",0,C,,
04073THMSBCOMMU,-70.697,43.405,False,23,031,030300,23,23031,23031030300,1400000US23031030300,GVS NA,COMMUNITY DR,SANFORD,ME,4073,"GVS NA.COMMUNITY DR, SANFORD MAINE 04073 (YORK)",0,C,,110018906031
0407WTMSFM27CMM,-70.7,43.407,False,23,031,030300,23,23031,23031030300,1400000US23031030300,TOM'S OF MAINE INC,27 COMMUNITY DR,SANFORD,ME,4073,"TOM'S OF MAINE INC.27 COMMUNITY DR, SANFORD MAINE 04073 (YORK)",0,C,,110042246977
0407WXPNDD41IND,-70.70100000000001,43.403999999999996,False,23,031,030300,23,23031,23031030300,1400000US23031030300,EXPANDED RUBBER PRODUCTS INC,41 INDUSTRIAL AVE,SANFORD,ME,4073,"EXPANDED RUBBER PRODUCTS INC.41 INDUSTRIAL AVE, SANFORD MAINE 04073 (YORK)",0,C,,110039679773
04084GTPRDROUTE,-70.538,43.748999999999995,False,23,005,017001,23,23005,23005017001,1400000US23005017001,FIRST TECHNOLOGY/SENSATA,228 NE RD,STANDISH,ME,4084,"FIRST TECHNOLOGY/SENSATA.228 NE RD, STANDISH MAINE 04084 (CUMBERLAND)",0,C,,110000581399
04092DTGNR80EIS,-70.376,43.663999999999994,False,23,005,002900,23,23005,23005002900,1400000US23005002900,DATA GENERAL CORP,80 EISENHOWER DR,WESTBROOK,ME,4092,"DATA GENERAL CORP.80 EISENHOWER DR, WESTBROOK MAINE 04092 (CUMBERLAND)",0,C,,
04092NTRDC2EISE,-70.363,43.659,False,23,005,002900,23,23005,23005002900,1400000US23005002900,UNITRODE CORP,2 EISENHOWER DR,WESTBROOK,ME,4092,"UNITRODE CORP.2 EISENHOWER DR, WESTBROOK MAINE 04092 (CUMBERLAND)",1,C,,
04092PRMTH50EIS,-70.369,43.66,False,23,005,002900,23,23005,23005002900,1400000US23005002900,PERMATHANE CUSTOM MOLDED URETHANES,50 EISENHOWER DRIVE,WESTBROOK,ME,4092,"PERMATHANE CUSTOM MOLDED URETHANES.50 EISENHOWER DRIVE, WESTBROOK MAINE 04092 (CUMBERLAND)",0,C,,
04092SLVXN45THO,-70.347,43.648999999999994,False,23,005,002900,23,23005,23005002900,1400000US23005002900,SILVEX INC,45 THOMAS DR,WESTBROOK,ME,4092,"SILVEX INC.45 THOMAS DR, WESTBROOK MAINE 04092 (CUMBERLAND)",0,C,,110041131147
04092PRCSM80BEI,-70.376,43.663999999999994,False,23,005,002900,23,23005,23005002900,1400000US23005002900,PRECIS METALS INC,80-B EISENHOWER DR,WESTBROOK,ME,4092,"PRECIS METALS INC.80-B EISENHOWER DR, WESTBROOK MAINE 04092 (CUMBERLAND)",0,C,,
04092PRMTH942RE,-70.37100000000001,43.677,False,23,005,002900,23,23005,23005002900,1400000US23005002900,PERMATHANE CUSTOM MOLDED URETHANES,942 REAR MAIN STREET,WESTBROOK,ME,4092,"PERMATHANE CUSTOM MOLDED URETHANES.942 REAR MAIN STREET, WESTBROOK MAINE 04092 (CUMBERLAND)",0,C,,
0409WWSTBR65CUN,-70.367,43.648999999999994,False,23,005,002900,23,23005,23005002900,1400000US23005002900,BRENNTAG LUBRICANTS NORTH EAST-WESTBROOK,605 COUNTY RD,WESTBROOK,ME,4092,"BRENNTAG LUBRICANTS NORTH EAST-WESTBROOK.605 COUNTY RD, WESTBROOK MAINE 04092 (CUMBERLAND)",0,C,,110067558869
04092SDWRR89CUM,-70.347,43.68600000000001,False,23,005,002800,23,23005,23005002800,1400000US23005002800,SAPPI NA - WESTBROOK OPERATIONS,89 CUMBERLAND ST,WESTBROOK,ME,4092,"SAPPI NA - WESTBROOK OPERATIONS.89 CUMBERLAND ST, WESTBROOK MAINE 04092 (CUMBERLAND)",0,C,,110020857134
04092SPNNK225WA,-70.342,43.685,False,23,005,002800,23,23005,23005002800,1400000US23005002800,SPINNAKER COATING,225 WARREN AVE,WESTBROOK,ME,4092,"SPINNAKER COATING.225 WARREN AVE, WESTBROOK MAINE 04092 (CUMBERLAND)",0,C,,
0409WPKNDS58MAI,-70.331,43.677,False,23,005,002800,23,23005,23005002800,1400000US23005002800,PIKE INDUSTRIES INC - WESTBROOK,58 MAIN STREET,WESTBROOK,ME,4092,"PIKE INDUSTRIES INC - WESTBROOK.58 MAIN STREET, WESTBROOK MAINE 04092 (CUMBERLAND)",1,C,,110001682929
0409WPKNDS95WAR,-70.34,43.685,False,23,005,002800,23,23005,23005002800,1400000US23005002800,PIKE INDUSTRIES - WESTBROOK,95 WARREN AVE,WESTBROOK,ME,4092,"PIKE INDUSTRIES - WESTBROOK.95 WARREN AVE, WESTBROOK MAINE 04092 (CUMBERLAND)",0,C,,110064777193
04101BTHRN40COM,-70.25,43.658,False,23,005,000300,23,23005,23005000300,1400000US23005000300,BATH IRON WORKS CORP,40 COMMERCIAL ST,PORTLAND,ME,4101,"BATH IRON WORKS CORP.40 COMMERCIAL ST, PORTLAND MAINE 04101 (CUMBERLAND)",0,C,,
04102NCHLS2400C,-70.339,43.651,False,23,005,002002,23,23005,23005002002,1400000US23005002002,NICHOLS PORTLAND,2400 CONGRESS ST,PORTLAND,ME,4102,"NICHOLS PORTLAND.2400 CONGRESS ST, PORTLAND MAINE 04102 (CUMBERLAND)",0,C,,110000314348
04102HPHDN349PA,-70.282,43.656000000000006,False,23,005,002002,23,23005,23005002002,1400000US23005002002,HP HOOD LLC,349 PARK AVE,PORTLAND,ME,4102,"HP HOOD LLC.349 PARK AVE, PORTLAND MAINE 04102 (CUMBERLAND)",0,C,,110002088384
04103DRNGC135WA,-70.28699999999999,43.678999999999995,False,23,005,001800,23,23005,23005001800,1400000US23005001800,DEERING ICE CREAM CO INC,135 WALTON ST,PORTLAND,ME,4103,"DEERING ICE CREAM CO INC.135 WALTON ST, PORTLAND MAINE 04103 (CUMBERLAND)",0,C,,
04104SLTZR250CA,-70.282,43.68600000000001,False,23,005,002200,23,23005,23005002200,1400000US23005002200,SELTZER & RYDHOLM INC,250 CANCO RD,PORTLAND,ME,4104,"SELTZER & RYDHOLM INC.250 CANCO RD, PORTLAND MAINE 04104 (CUMBERLAND)",0,C,,
04106CCCLB316WE,-70.32600000000001,43.64,False,23,005,003000,23,23005,23005003000,1400000US23005003000,COCA-COLA BOTTLING CO OF MAINE INC,316 WESTERN AVE,SOUTH PORTLAND,ME,4106,"COCA-COLA BOTTLING CO OF MAINE INC.316 WESTERN AVE, SOUTH PORTLAND MAINE 04106 (CUMBERLAND)",0,C,,
04106NTNLS333WE,-70.32600000000001,43.641000000000005,False,23,005,003000,23,23005,23005003000,1400000US23005003000,FAIRCHILD SEMICONDUCTOR CORP,333 WESTERN AVE,SOUTH PORTLAND,ME,4106,"FAIRCHILD SEMICONDUCTOR CORP.333 WESTERN AVE, SOUTH PORTLAND MAINE 04106 (CUMBERLAND)",0,C,,110000314375
04106NTNLS5FODE,-70.324,43.64,False,23,005,003000,23,23005,23005003000,1400000US23005003000,TEXAS INSTRUMENTS INC,5 FODEN RD,SOUTH PORTLAND,ME,4106,"TEXAS INSTRUMENTS INC.5 FODEN RD, SOUTH PORTLAND MAINE 04106 (CUMBERLAND)",0,C,,110000498211
04106SPRGS59MAI,-70.286,43.637,False,23,005,003000,23,23005,23005003000,1400000US23005003000,SPRAGUE SOUTH PORTLAND,59 MAIN ST,SOUTH PORTLAND,ME,4106,"SPRAGUE SOUTH PORTLAND.59 MAIN ST, SOUTH PORTLAND MAINE 04106 (CUMBERLAND)",0,C,,110000759849
04106MGQRJ1156B,-70.28,43.628,False,23,005,003300,23,23005,23005003300,1400000US23005003300,MEGQUIER & JONES CORP,1156 BROADWAY,SOUTH PORTLAND,ME,4106,"MEGQUIER & JONES CORP.1156 BROADWAY, SOUTH PORTLAND MAINE 04106 (CUMBERLAND)",0,C,,
04106STCSTONEWA,-70.304,43.613,False,23,005,003300,23,23005,23005003300,1400000US23005003300,"EAST COAST STEEL, BRIDGE DIV",1 WALLACE AVE,SOUTH PORTLAND,ME,4106,"EAST COAST STEEL, BRIDGE DIV.1 WALLACE AVE, SOUTH PORTLAND MAINE 04106 (CUMBERLAND)",1,C,,
0410WGRWTC165PL,-70.288,43.623999999999995,False,23,005,003300,23,23005,23005003300,1400000US23005003300,QUICK PLUG NA INC,"165 PLEASANT AVE, UNIT B",SOUTH PORTLAND,ME,4106,"QUICK PLUG NA INC.165 PLEASANT AVE, UNIT B, SOUTH PORTLAND MAINE 04106 (CUMBERLAND)",0,C,,110046278791
0410WCLNHR37RUM,-70.294,43.626000000000005,False,23,005,003300,23,23005,23005003300,1400000US23005003300,CLEAN HARBORS ENVIRONMENTAL SERVICES INC,37 RUMERY ST,SOUTH PORTLAND,ME,4106,"CLEAN HARBORS ENVIRONMENTAL SERVICES INC.37 RUMERY ST, SOUTH PORTLAND MAINE 04106 (CUMBERLAND)",0,C,,110070557729
04210BTTMS1891H,-70.26899999999999,44.068000000000005,False,23,001,010700,23,23001,23001010700,1400000US23001010700,BOTTOMS USA INC,1891 HOTEL RD,AUBURN,ME,4210,"BOTTOMS USA INC.1891 HOTEL RD, AUBURN MAINE 04210 (ANDROSCOGGIN)",0,C,,
04210GNRLL135RO,-70.253,44.071999999999996,False,23,001,010700,23,23001,23001010700,1400000US23001010700,ABB- INDUSTRIAL CONNECTIONS & SOLUTIONS,135 RODMAN RD,AUBURN,ME,4210,"ABB- INDUSTRIAL CONNECTIONS & SOLUTIONS.135 RODMAN RD, AUBURN MAINE 04210 (ANDROSCOGGIN)",0,C,,110000314419
04210STRLNPIONI,-70.258,44.068000000000005,False,23,001,010700,23,23001,23001010700,1400000US23001010700,PIONEER PLASTICS CORP,1 PIONITE RD,AUBURN,ME,4210,"PIONEER PLASTICS CORP.1 PIONITE RD, AUBURN MAINE 04210 (ANDROSCOGGIN)",0,C,,110000314437
04211FBRGLHOTEL,-70.262,44.085,False,23,001,010700,23,23001,23001010700,1400000US23001010700,FIBERGLASS PRODUCTS INC,1400 HOTEL RD,AUBURN,ME,4210,"FIBERGLASS PRODUCTS INC.1400 HOTEL RD, AUBURN MAINE 04210 (ANDROSCOGGIN)",0,C,,
04210SLTZR191ME,-70.279,44.07,False,23,001,010700,23,23001,23001010700,1400000US23001010700,SELTZER & RYDHOLM INC,191 MERROW RD,AUBURN,ME,4210,"SELTZER & RYDHOLM INC.191 MERROW RD, AUBURN MAINE 04210 (ANDROSCOGGIN)",0,C,,
04210TNCNC101ME,-70.278,44.07,False,23,001,010700,23,23001,23001010700,1400000US23001010700,AUBURN SHOE CO,101 MERROW RD,AUBURN,ME,4210,"AUBURN SHOE CO.101 MERROW RD, AUBURN MAINE 04210 (ANDROSCOGGIN)",0,C,,
04210CSCDS586LE,-70.29899999999999,44.045,False,23,001,010700,23,23001,23001010700,1400000US23001010700,CASCADES AUBURN FIBER INC,586 LEWISTON JUNCTION RD,AUBURN,ME,4210,"CASCADES AUBURN FIBER INC.586 LEWISTON JUNCTION RD, AUBURN MAINE 04210 (ANDROSCOGGIN)",0,C,,110013288566
04210LDCST982MI,-70.27,44.081,False,23,001,010700,23,23001,23001010700,1400000US23001010700,OLDCASTLE PRECAST INC,982 MINOT AVE,AUBURN,ME,4210,"OLDCASTLE PRECAST INC.982 MINOT AVE, AUBURN MAINE 04210 (ANDROSCOGGIN)",0,C,,110039679363
04210SRMYM64MUN,-70.283,44.085,False,23,001,010700,23,23001,23001010700,1400000US23001010700,U.S. ARMY MAINE NATIONAL GUARD AUBURN TRAINING SITE,64 MOUNT APATITE RD,AUBURN,ME,4210,"U.S. ARMY MAINE NATIONAL GUARD AUBURN TRAINING SITE.64 MOUNT APATITE RD, AUBURN MAINE 04210 (ANDROSCOGGIN)",0,F,,110037143150
0421WTMBRN2879H,-70.283,44.038000000000004,False,23,001,010700,23,23001,23001010700,1400000US23001010700,TAMBRANDS INC,2879 HOTEL ROAD,AUBURN,ME,4210,"TAMBRANDS INC.2879 HOTEL ROAD, AUBURN MAINE 04210 (ANDROSCOGGIN)",0,C,,110000865724
04239NTRNTRILEY,-70.23899999999999,44.506,False,23,007,971400,23,23007,23007971400,1400000US23007971400,PIXELLE SPECIALTY SOLUTIONS,300 RILEY RD - ANDROSCOGGIN MILL,JAY,ME,4239,"PIXELLE SPECIALTY SOLUTIONS.300 RILEY RD - ANDROSCOGGIN MILL, JAY MAINE 04239 (FRANKLIN)",0,C,,110008053587
04239TSSPC1MILL,-70.19800000000001,44.48,False,23,007,971400,23,23007,23007971400,1400000US23007971400,WAUSAU PAPER SPECIALTY PRODUCTS LLC - OTIS MILL,1 MILL ST,JAY,ME,4239,"WAUSAU PAPER SPECIALTY PRODUCTS LLC - OTIS MILL.1 MILL ST, JAY MAINE 04239 (FRANKLIN)",0,C,,110000314455
04239SPCLTANDRO,-70.23899999999999,44.506,False,23,007,971400,23,23007,23007971400,1400000US23007971400,SPECIALTY MINERALS INC,ANDROSCOGIN MILL GATE 15,JAY,ME,4239,"SPECIALTY MINERALS INC.ANDROSCOGIN MILL GATE 15, JAY MAINE 04239 (FRANKLIN)",0,C,,110000314446
04239NDRSCGATE1,-70.24,44.505,False,23,007,971400,23,23007,23007971400,1400000US23007971400,ANDROSCOGGIN ENERGY LLC,GATE 15 RILEY RD,JAY,ME,4239,"ANDROSCOGGIN ENERGY LLC.GATE 15 RILEY RD, JAY MAINE 04239 (FRANKLIN)",0,C,,
04240BTSFB33CAN,-70.218,44.097,False,23,001,020100,23,23001,23001020100,1400000US23001020100,BATES FABRICS INC,33 CANAL ST,LEWISTON,ME,4240,"BATES FABRICS INC.33 CANAL ST, LEWISTON MAINE 04240 (ANDROSCOGGIN)",0,C,,
04240FLCNS2CEDA,-70.22,44.091,False,23,001,020100,23,23001,23001020100,1400000US23001020100,FALCON FOOTWEAR CO,2 CEDAR ST,LEWISTON,ME,4240,"FALCON FOOTWEAR CO.2 CEDAR ST, LEWISTON MAINE 04240 (ANDROSCOGGIN)",0,C,,110012461941
04240KNPPS29LOW,-70.217,44.101000000000006,False,23,001,020100,23,23001,23001020100,1400000US23001020100,FALCON SHOE MANUFACTURING CO KNAPP DIV,29 LOWELL ST,LEWISTON,ME,4240,"FALCON SHOE MANUFACTURING CO KNAPP DIV.29 LOWELL ST, LEWISTON MAINE 04240 (ANDROSCOGGIN)",0,C,,
04240JNSND765WE,-70.17,44.082,False,23,001,020800,23,23001,23001020800,1400000US23001020800,JONES & VINING INC,765 WEBSTER ST,LEWISTON,ME,4240,"JONES & VINING INC.765 WEBSTER ST, LEWISTON MAINE 04240 (ANDROSCOGGIN)",0,C,,110000314482
04240MNVLL51LEX,-70.17,44.07899999999999,False,23,001,020800,23,23001,23001020800,1400000US23001020800,JOHNS MANVILLE INTERNATIONAL INC,51 LEXINGTON ST,LEWISTON,ME,4240,"JOHNS MANVILLE INTERNATIONAL INC.51 LEXINGTON ST, LEWISTON MAINE 04240 (ANDROSCOGGIN)",0,C,,
04240PHLPS1560L,-70.171,44.071999999999996,False,23,001,020800,23,23001,23001020800,1400000US23001020800,ELMET TECHNOLOGIES LLC,1560 LISBON ST,LEWISTON,ME,4240,"ELMET TECHNOLOGIES LLC.1560 LISBON ST, LEWISTON MAINE 04240 (ANDROSCOGGIN)",0,C,,110000314507
04241RPLYN1SARA,-70.172,44.074,False,23,001,020800,23,23001,23001020800,1400000US23001020800,RIPLEY IND INC,1 SARATOGA ST,LEWISTON,ME,4240,"RIPLEY IND INC.1 SARATOGA ST, LEWISTON MAINE 04240 (ANDROSCOGGIN)",0,C,,
04240BCHMN29LEX,-70.17399999999999,44.08,False,23,001,020800,23,23001,23001020800,1400000US23001020800,WAHLCOMETROFLEX,29 LEXINGTON ST,LEWISTON,ME,4240,"WAHLCOMETROFLEX.29 LEXINGTON ST, LEWISTON MAINE 04240 (ANDROSCOGGIN)",0,C,,110000314464
04240SPRMSCANAL,-70.053,43.992,False,23,001,030200,23,23001,23001030200,1400000US23001030200,KNIGHT-CELOTEX LLC,743 LISBON ST,LISBON FALLS,ME,4252,"KNIGHT-CELOTEX LLC.743 LISBON ST, LISBON FALLS MAINE 04252 (ANDROSCOGGIN)",0,C,,110001830573
04250MNLCTRIVER,-70.105,44.035,False,23,001,030100,23,23001,23001030100,1400000US23001030100,MAINE ELECTRONICS INC,RIVER ST,LISBON,ME,4250,"MAINE ELECTRONICS INC.RIVER ST, LISBON MAINE 04250 (ANDROSCOGGIN)",0,C,,
04250DNGLY119LI,-70.115,44.043,False,23,001,030100,23,23001,23001030100,1400000US23001030100,DINGLEY PRESS,119 LISBON ST,LISBON,ME,4250,"DINGLEY PRESS.119 LISBON ST, LISBON MAINE 04250 (ANDROSCOGGIN)",0,C,,110000865760
04254MNWDSLOWER,-70.17399999999999,44.46,False,23,001,044000,23,23001,23001044000,1400000US23001044000,"MAINE WOODS SHOE CO, LIVERMORE DIV",LOWER PARK ST,LIVERMORE FALLS,ME,4254,"MAINE WOODS SHOE CO, LIVERMORE DIV.LOWER PARK ST, LIVERMORE FALLS MAINE 04254 (ANDROSCOGGIN)",1,C,,
04256THMNWWALKE,-70.368,44.101000000000006,False,23,001,041500,23,23001,23001041500,1400000US23001041500,THE MAINE WOOD TREATERS INC,58 WALKER RD,MECHANIC FALLS,ME,4256,"THE MAINE WOOD TREATERS INC.58 WALKER RD, MECHANIC FALLS MAINE 04256 (ANDROSCOGGIN)",0,C,,110008435844
04265TXTCH105NM,-70.02600000000001,44.275,False,23,011,013000,23,23011,23011013000,1400000US23011013000,TEX TECH INDUSTRIES INC,105 N MAIN ST,NORTH MONMOUTH,ME,4265,"TEX TECH INDUSTRIES INC.105 N MAIN ST, NORTH MONMOUTH MAINE 04265 (KENNEBEC)",0,C,,
04268WLNRWALPIN,-70.528,44.214,False,23,017,966200,23,23017,23017966200,1400000US23017966200,WILNER WOOD PRODS CO,ALPINE ST,NORWAY,ME,4268,"WILNER WOOD PRODS CO.ALPINE ST, NORWAY MAINE 04268 (OXFORD)",0,C,,
04270CRNWLRTE26,-70.518,44.18600000000001,False,23,017,966400,23,23017,23017966400,1400000US23017966400,CORNWALL WOOD PRODUCTS INC,1435 MAIN ST,OXFORD,ME,4270,"CORNWALL WOOD PRODUCTS INC.1435 MAIN ST, OXFORD MAINE 04270 (OXFORD)",0,C,,
04270RBNSNMAINS,-70.493,44.131,False,23,017,966400,23,23017,23017966400,1400000US23017966400,ROBINSON MANUFACTURING CO,283 KING ST,OXFORD,ME,4270,"ROBINSON MANUFACTURING CO.283 KING ST, OXFORD MAINE 04270 (OXFORD)",0,C,,
04276BSCSCROUTE,-70.541,44.551,False,23,017,965500,23,23017,23017965500,1400000US23017965500,ND PAPER INC - RUMFORD DIV,35 HARTFORD ST,RUMFORD,ME,4276,"ND PAPER INC - RUMFORD DIV.35 HARTFORD ST, RUMFORD MAINE 04276 (OXFORD)",0,C,,110058114776
04294GHBSSWELDS,-70.262,44.61600000000001,False,23,007,971300,23,23007,23007971300,1400000US23007971300,GH BASS & CO,WELD ST RTE 156,WILTON,ME,4294,"GH BASS & CO.WELD ST RTE 156, WILTON MAINE 04294 (FRANKLIN)",0,C,,
04234KRYTNRTE2A,-70.185,44.615,False,23,007,971300,23,23007,23007971300,1400000US23007971300,WILTON TANNING CO,833 US RTE 2 E,DRYDEN,ME,4225,"WILTON TANNING CO.833 US RTE 2 E, DRYDEN MAINE 04225 (FRANKLIN)",0,C,,
04330DGTLQ500CI,-69.795,44.365,False,23,011,010200,23,23011,23011010200,1400000US23011010200,SANMINA-SCI CORP,500 CIVIC CENTER DR,AUGUSTA,ME,4330,"SANMINA-SCI CORP.500 CIVIC CENTER DR, AUGUSTA MAINE 04330 (KENNEBEC)",0,C,,
0433WPKNDSRR6BX,-69.819,44.383,False,23,011,010200,23,23011,23011010200,1400000US23011010200,PIKE INDUSTRIES INC - AUGUSTA,RR6 BOX 1126 SANFORD ROAD,AUGUSTA,ME,4330,"PIKE INDUSTRIES INC - AUGUSTA.RR6 BOX 1126 SANFORD ROAD, AUGUSTA MAINE 04330 (KENNEBEC)",0,C,,110041999969
04330STTLRMAPLE,-69.765,44.33,False,23,011,010100,23,23011,23011010100,1400000US23011010100,AMERICAN TISSUE MILLS OF MAINE LLC,54 MAPLE ST,AUGUSTA,ME,43320889,"AMERICAN TISSUE MILLS OF MAINE LLC.54 MAPLE ST, AUGUSTA MAINE 04332 (KENNEBEC)",0,C,,
04332CVSSTPOBOX,-69.742,44.361000000000004,False,23,011,010100,23,23011,23011010100,1400000US23011010100,CIVES STEEL CO  NEW ENGLAND DIV,103 LIPMAN RD,AUGUSTA,ME,4330,"CIVES STEEL CO  NEW ENGLAND DIV.103 LIPMAN RD, AUGUSTA MAINE 04330 (KENNEBEC)",0,C,,
04330KNWYC681RI,-69.74,44.358999999999995,False,23,011,010100,23,23011,23011010100,1400000US23011010100,KENWAY COMPOSITES,681 RIVERSIDE DR,AUGUSTA,ME,4330,"KENWAY COMPOSITES.681 RIVERSIDE DR, AUGUSTA MAINE 04330 (KENNEBEC)",0,C,,110000314525
04330JSPHK193RI,-69.763,44.33,False,23,011,010100,23,23011,23011010100,1400000US23011010100,JOSEPH KIRSCHNER CO,193 RIVERSIDE DR,AUGUSTA,ME,4330,"JOSEPH KIRSCHNER CO.193 RIVERSIDE DR, AUGUSTA MAINE 04330 (KENNEBEC)",0,C,,
0433WGLDST1DALT,-69.74,44.363,False,23,011,010100,23,23011,23011010100,1400000US23011010100,GOLD STAR FEED & GRAIN,10 DALTON RD,AUGUSTA,ME,4330,"GOLD STAR FEED & GRAIN.10 DALTON RD, AUGUSTA MAINE 04330 (KENNEBEC)",0,C,,110064783578
0433WSTHPR681RI,-69.74,44.358999999999995,False,23,011,010100,23,23011,23011010100,1400000US23011010100,SOUTHPORT YACHTS LLC,681 RIVERSIDE DR,AUGUSTA,ME,4330,"SOUTHPORT YACHTS LLC.681 RIVERSIDE DR, AUGUSTA MAINE 04330 (KENNEBEC)",0,C,,110070239264
04330HLLWLMEDOW,-69.736,44.363,True,23,011,010100,23,23011,23011010100,1400000US23011010100,HALLOWELL WATER DISTRICT JAMIES POND PUMP STATION,MEDOW HILL RD,MANCHESTER,ME,4330,"HALLOWELL WATER DISTRICT JAMIES POND PUMP STATION MEDOW HILL RD, MANCHESTER, ME, 4330",0,C,,
04357TNCXXCOUNT,-69.812,44.09,False,23,023,970100,23,23023,23023970100,1400000US23023970100,ETONIC INC,COUNTY RD RTE 197,RICHMOND,ME,4357,"ETONIC INC.COUNTY RD RTE 197, RICHMOND MAINE 04357 (SAGADAHOC)",0,C,,
04364CRLTN51MAI,-69.975,44.306000000000004,False,23,011,014000,23,23011,23011014000,1400000US23011014000,CARLETON WOOLEN MILLS INC,51 MAIN ST,WINTHROP,ME,4364,"CARLETON WOOLEN MILLS INC.51 MAIN ST, WINTHROP MAINE 04364 (KENNEBEC)",0,C,,
04364LTRNT3BSUM,-69.97399999999999,44.308,False,23,011,014000,23,23011,23011014000,1400000US23011014000,ALTERNATIVE MANUFACTURING INC,30 SUMMER ST SUITE B,WINTHROP,ME,4364,"ALTERNATIVE MANUFACTURING INC.30 SUMMER ST SUITE B, WINTHROP MAINE 04364 (KENNEBEC)",0,C,,110022438432
04401GNRLL534GR,-68.821,44.813,False,23,019,000700,23,23019,23019000700,1400000US23019000700,GE ENERGY,534 GRIFFIN RD,BANGOR,ME,4401,"GE ENERGY.534 GRIFFIN RD, BANGOR MAINE 04401 (PENOBSCOT)",0,C,,110000744801
04401NSWNS489OD,-68.815,44.784,False,23,019,000700,23,23019,23019000700,1400000US23019000700,ANSEWN SHOE CO,489 ODLIN RD,BANGOR,ME,44016707,"ANSEWN SHOE CO.489 ODLIN RD, BANGOR MAINE 04401 (PENOBSCOT)",0,C,,
04401SPTBLFARMR,-68.783,44.785,False,23,019,000700,23,23019,23019000700,1400000US23019000700,HYDE INC,99 FARM RD,BANGOR,ME,4401,"HYDE INC.99 FARM RD, BANGOR MAINE 04401 (PENOBSCOT)",0,C,,
04401GNRLLFLORI,-68.809,44.8,False,23,019,000700,23,23019,23019000700,1400000US23019000700,GE ENERGY,70 MAINE AVENUE,BANGOR,ME,4401,"GE ENERGY.70 MAINE AVENUE, BANGOR MAINE 04401 (PENOBSCOT)",0,C,,110039670219
04401GRNTS1MILK,-68.83800000000001,44.8,False,23,019,000700,23,23019,23019000700,1400000US23019000700,GRANTS DAIRY,1 MILK ST,BANGOR,ME,4401,"GRANTS DAIRY.1 MILK ST, BANGOR MAINE 04401 (PENOBSCOT)",0,C,,
04401LDRCR448GR,-68.818,44.816,False,23,019,000700,23,23019,23019000700,1400000US23019000700,ELDUR CORP,448 GRIFFIN RD,BANGOR,ME,4401,"ELDUR CORP.448 GRIFFIN RD, BANGOR MAINE 04401 (PENOBSCOT)",0,C,,110002088446
04401MNRNT103MA,-68.825,44.815,False,23,019,000700,23,23019,23019000700,1400000US23019000700,US DOD USAF BANGOR ANG,101 ARW/EMB 99 GLENN AVE SUITE 494,BANGOR,ME,4401,"US DOD USAF BANGOR ANG.101 ARW/EMB 99 GLENN AVE SUITE 494, BANGOR MAINE 04401 (PENOBSCOT)",0,F,,110025247800
04401SRMYM3HILD,-68.842,44.808,False,23,019,000700,23,23019,23019000700,1400000US23019000700,US ARMY MAINE NATIONAL GUARD BANGOR TRAINING SITE RANGE,300 HILDRETH ST N,BANGOR,ME,4401,"US ARMY MAINE NATIONAL GUARD BANGOR TRAINING SITE RANGE.300 HILDRETH ST N, BANGOR MAINE 04401 (PENOBSCOT)",0,F,,110037143221
0440WPKNDS148DL,-68.833,44.781000000000006,False,23,019,000700,23,23019,23019000700,1400000US23019000700,"PIKE INDUSTRIES, INC. - HERMON",1048 ODLIN ROAD,HERMON,ME,4401,"PIKE INDUSTRIES, INC. - HERMON.1048 ODLIN ROAD, HERMON MAINE 04401 (PENOBSCOT)",0,C,,110006625134
04401GTPRD200SY,-68.749,44.826,False,23,019,000300,23,23019,23019000300,1400000US23019000300,OSRAM SYLVANIA INC,200 SYLVAN RD,BANGOR,ME,4401,"OSRAM SYLVANIA INC.200 SYLVAN RD, BANGOR MAINE 04401 (PENOBSCOT)",1,C,,110000314543
04412STRNF517SO,-68.78,44.772,False,23,019,004100,23,23019,23019004100,1400000US23019004100,EASTERN FINE PAPER INC,517 S MAIN ST,BREWER,ME,44120129,"EASTERN FINE PAPER INC.517 S MAIN ST, BREWER MAINE 04412 (PENOBSCOT)",0,C,,
04412RVNGL3INDU,-68.77,44.786,False,23,019,004100,23,23019,23019004100,1400000US23019004100,IRVING OIL CORP,30 INDUSTRIAL PARK,BREWER,ME,4412,"IRVING OIL CORP.30 INDUSTRIAL PARK, BREWER MAINE 04412 (PENOBSCOT)",0,C,,
04416CHMPNMAINS,-68.804,44.575,False,23,009,965300,23,23009,23009965300,1400000US23009965300,BUCKSPORT GENERATION LLC,2 RIVER RD,BUCKSPORT,ME,4416,"BUCKSPORT GENERATION LLC.2 RIVER RD, BUCKSPORT MAINE 04416 (HANCOCK)",0,C,,110025329963
0441WWBBRT93RIV,-68.806,44.582,False,23,009,965300,23,23009,23009965300,1400000US23009965300,PENOBSCOT BAY TERMINALS DBA WEBBER TANKS INC,93 RIVER ROAD,BUCKSPORT,ME,4416,"PENOBSCOT BAY TERMINALS DBA WEBBER TANKS INC.93 RIVER ROAD, BUCKSPORT MAINE 04416 (HANCOCK)",0,C,,110001092969
04430GRTNRMAINS,-68.57300000000001,45.625,False,23,019,031000,23,23019,23019031000,1400000US23019031000,"GREAT NORTHERN PAPER, LLC",50 MAIN ST,EAST MILLINOCKET,ME,4430,"GREAT NORTHERN PAPER, LLC.50 MAIN ST, EAST MILLINOCKET MAINE 04430 (PENOBSCOT)",0,C,,110000581451
04443GLFRDOAKST,-69.384,45.168,False,23,021,960600,23,23021,23021960600,1400000US23021960600,GUILFORD OF MAINE INC,OAK ST,GUILFORD,ME,4443,"GUILFORD OF MAINE INC.OAK ST, GUILFORD MAINE 04443 (PISCATAQUIS)",0,C,,
04457LNCLNKATAH,-68.51,45.368,False,23,019,027000,23,23019,23019027000,1400000US23019027000,LINCOLN PAPER & TISSUE LLC,50 KATAHDIN AVE,LINCOLN,ME,4457,"LINCOLN PAPER & TISSUE LLC.50 KATAHDIN AVE, LINCOLN MAINE 04457 (PENOBSCOT)",0,C,,110000314570
04462GRTNR1KATA,-68.703,45.646,False,23,019,030000,23,23019,23019030000,1400000US23019030000,KATAHDIN PAPER CO LLC,ONE KATAHDIN AVE,MILLINOCKET,ME,4462,"KATAHDIN PAPER CO LLC.ONE KATAHDIN AVE, MILLINOCKET MAINE 04462 (PENOBSCOT)",1,C,,110000314589
04463DXTRSPARKS,-68.99,45.262,False,23,021,960800,23,23021,23021960800,1400000US23021960800,DEXTER SHOE CO PLANT #2,PARK ST,MILO,ME,4463,"DEXTER SHOE CO PLANT #2.PARK ST, MILO MAINE 04463 (PISCATAQUIS)",0,C,,
04463MLCHPOUTER,-68.933,45.226000000000006,False,23,021,960800,23,23021,23021960800,1400000US23021960800,MILO CHIPMILL,OUTER ELM ST,MILO,ME,4463,"MILO CHIPMILL.OUTER ELM ST, MILO MAINE 04463 (PISCATAQUIS)",0,C,,
04464MSHDMCHAPI,-69.49600000000001,45.29600000000001,False,23,021,960400,23,23021,23021960400,1400000US23021960400,MOOSEHEAD MANUFACTURING CO,CHAPIN AVE,MONSON,ME,4464,"MOOSEHEAD MANUFACTURING CO.CHAPIN AVE, MONSON MAINE 04464 (PISCATAQUIS)",0,C,,
04468JMSRVPORTL,-68.637,44.917,False,23,019,007100,23,23019,23019007100,1400000US23019007100,EXPERA OLD TOWN LLC,24 PORTLAND ST,OLD TOWN,ME,44682024,"EXPERA OLD TOWN LLC.24 PORTLAND ST, OLD TOWN MAINE 04468 (PENOBSCOT)",0,C,,110000581460
04473STRRTAYERS,-68.675,44.873999999999995,False,23,019,006100,23,23019,23019006100,1400000US23019006100,STRIAR TEXTILE MILL,AYERS ISLAND,ORONO,ME,4473,"STRIAR TEXTILE MILL.AYERS ISLAND, ORONO MAINE 04473 (PENOBSCOT)",0,C,,
04474LCPCHROUTE,-68.825,44.74,False,23,019,003000,23,23019,23019003000,1400000US23019003000,HOLTRACHEM MANUFACTURING CO,99 INDUSTRIAL WAY,ORRINGTON,ME,4474,"HOLTRACHEM MANUFACTURING CO.99 INDUSTRIAL WAY, ORRINGTON MAINE 04474 (PENOBSCOT)",0,C,,
04530BTHRN700WA,-69.815,43.91,False,23,023,970600,23,23023,23023970600,1400000US23023970600,BATH IRON WORKS,700 WASHINGTON ST,BATH,ME,4530,"BATH IRON WORKS.700 WASHINGTON ST, BATH MAINE 04530 (SAGADAHOC)",0,C,,110000314605
04572GTPRDFRIEN,-69.375,44.085,False,23,015,975200,23,23015,23015975200,1400000US23015975200,OSRAM SYLVANIA INC,405 FRIENDSHIP ST,WALDOBORO,ME,4572,"OSRAM SYLVANIA INC.405 FRIENDSHIP ST, WALDOBORO MAINE 04572 (LINCOLN)",1,C,,110000314614
04572SNSPL221FR,-69.374,44.093,False,23,015,975200,23,23015,23015975200,1400000US23015975200,SNS PLASTICS CO INC,81 FRIENDSHIP ST,WALDOBORO,ME,4572,"SNS PLASTICS CO INC.81 FRIENDSHIP ST, WALDOBORO MAINE 04572 (LINCOLN)",1,C,,
04616FLYPNFLYEP,-68.53,44.265,False,23,009,966500,23,23009,23009966500,1400000US23009966500,ATLANTIC BOAT CO,355 FLYE POINT RD,BROOKLIN,ME,4616,"ATLANTIC BOAT CO.355 FLYE POINT RD, BROOKLIN MAINE 04616 (HANCOCK)",0,C,,110007401711
04694GRGPCMILLA,-67.402,45.157,False,23,029,955400,23,23029,23029955400,1400000US23029955400,WOODLAND PULP LLC,144 MAIN ST,BAILEYVILLE,ME,4694,"WOODLAND PULP LLC.144 MAIN ST, BAILEYVILLE MAINE 04694 (WASHINGTON)",0,C,,110013359178
04694GRGPCMILLR,-67.418,45.181000000000004,False,23,029,955400,23,23029,23029955400,1400000US23029955400,LOUISIANA-PACIFIC CORP WOODLAND OSB,187 TRACK RD,BAILEYVILLE,ME,4694,"LOUISIANA-PACIFIC CORP WOODLAND OSB.187 TRACK RD, BAILEYVILLE MAINE 04694 (WASHINGTON)",1,C,,
04730SMTHWAIRPO,-67.78399999999999,46.126999999999995,False,23,003,952400,23,23003,23003952400,1400000US23003952400,SMITH & WESSON HOULTON MAINE,19 AVIATION DR,HOULTON,ME,4730,"SMITH & WESSON HOULTON MAINE.19 AVIATION DR, HOULTON MAINE 04730 (AROOSTOOK)",0,C,,110000581497
04730STLYMRT4BO,-67.883,46.108000000000004,False,23,003,952500,23,23003,23003952500,1400000US23003952500,TATE & LYLE HOULTON,48 MORNINGSTAR RD,HOULTON,ME,4730,"TATE & LYLE HOULTON.48 MORNINGSTAR RD, HOULTON MAINE 04730 (AROOSTOOK)",0,C,,110000314650
04730HLTNCBRDXX,-67.85,46.148999999999994,False,23,003,952500,23,23003,23003952500,1400000US23003952500,HOULTON CHIPMILL,B RD,HOULTON,ME,4730,"HOULTON CHIPMILL.B RD, HOULTON MAINE 04730 (AROOSTOOK)",0,C,,
04740JMHBRPOBOX,-67.907,46.666000000000004,False,23,003,951700,23,23003,23003951700,1400000US23003951700,HUBER ENGINEERED WOODS LLC,333 STATION RD,EASTON,ME,4740,"HUBER ENGINEERED WOODS LLC.333 STATION RD, EASTON MAINE 04740 (AROOSTOOK)",0,C,,110010786630
04740MCCNFSTATI,-67.904,46.663000000000004,False,23,003,951700,23,23003,23003951700,1400000US23003951700,MCCAIN FOODS USA INC,319 RICHARDSON RD,EASTON,ME,4740,"MCCAIN FOODS USA INC.319 RICHARDSON RD, EASTON MAINE 04740 (AROOSTOOK)",0,C,,110000546749
04742TLNTC87HIG,-67.845,46.777,False,23,003,951700,23,23003,23003951700,1400000US23003951700,ATLANTIC CUSTOM PROCESSORS LLC,87 HIGH ST,FORT FAIRFIELD,ME,4742,"ATLANTIC CUSTOM PROCESSORS LLC.87 HIGH ST, FORT FAIRFIELD MAINE 04742 (AROOSTOOK)",0,C,,110000314687
04747NTNLSBURLE,-68.273,46.008,False,23,003,952700,23,23003,23003952700,1400000US23003952700,NATIONAL STARCH,1098 CRYSTAL RD,ISLAND FALLS,ME,4747,"NATIONAL STARCH.1098 CRYSTAL RD, ISLAND FALLS MAINE 04747 (AROOSTOOK)",0,C,,110039670790
04756FRSRP25BRI,-68.327,47.358000000000004,False,23,003,950300,23,23003,23003950300,1400000US23003950300,TWIN RIVERS PAPER CO LLC,82 BRIDGE AVE,MADAWASKA,ME,4756,"TWIN RIVERS PAPER CO LLC.82 BRIDGE AVE, MADAWASKA MAINE 04756 (AROOSTOOK)",0,C,,110008062602
04761LSNPCSTATI,-67.954,46.11,False,23,003,952600,23,23003,23003952600,1400000US23003952600,LOUISIANA-PACIFIC CORP,240 STATION RD,NEW LIMERICK,ME,4761,"LOUISIANA-PACIFIC CORP.240 STATION RD, NEW LIMERICK MAINE 04761 (AROOSTOOK)",0,C,,110000607969
04769MCCNFREACH,-68.029,46.728,False,23,003,951800,23,23003,23003951800,1400000US23003951800,MCCAIN FOODS INC PRESQUE ISLE FACILITY,REACH RD,PRESQUE ISLE,ME,4769,"MCCAIN FOODS INC PRESQUE ISLE FACILITY.REACH RD, PRESQUE ISLE MAINE 04769 (AROOSTOOK)",0,C,,
04769NTRTC825MA,-68.01,46.701,False,23,003,951800,23,23003,23003951800,1400000US23003951800,NUTRITE CORP,825 MAIN ST,PRESQUE ISLE,ME,4769,"NUTRITE CORP.825 MAIN ST, PRESQUE ISLE MAINE 04769 (AROOSTOOK)",0,C,,
04769NRTHSSKYWA,-68.004,46.696,True,23,003,951800,23,23003,23003951800,1400000US23003951800,NORTHEAST PACKAGING CO,815 SKYWAY ST,PRESQUE ISLE,ME,4769,"NORTHEAST PACKAGING CO 815 SKYWAY ST, PRESQUE ISLE, ME, 4769",0,C,,
04786MCCNFWADER,-68.17399999999999,46.771,False,23,003,951000,23,23003,23003951000,1400000US23003951000,MCCAIN FOODS INC,WADE RD,WASHBURN,ME,4786,"MCCAIN FOODS INC.WADE RD, WASHBURN MAINE 04786 (AROOSTOOK)",0,C,,
04841FMCCRCROCK,-69.104,44.107,False,23,013,970700,23,23013,23013970700,1400000US23013970700,DUPONT NUTRITION USA INC,1 CROCKETT'S POINT,ROCKLAND,ME,4841,"DUPONT NUTRITION USA INC.1 CROCKETT'S POINT, ROCKLAND MAINE 04841 (KNOX)",0,C,,110000581512
04841HRCRP12TIL,-69.10300000000001,44.105,False,23,013,970700,23,23013,23013970700,1400000US23013970700,O'HARA CORP,120 TILLSON AVE,ROCKLAND,ME,4841,"O'HARA CORP.120 TILLSON AVE, ROCKLAND MAINE 04841 (KNOX)",0,C,,
04841SPRNC779RE,-69.139,44.123,True,23,013,970700,23,23013,23013970700,1400000US23013970700,SEAPRO INC,779 REAR MAIN ST,ROCKLAND,ME,4841,"SEAPRO INC 779 REAR MAIN ST, ROCKLAND, ME, 4841",0,C,,
04841FSHRN12WAT,-69.109,44.099,False,23,013,970600,23,23013,23013970600,1400000US23013970600,FISHER ENGINEERING,12 WATER ST,ROCKLAND,ME,48410529,"FISHER ENGINEERING.12 WATER ST, ROCKLAND MAINE 04841 (KNOX)",0,C,,
04841NRTHNGORDO,-69.118,44.089,False,23,013,970600,23,23013,23013970600,1400000US23013970600,NORTH END MARINE & FIBERGLASS ENGINEERING INC,GORDON DR ROCKLAND INDUSTRIAL PARK,ROCKLAND,ME,4841,"NORTH END MARINE & FIBERGLASS ENGINEERING INC.GORDON DR ROCKLAND INDUSTRIAL PARK, ROCKLAND MAINE 04841 (KNOX)",2,C,,
04841NRTHN28GOR,-69.118,44.089,False,23,013,970600,23,23013,23013970600,1400000US23013970600,NORTH END COMPOSITES,28 GORDON DR,ROCKLAND,ME,4841,"NORTH END COMPOSITES.28 GORDON DR, ROCKLAND MAINE 04841 (KNOX)",0,C,,110000314703
04841FSHRN50GOR,-69.125,44.089,False,23,013,970600,23,23013,23013970600,1400000US23013970600,FISHER ENGINEERING,50 GORDON DR,ROCKLAND,ME,4841,"FISHER ENGINEERING.50 GORDON DR, ROCKLAND MAINE 04841 (KNOX)",0,C,,110002088507
04841NRTHN23MER,-69.118,44.091,False,23,013,970600,23,23013,23013970600,1400000US23013970600,NORTH END COMPOSITES,18 MERRILL DR,ROCKLAND,ME,4841,"NORTH END COMPOSITES.18 MERRILL DR, ROCKLAND MAINE 04841 (KNOX)",0,C,,110064435106
04843CMPNT116WA,-69.078,44.216,False,23,013,970200,23,23013,23013970200,1400000US23013970200,CAMDEN TANNING CORPORATION,116 WASHINGTON ST,CAMDEN,ME,4843,"CAMDEN TANNING CORPORATION.116 WASHINGTON ST, CAMDEN MAINE 04843 (KNOX)",0,C,,
04861DRGNPUSROU,-69.157,44.083999999999996,False,23,013,970400,23,23013,23013970400,1400000US23013970400,DRAGON PRODUCTS CO,107 NEW COUNTY ROAD,THOMASTON,ME,4861,"DRAGON PRODUCTS CO.107 NEW COUNTY ROAD, THOMASTON MAINE 04861 (KNOX)",0,C,,110000581521
04864KNXMC936EA,-69.238,44.148999999999994,False,23,013,970400,23,23013,23013970400,1400000US23013970400,KNOX MACHINE CO,936 EASTERN RD,WARREN,ME,4864,"KNOX MACHINE CO.936 EASTERN RD, WARREN MAINE 04864 (KNOX)",0,C,,
04861LYMNM82WAT,-69.181,44.073,False,23,013,970400,23,23013,23013970400,1400000US23013970400,LYMAN MORSE BOATBUILDING,84 KNOX ST,THOMASTON,ME,4861,"LYMAN MORSE BOATBUILDING.84 KNOX ST, THOMASTON MAINE 04861 (KNOX)",0,C,,110028011087
04901SCTTP14BEN,-69.625,44.548,False,23,011,023001,23,23011,23011023001,1400000US23011023001,KIMBERLY-CLARK TISSUE CO,14 BENTON AVE,WINSLOW,ME,49016894,"KIMBERLY-CLARK TISSUE CO.14 BENTON AVE, WINSLOW MAINE 04901 (KENNEBEC)",0,C,,
04903HHTMK242CO,-69.611,44.577,False,23,011,024101,23,23011,23011024101,1400000US23011024101,HUHTAMAKI INC,242 COLLEGE AVE,WATERVILLE,ME,4901,"HUHTAMAKI INC.242 COLLEGE AVE, WATERVILLE MAINE 04901 (KENNEBEC)",0,C,,110000865751
04901KYSFBUPPER,-69.63600000000001,44.571000000000005,False,23,011,024101,23,23011,23011024101,1400000US23011024101,CHINET CO MACHINE SHOP,20 INDL ST,WATERVILLE,ME,4901,"CHINET CO MACHINE SHOP.20 INDL ST, WATERVILLE MAINE 04901 (KENNEBEC)",0,C,,
04922THNLLRTE10,-69.444,44.696999999999996,False,23,025,966000,23,23027,23025966000,1400000US23025966000,ETHAN ALLEN INC BURNHAM DIV,RTE 100,BURNHAM,ME,4922,"ETHAN ALLEN INC BURNHAM DIV.RTE 100, BURNHAM MAINE 04922 (WALDO)",0,C,,
04967GNRLSMAINS,-69.38,44.785,False,23,025,966000,23,23025,23025966000,1400000US23025966000,UTC FIRE & SECURITY INC,129 N MAIN ST,PITTSFIELD,ME,4967,"UTC FIRE & SECURITY INC.129 N MAIN ST, PITTSFIELD MAINE 04967 (SOMERSET)",0,C,,110042022174
04967SSPTTSASDR,-69.383,44.793,False,23,025,966000,23,23025,23025966000,1400000US23025966000,SAS PITTSFIELD,SAS DR,PITTSFIELD,ME,4967,"SAS PITTSFIELD.SAS DR, PITTSFIELD MAINE 04967 (SOMERSET)",0,C,,
0496WCNBRF335HU,-69.36,44.77,False,23,025,966000,23,23025,23025966000,1400000US23025966000,CIANBRO FABRICATION & COATING,335 HUNNEWELL AVE,PITTSFIELD,ME,4967,"CIANBRO FABRICATION & COATING.335 HUNNEWELL AVE, PITTSFIELD MAINE 04967 (SOMERSET)",0,C,,110015743739
04926GZLLPPOBOX,-69.517,44.483999999999995,False,23,011,020000,23,23011,23011020000,1400000US23011020000,GAZELLE PRODS,JCT 137-202-9,CHINA,ME,49260163,"GAZELLE PRODS.JCT 137-202-9, CHINA MAINE 04926 (KENNEBEC)",1,C,,
04928STLNDMAINS,-69.26100000000001,44.922,False,23,019,014000,23,23019,23019014000,1400000US23019014000,EASTLAND WOOLEN MILL,MAIN ST,CORINNA,ME,4928,"EASTLAND WOOLEN MILL.MAIN ST, CORINNA MAINE 04928 (PENOBSCOT)",0,C,,
04930DXTRSRAILR,-69.294,45.012,False,23,019,015000,23,23019,23019015000,1400000US23019015000,DEXTER SHOE CO PLANT #5,71 RAILROAD AVE,DEXTER,ME,49301299,"DEXTER SHOE CO PLANT #5.71 RAILROAD AVE, DEXTER MAINE 04930 (PENOBSCOT)",1,C,,
04930DXTRSWATER,-69.292,45.019,False,23,019,015000,23,23019,23019015000,1400000US23019015000,DEXTER SHOE CO PLANT #1,WATER ST,DEXTER,ME,4930,"DEXTER SHOE CO PLANT #1.WATER ST, DEXTER MAINE 04930 (PENOBSCOT)",0,C,,
04930FYSCT225SP,-69.28699999999999,45.012,False,23,019,015000,23,23019,23019015000,1400000US23019015000,FAYSCOTT CO,225 SPRING ST,DEXTER,ME,4930,"FAYSCOTT CO.225 SPRING ST, DEXTER MAINE 04930 (PENOBSCOT)",0,C,,
04943RVNGTPOBOX,-69.449,44.882,False,23,025,965900,23,23025,23025965900,1400000US23025965900,TASMAN LEATHER GROUP LLC,9 MAIN ST,HARTLAND,ME,4943,"TASMAN LEATHER GROUP LLC.9 MAIN ST, HARTLAND MAINE 04943 (SOMERSET)",0,C,,110000314749
04950MDSNPMAINS,-69.88600000000001,44.797,False,23,025,966500,23,23025,23025966500,1400000US23025966500,MADISON PAPER INDUSTRIES,1 MAIN ST,MADISON,ME,4950,"MADISON PAPER INDUSTRIES.1 MAIN ST, MADISON MAINE 04950 (SOMERSET)",1,C,,110000581530
04950SPCLTMAINS,-69.885,44.798,False,23,025,966500,23,23025,23025966500,1400000US23025966500,SPECIALTY MINERALS INC,MAIN ST AT MADISON PAPER,MADISON,ME,4950,"SPECIALTY MINERALS INC.MAIN ST AT MADISON PAPER, MADISON MAINE 04950 (SOMERSET)",0,C,,
04953HPHDN10SPR,-69.282,44.833,False,23,019,013000,23,23019,23019013000,1400000US23019013000,HP HOOD INC,10 SPRING ST,NEWPORT,ME,4953,"HP HOOD INC.10 SPRING ST, NEWPORT MAINE 04953 (PENOBSCOT)",1,C,,
04953GLFRD44SPR,-69.277,44.832,False,23,019,013000,23,23019,23019013000,1400000US23019013000,INTERFACE FABRICS INC,44 SPRING ST,NEWPORT,ME,4953,"INTERFACE FABRICS INC.44 SPRING ST, NEWPORT MAINE 04953 (PENOBSCOT)",0,C,,
04963CSCDWCASCA,-69.709,44.55,False,23,011,025000,23,23011,23011025000,1400000US23011025000,CASCADE WOOLEN MILL INC,CASCADE MILL RD,OAKLAND,ME,4963,"CASCADE WOOLEN MILL INC.CASCADE MILL RD, OAKLAND MAINE 04963 (KENNEBEC)",0,C,,
04974DLTCHKIDDE,-68.884,44.468,False,23,027,042000,23,23027,23027042000,1400000US23027042000,GAC CHEMICAL CORP,34 KIDDER POINT RD,SEARSPORT,ME,4974,"GAC CHEMICAL CORP.34 KIDDER POINT RD, SEARSPORT MAINE 04974 (WALDO)",0,C,,110000581549
04974SDFNSTRUND,-68.908,44.455,False,23,027,042000,23,23027,23027042000,1400000US23027042000,US DEFENSE LOGISTICS AGENCY SEARSPORT FUEL SUPPORT POINT,TRUNDY RD,SEARSPORT,ME,4974,"US DEFENSE LOGISTICS AGENCY SEARSPORT FUEL SUPPORT POINT.TRUNDY RD, SEARSPORT MAINE 04974 (WALDO)",0,F,,
04974RVNGL52STA,-68.9,44.45399999999999,False,23,027,042000,23,23027,23027042000,1400000US23027042000,IRVING OIL TERMINALS INC,52 STATION AVE,SEARSPORT,ME,4974,"IRVING OIL TERMINALS INC.52 STATION AVE, SEARSPORT MAINE 04974 (WALDO)",0,C,,110025246847
04974SPRGSMACKS,-68.902,44.455,False,23,027,042000,23,23027,23027042000,1400000US23027042000,SPRAGUE SEARSPORT TERMINAL,MACK'S POINT TRUNDY RD,SEARSPORT,ME,4974,"SPRAGUE SEARSPORT TERMINAL.MACK'S POINT TRUNDY RD, SEARSPORT MAINE 04974 (WALDO)",0,C,,110028276513
04974SNRSMDUMPR,-68.961,44.457,False,23,027,042000,23,23027,23027042000,1400000US23027042000,SUNRISE MATERIALS,DUMP RD,SEARSPORT,ME,4974,"SUNRISE MATERIALS.DUMP RD, SEARSPORT MAINE 04974 (WALDO)",0,C,,110007273510
0498WPRSPC275HA,-68.883,44.548,False,23,027,042000,23,23027,23027042000,1400000US23027042000,"PIKE INDUSTRIES, INC. -  PROSPECT",275 HAWES BRIDGE ROAD,PROSPECT,ME,4981,"PIKE INDUSTRIES, INC. -  PROSPECT.275 HAWES BRIDGE ROAD, PROSPECT MAINE 04981 (WALDO)",0,C,,110044213133
04976DXTRSMILLS,-69.717,44.763999999999996,False,23,025,966700,23,23025,23025966700,1400000US23025966700,DEXTER SHOE CO PLANT #4,MILL ST,SKOWHEGAN,ME,4976,"DEXTER SHOE CO PLANT #4.MILL ST, SKOWHEGAN MAINE 04976 (SOMERSET)",0,C,,
04976SDWRRRFD3U,-69.64699999999999,44.702,False,23,025,966700,23,23025,23025966700,1400000US23025966700,SAPPI NA INC - SOMERSET OPERATIONS,1329 WATERVILLE RD,SKOWHEGAN,ME,4976,"SAPPI NA INC - SOMERSET OPERATIONS.1329 WATERVILLE RD, SKOWHEGAN MAINE 04976 (SOMERSET)",0,C,,110017413468
04983FRSTRDEPOT,-70.219,44.806000000000004,False,23,007,971000,23,23007,23007971000,1400000US23007971000,FORSTER INC STRONG PLANT,30 NORTON HILL RD,STRONG,ME,49830188,"FORSTER INC STRONG PLANT.30 NORTON HILL RD, STRONG MAINE 04983 (FRANKLIN)",0,C,,
03904WTTSFCUTTS,-70.722,43.121,False,23,031,038002,23,23031,23031038002,1400000US23031038002,PARKER HANNIFIN CORP PNEUMATIC DIV KITTERY MAINE,9 CUTTS RD,KITTERY,ME,3904,"PARKER HANNIFIN CORP PNEUMATIC DIV KITTERY MAINE.9 CUTTS RD, KITTERY MAINE 03904 (YORK)",0,C,,110000763077
04009HWLLLRTE11,-70.702,44.067,False,23,005,016000,23,23005,23005016000,1400000US23005016000,HOWELL LABORATORIES INC,188 HARRISON RD,BRIDGTON,ME,4009,"HOWELL LABORATORIES INC.188 HARRISON RD, BRIDGTON MAINE 04009 (CUMBERLAND)",0,C,,110000581353
04009DLCTRRTE30,-70.70100000000001,44.044,False,23,005,016000,23,23005,23005016000,1400000US23005016000,DIELECTRIC COMMUNICATIONS INC BRIDGTON FACILITY,RTE 302,BRIDGTON,ME,4009,"DIELECTRIC COMMUNICATIONS INC BRIDGTON FACILITY.RTE 302, BRIDGTON MAINE 04009 (CUMBERLAND)",0,C,,
04043CSTRC2ALFR,-70.566,43.405,False,23,031,028001,23,23031,23031028001,1400000US23031028001,CORNING COSTAR CORPORATION,2 ALFRED RD,KENNEBUNK,ME,4043,"CORNING COSTAR CORPORATION.2 ALFRED RD, KENNEBUNK MAINE 04043 (YORK)",0,C,,
04043FBRGLALOWI,-70.563,43.407,False,23,031,028001,23,23031,23031028001,1400000US23031028001,FIBERGLASS PLUS RECREATIONAL INDUSTRIES INC,ALOWIVE PARK RD,KENNEBUNK,ME,4043,"FIBERGLASS PLUS RECREATIONAL INDUSTRIES INC.ALOWIVE PARK RD, KENNEBUNK MAINE 04043 (YORK)",0,C,,
04073BRKSWDALES,-70.766,43.438,False,23,031,030202,23,23031,23031030202,1400000US23031030202,INTERNATIONAL WOOLEN CO INC,100 DALE ST,SANFORD,ME,40730671,"INTERNATIONAL WOOLEN CO INC.100 DALE ST, SANFORD MAINE 04073 (YORK)",0,C,,
04074GBRLLPOBOX,-70.361,43.581,False,23,005,017304,23,23005,23005017304,1400000US23005017304,GABRIEL ELECTRONICS INC,LIBBY RD,SCARBOROUGH,ME,4074,"GABRIEL ELECTRONICS INC.LIBBY RD, SCARBOROUGH MAINE 04074 (CUMBERLAND)",0,C,,
04090SPNCR90SPE,-70.6,43.324,False,23,031,034001,23,23031,23031034001,1400000US23031034001,RR DONNELLEY & SONS CO,90 SPENCER DR,WELLS,ME,4090,"RR DONNELLEY & SONS CO.90 SPENCER DR, WELLS MAINE 04090 (YORK)",1,C,,110000314295
04223MRNBROLDDA,-70.266,44.016000000000005,False,23,001,010600,23,23001,23001010600,1400000US23001010600,MORIN BRICK CO,OLD DANVILLE RD,DANVILLE,ME,4223,"MORIN BRICK CO.OLD DANVILLE RD, DANVILLE MAINE 04223 (ANDROSCOGGIN)",0,C,,
04240WSLBB48COM,-70.178,44.073,False,23,001,020600,23,23001,23001020600,1400000US23001020600,W S LIBBY CO,48 COMMERCIAL ST,LEWISTON,ME,4240,"W S LIBBY CO.48 COMMERCIAL ST, LEWISTON MAINE 04240 (ANDROSCOGGIN)",0,C,,
04240DMNDP9ALFR,-70.185,44.068000000000005,False,23,001,020600,23,23001,23001020600,1400000US23001020600,SYSTEM LOGISTICS CORP,90 ALFRED PLOURDE PKWY,LEWISTON,ME,4240,"SYSTEM LOGISTICS CORP.90 ALFRED PLOURDE PKWY, LEWISTON MAINE 04240 (ANDROSCOGGIN)",0,C,,110024266355
04401LMFRD55BAK,-68.767,44.784,False,23,019,004200,23,23019,23019004200,1400000US23019004200,LEMFORDER CORP,55 BAKER BLVD,BREWER,ME,44122200,"LEMFORDER CORP.55 BAKER BLVD, BREWER MAINE 04412 (PENOBSCOT)",0,C,,110039681555
04679HNKLYSHORE,-68.307,44.269,False,23,009,966100,23,23009,23009966100,1400000US23009966100,HINCKLEY CO,130 SHORE RD,SOUTHWEST HARBOR,ME,4679,"HINCKLEY CO.130 SHORE RD, SOUTHWEST HARBOR MAINE 04679 (HANCOCK)",0,C,,110008434426
04736GRMSWGRIME,-67.949,46.85,False,23,003,951300,23,23003,23003951300,1400000US23003951300,GRIMES WAREHOUSE,GRIMES RD,CARIBOU,ME,4736,"GRIMES WAREHOUSE.GRIMES RD, CARIBOU MAINE 04736 (AROOSTOOK)",0,C,,
04938FRNKLHIGHS,-70.135,44.657,False,23,007,971200,23,23007,23007971200,1400000US23007971200,FRANKLIN SHOE CO,"HIGH ST,  BOX 5010A",FARMINGTON,ME,4938,"FRANKLIN SHOE CO.HIGH ST,  BOX 5010A, FARMINGTON MAINE 04938 (FRANKLIN)",1,C,,
04938FRMNGTOWNF,-70.178,44.68600000000001,False,23,007,971200,23,23007,23007971200,1400000US23007971200,FARMINGTON CHIPPING ENTERPRISES,676 TOWN FARM RD,FARMINGTON,ME,4938,"FARMINGTON CHIPPING ENTERPRISES.676 TOWN FARM RD, FARMINGTON MAINE 04938 (FRANKLIN)",0,C,,110012708123
04240MDRNW55HOL,-70.217,44.105,False,23,001,020200,23,23001,23001020200,1400000US23001020200,MODERN WOODCRAFTS INC,55 HOLLAND ST,LEWISTON,ME,4240,"MODERN WOODCRAFTS INC.55 HOLLAND ST, LEWISTON MAINE 04240 (ANDROSCOGGIN)",0,C,,
04631FBRXTRTE19,-67.025,44.928000000000004,False,23,029,955700,23,23029,23029955700,1400000US23029955700,FIBER EXTRUSION INC,RTE 190,EASTPORT,ME,4631,"FIBER EXTRUSION INC.RTE 190, EASTPORT MAINE 04631 (WASHINGTON)",0,C,,
04947KNGFLOFFDE,-70.158,44.957,False,23,007,970101,23,23007,23007970101,1400000US23007970101,KINGFIELD WOOD PRODUCTS,OFF DEPOT ST,KINGFIELD,ME,49470204,"KINGFIELD WOOD PRODUCTS.OFF DEPOT ST, KINGFIELD MAINE 04947 (FRANKLIN)",0,C,,
04947HGWNTDEPOT,-70.15899999999999,44.957,False,23,007,970101,23,23007,23007970101,1400000US23007970101,H G WINTER & SONS INC,DEPOT ST,KINGFIELD,ME,4947,"H G WINTER & SONS INC.DEPOT ST, KINGFIELD MAINE 04947 (FRANKLIN)",0,C,,
04957NWBLNDEPOT,-69.796,44.715,False,23,025,966900,23,23025,23025966900,1400000US23025966900,NEW BALANCE ATHLETIC SHOE INC,DEPOT ST,NORRIDGEWOCK,ME,4957,"NEW BALANCE ATHLETIC SHOE INC.DEPOT ST, NORRIDGEWOCK MAINE 04957 (SOMERSET)",0,C,,
04074MNRBB865SA,-70.4,43.645,False,23,005,017301,23,23005,23005017301,1400000US23005017301,MAINE RUBBER RIM SHOP,865 SACO STREET,SCARBOROUGH,ME,4074,"MAINE RUBBER RIM SHOP.865 SACO STREET, SCARBOROUGH MAINE 04074 (CUMBERLAND)",0,C,,
04102BRBRF70STJ,-70.279,43.646,False,23,005,001300,23,23005,23005001300,1400000US23005001300,BARBER FOODS,54 ST JOHN ST,PORTLAND,ME,41124821,"BARBER FOODS.54 ST JOHN ST, PORTLAND MAINE 04112 (CUMBERLAND)",0,C,,110000563621
04537TWNRVRTE27,-69.62,43.898999999999994,False,23,015,975800,23,23015,23015975800,1400000US23015975800,RYNEL INC,55 INDUSTRIAL PARK RD,BOOTHBAY,ME,4537,"RYNEL INC.55 INDUSTRIAL PARK RD, BOOTHBAY MAINE 04537 (LINCOLN)",0,C,,110000581479
04622CHRRYSTILL,-67.928,44.608999999999995,False,23,029,956500,23,23029,23029956500,1400000US23029956500,CHERRYFIELD FOODS INC,STILLWATER RD,CHERRYFIELD,ME,46220128,"CHERRYFIELD FOODS INC.STILLWATER RD, CHERRYFIELD MAINE 04622 (WASHINGTON)",0,C,,
04622JSPRWRTE19,-67.926,44.61,False,23,029,956500,23,23029,23029956500,1400000US23029956500,JASPER WYMAN & SON,178 MAIN ST,CHERRYFIELD,ME,4622,"JASPER WYMAN & SON.178 MAIN ST, CHERRYFIELD MAINE 04622 (WASHINGTON)",0,C,,110007273501
03904PRTSMSEAVE,-70.742,43.083999999999996,False,23,031,038001,23,23031,23031038001,1400000US23031038001,US NAVY PORTSMOUTH NAVAL SHIPYARD,SEAVEY ISLAND,KITTERY,ME,3904,"US NAVY PORTSMOUTH NAVAL SHIPYARD.SEAVEY ISLAND, KITTERY MAINE 03904 (YORK)",0,F,,110040852459
04263NTRTCRDNO1,-70.092,44.22,False,23,001,045000,23,23001,23001045000,1400000US23001045000,NUTRITE CORP,RD #1 LEEDS JUNCTION RD,LEEDS,ME,4263,"NUTRITE CORP.RD #1 LEEDS JUNCTION RD, LEEDS MAINE 04263 (ANDROSCOGGIN)",0,C,,
04736STLYM27BIR,-68.008,46.853,False,23,003,951400,23,23003,23003951400,1400000US23003951400,MAINE FROZEN FOODS INC,27 BIRDSEYE AVENUE,CARIBOU,ME,4736,"MAINE FROZEN FOODS INC.27 BIRDSEYE AVENUE, CARIBOU MAINE 04736 (AROOSTOOK)",0,C,,
04626NVLCMRTE19,-67.293,44.641999999999996,False,23,029,955800,23,23029,23029955800,1400000US23029955800,U.S. NAVY NCTAMS LANT DET CUTLER,173 RIDGE RD,CUTLER,ME,4626,"U.S. NAVY NCTAMS LANT DET CUTLER.173 RIDGE RD, CUTLER MAINE 04626 (WASHINGTON)",0,F,,110000601714
04652STNSNCOMME,-66.99,44.861000000000004,False,23,029,955800,23,23029,23029955800,1400000US23029955800,STINSON SEAFOOD (2000) INC,COMMERCIAL ST,LUBEC,ME,4652,"STINSON SEAFOOD (2000) INC.COMMERCIAL ST, LUBEC MAINE 04652 (WASHINGTON)",0,C,,
04096WFWYMCOUSI,-70.156,43.751999999999995,False,23,005,004402,23,23005,23005004402,1400000US23005004402,FPL ENERGY WYMAN LLC WF WYMAN STEAM STATION,677 CO US INS ST,YARMOUTH,ME,4096,"FPL ENERGY WYMAN LLC WF WYMAN STEAM STATION.677 CO US INS ST, YARMOUTH MAINE 04096 (CUMBERLAND)",0,C,,110000581406
04106GLFLL175FR,-70.24,43.652,False,23,005,003500,23,23005,23005003500,1400000US23005003500,GULF OIL LP SOUTH PORTLAND TERMINAL,75 FRONT ST,SOUTH PORTLAND,ME,4106,"GULF OIL LP SOUTH PORTLAND TERMINAL.75 FRONT ST, SOUTH PORTLAND MAINE 04106 (CUMBERLAND)",0,C,,110000314357
04106NRTHSONECL,-70.285,43.635,False,23,005,003100,23,23005,23005003100,1400000US23005003100,GLOBAL COS LLC-SOUTH PORTLAND TERMINAL,1 CLARK RD,SOUTH PORTLAND,ME,4106,"GLOBAL COS LLC-SOUTH PORTLAND TERMINAL.1 CLARK RD, SOUTH PORTLAND MAINE 04106 (CUMBERLAND)",0,C,,110032893670
04107MBLLS170LI,-70.285,43.636,False,23,005,003100,23,23005,23005003100,1400000US23005003100,SOUTH PORTLAND TERMINAL (SPTPM),170 LINCOLN ST,SOUTH PORTLAND,ME,4106,"SOUTH PORTLAND TERMINAL (SPTPM).170 LINCOLN ST, SOUTH PORTLAND MAINE 04106 (CUMBERLAND)",0,C,,110000732930
04116STHPR102ME,-70.268,43.637,False,23,005,003100,23,23005,23005003100,1400000US23005003100,CITGO PETROLEUM CORP SOUTH PORTLAND TERMINAL,102 MECHANIC ST,SOUTH PORTLAND,ME,4106,"CITGO PETROLEUM CORP SOUTH PORTLAND TERMINAL.102 MECHANIC ST, SOUTH PORTLAND MAINE 04106 (CUMBERLAND)",0,C,,110000314393
04116MNSNCONERU,-70.304,43.608000000000004,False,23,005,017303,23,23005,23005017303,1400000US23005017303,MONSON COMPANIES INC,1 RUNWAY RD,SOUTH PORTLAND,ME,4116,"MONSON COMPANIES INC.1 RUNWAY RD, SOUTH PORTLAND MAINE 04116 (CUMBERLAND)",0,C,,110000314384
04074RCHTL28PON,-70.297,43.604,False,23,005,017303,23,23005,23005017303,1400000US23005017303,LAI INTERNATIONAL INC,28 POND VIEW RD,SCARBOROUGH,ME,4074,"LAI INTERNATIONAL INC.28 POND VIEW RD, SCARBOROUGH MAINE 04074 (CUMBERLAND)",0,C,,110002088366
04074CMMRC2GIBS,-70.306,43.605,False,23,005,017303,23,23005,23005017303,1400000US23005017303,CPRC GROUP LLC,70 PLEASANT HILL RD,SCARBOROUGH,ME,4074,"CPRC GROUP LLC.70 PLEASANT HILL RD, SCARBOROUGH MAINE 04074 (CUMBERLAND)",0,C,,110001298417
04578MSNSTBIRCH,-69.669,43.99100000000001,False,23,015,975500,23,23015,23015975500,1400000US23015975500,MASON STEAM STATION,144 BIRCH POINT RD,WISCASSET,ME,4578,"MASON STEAM STATION.144 BIRCH POINT RD, WISCASSET MAINE 04578 (LINCOLN)",0,C,,
04578RYNLN11TWI,-69.696,43.96,False,23,015,975500,23,23015,23015975500,1400000US23015975500,RYNEL INC,11 TWIN RIVERS DR,WISCASSET,ME,4578,"RYNEL INC.11 TWIN RIVERS DR, WISCASSET MAINE 04578 (LINCOLN)",0,C,,110035441741
04564MSTRS500LO,-69.47399999999999,43.938,False,23,015,975600,23,23015,23015975600,1400000US23015975600,MASTERS MACHINE CO,500 LOWER ROUND POND RD,ROUND POND,ME,4564,"MASTERS MACHINE CO.500 LOWER ROUND POND RD, ROUND POND MAINE 04564 (LINCOLN)",0,C,,110008437762
04101JRDNS38IND,-70.25,43.66,False,23,005,000500,23,23005,23005000500,1400000US23005000500,JORDAN'S MEATS,38 INDIA ST,PORTLAND,ME,4101,"JORDAN'S MEATS.38 INDIA ST, PORTLAND MAINE 04101 (CUMBERLAND)",0,C,,
04101KHRST364FO,-70.274,43.663999999999994,False,23,005,001500,23,23005,23005001500,1400000US23005001500,OAKHURST DAIRY,364 FOREST AVE,PORTLAND,ME,4101,"OAKHURST DAIRY.364 FOREST AVE, PORTLAND MAINE 04101 (CUMBERLAND)",0,C,,110002088375
04103BRNHM1BEAN,-70.255,43.678000000000004,False,23,005,002300,23,23005,23005002300,1400000US23005002300,B&G FOODS NA INC (BURNHAM & MORRILL CO DIVISION),1 BEANPOT CIRCLE,PORTLAND,ME,4103,"B&G FOODS NA INC (BURNHAM & MORRILL CO DIVISION).1 BEANPOT CIRCLE, PORTLAND MAINE 04103 (CUMBERLAND)",0,C,,110001839075
04268NWBLN72COT,-70.539,44.218,False,23,017,966500,23,23017,23017966500,1400000US23017966500,NEW BALANCE ATHLETIC SHOE INC,72 COTTAGE ST,NORWAY,ME,4268,"NEW BALANCE ATHLETIC SHOE INC.72 COTTAGE ST, NORWAY MAINE 04268 (OXFORD)",0,C,,
04330SDPRT1VETE,-69.704,44.28,False,23,011,010600,23,23011,23011010600,1400000US23011010600,US VA TOGUS VA MED/REGIONAL OFFICE CENTER,1 VA CENTER MED REGIONAL OFFICE CENTER,TOGUS,ME,4330,"US VA TOGUS VA MED/REGIONAL OFFICE CENTER.1 VA CENTER MED REGIONAL OFFICE CENTER, TOGUS MAINE 04330 (KENNEBEC)",0,F,,110001839495
04345GRDNR721WA,-69.78699999999999,44.22,False,23,011,011000,23,23011,23011011000,1400000US23011011000,GARDINER PAPERBOARD CORP,721 WATER ST,GARDINER,ME,4345,"GARDINER PAPERBOARD CORP.721 WATER ST, GARDINER MAINE 04345 (KENNEBEC)",1,C,,
0433WSTHPR65RIV,-69.757,44.184,False,23,011,011000,23,23011,23011011000,1400000US23011011000,SOUTHPORT YACHTS LLC,650 RIVER AVE,GARDINER,ME,4345,"SOUTHPORT YACHTS LLC.650 RIVER AVE, GARDINER MAINE 04345 (KENNEBEC)",0,C,,110070049952
04530STNSN101BO,-69.812,43.927,False,23,023,970500,23,23023,23023970500,1400000US23023970500,BUMBLE BEE SEAFOODS LLC STINSON SEAFOOD DIV,101 BOWERY ST,BATH,ME,4530,"BUMBLE BEE SEAFOODS LLC STINSON SEAFOOD DIV.101 BOWERY ST, BATH MAINE 04530 (SAGADAHOC)",0,C,,
04669STNSNRTE18,-68.02199999999999,44.397,False,23,009,965800,23,23009,23009965800,1400000US23009965800,BUMBLE BEE FOODS LLC,200 MAIN ST,PROSPECT HARBOR,ME,4669,"BUMBLE BEE FOODS LLC.200 MAIN ST, PROSPECT HARBOR MAINE 04669 (HANCOCK)",0,C,,110012172059
04769TTRML200TA,-68.04,46.693000000000005,False,23,003,952000,23,23003,23003952000,1400000US23003952000,TATER MEAL,200 TAXIWAY DR,PRESQUE ISLE,ME,4769,"TATER MEAL.200 TAXIWAY DR, PRESQUE ISLE MAINE 04769 (AROOSTOOK)",0,C,,110013247931
04769CLMBF395MI,-68.04,46.704,True,23,003,952000,23,23003,23003952000,1400000US23003952000,COLUMBIA FOREST PRODS,395 MISSILE ST,PRESQUE ISLE,ME,4769,"COLUMBIA FOREST PRODS 395 MISSILE ST, PRESQUE ISLE, ME, 4769",0,C,,
04915STNSN101FR,-69.01,44.43,False,23,027,043000,23,23027,23027043000,1400000US23027043000,STINSON SEAFOOD (2000) INC,101 FRONT ST,BELFAST,ME,4915,"STINSON SEAFOOD (2000) INC.101 FRONT ST, BELFAST MAINE 04915 (WALDO)",0,C,,
04216NDVRW4WENT,-70.756,44.643,False,23,017,965100,23,23017,23017965100,1400000US23017965100,ANDOVER DIV OF ETHAN ALLE N OPERATIONS,4 WENTZELL RD,ANDOVER,ME,4216,"ANDOVER DIV OF ETHAN ALLE N OPERATIONS.4 WENTZELL RD, ANDOVER MAINE 04216 (OXFORD)",1,C,,110008435238
04289MDWST23BET,-70.53,44.292,False,23,017,966100,23,23017,23017966100,1400000US23017966100,MIDWEST-PRICE CO LLC,23 BETHEL RD,WEST PARIS,ME,4289,"MIDWEST-PRICE CO LLC.23 BETHEL RD, WEST PARIS MAINE 04289 (OXFORD)",0,C,,110012708980
04426PQCNT64PAR,-69.23899999999999,45.192,False,23,021,960700,23,23021,23021960700,1400000US23021960700,P-Q CONTROLS INC MAINE,64 PARK ST,DOVER FOXCROFT,ME,4426,"P-Q CONTROLS INC MAINE.64 PARK ST, DOVER FOXCROFT MAINE 04426 (PISCATAQUIS)",0,C,,110012708999
04605HNCKLINDUS,-68.376,44.448,False,23,009,966700,23,23009,23009966700,1400000US23009966700,HINCKLEY CO,40 INDUSTRIAL WAY,TRENTON,ME,4605,"HINCKLEY CO.40 INDUSTRIAL WAY, TRENTON MAINE 04605 (HANCOCK)",0,C,,110008433374
0460WMRRSY27RAM,-68.36,44.443000000000005,False,23,009,966700,23,23009,23009966700,1400000US23009966700,MORRIS YACHT INC-TRENTON,27 RAMP RD,TRENTON,ME,46056031,"MORRIS YACHT INC-TRENTON.27 RAMP RD, TRENTON MAINE 04605 (HANCOCK)",0,C,,110018896505
04609SNTLPRTE23,-68.26100000000001,44.375,False,23,009,965900,23,23009,23009965900,1400000US23009965900,U.S. NATL PARK SERVICE ACADIA NATIONAL PARK,RT 233 MCFARLAND HILL,BAR HARBOR,ME,4609,"U.S. NATL PARK SERVICE ACADIA NATIONAL PARK.RT 233 MCFARLAND HILL, BAR HARBOR MAINE 04609 (HANCOCK)",0,F,,110015863519
04901MDSTT1501V,-69.653,44.513000000000005,False,23,011,023002,23,23011,23011023002,1400000US23011023002,MID-STATE MACHINE PRODUCTS,83 VERTI DR,WINSLOW,ME,4901,"MID-STATE MACHINE PRODUCTS.83 VERTI DR, WINSLOW MAINE 04901 (KENNEBEC)",0,C,,110001101968
04982STRTTRTE16,-70.43,45.143,False,23,007,970102,23,23007,23007970102,1400000US23007970102,STRATTON LUMBER INC,RTE 16 & 27,STRATTON,ME,4982,"STRATTON LUMBER INC.RTE 16 & 27, STRATTON MAINE 04982 (FRANKLIN)",0,C,,
04732FRSRT1LEVE,-68.411,46.623000000000005,False,23,003,950900,23,23003,23003950900,1400000US23003950900,FRASER TIMBER LTD,100 LEVESQUE MILL RD,ASHLAND,ME,4732,"FRASER TIMBER LTD.100 LEVESQUE MILL RD, ASHLAND MAINE 04732 (AROOSTOOK)",1,C,,110015591493
04732FRSRTSTATE,-68.411,46.623000000000005,False,23,003,950900,23,23003,23003950900,1400000US23003950900,DAAQUAM LUMBER MAINE INC,STATE HWY 11,MASARDIS,ME,4732,"DAAQUAM LUMBER MAINE INC.STATE HWY 11, MASARDIS MAINE 04732 (AROOSTOOK)",0,C,,110015591493
04444SNRSMCLDBR,-68.683,44.883,False,23,019,006200,23,23019,23019006200,1400000US23019006200,SUNRISE MATERIALS,COLDBROOK RD,HAMPDEN,ME,4444,"SUNRISE MATERIALS.COLDBROOK RD, HAMPDEN MAINE 04444 (PENOBSCOT)",0,C,,110020051995
04103BRBRF56MIL,-70.304,43.707,False,23,005,002102,23,23005,23005002102,1400000US23005002102,BARBER FOODS,56 MILLIKEN ST,PORTLAND,ME,4103,"BARBER FOODS.56 MILLIKEN ST, PORTLAND MAINE 04103 (CUMBERLAND)",0,C,,110023013629
0410WMNSTN51ING,-70.328,43.691,False,23,005,002102,23,23005,23005002102,1400000US23005002102,MAINE STANDARD BIOFUELS,51 INGERSOL DR,PORTLAND,ME,4103,"MAINE STANDARD BIOFUELS.51 INGERSOL DR, PORTLAND MAINE 04103 (CUMBERLAND)",0,C,,110069220738
04255SNDRS265MA,-70.704,44.401,False,23,017,966000,23,23017,23017966000,1400000US23017966000,SAUNDERS BROTHERS,265 MAIN ST,GREENWOOD,ME,4255,"SAUNDERS BROTHERS.265 MAIN ST, GREENWOOD MAINE 04255 (OXFORD)",0,C,,110003554699
0462WJSPRWBX61R,-67.98,44.724,False,23,029,955100,23,23029,23029955100,1400000US23029955100,"JASPER WYMAN & SON, C & D CORPORATION",BOX 601 ROUTE 193,DEBLOIS,ME,4622,"JASPER WYMAN & SON, C & D CORPORATION.BOX 601 ROUTE 193, DEBLOIS MAINE 04622 (WASHINGTON)",0,C,,110039496328
0409WPKNDS81BYD,-70.703,43.303999999999995,False,23,031,034002,23,23031,23031034002,1400000US23031034002,PIKE INDUSTRIES INC - WELLS,81 BOYD ROAD,WELLS,ME,4090,"PIKE INDUSTRIES INC - WELLS.81 BOYD ROAD, WELLS MAINE 04090 (YORK)",0,C,,110008433347
0427WPKNDS164SP,-70.355,44.02,False,23,001,041000,23,23001,23001041000,1400000US23001041000,PIKE INDUSTRIES INC - POLAND,164 SPRINGWATER ROAD,POLAND,ME,4274,"PIKE INDUSTRIES INC - POLAND.164 SPRINGWATER ROAD, POLAND MAINE 04274 (ANDROSCOGGIN)",0,C,,110008437557
04274LDCST481SP,-70.329,44.028999999999996,False,23,001,041000,23,23001,23001041000,1400000US23001041000,OLDCASTLE LAWN & GARDEN,481 SPRINGWATER RD,POLAND SPRING,ME,4274,"OLDCASTLE LAWN & GARDEN.481 SPRINGWATER RD, POLAND SPRING MAINE 04274 (ANDROSCOGGIN)",0,C,,110038273007
0493WPKNDS15PIK,-69.613,44.593999999999994,False,23,025,966800,23,23011,23025966800,1400000US23025966800,PIKE INDUSTRIES INC _FAIRFIELD,95 WESTERN AVE,FAIRFIELD,ME,4937,"PIKE INDUSTRIES INC _FAIRFIELD.95 WESTERN AVE, FAIRFIELD MAINE 04937 (KENNEBEC)",0,C,,110021132184
0444WHMPDN11AME,-68.79899999999999,44.78,False,23,019,002000,23,23019,23019002000,1400000US23019002000,HAMPDEN  GH BERLIN WINDWARD,110A MECAW RD,HAMPDEN,ME,4444,"HAMPDEN  GH BERLIN WINDWARD.110A MECAW RD, HAMPDEN MAINE 04444 (PENOBSCOT)",0,C,,110067559092
0410WFPLNR2CEAN,-70.25399999999999,43.643,False,23,005,003200,23,23005,23005003200,1400000US23005003200,FPL ENERGY CAPE LLC,2 OCEAN ST,SOUTH PORTLAND,ME,4106,"FPL ENERGY CAPE LLC.2 OCEAN ST, SOUTH PORTLAND MAINE 04106 (CUMBERLAND)",0,C,,110060257760
0457WMRRNRRT221,-69.395,44.226000000000006,False,23,013,970300,23,23013,23013970300,1400000US23013970300,PIKE INDUSTRIES INC-WASHINGTON,73 JEFFERSON RD,WASHINGTON,ME,4574,"PIKE INDUSTRIES INC-WASHINGTON.73 JEFFERSON RD, WASHINGTON MAINE 04574 (KNOX)",0,C,,110007272986
0440WHRMNX167DL,-68.842,44.78,False,23,019,010000,23,23019,23019010000,1400000US23019010000,HERMON,1067 ODLIN RD,BANGOR,ME,4401,"HERMON.1067 ODLIN RD, BANGOR MAINE 04401 (PENOBSCOT)",0,C,,110069245070
0433WBLRCK177LY,-69.719,44.453,False,23,011,017000,23,23011,23011017000,1400000US23011017000,PIKE INDUSTRIES INC,177 LYONS ROAD,SIDNEY,ME,4330,"PIKE INDUSTRIES INC.177 LYONS ROAD, SIDNEY MAINE 04330 (KENNEBEC)",0,C,,110008437236
0461WSCBPC18INT,-67.301,45.161,False,23,029,955500,23,23029,23029955500,1400000US23029955500,US CBP CALAIS INTERNATIONAL AVENUE LPOE #ME0066,180 INTERNATIONAL AVE,CALAIS,ME,4619,"US CBP CALAIS INTERNATIONAL AVENUE LPOE #ME0066.180 INTERNATIONAL AVE, CALAIS MAINE 04619 (WASHINGTON)",0,F,,110070244598
04073NRGBR61EME,-70.744,43.522,True,23,031,029000,23,23031,23031029000,1400000US23031029000,NRG BARRIERS INC,61 EMERY ST,SANFORD,ME,4073,"NRG BARRIERS INC 61 EMERY ST, SANFORD, ME, 4073",1,C,,
04929GWYNCRTE11,-69.336,44.797,True,23,025,965800,23,23025,23025965800,1400000US23025965800,AGWAY INC CENTRAL MAINE FEED,RTE 11 & 100,DETROIT,ME,4929,"AGWAY INC CENTRAL MAINE FEED RTE 11 & 100, DETROIT, ME, 4929",0,C,,
