TRIFID,LONGITUDE,LATITUDE,ESTIMATE,STATEFP,COUNTYFP,TRACTCE,STATEGEOID,COUNTYGEOID,TRACTGEOID,AFFGEOID,FACILITY_NAME,STREET,CITY,STUSPS,ZIP_CODE,FACILITY,FAC_CLOSED_IND,ASGN_FEDERAL_IND,BIA_CODE,EPA_REGISTRY_ID
59044CNXRF803HI,-108.76799999999999,45.659,False,30,111,001401,30,30111,30111001401,1400000US30111001401,CHS INC  LAUREL REFINERY,803 HWY 212 S,LAUREL,MT,59044,"CHS INC  LAUREL REFINERY.803 HWY 212 S, LAUREL MONTANA 59044 (YELLOWSTONE)",0,C,,110000595124
59107DYCCH1353T,-108.708,45.68899999999999,False,30,111,001401,30,30111,30111001401,1400000US30111001401,BRENNTAG PACIFIC INC MOSSMAIN LN,7535 MOSSMAIN LN,BILLINGS,MT,59106,"BRENNTAG PACIFIC INC MOSSMAIN LN.7535 MOSSMAIN LN, BILLINGS MONTANA 59106 (YELLOWSTONE)",0,C,,110032959706
59106KCHMT7315M,-108.705,45.68600000000001,False,30,111,001401,30,30111,30111001401,1400000US30111001401,WESTERN EMULSIONS INC BILLINGS  PLANT,7315 MOSSMAIN LN,BILLINGS,MT,59106,"WESTERN EMULSIONS INC BILLINGS  PLANT.7315 MOSSMAIN LN, BILLINGS MONTANA 59106 (YELLOWSTONE)",0,C,,110012704644
59106JTLGR414HE,-108.618,45.74100000000001,False,30,111,001401,30,30111,30111001401,1400000US30111001401,JTL GROUP BILLINGS (DBA - KNIFE RIVER BILLINGS),4014 HESPER RD,BILLINGS,MT,59106,"JTL GROUP BILLINGS (DBA - KNIFE RIVER BILLINGS).4014 HESPER RD, BILLINGS MONTANA 59106 (YELLOWSTONE)",0,C,,110031019136
59101CNCBL401SO,-108.484,45.776,False,30,111,000300,30,30111,30111000300,1400000US30111000300,PHILLIPS 66 CO BILLINGS REFINERY,401 S 23RD ST,BILLINGS,MT,59101,"PHILLIPS 66 CO BILLINGS REFINERY.401 S 23RD ST, BILLINGS MONTANA 59101 (YELLOWSTONE)",0,C,,110043806085
59107WSTRN3020S,-108.49799999999999,45.77,False,30,111,000300,30,30111,30111000300,1400000US30111000300,WESTERN SUGAR COOPERATIVE130130,3020 STATE AVE,BILLINGS,MT,59101,"WESTERN SUGAR COOPERATIVE130130.3020 STATE AVE, BILLINGS MONTANA 59101 (YELLOWSTONE)",0,C,,110000428485
59106KRLYG22077,-108.488,45.778,False,30,111,000300,30,30111,30111000300,1400000US30111000300,JUPITER SULPHUR LLC,2201 7TH AVE S,BILLINGS,MT,59101,"JUPITER SULPHUR LLC.2201 7TH AVE S, BILLINGS MONTANA 59101 (YELLOWSTONE)",0,C,,110011048428
59107MNTNP301CH,-108.48100000000001,45.776,False,30,111,000300,30,30111,30111000300,1400000US30111000300,JE CORETTE STEAM ELECTRIC ST ATION,301 CHARLENE ST,BILLINGS,MT,59101,"JE CORETTE STEAM ELECTRIC ST ATION.301 CHARLENE ST, BILLINGS MONTANA 59101 (YELLOWSTONE)",0,C,,110010427635
5910WWSTFD142MB,-108.48700000000001,45.788000000000004,False,30,111,000300,30,30111,30111000300,1400000US30111000300,WESTFEEDS - BILLINGS PREMIX,1420 MINNESOTA AVENUE,BILLINGS,MT,59101,"WESTFEEDS - BILLINGS PREMIX.1420 MINNESOTA AVENUE, BILLINGS MONTANA 59101 (YELLOWSTONE)",0,C,,110056353342
59101TRNSB1525L,-108.446,45.806000000000004,False,30,111,000800,30,30111,30111000800,1400000US30111000800,LOVELAND PRODUCTS INC-BILLINGS (FORMERLY TRANSBAS),1525 LOCKWOOD RD,BILLINGS,MT,59101,"LOVELAND PRODUCTS INC-BILLINGS (FORMERLY TRANSBAS).1525 LOCKWOOD RD, BILLINGS MONTANA 59101 (YELLOWSTONE)",0,C,,110058991738
59101XXNBL700EX,-108.43299999999999,45.81399999999999,False,30,111,000800,30,30111,30111000800,1400000US30111000800,EXXONMOBIL BILLINGS REFINERY,700 EXXONMOBIL RD,BILLINGS,MT,59101,"EXXONMOBIL BILLINGS REFINERY.700 EXXONMOBIL RD, BILLINGS MONTANA 59101 (YELLOWSTONE)",0,C,,110000428421
59103BLLTR1430H,-108.449,45.798,False,30,111,000800,30,30111,30111000800,1400000US30111000800,BEALL TRAILERS OF MT INC,1430 HWY 87 E,BILLINGS,MT,59103,"BEALL TRAILERS OF MT INC.1430 HWY 87 E, BILLINGS MONTANA 59103 (YELLOWSTONE)",0,C,,
59107MNTNSEXXON,-108.428,45.81399999999999,False,30,111,000800,30,30111,30111000800,1400000US30111000800,MONTANA SULPHUR & CHEMICAL CO,627 EXXONMOBIL RD,BILLINGS,MT,59101,"MONTANA SULPHUR & CHEMICAL CO.627 EXXONMOBIL RD, BILLINGS MONTANA 59101 (YELLOWSTONE)",0,C,,110000428476
59270HLLYSEASTH,-104.133,47.718,False,30,083,070400,30,30083,30083070400,1400000US30083070400,SIDNEY SUGARS INC,35140 COUNTY RD 125,SIDNEY,MT,59270,"SIDNEY SUGARS INC.35140 COUNTY RD 125, SIDNEY MONTANA 59270 (RICHLAND)",0,C,,110020342627
59270LWSCLSOFSI,-104.154,47.681000000000004,False,30,083,070400,30,30083,30083070400,1400000US30083070400,LEWIS & CLARK STATION,35023 HWY 23,SIDNEY,MT,59270,"LEWIS & CLARK STATION.35023 HWY 23, SIDNEY MONTANA 59270 (RICHLAND)",0,C,,110020377019
5927WNLCCM256SL,-104.163,47.691,False,30,083,070400,30,30083,30083070400,1400000US30083070400,NALCO COMPANY-SIDNEY,2710 S LINCOLN AVE,SIDNEY,MT,59270,"NALCO COMPANY-SIDNEY.2710 S LINCOLN AVE, SIDNEY MONTANA 59270 (RICHLAND)",0,C,,110064444882
59301RNDPPTOPOF,-105.863,46.431000000000004,False,30,017,961300,30,30017,30017961300,1400000US30017961300,WESTERN POWDERS INC,184 HWY 59 N,MILES CITY,MT,59301,"WESTERN POWDERS INC.184 HWY 59 N, MILES CITY MONTANA 59301 (CUSTER)",0,C,,110008058840
59401GNRLM25009,-111.26299999999999,47.516000000000005,False,30,013,000200,30,30013,30013000200,1400000US30013000200,GENERAL MILLS INC,2500 9TH AVE N,GREAT FALLS,MT,59403,"GENERAL MILLS INC.2500 9TH AVE N, GREAT FALLS MONTANA 59403 (CASCADE)",0,C,,
59414MNTNR19001,-111.294,47.523999999999994,False,30,013,001800,30,30013,30013001800,1400000US30013001800,CALUMET MONTANA REFINING LLC,1900 10TH ST NE,GREAT FALLS,MT,59404,"CALUMET MONTANA REFINING LLC.1900 10TH ST NE, GREAT FALLS MONTANA 59404 (CASCADE)",0,C,,110000428500
59422BMPSTDRAWE,-112.227,47.845,False,30,099,000300,30,30099,30099000300,1400000US30099000300,BOUMA POST YARDS,4350 US HIGHWAY 89,CHOTEAU,MT,59422,"BOUMA POST YARDS.4350 US HIGHWAY 89, CHOTEAU MONTANA 59422 (TETON)",0,C,,
59601CLMBP1517D,-112.022,46.6,False,30,049,000900,30,30049,30049000900,1400000US30049000900,COLUMBIA PAINT & COATINGS CO,1517 DODGE ST,HELENA,MT,59601,"COLUMBIA PAINT & COATINGS CO.1517 DODGE ST, HELENA MONTANA 59601 (LEWIS AND CLARK)",0,C,,110000428519
59635MRCNCSMELT,-111.926,46.585,False,30,049,001201,30,30049,30049001201,1400000US30049001201,AMERICAN CHEMET CORP,145 HWY 282,EAST HELENA,MT,59635,"AMERICAN CHEMET CORP.145 HWY 282, EAST HELENA MONTANA 59635 (LEWIS AND CLARK)",0,C,,110058937977
59635SRCNCSMELT,-111.921,46.583999999999996,False,30,049,001201,30,30049,30049001201,1400000US30049001201,ASARCO INC,100 SMELTER RD,EAST HELENA,MT,59635,"ASARCO INC.100 SMELTER RD, EAST HELENA MONTANA 59635 (LEWIS AND CLARK)",0,C,,
5960WHLNXX312HI,-111.927,46.583999999999996,False,30,049,001201,30,30049,30049001201,1400000US30049001201,EXXON MOBIL CORP HELENA TERMINAL,3120 HIGHWAY 12,EAST HELENA,MT,59601,"EXXON MOBIL CORP HELENA TERMINAL.3120 HIGHWAY 12, EAST HELENA MONTANA 59601 (LEWIS AND CLARK)",0,C,,110067661266
59639BMPSTPOBOX,-112.494,47.003,False,30,049,000100,30,30049,30049000100,1400000US30049000100,BOUMA POST YARDS INC,10 MILES NE HWY 200,LINCOLN,MT,596390188,"BOUMA POST YARDS INC.10 MILES NE HWY 200, LINCOLN MONTANA 59639 (LEWIS AND CLARK)",0,C,,
59702PNRCN843MA,-112.535,46.008,False,30,093,000100,30,30093,30093000100,1400000US30093000100,PIONEER CONCRETE & FUEL INC,843 MARYLAND AVE,BUTTE,MT,597023207,"PIONEER CONCRETE & FUEL INC.843 MARYLAND AVE, BUTTE MONTANA 59702 (SILVER BOW)",0,C,,
59715CNTRY1001N,-111.046,45.69,False,30,031,000600,30,30031,30031000600,1400000US30031000600,DARIGOLD-BOZEMAN,1001 N 7TH AVE,BOZEMAN,MT,59715,"DARIGOLD-BOZEMAN.1001 N 7TH AVE, BOZEMAN MONTANA 59715 (GALLATIN)",0,C,,110002124451
59715DHPLCEASTC,-111.024,45.688,False,30,031,000600,30,30031,30031000600,1400000US30031000600,IDAHO POLE CO,E CEDAR ST,BOZEMAN,MT,59715,"IDAHO POLE CO.E CEDAR ST, BOZEMAN MONTANA 59715 (GALLATIN)",0,C,,
5971WBZMNP318WG,-111.041,45.7,False,30,031,000600,30,30031,30031000600,1400000US30031000600,BOZEMAN PRODUCT TERMINAL,318 W GRIFFIN DR,BOZEMAN,MT,59715,"BOZEMAN PRODUCT TERMINAL.318 W GRIFFIN DR, BOZEMAN MONTANA 59715 (GALLATIN)",0,C,,110020298701
59750STFFR11913,-112.73299999999999,45.885,False,30,093,000800,30,30093,30093000800,1400000US30093000800,RHODIA INC,119130 GERMAN GULCH RD,SILVERBOW,MT,59750,"RHODIA INC.119130 GERMAN GULCH RD, SILVERBOW MONTANA 59750 (SILVER BOW)",1,C,,
59701DVNCD11914,-112.69,45.973,False,30,093,000800,30,30093,30093000800,1400000US30093000800,REC SILICON,119140 RICK JONES WAY,BUTTE,MT,59750,"REC SILICON.119140 RICK JONES WAY, BUTTE MONTANA 59750 (SILVER BOW)",0,C,,110000428546
59701MNTNR600SH,-112.50200000000001,46.008,False,30,093,000800,30,30093,30093000800,1400000US30093000800,MONTANA RESOURCES LLP,600 SHIELDS AVE,BUTTE,MT,59701,"MONTANA RESOURCES LLP.600 SHIELDS AVE, BUTTE MONTANA 59701 (SILVER BOW)",0,C,,110000428555
5975WSCSTF1198X,-112.665,45.989,False,30,093,000800,30,30093,30093000800,1400000US30093000800,MONTANA PRECISION PRODUCTS LLC,119800 RICK JONES WAY,BUTTE,MT,59750,"MONTANA PRECISION PRODUCTS LLC.119800 RICK JONES WAY, BUTTE MONTANA 59750 (SILVER BOW)",0,C,,110039186109
59801THNWD2800R,-114.039,46.891000000000005,False,30,063,000201,30,30063,30063000201,1400000US30063000201,NEW ADM INC,2800 RESERVE ST,MISSOULA,MT,59801,"NEW ADM INC.2800 RESERVE ST, MISSOULA MONTANA 59801 (MISSOULA)",0,C,,
59802BRDNN3670G,-114.029,46.902,False,30,063,000201,30,30063,30063000201,1400000US30063000201,HEXION INC,3670 GRANT CREEK RD,MISSOULA,MT,59808,"HEXION INC.3670 GRANT CREEK RD, MISSOULA MONTANA 59808 (MISSOULA)",0,C,,110000428573
59802LSNPC3300R,-114.02799999999999,46.898,False,30,063,000201,30,30063,30063000201,1400000US30063000201,ROSEBURG FOREST PRODUCTS CO - MISSOULA PARTICLEBOARD,3300 RASER RD,MISSOULA,MT,59808,"ROSEBURG FOREST PRODUCTS CO - MISSOULA PARTICLEBOARD.3300 RASER RD, MISSOULA MONTANA 59808 (MISSOULA)",0,C,,110000428582
59808CNCMS3330R,-114.031,46.896,False,30,063,000201,30,30063,30063000201,1400000US30063000201,PHILLIPS 66 MISSOULA PRODUCTS TERMINAL,3330 RASER DR,MISSOULA,MT,59808,"PHILLIPS 66 MISSOULA PRODUCTS TERMINAL.3330 RASER DR, MISSOULA MONTANA 59808 (MISSOULA)",0,C,,110020291922
59806STNCNMULLA,-114.198,46.965,False,30,063,001600,30,30063,30063001600,1400000US30063001600,SMURFIT-STONE CONTAINER ENTERPRISES INCMISSOULA MILL,14377 PULP MILL RD,MISSOULA,MT,59806,"SMURFIT-STONE CONTAINER ENTERPRISES INCMISSOULA MILL.14377 PULP MILL RD, MISSOULA MONTANA 59806 (MISSOULA)",0,C,,110000428591
59901PLMCR75SUN,-114.287,48.23,False,30,029,000700,30,30029,30029000700,1400000US30029000700,WEYERHAEUSER NR,75 SUNSET DR,KALISPELL,MT,59901,"WEYERHAEUSER NR.75 SUNSET DR, KALISPELL MONTANA 59901 (FLATHEAD)",0,C,,110000428626
59912CLMBF2000A,-114.13600000000001,48.38399999999999,False,30,029,000202,30,30029,30029000202,1400000US30029000202,COLUMBIA FALLS ALUMINUM CO LLC,2000 ALUMINUM DR,COLUMBIA FALLS,MT,59912,"COLUMBIA FALLS ALUMINUM CO LLC.2000 ALUMINUM DR, COLUMBIA FALLS MONTANA 59912 (FLATHEAD)",0,C,,110011868354
59912PLMCRPOBOX,-114.197,48.373000000000005,False,30,029,000201,30,30029,30029000201,1400000US30029000201,WEYERHAEUSER NR,105 MILLS DR,COLUMBIA FALLS,MT,59912,"WEYERHAEUSER NR.105 MILLS DR, COLUMBIA FALLS MONTANA 59912 (FLATHEAD)",0,C,,110000428644
59104FRRBT1406I,-108.552,45.765,False,30,111,001702,30,30111,30111001702,1400000US30111001702,FARR BETTER FEEDS,1406 INDL AVE,BILLINGS,MT,59104,"FARR BETTER FEEDS.1406 INDL AVE, BILLINGS MONTANA 59104 (YELLOWSTONE)",0,C,,
59101CRGLL1406I,-108.552,45.766000000000005,False,30,111,001702,30,30111,30111001702,1400000US30111001702,"CARGILL, INC",1406 INDUSTRIAL AVE,BILLINGS,MT,591013127,"CARGILL, INC.1406 INDUSTRIAL AVE, BILLINGS MONTANA 59101 (YELLOWSTONE)",0,C,,110008058886
59823CHMPNHWY20,-113.866,46.893,False,30,063,001400,30,30063,30063001400,1400000US30063001400,STIMSON LUMBER CO BONNER OPERATION,9630 HWY 200 E,BONNER,MT,59823,"STIMSON LUMBER CO BONNER OPERATION.9630 HWY 200 E, BONNER MONTANA 59823 (MISSOULA)",0,C,,110006618062
59019MNTNS1STER,-109.264,45.631,False,30,095,966400,30,30095,30095966400,1400000US30095966400,MONTANA SILVERSMITHS,1 STERLING LN,COLUMBUS,MT,59019,"MONTANA SILVERSMITHS.1 STERLING LN, COLUMBUS MONTANA 59019 (STILLWATER)",0,C,,110011675106
59019STLLW1209L,-109.236,45.632,False,30,095,966400,30,30095,30095966400,1400000US30095966400,SMC PRECIOUS METALS SMELTER & BASE METALS REFINERY,COLUMBUS INDUSTRIAL PARK 1ST AVE SOUTH,COLUMBUS,MT,59019,"SMC PRECIOUS METALS SMELTER & BASE METALS REFINERY.COLUMBUS INDUSTRIAL PARK 1ST AVE SOUTH, COLUMBUS MONTANA 59019 (STILLWATER)",0,C,,110000606096
59102RSCST2847H,-108.59100000000001,45.742,False,30,111,001704,30,30111,30111001704,1400000US30111001704,TRUENORTH STEEL,1501 S 30TH ST W,BILLINGS,MT,59102,"TRUENORTH STEEL.1501 S 30TH ST W, BILLINGS MONTANA 59102 (YELLOWSTONE)",0,C,,110040441313
59102MNTNS2521E,-108.581,45.751000000000005,False,30,111,001704,30,30111,30111001704,1400000US30111001704,MONTANA SILVERSMITHS,2521 ENTERPRISE AVE,BILLINGS,MT,59102,"MONTANA SILVERSMITHS.2521 ENTERPRISE AVE, BILLINGS MONTANA 59102 (YELLOWSTONE)",0,C,,
5910WFRTRR1521S,-108.59700000000001,45.742,False,30,111,001704,30,30111,30111001704,1400000US30111001704,FORTERRA CONCRETE PRODUCTS - BILLINGS,1521 S 32ND ST W,BILLINGS,MT,59102,"FORTERRA CONCRETE PRODUCTS - BILLINGS.1521 S 32ND ST W, BILLINGS MONTANA 59102 (YELLOWSTONE)",0,C,,110069312862
59711FFCNCSIXTH,-112.941,46.123000000000005,False,30,023,000300,30,30023,30023000300,1400000US30023000300,AFFCO INC,6TH & JEFFERSON ST,ANACONDA,MT,59711,"AFFCO INC.6TH & JEFFERSON ST, ANACONDA MONTANA 59711 (DEER LODGE)",0,C,,
5971WDVGTS241UN,-112.87899999999999,46.111999999999995,False,30,023,000300,30,30023,30023000300,1400000US30023000300,DAVE GATES GENERATING STATION,241 UNIT A WILLOW GLEN ROAD,ANACONDA,MT,59711,"DAVE GATES GENERATING STATION.241 UNIT A WILLOW GLEN ROAD, ANACONDA MONTANA 59711 (DEER LODGE)",0,C,,110043693964
59406CCCLB93338,-111.241,47.516000000000005,False,30,013,000100,30,30013,30013000100,1400000US30013000100,COCA-COLA BOTTLING CO WEST INC,933 38TH ST N,GREAT FALLS,MT,59406,"COCA-COLA BOTTLING CO WEST INC.933 38TH ST N, GREAT FALLS MONTANA 59406 (CASCADE)",0,C,,
5940WCHSGR53251,-111.21799999999999,47.516999999999996,False,30,013,000100,30,30013,30013000100,1400000US30013000100,CHS GREAT FALLS FEED,5325 10TH AVE N,GREAT FALLS,MT,59405,"CHS GREAT FALLS FEED.5325 10TH AVE N, GREAT FALLS MONTANA 59405 (CASCADE)",0,C,,110069293071
59802SDFRS5755H,-114.09100000000001,46.926,False,30,063,000202,30,30063,30063000202,1400000US30063000202,U.S. FOREST SERVICE MISSOULA AIRTANKER BASE,5765 W BROADWAY ST,MISSOULA,MT,59808,"U.S. FOREST SERVICE MISSOULA AIRTANKER BASE.5765 W BROADWAY ST, MISSOULA MONTANA 59808 (MISSOULA)",0,F,,110002446087
59808JTLGR48WIL,-114.054,46.915,False,30,063,000202,30,30063,30063000202,1400000US30063000202,JTL GROUP MISSOULA (DBA KNIFE RIVER-MISSOULA),4800 WILKIE AVE,MISSOULA,MT,59808,"JTL GROUP MISSOULA (DBA KNIFE RIVER-MISSOULA).4800 WILKIE AVE, MISSOULA MONTANA 59808 (MISSOULA)",0,C,,110015785319
59218SVSPC1MILE,-104.49700000000001,48.156000000000006,False,30,085,080100,30,30085,30085080100,1400000US30085080100,MONTOLA GROWERS INC,1 MILE E HWY 2,CULBERTSON,MT,59218,"MONTOLA GROWERS INC.1 MILE E HWY 2, CULBERTSON MONTANA 59218 (ROOSEVELT)",0,C,,110007654886
59752HLNMN4070T,-111.477,45.945,False,30,031,000300,30,30031,30031000300,1400000US30031000300,GCC-THREE FORKS LLC,4070 TRIDENT RD,THREE FORKS,MT,59752,"GCC-THREE FORKS LLC.4070 TRIDENT RD, THREE FORKS MONTANA 59752 (GALLATIN)",0,C,,110001473815
59840RBMMN553OL,-114.146,46.285,False,30,081,000402,30,30081,30081000402,1400000US30081000402,CORIXA CORP D/B/A GLAXOSMITHKLINE VACCINES - HAMILTON,553 OLD CORVALLIS RD,HAMILTON,MT,59840,"CORIXA CORP D/B/A GLAXOSMITHKLINE VACCINES - HAMILTON.553 OLD CORVALLIS RD, HAMILTON MONTANA 59840 (RAVALLI)",0,C,,110016686898
59873NTDST1250P,-115.566,47.542,False,30,089,000200,30,30089,30089000200,1400000US30089000200,US ANTIMONY CORP,47 COX GULCH RD,THOMPSON FALLS,MT,59873,"US ANTIMONY CORP.47 COX GULCH RD, THOMPSON FALLS MONTANA 59873 (SANDERS)",0,C,,110000497472
5987WTHMPS5532H,-115.256,47.576,False,30,089,000200,30,30089,30089000200,1400000US30089000200,THOMPSON RIVER LUMBER,241 AIRPORT RD,THOMPSON FALLS,MT,59873,"THOMPSON RIVER LUMBER.241 AIRPORT RD, THOMPSON FALLS MONTANA 59873 (SANDERS)",0,C,,110057418708
59634SHGRV100HW,-111.921,46.544,False,30,043,962202,30,30043,30043962202,1400000US30043962202,ASH GROVE CEMENT CO MONTANA CITY PLANT,100 HWY #518,CLANCY,MT,59634,"ASH GROVE CEMENT CO MONTANA CITY PLANT.100 HWY #518, CLANCY MONTANA 59634 (JEFFERSON)",0,C,,110000595197
59634MRKSM15LUM,-111.98,46.476000000000006,False,30,043,962202,30,30043,30043962202,1400000US30043962202,MARKS-MILLER POST & POLE INC,15 LUMP GULCH RD,CLANCY,MT,59634,"MARKS-MILLER POST & POLE INC.15 LUMP GULCH RD, CLANCY MONTANA 59634 (JEFFERSON)",0,C,,110000497463
59638MNTNT5MILE,-112.113,46.357,False,30,043,962202,30,30043,30043962202,1400000US30043962202,MONTANA TUNNELS MINING INC,275 MONTANA TUNNELS RD,JEFFERSON CITY,MT,59638,"MONTANA TUNNELS MINING INC.275 MONTANA TUNNELS RD, JEFFERSON CITY MONTANA 59638 (JEFFERSON)",0,C,,110038050916
59011STLLWPOBOX,-110.084,45.503,False,30,097,967000,30,30097,30097967000,1400000US30097967000,STILLWATER MINING CO EAST BOULDER MINE,517 W 1ST ST,BIG TIMBER,MT,59011,"STILLWATER MINING CO EAST BOULDER MINE.517 W 1ST ST, BIG TIMBER MONTANA 59011 (SWEET GRASS)",0,C,,110007110474
59061SMCNY5MILE,-109.89200000000001,45.387,False,30,095,966500,30,30095,30095966500,1400000US30095966500,SMC NYE MINE SITE,"5 MILES SE OF NYE, MT HWY 419",NYE,MT,59061,"SMC NYE MINE SITE.5 MILES SE OF NYE, MT HWY 419, NYE MONTANA 59061 (STILLWATER)",0,C,,110000595133
59323MNTNPWILLO,-106.613,45.883,False,30,087,000200,30,30087,30087000200,1400000US30087000200,COLSTRIP STEAM ELECTRIC STATION,WILLOW AVE,COLSTRIP,MT,59323,"COLSTRIP STEAM ELECTRIC STATION.WILLOW AVE, COLSTRIP MONTANA 59323 (ROSEBUD)",0,C,,110041982520
59323RSBDPPOBOX,-106.655,45.975,False,30,087,000200,30,30087,30087000200,1400000US30087000200,COLSTRIP ENERGY LP ROSEBUD POWER PLANT,18 SNIDER SUBDIVISION RD,COLSTRIP,MT,59323,"COLSTRIP ENERGY LP ROSEBUD POWER PLANT.18 SNIDER SUBDIVISION RD, COLSTRIP MONTANA 59323 (ROSEBUD)",0,C,,110041982520
59601CNCHL3180H,-112.089,46.603,False,30,049,000700,30,30049,30049000700,1400000US30049000700,PHILLIPS 66 HELENA PRODUCT TERMINAL,1199 12TH AVE,HELENA,MT,59601,"PHILLIPS 66 HELENA PRODUCT TERMINAL.1199 12TH AVE, HELENA MONTANA 59601 (LEWIS AND CLARK)",0,C,,110000595188
59644DMNDH8MILE,-111.43,46.333999999999996,False,30,007,000200,30,30007,30007000200,1400000US30007000200,DIAMOND HILL MINING INC,8 MILES NW OF TOWNSEND PO BOX 1340,TOWNSEND,MT,59644,"DIAMOND HILL MINING INC.8 MILES NW OF TOWNSEND PO BOX 1340, TOWNSEND MONTANA 59644 (BROADWATER)",0,C,,
59644GRYMN45MIL,-111.617,46.328,False,30,007,000200,30,30007,30007000200,1400000US30007000200,GRAYMONT WESTERN US INC INDIAN CREEK LIME PRODUCTION,4.5 MILES W OF TOWNSEND,TOWNSEND,MT,59644,"GRAYMONT WESTERN US INC INDIAN CREEK LIME PRODUCTION.4.5 MILES W OF TOWNSEND, TOWNSEND MONTANA 59644 (BROADWATER)",0,C,,110008058822
5964WLMSTNLDWMA,-111.604,46.272,False,30,007,000200,30,30007,30007000200,1400000US30007000200,US ARMY NATIONAL GUARD LIMESTONE HILLS RANGES,OLD WOMANS GRAVE RD,TOWNSEND,MT,59644,"US ARMY NATIONAL GUARD LIMESTONE HILLS RANGES.OLD WOMANS GRAVE RD, TOWNSEND MONTANA 59644 (BROADWATER)",0,F,,110041626256
59759GLDNS453MO,-112.01100000000001,45.903,False,30,043,962300,30,30043,30043962300,1400000US30043962300,BARRICK GOLD CORP-GOLDEN SUNLIGHT MINE,453 MONTANA HWY 2 E,WHITEHALL,MT,59759,"BARRICK GOLD CORP-GOLDEN SUNLIGHT MINE.453 MONTANA HWY 2 E, WHITEHALL MONTANA 59759 (JEFFERSON)",0,C,,110000428564
59025DCKRC12LAK,-106.786,45.06399999999999,False,30,003,940400,30,30003,30003940400,1400000US30003940400,DECKER COAL CO,12 LAKESHORE DR,DECKER,MT,59025,"DECKER COAL CO.12 LAKESHORE DR, DECKER MONTANA 59025 (BIG HORN)",0,C,,110000734126
59025SPRNGLAKES,-106.904,45.111999999999995,False,30,003,940400,30,30003,30003940400,1400000US30003940400,SPRING CREEK COAL LLC,LAKE SHORE DR,DECKER,MT,59025,"SPRING CREEK COAL LLC.LAKE SHORE DR, DECKER MONTANA 59025 (BIG HORN)",0,C,,110020366726
59105SBLMS1299R,-108.521,45.806999999999995,False,30,111,000704,30,30111,30111000704,1400000US30111000704,US  BLM EASTERN MONTANA ZONE INTERAGENCY OPS  CENTER,1299 RIMTOP DR,BILLINGS,MT,59105,"US  BLM EASTERN MONTANA ZONE INTERAGENCY OPS  CENTER.1299 RIMTOP DR, BILLINGS MONTANA 59105 (YELLOWSTONE)",0,F,,110002124424
59107SBLMBFAMMN,-108.553,45.805,False,30,111,000704,30,30111,30111000704,1400000US30111000704,U.S. BLM BILLINGS AIRTANKER BASE,F & AM  MONTANA STATE OFFICE 5001 SOUTHGATE DR,BILLINGS,MT,59107,"U.S. BLM BILLINGS AIRTANKER BASE.F & AM  MONTANA STATE OFFICE 5001 SOUTHGATE DR, BILLINGS MONTANA 59107 (YELLOWSTONE)",0,F,,110031019145
59262KNFRVPOBOX,-104.427,47.471000000000004,False,30,083,070200,30,30083,30083070200,1400000US30083070200,KNIFE RIVER CORP SAVAGE MINE,PO BOX 30,SAVAGE,MT,59262,"KNIFE RIVER CORP SAVAGE MINE.PO BOX 30, SAVAGE MONTANA 59262 (RICHLAND)",0,C,,
59714LSNPC400JA,-111.185,45.775,False,30,031,000101,30,30031,30031000101,1400000US30031000101,LOUISIANA-PACIFIC BELGRADE SAWMILL,400 JACKRABBIT LN,BELGRADE,MT,59714,"LOUISIANA-PACIFIC BELGRADE SAWMILL.400 JACKRABBIT LN, BELGRADE MONTANA 59714 (GALLATIN)",0,C,,
59714JTLGR2173F,-111.15,45.762,False,30,031,000101,30,30031,30031000101,1400000US30031000101,JTL GROUP BELGRADE DBA KNIFE RIVER - BELGRADE,21730 FRONTAGE RD,BELGRADE,MT,59714,"JTL GROUP BELGRADE DBA KNIFE RIVER - BELGRADE.21730 FRONTAGE RD, BELGRADE MONTANA 59714 (GALLATIN)",0,C,,110001473799
59722LSNPC14MIS,-112.744,46.39,False,30,077,000200,30,30077,30077000200,1400000US30077000200,LOUISIANA-PACIFIC DEER LODGE SAWMILL,1/4 MI S OF TOWN ON KENTUCKY,DEER LODGE,MT,59722,"LOUISIANA-PACIFIC DEER LODGE SAWMILL.1/4 MI S OF TOWN ON KENTUCKY, DEER LODGE MONTANA 59722 (POWELL)",0,C,,
59875SPCLT1131N,-114.15299999999999,46.327,False,30,081,000401,30,30081,30081000401,1400000US30081000401,SSP-SIMATRIX,1131 N US .HWY 93,VICTOR,MT,59875,"SSP-SIMATRIX.1131 N US .HWY 93, VICTOR MONTANA 59875 (RAVALLI)",0,C,,110013763702
59923STMSN875HW,-115.573,48.398,False,30,053,000300,30,30053,30053000300,1400000US30053000300,STIMSON LUMBER CO LIBBY OPERATION,875 HWY 2 S,LIBBY,MT,599239013,"STIMSON LUMBER CO LIBBY OPERATION.875 HWY 2 S, LIBBY MONTANA 59923 (LINCOLN)",0,C,,110020463577
59034HRDNGSUGAR,-107.6,45.763999999999996,False,30,003,000100,30,30003,30003000100,1400000US30003000100,HARDIN GENERATING STATION,643 INDUSTRIAL PARK RD,HARDIN,MT,59034,"HARDIN GENERATING STATION.643 INDUSTRIAL PARK RD, HARDIN MONTANA 59034 (BIG HORN)",0,C,,110038363623
59035SNTLP5AVEB,-107.93700000000001,45.312,False,30,003,940500,30,30003,30003940500,1400000US30003940500,U.S. NATL. PARK SERVICE BIGHORN CANYON NRA,5 AVE B PO BOX 7458,FORT SMITH VILLAGE,MT,59035,"U.S. NATL. PARK SERVICE BIGHORN CANYON NRA.5 AVE B PO BOX 7458, FORT SMITH VILLAGE MONTANA 59035 (BIG HORN)",0,F,,110031019127
59901JTLGR3131H,-114.255,48.262,False,30,029,000602,30,30029,30029000602,1400000US30029000602,JTL GROUP-KALISPELL DBA KNIFE RIVER - KALISPELL,799 2ND ST E,KALISPELL,MT,59901,"JTL GROUP-KALISPELL DBA KNIFE RIVER - KALISPELL.799 2ND ST E, KALISPELL MONTANA 59901 (FLATHEAD)",0,C,,110020322658
59105KNFRV1927D,-108.419,45.857,False,30,111,001501,30,30111,30111001501,1400000US30111001501,KNIFE RIVER BILLINGS EAST SITE,1927 DOVER,BILLINGS,MT,59105,"KNIFE RIVER BILLINGS EAST SITE.1927 DOVER, BILLINGS MONTANA 59105 (YELLOWSTONE)",0,C,,110037143864
59402SDDSR3978T,-111.191,47.516000000000005,False,30,013,001200,30,30013,30013001200,1400000US30013001200,US DOD USAF MALMSTROM AFB,39 78TH ST N 341 CES CEAN,MALMSTROM AFB,MT,594027536,"US DOD USAF MALMSTROM AFB.39 78TH ST N 341 CES CEAN, MALMSTROM AFB MONTANA 59402 (CASCADE)",0,F,,110002124433
59804KNFRV284TH,-114.079,46.846000000000004,False,30,063,000901,30,30063,30063000901,1400000US30063000901,KNIFE RIVER - MISSOUAL TARGET RANGE,2800 40TH AVE,MISSOULA,MT,59804,"KNIFE RIVER - MISSOUAL TARGET RANGE.2800 40TH AVE, MISSOULA MONTANA 59804 (MISSOULA)",0,C,,110039019987
5963WFTHRRNGMTE,-112.117,46.615,False,30,049,000600,30,30049,30049000600,1400000US30049000600,US ARMY NATIONAL GUARD FORT HARRISON RANGES,1956 MT. MAJO STREET,FORT HARRISON,MT,59636,"US ARMY NATIONAL GUARD FORT HARRISON RANGES.1956 MT. MAJO STREET, FORT HARRISON MONTANA 59636 (LEWIS AND CLARK)",0,F,,110039204535
5971WCRBND1SBRA,-111.177,45.775,False,30,031,000103,30,30031,30031000103,1400000US30031000103,JOHNS MANVILLE-BELGRADE PLANT,100 S BROADWAY,BELGRADE,MT,59714,"JOHNS MANVILLE-BELGRADE PLANT.100 S BROADWAY, BELGRADE MONTANA 59714 (GALLATIN)",0,C,,110040481671
5940WTHFGH28AIR,-111.36,47.478,False,30,013,010700,30,30013,30013010700,1400000US30013010700,"US DOD, USAF, 120TH FIGHTER WING MONTANA ANG",2800 AIRPORT AVE B,GREAT FALLS,MT,59404,"US DOD, USAF, 120TH FIGHTER WING MONTANA ANG.2800 AIRPORT AVE B, GREAT FALLS MONTANA 59404 (CASCADE)",0,F,,110041626247
5925WRYMNDPBX15,-104.575,48.997,False,30,091,090200,30,30091,30091090200,1400000US30091090200,US CBP RAYMOND PORT OF ENTRY BE# MT0050,1559 HIGHWAY 16 NORTH,RAYMOND,MT,59256,"US CBP RAYMOND PORT OF ENTRY BE# MT0050.1559 HIGHWAY 16 NORTH, RAYMOND MONTANA 59256 (SHERIDAN)",0,F,,110046122664
5960WFRTRR21NBE,-112.041,46.606,False,30,049,000800,30,30049,30049000800,1400000US30049000800,FORTERRA CONCRETE PRODUCTS - HELENA,2001 N BENTON AVE,HELENA,MT,59601,"FORTERRA CONCRETE PRODUCTS - HELENA.2001 N BENTON AVE, HELENA MONTANA 59601 (LEWIS AND CLARK)",0,C,,110069319491
5948WSCBPS39825,-111.96,48.998000000000005,False,30,101,000100,30,30101,30101000100,1400000US30101000100,US CBP SWEETGRASS PORT OF ENTRY #MT0025,39825 INTERSTATE 15,SWEETGRASS,MT,59484,"US CBP SWEETGRASS PORT OF ENTRY #MT0025.39825 INTERSTATE 15, SWEETGRASS MONTANA 59484 (TOOLE)",0,F,,110055498732
5950WSCBPH2655T,-109.682,48.528,False,30,041,040400,30,30041,30041040400,1400000US30041040400,US CBP HAVRE SECTOR HQ #MT0040,2605 5TH AVENUE SE,HAVRE,MT,59501,"US CBP HAVRE SECTOR HQ #MT0040.2605 5TH AVENUE SE, HAVRE MONTANA 59501 (HILL)",0,F,,110040682721
5991WSCBPR7915H,-115.057,48.998000000000005,False,30,053,000400,30,30053,30053000400,1400000US30053000400,US CBP ROOSVILLE PORT OF ENTRY #MT0008,7915 HIGHWAY 93 N,EUREKA,MT,59917,"US CBP ROOSVILLE PORT OF ENTRY #MT0008.7915 HIGHWAY 93 N, EUREKA MONTANA 59917 (LINCOLN)",0,F,,110055498741
5931WNLCBK3644N,-104.273,46.382,False,30,025,000100,30,30025,30025000100,1400000US30025000100,NALCO COMPANY-BAKER,3644 N HWY 7,BAKER,MT,59313,"NALCO COMPANY-BAKER.3644 N HWY 7, BAKER MONTANA 59313 (FALLON)",0,C,,110043311715
5941WPGNPR4999H,-113.38,48.997,False,30,035,940400,30,30035,30035940400,1400000US30035940400,US CBP PIEGAN PORT OF ENTRY #MT0001,4999 HIGHWAY 89 NORTH,BABB,MT,59411,"US CBP PIEGAN PORT OF ENTRY #MT0001.4999 HIGHWAY 89 NORTH, BABB MONTANA 59411 (GLACIER)",0,F,,110060257868
5930WPTBLN1123H,-105.824,46.42,False,30,017,961600,30,30017,30017961600,1400000US30017961600,PFP INDUSTRIES LLC - MILES CITY MT FACILITY,1123 HWY 12 E,MILES CITY,MT,59301,"PFP INDUSTRIES LLC - MILES CITY MT FACILITY.1123 HWY 12 E, MILES CITY MONTANA 59301 (CUSTER)",0,C,,110064459820
5960WHLNSN275CA,-111.948,46.617,False,30,049,000400,30,30049,30049000400,1400000US30049000400,HELENA SAND & GRAVEL,2750 CANYON FERRY RD,HELENA,MT,59602,"HELENA SAND & GRAVEL.2750 CANYON FERRY RD, HELENA MONTANA 59602 (LEWIS AND CLARK)",0,C,,110069261863
5960WBNGHL32SKY,-111.975,46.611000000000004,False,30,049,000400,30,30049,30049000400,1400000US30049000400,BOEING HELENA INC,3200 SKYWAY DR,HELENA,MT,59602,"BOEING HELENA INC.3200 SKYWAY DR, HELENA MONTANA 59602 (LEWIS AND CLARK)",0,C,,110014454241
5986WDHFRS162LD,-115.08,47.31399999999999,False,30,061,964600,30,30061,30061964600,1400000US30061964600,IDAHO FOREST GROUP- ST REGIS,162 OLD MILL LOOP,SAINT REGIS,MT,59866,"IDAHO FOREST GROUP- ST REGIS.162 OLD MILL LOOP, SAINT REGIS MONTANA 59866 (MINERAL)",0,C,,110070224470
