TRIFID,LONGITUDE,LATITUDE,ESTIMATE,STATEFP,COUNTYFP,TRACTCE,STATEGEOID,COUNTYGEOID,TRACTGEOID,AFFGEOID,FACILITY_NAME,STREET,CITY,STUSPS,ZIP_CODE,FACILITY,FAC_CLOSED_IND,ASGN_FEDERAL_IND,BIA_CODE,EPA_REGISTRY_ID
58040MLRCM2101S,-97.65700000000001,46.229,False,38,081,974000,38,38081,38081974000,1400000US38081974000,BOBCAT CO (MELROE),210 1ST AVE NE,GWINNER,ND,58040,"BOBCAT CO (MELROE).210 1ST AVE NE, GWINNER NORTH DAKOTA 58040 (SARGENT)",0,C,,110012478764
58045MRCNCHWY81,-97.06299999999999,47.43600000000001,False,38,097,970300,38,38097,38097970300,1400000US38097970300,AMERICAN CRYSTAL SUGAR CO,121 HIGHWAY 81 NE,HILLSBORO,ND,58045,"AMERICAN CRYSTAL SUGAR CO.121 HIGHWAY 81 NE, HILLSBORO NORTH DAKOTA 58045 (TRAILL)",0,C,,110056190704
58074HTCHNHIGHW,-96.66,46.266999999999996,False,38,077,970800,38,38077,38077970800,1400000US38077970800,WIL-RICH LLC,17885 HWY 13,WAHPETON,ND,58075,"WIL-RICH LLC.17885 HWY 13, WAHPETON NORTH DAKOTA 58075 (RICHLAND)",0,C,,110000595008
58075PRGLD18049,-96.641,46.35,False,38,077,970800,38,38077,38077970800,1400000US38077970800,CARGILL INC WET CORN MILLING - WAHPETON,18049 COUNTY RD 8 E,WAHPETON,ND,58075,"CARGILL INC WET CORN MILLING - WAHPETON.18049 COUNTY RD 8 E, WAHPETON NORTH DAKOTA 58075 (RICHLAND)",0,C,,110011042200
5807WMNNDK18175,-96.618,46.327,False,38,077,970800,38,38077,38077970800,1400000US38077970800,DAKOTA YEAST LLC,18175 RED RIVER RD W,WAHPETON,ND,58075,"DAKOTA YEAST LLC.18175 RED RIVER RD W, WAHPETON NORTH DAKOTA 58075 (RICHLAND)",0,C,,110000428154
58075MCXXX1300N,-96.62200000000001,46.292,False,38,077,970900,38,38077,38077970900,1400000US38077970900,3M CO DATA STORAGE PRODUCTS DIV,1300 N 3M DR,WAHPETON,ND,58075,"3M CO DATA STORAGE PRODUCTS DIV.1300 N 3M DR, WAHPETON NORTH DAKOTA 58075 (RICHLAND)",0,C,,
58075MNNDK7525R,-96.616,46.324,False,38,077,970900,38,38077,38077970900,1400000US38077970900,MINN-DAK FARMERS  COOPERATIVE,7525 RED RIVER RD,WAHPETON,ND,580759698,"MINN-DAK FARMERS  COOPERATIVE.7525 RED RIVER RD, WAHPETON NORTH DAKOTA 58075 (RICHLAND)",0,C,,110022356831
58075PRMBR2441N,-96.62200000000001,46.29600000000001,False,38,077,970900,38,38077,38077970900,1400000US38077970900,MASONITE PRIMEBOARD INC,2441 N 15TH ST,WAHPETON,ND,58075,"MASONITE PRIMEBOARD INC.2441 N 15TH ST, WAHPETON NORTH DAKOTA 58075 (RICHLAND)",0,C,,110015679942
58078CRGLL2507T,-96.898,46.88399999999999,False,38,017,040400,38,38017,38017040400,1400000US38017040400,CARGILL INC,250 7TH AVE NE,WEST FARGO,ND,58078,"CARGILL INC.250 7TH AVE NE, WEST FARGO NORTH DAKOTA 58078 (CASS)",0,C,,110012478390
58078KCHMT600CE,-96.9,46.883,False,38,017,040400,38,38017,38017040400,1400000US38017040400,FLINT HILLS RESOURCES PINE BEND LLC WEST FARGO,600 CENTER ST,WEST FARGO,ND,58078,"FLINT HILLS RESOURCES PINE BEND LLC WEST FARGO.600 CENTER ST, WEST FARGO NORTH DAKOTA 58078 (CASS)",0,C,,110010350208
5807WSTRTC2112A,-96.90100000000001,46.891000000000005,False,38,017,040400,38,38017,38017040400,1400000US38017040400,STRATA CONCRETE WEST FARGO,210 12 AVE NW,WEST FARGO,ND,58078,"STRATA CONCRETE WEST FARGO.210 12 AVE NW, WEST FARGO NORTH DAKOTA 58078 (CASS)",0,C,,110059643079
58102CLSSC1617M,-96.822,46.881,False,38,017,000600,38,38017,38017000600,1400000US38017000600,CLASSIC ROADSTERS LTD,401 NW 27TH ST,FARGO,ND,58102,"CLASSIC ROADSTERS LTD.401 NW 27TH ST, FARGO NORTH DAKOTA 58102 (CASS)",0,C,,
58102GPKPR17203,-96.81,46.879,False,38,017,000600,38,38017,38017000600,1400000US38017000600,GPK PRODS INC,1720 3RD AVE N,FARGO,ND,58102,"GPK PRODS INC.1720 3RD AVE N, FARGO NORTH DAKOTA 58102 (CASS)",1,C,,
58108LVLLC11531,-96.829,46.873000000000005,False,38,017,000600,38,38017,38017000600,1400000US38017000600,PARKSITE TREATING PLANT,115 S 31ST ST,FARGO,ND,58103,"PARKSITE TREATING PLANT.115 S 31ST ST, FARGO NORTH DAKOTA 58103 (CASS)",0,C,,110000428225
58108STGRT34011,-96.834,46.878,False,38,017,000600,38,38017,38017000600,1400000US38017000600,CNH INDUSTRIAL AMERICA LLC,3401 1ST AVE N,FARGO,ND,58102,"CNH INDUSTRIAL AMERICA LLC.3401 1ST AVE N, FARGO NORTH DAKOTA 58102 (CASS)",0,C,,110012478407
58102CSSCL200N2,-96.81200000000001,46.879,False,38,017,000600,38,38017,38017000600,1400000US38017000600,CASS CLAY CREAMERY INC,200  20TH ST N,FARGO,ND,58102,"CASS CLAY CREAMERY INC.200  20TH ST N, FARGO NORTH DAKOTA 58102 (CASS)",0,C,,110000428181
58107BRNCK26003,-96.82,46.879,False,38,017,000600,38,38017,38017000600,1400000US38017000600,BRANICK INDUSTRIES INC,2600 3RD AVE N,FARGO,ND,58107,"BRANICK INDUSTRIES INC.2600 3RD AVE N, FARGO NORTH DAKOTA 58107 (CASS)",0,C,,
58102CSCNC28007,-96.824,46.883,False,38,017,000600,38,38017,38017000600,1400000US38017000600,CASE CONCORD,2800 7TH AVE N,FARGO,ND,58102,"CASE CONCORD.2800 7TH AVE N, FARGO NORTH DAKOTA 58102 (CASS)",0,C,,
58102GNRLN13013,-96.845,46.893,False,38,017,010107,38,38017,38017010107,1400000US38017010107,GENERAL NUTRITION MILLS INC,1301 39TH ST N,FARGO,ND,58102,"GENERAL NUTRITION MILLS INC.1301 39TH ST N, FARGO NORTH DAKOTA 58102 (CASS)",0,C,,
58102TCTNX44011,-96.861,46.897,False,38,017,010107,38,38017,38017010107,1400000US38017010107,TECTON PRODUCTS LLC,4401 15TH AVE N,FARGO,ND,58102,"TECTON PRODUCTS LLC.4401 15TH AVE N, FARGO NORTH DAKOTA 58102 (CASS)",0,C,,110000825750
58102PPSCL38021,-96.84200000000001,46.896,False,38,017,010107,38,38017,38017010107,1400000US38017010107,PEPSI-COLA BOTTLING,3802 15TH AVE N,FARGO,ND,58102,"PEPSI-COLA BOTTLING.3802 15TH AVE N, FARGO NORTH DAKOTA 58102 (CASS)",0,C,,
58108WDSLL13304,-96.85600000000001,46.893,False,38,017,010107,38,38017,38017010107,1400000US38017010107,ALLOWAY INDUSTRIES LLC,1330 43RD ST  NW,FARGO,ND,58108,"ALLOWAY INDUSTRIES LLC.1330 43RD ST  NW, FARGO NORTH DAKOTA 58108 (CASS)",0,C,,
58102GPKPR16014,-96.85600000000001,46.9,False,38,017,010107,38,38017,38017010107,1400000US38017010107,GPK PRODUCTS INC,1601 43 ST NW,FARGO,ND,58102,"GPK PRODUCTS INC.1601 43 ST NW, FARGO NORTH DAKOTA 58102 (CASS)",0,C,,
58103BRNCK4245M,-96.854,46.876000000000005,False,38,017,010107,38,38017,38017010107,1400000US38017010107,BRANICK INDUSTRIES INC,4245 MAIN AVE,FARGO,ND,58103,"BRANICK INDUSTRIES INC.4245 MAIN AVE, FARGO NORTH DAKOTA 58103 (CASS)",0,C,,
58102NRTHR38011,-96.84200000000001,46.896,False,38,017,010107,38,38017,38017010107,1400000US38017010107,NORTHERN PLAINS STEEL CO,3801 15TH AVE N,FARGO,ND,58102,"NORTHERN PLAINS STEEL CO.3801 15TH AVE N, FARGO NORTH DAKOTA 58102 (CASS)",0,C,,110002124317
58102PHNXN14414,-96.86,46.896,False,38,017,010107,38,38017,38017010107,1400000US38017010107,JOHN DEERE ELECTRONIC SOLUTIONS,1441 44TH ST NW,FARGO,ND,58102,"JOHN DEERE ELECTRONIC SOLUTIONS.1441 44TH ST NW, FARGO NORTH DAKOTA 58102 (CASS)",0,C,,110004062816
58102GGRGT15AGG,-96.851,46.887,False,38,017,010107,38,38017,38017010107,1400000US38017010107,AGGREGATE INDUSTRIES FARGO READY MIX,1005 AGGREGATE INDUSTRIES DR,FARGO,ND,58102,"AGGREGATE INDUSTRIES FARGO READY MIX.1005 AGGREGATE INDUSTRIES DR, FARGO NORTH DAKOTA 58102 (CASS)",0,C,,110037143819
5810WSPCGS14239,-96.846,46.896,False,38,017,010107,38,38017,38017010107,1400000US38017010107,SPACEAGE SYNTHETICS LTD,1402 39TH ST N,FARGO,ND,58102,"SPACEAGE SYNTHETICS LTD.1402 39TH ST N, FARGO NORTH DAKOTA 58102 (CASS)",0,C,,110058985095
5810WTRNRT441MA,-96.85799999999999,46.876000000000005,False,38,017,010107,38,38017,38017010107,1400000US38017010107,TRUENORTH STEEL - FARGO,4401 MAIN AVE,FARGO,ND,58103,"TRUENORTH STEEL - FARGO.4401 MAIN AVE, FARGO NORTH DAKOTA 58103 (CASS)",0,C,,110070244619
5810WCRDNL46111,-96.867,46.897,False,38,017,010107,38,38017,38017010107,1400000US38017010107,CARDINAL GLASS IG,4611 15TH AVE N,FARGO,ND,58102,"CARDINAL GLASS IG.4611 15TH AVE N, FARGO NORTH DAKOTA 58102 (CASS)",0,C,,110070557771
58102CNCRD30007,-96.871,46.883,True,38,017,010107,38,38017,38017010107,1400000US38017010107,CONCORD INC,3000 7TH AVE N,FARGO,ND,58102,"CONCORD INC 3000 7TH AVE N, FARGO, ND, 58102",0,C,,
58108MDMRC92NPA,-96.779,46.875,False,38,017,000700,38,38017,38017000700,1400000US38017000700,MID AMERICA STEEL INC,92 NP AVE,FARGO,ND,58102,"MID AMERICA STEEL INC.92 NP AVE, FARGO NORTH DAKOTA 58102 (CASS)",0,C,,
58201GSLNC2600M,-97.061,47.946000000000005,False,38,035,011700,38,38035,38035011700,1400000US38035011700,AGSCO INC,2600 MILL RD,GRAND FORKS,ND,58203,"AGSCO INC.2600 MILL RD, GRAND FORKS NORTH DAKOTA 58203 (GRAND FORKS)",0,C,,
58201JRSMP3630G,-97.083,47.934,False,38,035,011700,38,38035,38035011700,1400000US38035011700,J R SIMPLOT CO,3630 GATEWAY DR,GRAND FORKS,ND,58203,"J R SIMPLOT CO.3630 GATEWAY DR, GRAND FORKS NORTH DAKOTA 58203 (GRAND FORKS)",0,C,,110000428270
58206NRTHD1823M,-97.055,47.94,False,38,035,011700,38,38035,38035011700,1400000US38035011700,NORTH DAKOTA MILL,1823 MILL RD,GRAND FORKS,ND,58203,"NORTH DAKOTA MILL.1823 MILL RD, GRAND FORKS NORTH DAKOTA 58203 (GRAND FORKS)",0,C,,110000428305
58203SDFNS4128A,-97.086,47.948,False,38,035,011700,38,38035,38035011700,1400000US38035011700,US DEFENSE LOGISTICS AGENCY GRAND FORKS FUEL SUPPORT POINT,4128A 27TH AVE N,GRAND FORKS,ND,582031338,"US DEFENSE LOGISTICS AGENCY GRAND FORKS FUEL SUPPORT POINT.4128A 27TH AVE N, GRAND FORKS NORTH DAKOTA 58203 (GRAND FORKS)",0,F,,
58201GSCGDRR1BO,-97.089,47.84,False,38,035,011700,38,38035,38035011700,1400000US38035011700,AGSCO INC,1160 12TH ST NE,GRAND FORKS,ND,582019515,"AGSCO INC.1160 12TH ST NE, GRAND FORKS NORTH DAKOTA 58201 (GRAND FORKS)",0,C,,110000428252
58203RDFRZ25MIL,-97.06,47.945,False,38,035,011700,38,38035,38035011700,1400000US38035011700,RDO FROZEN CO. OF DELAWARE D/B /A RDO FOODS CO.,2500 MILL RD,GRAND FORKS,ND,58203,"RDO FROZEN CO. OF DELAWARE D/B /A RDO FOODS CO..2500 MILL RD, GRAND FORKS NORTH DAKOTA 58203 (GRAND FORKS)",0,C,,110020519009
5820WSTRTC16N48,-97.09899999999999,47.93600000000001,False,38,035,011700,38,38035,38035011700,1400000US38035011700,STRATA CONCRETE GRAND FORKS,1600 N 48TH ST,GRAND FORKS,ND,58203,"STRATA CONCRETE GRAND FORKS.1600 N 48TH ST, GRAND FORKS NORTH DAKOTA 58203 (GRAND FORKS)",0,C,,110059301704
58225MRCNCPOBOX,-97.175,48.592,False,38,067,950500,38,38067,38067950500,1400000US38067950500,AMERICAN CRYSTAL SUGAR CO,8152 OLD HWY 44 N,DRAYTON,ND,58225,"AMERICAN CRYSTAL SUGAR CO.8152 OLD HWY 44 N, DRAYTON NORTH DAKOTA 58225 (PEMBINA)",0,C,,110022357180
58271MTRCC552WS,-97.251,48.968999999999994,False,38,067,950100,38,38067,38067950100,1400000US38067950100,MOTOR COACH INDUSTRIES INC,552 W STUTSMAN,PEMBINA,ND,58271,"MOTOR COACH INDUSTRIES INC.552 W STUTSMAN, PEMBINA NORTH DAKOTA 58271 (PEMBINA)",0,C,,110000428323
5827WSCSTM198IN,-97.238,48.998000000000005,False,38,067,950100,38,38017,38067950100,1400000US38067950100,US CBP PEMBINA PORT OF ENTRY ND0014,10980 INTERSTATE HWY 29,PEMBINA,ND,58271,"US CBP PEMBINA PORT OF ENTRY ND0014.10980 INTERSTATE HWY 29, PEMBINA NORTH DAKOTA 58271 (CASS)",0,F,,110060260033
58301NRDCF2NDAV,-98.86,48.11,False,38,071,957600,38,38071,38071957600,1400000US38071957600,NORDIC FIBERGLASS INC,415 2ND ST SE,DEVILS LAKE,ND,58301,"NORDIC FIBERGLASS INC.415 2ND ST SE, DEVILS LAKE NORTH DAKOTA 58301 (RAMSEY)",0,C,,110056201346
58316TRTLMHIGHW,-99.796,48.818999999999996,False,38,079,941800,38,38079,38079941800,1400000US38079941800,TURTLE MOUNTAIN MANUFACTURING CO,HWY 5 W,BELCOURT,ND,58316,"TURTLE MOUNTAIN MANUFACTURING CO.HWY 5 W, BELCOURT NORTH DAKOTA 58316 (ROLETTE)",0,C,,
58335DVLSLBOX40,-99.021,47.979,False,38,005,940100,38,38005,38005940100,1400000US38005940100,SIOUX MANUFACTURING CORP,MAIN ST,FORT TOTTEN,ND,58335,"SIOUX MANUFACTURING CORP.MAIN ST, FORT TOTTEN NORTH DAKOTA 58335 (BENSON)",0,C,,
58367WLLML213FI,-99.617,48.861000000000004,False,38,079,951600,38,38079,38079951600,1400000US38079951600,WM LANGER JEWEL BEARING PLANT,213 1ST ST NW,ROLLA,ND,583670280,"WM LANGER JEWEL BEARING PLANT.213 1ST ST NW, ROLLA NORTH DAKOTA 58367 (ROLETTE)",0,C,,
58401LCSWS2604H,-98.69,46.935,False,38,093,967300,38,38093,38093967300,1400000US38093967300,GOODRICH CORP,2604 HWY 20 N,JAMESTOWN,ND,58401,"GOODRICH CORP.2604 HWY 20 N, JAMESTOWN NORTH DAKOTA 58401 (STUTSMAN)",0,C,,110000595053
58402HYBSTHWY28,-98.709,46.865,False,38,093,967200,38,38093,38093967200,1400000US38093967200,HAYBUSTER MANUFACTURING INC,HWY 281 SOUTH,JAMESTOWN,ND,58401,"HAYBUSTER MANUFACTURING INC.HWY 281 SOUTH, JAMESTOWN NORTH DAKOTA 58401 (STUTSMAN)",0,C,,
58481LDSHMNAXXX,-98.51100000000001,46.91,False,38,093,967000,38,38093,38093967000,1400000US38093967000,LADISH MALTING CO,OFF I-94 SPIRITWOOD EXIT,SPIRITWOOD,ND,584810007,"LADISH MALTING CO.OFF I-94 SPIRITWOOD EXIT, SPIRITWOOD NORTH DAKOTA 58481 (STUTSMAN)",0,C,,
5849WWDWRT33SEC,-99.303,47.14,False,38,093,967000,38,38093,38093967000,1400000US38093967000,WOODWORTH FARMERS GRAIN CO,303 SECOND STREET SE,WOODWORTH,ND,58496,"WOODWORTH FARMERS GRAIN CO.303 SECOND STREET SE, WOODWORTH NORTH DAKOTA 58496 (STUTSMAN)",0,C,,110036000902
5848WGRTRV33669,-98.50299999999999,46.926,False,38,093,967000,38,38093,38093967000,1400000US38093967000,GREAT RIVER ENERGY - SPIRITWOOD STATION,3366 93RD AVENUE SE,SPIRITWOOD,ND,58481,"GREAT RIVER ENERGY - SPIRITWOOD STATION.3366 93RD AVENUE SE, SPIRITWOOD NORTH DAKOTA 58481 (STUTSMAN)",0,C,,110039526377
5840WCVNDS58553,-98.624,46.908,False,38,093,967000,38,38093,38093967000,1400000US38093967000,CAVENDISH FARMS INC,5855 3RD STREET SOUTHEAST,JAMESTOWN,ND,58401,"CAVENDISH FARMS INC.5855 3RD STREET SOUTHEAST, JAMESTOWN NORTH DAKOTA 58401 (STUTSMAN)",0,C,,110000535653
5848WDKTSP33619,-98.50299999999999,46.926,False,38,093,967000,38,38093,38093967000,1400000US38093967000,DAKOTA SPIRIT AGENERGY LLC,3361 93RD AVENUE SE,SPIRITWOOD,ND,58481,"DAKOTA SPIRIT AGENERGY LLC.3361 93RD AVENUE SE, SPIRITWOOD NORTH DAKOTA 58481 (STUTSMAN)",0,C,,110064375386
58504MLRCM530SO,-100.758,46.8,False,38,015,010800,38,38015,38015010800,1400000US38015010800,BOBCAT-DOOSAN,521 S 22ND ST,BISMARCK,ND,58504,"BOBCAT-DOOSAN.521 S 22ND ST, BISMARCK NORTH DAKOTA 58504 (BURLEIGH)",0,C,,110001505354
58554MCLCMNORTH,-100.881,46.851000000000006,False,38,059,020200,38,38059,38059020200,1400000US38059020200,TESORO MANDAN REFINERY,900 OLD RED TRL NE,MANDAN,ND,58554,"TESORO MANDAN REFINERY.900 OLD RED TRL NE, MANDAN NORTH DAKOTA 58554 (MORTON)",0,C,,110025329918
58554RMHSKHWY18,-100.884,46.867,False,38,059,020200,38,38059,38059020200,1400000US38059020200,RM HESKETT STATION,2025 38TH ST,MANDAN,ND,58554,"RM HESKETT STATION.2025 38TH ST, MANDAN NORTH DAKOTA 58554 (MORTON)",0,C,,110022356591
58554NRTHL305BI,-100.854,46.823,False,38,059,020300,38,38059,38059020300,1400000US38059020300,DAKOTA COUNTRY CHEESE CO. INC.,305 BIS MAN AVE,MANDAN,ND,58554,"DAKOTA COUNTRY CHEESE CO. INC..305 BIS MAN AVE, MANDAN NORTH DAKOTA 58554 (MORTON)",0,C,,110010675956
5855WSTRTC1154T,-100.839,46.815,False,38,059,020300,38,38059,38059020300,1400000US38059020300,STRATA CONCRETE MANDAN,1105 40TH AVE SE,MANDAN,ND,58554,"STRATA CONCRETE MANDAN.1105 40TH AVE SE, MANDAN NORTH DAKOTA 58554 (MORTON)",0,C,,110059388648
58558NRTHD1MILE,-100.51899999999999,46.895,False,38,015,011400,38,38015,38015011400,1400000US38015011400,NORTH DAKOTA CONCRETE PRODUCTS CO,1 MILE   S  OF I-94 EXIT 38,MENOKEN,ND,58558,"NORTH DAKOTA CONCRETE PRODUCTS CO.1 MILE   S  OF I-94 EXIT 38, MENOKEN NORTH DAKOTA 58558 (BURLEIGH)",0,C,,
5855WFRTRR11115,-100.541,46.816,False,38,015,011400,38,38015,38015011400,1400000US38015011400,FORTERRA CONCRETE PRODUCTS - MENOKEN,1101 158TH ST NE,MENOKEN,ND,58558,"FORTERRA CONCRETE PRODUCTS - MENOKEN.1101 158TH ST NE, MENOKEN NORTH DAKOTA 58558 (BURLEIGH)",0,C,,110069318580
58623ZNSFBRT1BO,-103.205,46.163000000000004,False,38,011,965300,38,38011,38011965300,1400000US38011965300,ZANE'S FIBERGLASS SHOP INC,RTE 1 BOX 2A,SCRANTON,ND,58623,"ZANE'S FIBERGLASS SHOP INC.RTE 1 BOX 2A, SCRANTON NORTH DAKOTA 58623 (BOWMAN)",0,C,,
58638HBRNBEASTW,-102.041,46.902,False,38,059,020500,38,38059,38059020500,1400000US38059020500,HEBRON BRICK CO,1000 WASHINGTON AVE E,HEBRON,ND,58638,"HEBRON BRICK CO.1000 WASHINGTON AVE E, HEBRON NORTH DAKOTA 58638 (MORTON)",0,C,,110014323393
58702NRTHD5THAV,-101.315,48.242,False,38,101,010400,38,38101,38101010400,1400000US38101010400,NORTH DAKOTA CONCRETE PRODUCTS CO,5TH AVE & 14TH ST  NE,MINOT,ND,58702,"NORTH DAKOTA CONCRETE PRODUCTS CO.5TH AVE & 14TH ST  NE, MINOT NORTH DAKOTA 58702 (WARD)",0,C,,
58802MRTCHHWY85,-103.72399999999999,48.132,False,38,105,953700,38,38105,38105953700,1400000US38105953700,MOR TECH FAB,4945 HWY 85 S,WILLISTON,ND,58801,"MOR TECH FAB.4945 HWY 85 S, WILLISTON NORTH DAKOTA 58801 (WILLIAMS)",0,C,,110000606087
5880WTHMSP4347T,-103.62899999999999,48.18899999999999,False,38,105,953700,38,38105,38105953700,1400000US38105953700,THOMAS PETROLEUM LLC WILLISTON NORTH BULK PLANT,403 47TH ST,WILLISTON,ND,58801,"THOMAS PETROLEUM LLC WILLISTON NORTH BULK PLANT.403 47TH ST, WILLISTON NORTH DAKOTA 58801 (WILLIAMS)",0,C,,110055061551
5880WNLCCM4925A,-103.72399999999999,48.129,False,38,105,953700,38,38105,38105953700,1400000US38105953700,NALCO COMPANY-WILLISTON,4925 A HWY 85,WILLISTON,ND,58801,"NALCO COMPANY-WILLISTON.4925 A HWY 85, WILLISTON NORTH DAKOTA 58801 (WILLIAMS)",0,C,,110064436588
5880WNLCCM1466B,-103.727,48.153999999999996,False,38,105,953700,38,38105,38105953700,1400000US38105953700,NALCO COMPANY-WILLISTON,14066 51ST ST NW,WILLISTON,ND,58801,"NALCO COMPANY-WILLISTON.14066 51ST ST NW, WILLISTON NORTH DAKOTA 58801 (WILLIAMS)",0,C,,110070491994
58202NWVSNHWY2W,-97.12,47.933,False,38,035,010400,38,38035,38035010400,1400000US38035010400,NEW VISION FIBERGLASS,6105 GATEWAY DR,GRAND FORKS,ND,58202,"NEW VISION FIBERGLASS.6105 GATEWAY DR, GRAND FORKS NORTH DAKOTA 58202 (GRAND FORKS)",0,C,,
58237LCHML35DIV,-97.413,48.427,False,38,099,958000,38,38099,38099958000,1400000US38099958000,ALCHEM LTD LP,35 DIVISION ST,GRAFTON,ND,58237,"ALCHEM LTD LP.35 DIVISION ST, GRAFTON NORTH DAKOTA 58237 (WALSH)",0,C,,
58501NRTHW3225E,-100.742,46.809,False,38,015,010900,38,38015,38015010900,1400000US38015010900,MIDWEST COCA-COLA BOTTLING CO,3225 E THAYER AVE,BISMARCK,ND,58502,"MIDWEST COCA-COLA BOTTLING CO.3225 E THAYER AVE, BISMARCK NORTH DAKOTA 58502 (BURLEIGH)",0,C,,
58501RGHRD3303E,-100.742,46.803999999999995,False,38,015,010900,38,38015,38015010900,1400000US38015010900,ROUGH RIDER IND,3303 E MAIN AVE,BISMARCK,ND,58502,"ROUGH RIDER IND.3303 E MAIN AVE, BISMARCK NORTH DAKOTA 58502 (BURLEIGH)",0,C,,
58201LYSTD810SO,-97.09899999999999,47.915,False,38,035,010801,38,38035,38035010801,1400000US38035010801,LYSTADS JANITORIAL PRODUCTS,810 S 48TH ST,GRAND FORKS,ND,58201,"LYSTADS JANITORIAL PRODUCTS.810 S 48TH ST, GRAND FORKS NORTH DAKOTA 58201 (GRAND FORKS)",0,C,,
58206LMGLS1580S,-97.09899999999999,47.905,False,38,035,010801,38,38035,38035010801,1400000US38035010801,LM WIND POWER BLADES INC,1580 S 48TH ST,GRAND FORKS,ND,58201,"LM WIND POWER BLADES INC.1580 S 48TH ST, GRAND FORKS NORTH DAKOTA 58201 (GRAND FORKS)",0,C,,110002124353
5820WWLLSC5DEME,-97.104,47.918,False,38,035,010801,38,38035,38035010801,1400000US38035010801,WELLS CONCRETE,5000 DEMERS AVENUE,GRAND FORKS,ND,58201,"WELLS CONCRETE.5000 DEMERS AVENUE, GRAND FORKS NORTH DAKOTA 58201 (GRAND FORKS)",0,C,,110004070273
58282DMCRNCOUNT,-97.889,48.911,False,38,067,950200,38,38067,38067950200,1400000US38067950200,ADM CORN PROCESSING,12868 COUNTY RD 9,WALHALLA,ND,582820709,"ADM CORN PROCESSING.12868 COUNTY RD 9, WALHALLA NORTH DAKOTA 58282 (PEMBINA)",0,C,,110000595035
58402NWMNS16066,-98.71600000000001,46.893,False,38,093,967800,38,38093,38093967800,1400000US38093967800,NEWMAN SIGNS INC,1606 6TH AVE SW,JAMESTOWN,ND,58402,"NEWMAN SIGNS INC.1606 6TH AVE SW, JAMESTOWN NORTH DAKOTA 58402 (STUTSMAN)",0,C,,
58433HRVSTHWY13,-98.709,46.358000000000004,False,38,045,972200,38,38045,38045972200,1400000US38045972200,HARVEST STATES CO-OP,HWY 13,EDGELEY,ND,58433,"HARVEST STATES CO-OP.HWY 13, EDGELEY NORTH DAKOTA 58433 (LAMOURE)",0,C,,
58433LNDLKHWY13,-98.70200000000001,46.355,False,38,045,972200,38,38045,38045972200,1400000US38045972200,LAND O'LAKES FARMLAND FEED,HWY 13,EDGELEY,ND,58433,"LAND O'LAKES FARMLAND FEED.HWY 13, EDGELEY NORTH DAKOTA 58433 (LAMOURE)",2,C,,
5843WCHSDG817HI,-98.715,46.355,False,38,045,972200,38,38045,38045972200,1400000US38045972200,CHS EDGELEY FEED,8170 HIGHWAY 13,EDGELEY,ND,58433,"CHS EDGELEY FEED.8170 HIGHWAY 13, EDGELEY NORTH DAKOTA 58433 (LAMOURE)",0,C,,110069292660
58601HRVSTWESTS,-102.75399999999999,46.927,False,38,089,963900,38,38089,38089963900,1400000US38089963900,LAND O'LAKES FARMLAND FEED,W SIDE INDL SITE RR,DICKINSON,ND,58601,"LAND O'LAKES FARMLAND FEED.W SIDE INDL SITE RR, DICKINSON NORTH DAKOTA 58601 (STARK)",0,C,,
58601HCDYC10021,-102.794,46.958,False,38,089,963900,38,38089,38089963900,1400000US38089963900,BRENNTAG PACIFIC INC,10021 63RD AVE,DICKINSON,ND,58601,"BRENNTAG PACIFIC INC.10021 63RD AVE, DICKINSON NORTH DAKOTA 58601 (STARK)",0,C,,110000428396
5860WBSNHY11813,-102.786,46.948,False,38,089,963900,38,38089,38089963900,1400000US38089963900,BASIN HYDRAULIC CO LLC,11081 32ND STREET SW,DICKINSON,ND,58601,"BASIN HYDRAULIC CO LLC.11081 32ND STREET SW, DICKINSON NORTH DAKOTA 58601 (STARK)",0,C,,110060280770
5863WKNFRV3596S,-102.601,46.891000000000005,False,38,089,963900,38,38089,38089963900,1400000US38089963900,KNIFE RIVER NORTH CENTRAL DICKINSON,3596 SW 102ND AVE,GLADSTONE,ND,58630,"KNIFE RIVER NORTH CENTRAL DICKINSON.3596 SW 102ND AVE, GLADSTONE NORTH DAKOTA 58630 (STARK)",1,C,,110060258554
5860WNLCCM14684,-102.787,46.923,False,38,089,963900,38,38089,38089963900,1400000US38089963900,NALCO COMPANY-DICKINSON 0485,146 43RD ST W,DICKINSON,ND,58601,"NALCO COMPANY-DICKINSON 0485.146 43RD ST W, DICKINSON NORTH DAKOTA 58601 (STARK)",0,C,,110037427433
5860WCHSDC4855G,-102.85,46.87,False,38,089,963900,38,38089,38089963900,1400000US38089963900,CHS DICKINSON FEED,4855 GTA DRIVE,DICKINSON,ND,58601,"CHS DICKINSON FEED.4855 GTA DRIVE, DICKINSON NORTH DAKOTA 58601 (STARK)",0,C,,110069292474
58788WNGRC1021S,-100.404,48.346000000000004,False,38,049,955600,38,38049,38049955600,1400000US38049955600,WINGER CHEESE INC,102 1ST ST SE,TOWNER,ND,587880238,"WINGER CHEESE INC.102 1ST ST SE, TOWNER NORTH DAKOTA 58788 (MCHENRY)",1,C,,
58368RGBYM5151S,-99.988,48.371,False,38,069,956100,38,38069,38069956100,1400000US38069956100,RUGBY MFG CO,515 FIRST ST NE INDUSTRIAL PARK,RUGBY,ND,583680229,"RUGBY MFG CO.515 FIRST ST NE INDUSTRIAL PARK, RUGBY NORTH DAKOTA 58368 (PIERCE)",0,C,,
58027NRTHR55251,-97.57700000000001,46.614,False,38,073,968900,38,38073,38073968900,1400000US38073968900,NORTHERN SUN-DIV OF ADM,5525 136TH AVE SE,ENDERLIN,ND,58027,"NORTHERN SUN-DIV OF ADM.5525 136TH AVE SE, ENDERLIN NORTH DAKOTA 58027 (RANSOM)",0,C,,110000428136
58790MDWSTRTE2B,-100.92399999999999,48.062,False,38,049,955900,38,38049,38049955900,1400000US38049955900,ADM PROCESSING,1388 HWY 97,VELVA,ND,58790,"ADM PROCESSING.1388 HWY 97, VELVA NORTH DAKOTA 58790 (MCHENRY)",0,C,,110000595115
58523CTPRP204CO,-101.764,47.262,False,38,057,961700,38,38057,38057961700,1400000US38057961700,COTEAU PROPERTIES CO FREEDOM MINE,204 COUNTY RD 15,BEULAH,ND,58523,"COTEAU PROPERTIES CO FREEDOM MINE.204 COUNTY RD 15, BEULAH NORTH DAKOTA 58523 (MERCER)",0,C,,110000428350
58523KNFRVHWY49,-101.785,47.299,False,38,057,961700,38,38057,38057961700,1400000US38057961700,KNIFE RIVER CORP BEULAH,HWY 49 S PO BOX 39,BEULAH,ND,58523,"KNIFE RIVER CORP BEULAH.HWY 49 S PO BOX 39, BEULAH NORTH DAKOTA 58523 (MERCER)",0,C,,
58523NTLPV294CO,-101.838,47.37,False,38,057,961800,38,38057,38057961800,1400000US38057961800,BASIN ELECTRIC   ANTELOPE VALLEY STATION,294 COUNTY 15,BEULAH,ND,585239475,"BASIN ELECTRIC   ANTELOPE VALLEY STATION.294 COUNTY 15, BEULAH NORTH DAKOTA 58523 (MERCER)",0,C,,110000428369
58523TTRTL62401,-101.814,47.222,False,38,057,961800,38,38057,38057961800,1400000US38057961800,OTTER TAIL POWER CO COYOTE STATION,6240 13TH ST SW,BEULAH,ND,58523,"OTTER TAIL POWER CO COYOTE STATION.6240 13TH ST SW, BEULAH NORTH DAKOTA 58523 (MERCER)",0,C,,110000428378
58571GRTRV4001H,-101.33200000000001,47.286,False,38,057,961800,38,38057,38057961800,1400000US38057961800,GREAT RIVER ENERGY STANTON STATION,4001 HWY 200A,STANTON,ND,58571,"GREAT RIVER ENERGY STANTON STATION.4001 HWY 200A, STANTON NORTH DAKOTA 58571 (MERCER)",0,C,,110000595080
58571LLNDL3901H,-101.319,47.282,False,38,057,961800,38,38057,38057961800,1400000US38057961800,BASIN ELECTRIC  LELAND OLDS STATION,3901 HWY 200A,STANTON,ND,58571,"BASIN ELECTRIC  LELAND OLDS STATION.3901 HWY 200A, STANTON NORTH DAKOTA 58571 (MERCER)",0,C,,110000595099
5852WBSNTR655CU,-101.887,47.281000000000006,False,38,057,961800,38,38057,38057961800,1400000US38057961800,BASIN TRANSLOAD_BEULAH BULK STORAGE,6550 COUNTY RD 20,BEULAH,ND,58523,"BASIN TRANSLOAD_BEULAH BULK STORAGE.6550 COUNTY RD 20, BEULAH NORTH DAKOTA 58523 (MERCER)",0,C,,110064074255
58530MLTNR34012,-101.214,47.066,False,38,065,961200,38,38065,38065961200,1400000US38065961200,MINNKOTA POWER COOPERATIVE INC MILTON R YOUNG STATION,3401 24 ST SW,CENTER,ND,58530,"MINNKOTA POWER COOPERATIVE INC MILTON R YOUNG STATION.3401 24 ST SW, CENTER NORTH DAKOTA 58530 (OLIVER)",0,C,,110000428387
58530BNCLL23603,-101.23299999999999,47.071999999999996,False,38,065,961200,38,38065,38065961200,1400000US38065961200,BNI COAL LTD,2360 35TH ST SW,CENTER,ND,58530,"BNI COAL LTD.2360 35TH ST SW, CENTER NORTH DAKOTA 58530 (OLIVER)",0,C,,110011788191
5853WRSHGS34124,-101.228,47.068000000000005,False,38,065,961200,38,38065,38065961200,1400000US38065961200,"ERSHIGS, INC. C/O MINNKOTA POWER - MITLTON R. YOUNG STATION",3401 24TH STREET SW,CENTER,ND,58530,"ERSHIGS, INC. C/O MINNKOTA POWER - MITLTON R. YOUNG STATION.3401 24TH STREET SW, CENTER NORTH DAKOTA 58530 (OLIVER)",1,C,,110043693955
58576FLKRK3MILE,-101.084,47.5,False,38,055,961000,38,38055,38055961000,1400000US38055961000,FALKIRK MINING CO,2801 1ST ST SW,UNDERWOOD,ND,58576,"FALKIRK MINING CO.2801 1ST ST SW, UNDERWOOD NORTH DAKOTA 58576 (MCLEAN)",0,C,,110015975444
58576GRTRV28753,-101.15700000000001,47.378,False,38,055,960800,38,38055,38055960800,1400000US38055960800,COAL CREEK STATION,2875 3RD ST SW,UNDERWOOD,ND,58576,"COAL CREEK STATION.2875 3RD ST SW, UNDERWOOD NORTH DAKOTA 58576 (MCLEAN)",0,C,,110000494563
58576BLFLN28413,-101.152,47.458,False,38,055,960800,38,38055,38055960800,1400000US38055960800,BLUE FLINT ETHANOL,2841 3RD ST SW,UNDERWOOD,ND,58576,"BLUE FLINT ETHANOL.2841 3RD ST SW, UNDERWOOD NORTH DAKOTA 58576 (MCLEAN)",0,C,,110028279413
58652RCHRD11SAV,-102.31700000000001,46.883,False,38,089,963300,38,38089,38089963300,1400000US38089963300,RICHARDTON MANUFACTURING CO,11 S AVE W,RICHARDTON,ND,58652,"RICHARDTON MANUFACTURING CO.11 S AVE W, RICHARDTON NORTH DAKOTA 58652 (STARK)",0,C,,
58652RDTRL3682H,-102.296,46.879,False,38,089,963300,38,38089,38089963300,1400000US38089963300,RED TRAIL ENERGY LLC,3682 HWY 8 S,RICHARDTON,ND,58652,"RED TRAIL ENERGY LLC.3682 HWY 8 S, RICHARDTON NORTH DAKOTA 58652 (STARK)",0,C,,110027922602
58601CHMPN6040T,-102.786,46.919,False,38,089,963400,38,38089,38089963400,1400000US38089963400,NALCO COMPANY-DICKINSON 597,60 40TH ST W,DICKINSON,ND,58601,"NALCO COMPANY-DICKINSON 597.60 40TH ST W, DICKINSON NORTH DAKOTA 58601 (STARK)",0,C,,110004069025
5860WBRNNT2752E,-102.741,46.876000000000005,False,38,089,963400,38,38089,38089963400,1400000US38089963400,BRENNTAG PACIFIC INC,2752 EAST VILLARD,DICKINSON,ND,58601,"BRENNTAG PACIFIC INC.2752 EAST VILLARD, DICKINSON NORTH DAKOTA 58601 (STARK)",0,C,,110014452984
5860WNVRSN54528,-102.742,46.882,False,38,089,963400,38,38089,38089963400,1400000US38089963400,UNIVAR USA INC DICKINSON,545 28TH ST,DICKINSON,ND,58601,"UNIVAR USA INC DICKINSON.545 28TH ST, DICKINSON NORTH DAKOTA 58601 (STARK)",0,C,,110056208802
5860WHLLBR27134,-102.787,46.917,False,38,089,963400,38,38089,38089963400,1400000US38089963400,HALLIBURTON DICKINSON FIELD CAMP,271 34ST W,DICKINSON,ND,58601,"HALLIBURTON DICKINSON FIELD CAMP.271 34ST W, DICKINSON NORTH DAKOTA 58601 (STARK)",0,C,,110070550493
58072VNSCL1025F,-98.024,46.935,False,38,003,968000,38,38003,38003968000,1400000US38003968000,PARKER HANNIFIN CORP,1025 FOUR BOTTLE DR,VALLEY CITY,ND,58072,"PARKER HANNIFIN CORP.1025 FOUR BOTTLE DR, VALLEY CITY NORTH DAKOTA 58072 (BARNES)",0,C,,110004067303
58329TRTLM1STST,-100.061,48.812,False,38,079,951700,38,38079,38079951700,1400000US38079951700,BENCHMARK ELECTRONICS INC,19 2ND ST SE,DUNSEITH,ND,58329,"BENCHMARK ELECTRONICS INC.19 2ND ST SE, DUNSEITH NORTH DAKOTA 58329 (ROLETTE)",0,C,,110007673035
58463PLRWR9104T,-100.67299999999999,47.547,False,38,083,960200,38,38083,38083960200,1400000US38083960200,POLAR WARE CO,910 4TH ST E,MCCLUSKY,ND,58463,"POLAR WARE CO.910 4TH ST E, MCCLUSKY NORTH DAKOTA 58463 (SHERIDAN)",0,C,,110012704635
58802SBNMT1512T,-103.604,48.144,False,38,105,954100,38,38105,38105954100,1400000US38105954100,SABIN METAL WEST CORP,15 12TH AVE E,WILLISTON,ND,58801,"SABIN METAL WEST CORP.15 12TH AVE E, WILLISTON NORTH DAKOTA 58801 (WILLIAMS)",0,C,,110009417586
5880WTHMSP131ST,-103.62299999999999,48.144,False,38,105,954100,38,38105,38105954100,1400000US38105954100,THOMAS PETROLEUM LLC WILLISTON SOUTH BULK PLANT,103 1ST ST W,WILLISTON,ND,58801,"THOMAS PETROLEUM LLC WILLISTON SOUTH BULK PLANT.103 1ST ST W, WILLISTON NORTH DAKOTA 58801 (WILLIAMS)",0,C,,110060280280
58502HRTLN1503Y,-100.73100000000001,46.788999999999994,False,38,015,011300,38,38015,38015011300,1400000US38015011300,HUBBARD FEEDS INC,1503 YEGEN RD,BISMARCK,ND,58504,"HUBBARD FEEDS INC.1503 YEGEN RD, BISMARCK NORTH DAKOTA 58504 (BURLEIGH)",0,C,,110022521626
5850WKNFRV335RC,-100.742,46.795,False,38,015,011300,38,38015,38015011300,1400000US38015011300,KNIFE RIVER NORTH CENTRAL BISMARCK ROCK ISLAND,3305 ROCK ISLAND PL,BISMARCK,ND,58504,"KNIFE RIVER NORTH CENTRAL BISMARCK ROCK ISLAND.3305 ROCK ISLAND PL, BISMARCK NORTH DAKOTA 58504 (BURLEIGH)",0,C,,110060258830
5850WSTRTC9YEGE,-100.73299999999999,46.797,False,38,015,011300,38,38015,38015011300,1400000US38015011300,STRATA CONCRETE BISMARCK,900 YEGEN RD,BISMARCK,ND,58504,"STRATA CONCRETE BISMARCK.900 YEGEN RD, BISMARCK NORTH DAKOTA 58504 (BURLEIGH)",1,C,,110056175749
58705SRFRC32PEA,-101.36,48.431999999999995,False,38,101,010900,38,38101,38101010900,1400000US38101010900,US DOD USAF MINOT AFB,445 PEACEKEEPER PL ATTN: 5 CES CEAN,MINOT AFB,ND,58705,"US DOD USAF MINOT AFB.445 PEACEKEEPER PL ATTN: 5 CES CEAN, MINOT AFB NORTH DAKOTA 58705 (WARD)",0,F,,110022523492
58072JHNDR12257,-97.984,46.917,False,38,003,968200,38,38003,38003968200,1400000US38003968200,JOHN DEERE SEEDING GROUP VALLEY CITY ND,1725 7TH ST SE,VALLEY CITY,ND,58072,"JOHN DEERE SEEDING GROUP VALLEY CITY ND.1725 7TH ST SE, VALLEY CITY NORTH DAKOTA 58072 (BARNES)",0,C,,110001505185
58102PHNXN175ND,-96.807,46.902,False,38,017,000300,38,38017,38017000300,1400000US38017000300,PHOENIX INTERNATIONAL,1750 NDSU RESEARCH PARK DR,FARGO,ND,58102,"PHOENIX INTERNATIONAL.1750 NDSU RESEARCH PARK DR, FARGO NORTH DAKOTA 58102 (CASS)",0,C,,110022922747
58205SRFRC319AR,-97.329,47.948,False,38,035,011400,38,38035,38035011400,1400000US38035011400,US AIR FORCE GRAND FORKS AIR FORCE BASE ND,319 ARW/CC 460 STEEN BLVD,GRAND FORKS AFB,ND,58205,"US AIR FORCE GRAND FORKS AIR FORCE BASE ND.319 ARW/CC 460 STEEN BLVD, GRAND FORKS AFB NORTH DAKOTA 58205 (GRAND FORKS)",0,F,,110028223517
58474JLGND14N14,-98.08,46.152,False,38,021,973200,38,38021,38021973200,1400000US38021973200,OSHKOSH CORPORATION - OAKES FACILITY,1400 N 14TH ST,OAKES,ND,58474,"OSHKOSH CORPORATION - OAKES FACILITY.1400 N 14TH ST, OAKES NORTH DAKOTA 58474 (DICKEY)",0,C,,110022364083
58495WSHKS1122N,-99.566,46.257,False,38,051,972900,38,38051,38051972900,1400000US38051972900,WISHEK MANUFACTURING LLC,112 2ND AVE S,WISHEK,ND,58495,"WISHEK MANUFACTURING LLC.112 2ND AVE S, WISHEK NORTH DAKOTA 58495 (MCINTOSH)",0,C,,110037143828
5807WTRLKN2133R,-96.939,46.88,False,38,017,010201,38,38017,38017010201,1400000US38017010201,TRAIL KING INDUSTRIES INC,2130 3RD AV NW,WEST FARGO,ND,58078,"TRAIL KING INDUSTRIES INC.2130 3RD AV NW, WEST FARGO NORTH DAKOTA 58078 (CASS)",0,C,,110031417143
5807WCTRPL1262W,-96.92399999999999,46.876999999999995,False,38,017,010201,38,38017,38017010201,1400000US38017010201,CATERPILLAR REMANUFACTURING DRIVETRAIN LLC,1262 W MAIN AVE,WEST FARGO,ND,58078,"CATERPILLAR REMANUFACTURING DRIVETRAIN LLC.1262 W MAIN AVE, WEST FARGO NORTH DAKOTA 58078 (CASS)",0,C,,110060259401
58038HBBRD943IN,-97.001,47.236999999999995,False,38,017,040200,38,38017,38017040200,1400000US38017040200,HUBBARD FEEDS INC,943 INDUSTRIAL DR,GRANDIN,ND,58038,"HUBBARD FEEDS INC.943 INDUSTRIAL DR, GRANDIN NORTH DAKOTA 58038 (CASS)",0,C,,110039073702
5804WRBFCQ923CU,-96.887,46.073,False,38,077,971400,38,38077,38077971400,1400000US38077971400,HANKINSON RENEWABLE ENERGY LLC,9230 COUNTY RD 1,HANKINSON,ND,58041,"HANKINSON RENEWABLE ENERGY LLC.9230 COUNTY RD 1, HANKINSON NORTH DAKOTA 58041 (RICHLAND)",0,C,,110035968584
5801WTHRLD35491,-97.26299999999999,46.903999999999996,False,38,017,040300,38,38017,38017040300,1400000US38017040300,THARALDSON ETHANOL PLANT I LLC,3549 153RD AVENUE SE,CASSELTON,ND,58012,"THARALDSON ETHANOL PLANT I LLC.3549 153RD AVENUE SE, CASSELTON NORTH DAKOTA 58012 (CASS)",0,C,,110038887915
58078DMNDS42EMA,-96.89200000000001,46.876999999999995,False,38,017,010203,38,38017,38017010203,1400000US38017010203,TRINITY CONTAINERS LLC PLANT NO 1593,420 E MAIN AVE,WEST FARGO,ND,58078,"TRINITY CONTAINERS LLC PLANT NO 1593.420 E MAIN AVE, WEST FARGO NORTH DAKOTA 58078 (CASS)",0,C,,110004068598
58075DSNNF17851,-96.66799999999999,46.261,False,38,077,971100,38,38077,38077971100,1400000US38077971100,DOOSAN INFRACORE CONSTRUCTION EQUIPMENT,2101 11TH ST N,WAHPETON,ND,58075,"DOOSAN INFRACORE CONSTRUCTION EQUIPMENT.2101 11TH ST N, WAHPETON NORTH DAKOTA 58075 (RICHLAND)",0,C,,110043693946
5880WSMNSP531PE,-103.73700000000001,48.146,False,38,105,953500,38,38105,38105953500,1400000US38105953500,SIMONS PETROLEUM BULK STORAGE FACILITY,5031 PETROLEUM PARK DRIVE,WILLISTON,ND,58801,"SIMONS PETROLEUM BULK STORAGE FACILITY.5031 PETROLEUM PARK DRIVE, WILLISTON NORTH DAKOTA 58801 (WILLIAMS)",0,C,,110046122708
5880WSTRTC14164,-103.74700000000001,48.155,False,38,105,953500,38,38105,38105953500,1400000US38105953500,STRATA CONCRETE WILLISTON 404,14164 51 ST NW,WILLISTON,ND,58801,"STRATA CONCRETE WILLISTON 404.14164 51 ST NW, WILLISTON NORTH DAKOTA 58801 (WILLIAMS)",0,C,,110060280271
5872WBSNTR11549,-102.743,48.888000000000005,False,38,013,953300,38,38013,38013953300,1400000US38013953300,BASIN TRANSLOAD_STAMPEDE BULK STORAGE,10154 93RD AVE,COLUMBUS,ND,58727,"BASIN TRANSLOAD_STAMPEDE BULK STORAGE.10154 93RD AVE, COLUMBUS NORTH DAKOTA 58727 (BURKE)",0,C,,110054072784
5880WMSKTDCUNTY,-104.031,47.92100000000001,False,38,053,962500,38,38053,38053962500,1400000US38053962500,MUSKET DORE BULK PLANT,COUNTY RD 140 & HWY 58,DORE,ND,58801,"MUSKET DORE BULK PLANT.COUNTY RD 140 & HWY 58, DORE NORTH DAKOTA 58801 (MCKENZIE)",1,C,,110054611540
5860WWRTHN1796S,-102.79,46.848,False,38,089,963800,38,38089,38089963800,1400000US38089963800,PALMER MANUFACTURING & TANK INC,1796 S MAIN,DICKINSON,ND,58601,"PALMER MANUFACTURING & TANK INC.1796 S MAIN, DICKINSON NORTH DAKOTA 58601 (STARK)",0,C,,110060259535
5862WNDLND37261,-103.295,46.871,False,38,007,963100,38,38007,38007963100,1400000US38007963100,FRYBURG RAIL TERMINAL,3726 135TH AVENUE SW,BELFIELD,ND,58622,"FRYBURG RAIL TERMINAL.3726 135TH AVENUE SW, BELFIELD NORTH DAKOTA 58622 (BILLINGS)",0,C,,110060280253
5870WSTRTC15127,-101.25299999999999,48.22,False,38,101,010700,38,38101,38101010700,1400000US38101010700,STRATA CONCRETE MINOT,1510 27TH ST SE,MINOT,ND,58701,"STRATA CONCRETE MINOT.1510 27TH ST SE, MINOT NORTH DAKOTA 58701 (WARD)",0,C,,110004069588
5878WMLTCH714TH,-102.384,48.31100000000001,False,38,061,955200,38,38061,38061955200,1400000US38061955200,MULTI-CHEM GROUP STANLEY ND FACILITY,701 4TH STREET SW,STANLEY,ND,58784,"MULTI-CHEM GROUP STANLEY ND FACILITY.701 4TH STREET SW, STANLEY NORTH DAKOTA 58784 (MOUNTRAIL)",0,C,,110044979146
5878WNLCCM635HW,-102.391,48.328,False,38,061,955200,38,38061,38061955200,1400000US38061955200,NALCO COMPANY-STANLEY,6305 HWY 8 N,STANLEY,ND,58784,"NALCO COMPANY-STANLEY.6305 HWY 8 N, STANLEY NORTH DAKOTA 58784 (MOUNTRAIL)",0,C,,110062561918
5876WPLRMP11RAI,-102.227,48.336999999999996,False,38,061,955200,38,38061,38061955200,1400000US38061955200,PALERMO PRODUCT TERMINAL,1001 RAILROAD AVE,PALERMO,ND,58769,"PALERMO PRODUCT TERMINAL.1001 RAILROAD AVE, PALERMO NORTH DAKOTA 58769 (MOUNTRAIL)",0,C,,110067717073
5880WKNFRV56541,-103.583,48.233999999999995,False,38,105,953600,38,38105,38105953600,1400000US38105953600,KNIFE RIVER NORTH CENTRAL WILLISTON,5654 134TH AVE,WILLISTON,ND,58801,"KNIFE RIVER NORTH CENTRAL WILLISTON.5654 134TH AVE, WILLISTON NORTH DAKOTA 58801 (WILLIAMS)",0,C,,110060258563
5884WCLTHB12324,-103.35,48.28,False,38,105,953600,38,38105,38105953600,1400000US38105953600,CRESTWOOD CRUDE LOGISTICS LP,12324 60TH ST NW,EPPING,ND,58843,"CRESTWOOD CRUDE LOGISTICS LP.12324 60TH ST NW, EPPING NORTH DAKOTA 58843 (WILLIAMS)",0,C,,110060257699
5880WHLLBR42HAL,-103.581,48.15,False,38,105,953600,38,38105,38105953600,1400000US38105953600,HALLIBURTON WILLISTON FIELD CAMP,420 HALLIBURTON DR,WILLISTON,ND,58801,"HALLIBURTON WILLISTON FIELD CAMP.420 HALLIBURTON DR, WILLISTON NORTH DAKOTA 58801 (WILLIAMS)",0,C,,110004068008
5884WRRWCD172HI,-102.82600000000001,47.803000000000004,False,38,053,962300,38,38053,38053962300,1400000US38053962300,ARROW CDP,10702 HIGHWAY 73,KEENE,ND,58847,"ARROW CDP.10702 HIGHWAY 73, KEENE NORTH DAKOTA 58847 (MCKENZIE)",0,C,,110060280299
5862WNLCCM14623,-103.397,46.177,False,38,011,965200,38,38011,38011965200,1400000US38011965200,NALCO COMPANY-BOWMAN,146-23 HWY 12 SW,BOWMAN,ND,58623,"NALCO COMPANY-BOWMAN.146-23 HWY 12 SW, BOWMAN NORTH DAKOTA 58623 (BOWMAN)",1,C,,110062016991
5860WDKTPR38151,-102.948,47.088,False,38,025,962200,38,38089,38025962200,1400000US38025962200,MARATHON DICKINSON REFINERY,3815 116TH AVE SW,DICKINSON,ND,58601,"MARATHON DICKINSON REFINERY.3815 116TH AVE SW, DICKINSON NORTH DAKOTA 58601 (STARK)",0,C,,110059678353
5860WWSTGT37WES,-102.814,46.876999999999995,False,38,089,963500,38,38089,38089963500,1400000US38089963500,WESTGATE AVE,37 WESTGATE AVE,DICKINSON,ND,58601,"WESTGATE AVE.37 WESTGATE AVE, DICKINSON NORTH DAKOTA 58601 (STARK)",0,C,,110069319507
5876WDKTPL38958,-102.47200000000001,47.927,False,38,061,940400,38,38061,38061940400,1400000US38061940400,BIOURJA NEW TOWN TERMINAL LLC,3889 88TH AVE NW,NEW TOWN,ND,58763,"BIOURJA NEW TOWN TERMINAL LLC.3889 88TH AVE NW, NEW TOWN NORTH DAKOTA 58763 (MOUNTRAIL)",0,C,,110064648181
5885WWSTDK213RD,-103.285,47.798,False,38,053,962400,38,38053,38053962400,1400000US38053962400,STRATA CONCRETE WATFORD CITY,201 3RD AVE SW,WATFORD CITY,ND,58854,"STRATA CONCRETE WATFORD CITY.201 3RD AVE SW, WATFORD CITY NORTH DAKOTA 58854 (MCKENZIE)",0,C,,110063057640
5885WKNFRV414TH,-103.288,47.799,False,38,053,962400,38,38053,38053962400,1400000US38053962400,KNIFE RIVER NORTH CENTRAL WATFORD CITY,401 4TH ST SW,WATFORD CITY,ND,58854,"KNIFE RIVER NORTH CENTRAL WATFORD CITY.401 4TH ST SW, WATFORD CITY NORTH DAKOTA 58854 (MCKENZIE)",0,C,,110070069231
5842WDKTGR1PAST,-99.137,47.463,False,38,031,959600,38,38031,38031959600,1400000US38031959600,DAKOTA GROWERS PASTA COMPANY-CARRINGTON PLANT,1000 11TH ST N,CARRINGTON,ND,58421,"DAKOTA GROWERS PASTA COMPANY-CARRINGTON PLANT.1000 11TH ST N, CARRINGTON NORTH DAKOTA 58421 (FOSTER)",0,C,,110056227603
5880WHLLBR36AVE,-103.605,48.161,False,38,105,953900,38,38105,38105953900,1400000US38105953900,HALLIBURTON WILLISTON BAROID,36 AVENUE SOUTH,WILLISTON,ND,58801,"HALLIBURTON WILLISTON BAROID.36 AVENUE SOUTH, WILLISTON NORTH DAKOTA 58801 (WILLIAMS)",0,C,,110056169051
