TRIFID,LONGITUDE,LATITUDE,ESTIMATE,STATEFP,COUNTYFP,TRACTCE,STATEGEOID,COUNTYGEOID,TRACTGEOID,AFFGEOID,FACILITY_NAME,STREET,CITY,STUSPS,ZIP_CODE,FACILITY,FAC_CLOSED_IND,ASGN_FEDERAL_IND,BIA_CODE,EPA_REGISTRY_ID
68005DXPTR11202,-95.948,41.147,False,31,153,010501,31,31153,31153010501,1400000US31153010501,DPC INDUSTRIES INC,11202 S 25TH ST,BELLEVUE,NE,68123,"DPC INDUSTRIES INC.11202 S 25TH ST, BELLEVUE NEBRASKA 68123 (SARPY)",0,C,,110000447348
68147TRJTW7025S,-95.95100000000001,41.18899999999999,False,31,153,010501,31,31153,31153010501,1400000US31153010501,TRAJET PRODUCTS,7025 SARPY AVE,BELLEVUE,NE,68147,"TRAJET PRODUCTS.7025 SARPY AVE, BELLEVUE NEBRASKA 68147 (SARPY)",0,C,,
68022BRMKM150BI,-96.23299999999999,41.276,False,31,055,007512,31,31055,31055007512,1400000US31055007512,BRUMKO MAGNETICS CORP,150 BINFIELD ST,ELKHORN,NE,68022,"BRUMKO MAGNETICS CORP.150 BINFIELD ST, ELKHORN NEBRASKA 68022 (DOUGLAS)",0,C,,
68022RDYMX848N1,-96.21600000000001,41.266999999999996,False,31,055,007512,31,31055,31055007512,1400000US31055007512,READY MIXED CONCRETE CO  ELKHORN PLANT,848 N 192ND ST,ELKHORN,NE,68022,"READY MIXED CONCRETE CO  ELKHORN PLANT.848 N 192ND ST, ELKHORN NEBRASKA 68022 (DOUGLAS)",0,C,,110015713628
6302WCNCRT2395H,-96.234,41.282,False,31,055,007512,31,31055,31055007512,1400000US31055007512,CONCRETE SUPPLY,20395 OHIO ST,ELKHORN,NE,68022,"CONCRETE SUPPLY.20395 OHIO ST, ELKHORN NEBRASKA 68022 (DOUGLAS)",0,C,,110045901832
68025CMPBL900FA,-96.488,41.425,False,31,053,964400,31,31053,31053964400,1400000US31053964400,CAMPBELL SOUP CO,900 FACTORY ST,FREMONT,NE,68025,"CAMPBELL SOUP CO.900 FACTORY ST, FREMONT NEBRASKA 68025 (DODGE)",0,C,,
68025FRMLN330EA,-96.495,41.419,False,31,053,964400,31,31053,31053964400,1400000US31053964400,LAND O'LAKES PURINA FEED LLC - FREMONT,330 E CLOVERLY RD,FREMONT,NE,68025,"LAND O'LAKES PURINA FEED LLC - FREMONT.330 E CLOVERLY RD, FREMONT NEBRASKA 68025 (DODGE)",0,C,,110000447384
68025GHRML900SO,-96.485,41.423,False,31,053,964400,31,31053,31053964400,1400000US31053964400,WHOLESTONE FARMS COOPERATIVE INC,900 S PLATTE AVE,FREMONT,NE,68025,"WHOLESTONE FARMS COOPERATIVE INC.900 S PLATTE AVE, FREMONT NEBRASKA 68025 (DODGE)",0,C,,110000555550
68025VGRTN943SS,-96.49,41.42100000000001,False,31,053,964400,31,31053,31053964400,1400000US31053964400,PROVIMI NA INC,943 S SCHNEIDER,FREMONT,NE,68025,"PROVIMI NA INC.943 S SCHNEIDER, FREMONT NEBRASKA 68025 (DODGE)",0,C,,110000447446
68025MGNSFSOUTH,-96.48200000000001,41.423,False,31,053,964300,31,31053,31053964300,1400000US31053964300,MAGNUS LLC,1300 MORNINGSIDE RD,FREMONT,NE,68025,"MAGNUS LLC.1300 MORNINGSIDE RD, FREMONT NEBRASKA 68025 (DODGE)",0,C,,110000447419
68025CTYFF2701E,-96.461,41.428000000000004,False,31,053,964300,31,31053,31053964300,1400000US31053964300,CITY OF FREMONT DEPARTMENT OF UTILITIES LON D WRIGHT POWER,2701 E FIRST ST,FREMONT,NE,68025,"CITY OF FREMONT DEPARTMENT OF UTILITIES LON D WRIGHT POWER.2701 E FIRST ST, FREMONT NEBRASKA 68025 (DODGE)",0,C,,110040983308
68025LGRFR905SD,-96.473,41.42,False,31,053,964300,31,31053,31053964300,1400000US31053964300,OILGEAR FREMONT DIV,905 S DOWNING ST,FREMONT,NE,68025,"OILGEAR FREMONT DIV.905 S DOWNING ST, FREMONT NEBRASKA 68025 (DODGE)",0,C,,110000447400
68025PLTTC150SO,-96.49600000000001,41.428999999999995,False,31,053,964200,31,31053,31053964200,1400000US31053964200,PLATTE CHEMICAL COMPANY,150 S MAIN,FREMONT,NE,68025,"PLATTE CHEMICAL COMPANY.150 S MAIN, FREMONT NEBRASKA 68025 (DODGE)",0,C,,110000447428
68025RCHRD130NB,-96.499,41.431000000000004,False,31,053,964200,31,31053,31053964200,1400000US31053964200,ADM,130 N BROAD ST,FREMONT,NE,68025,"ADM.130 N BROAD ST, FREMONT NEBRASKA 68025 (DODGE)",0,C,,110000447437
68025GLDNS950SO,-96.492,41.438,False,31,053,964200,31,31053,31053964200,1400000US31053964200,GOLDEN SUN FEEDS INC,950 UNION ST,FREMONT,NE,68025,"GOLDEN SUN FEEDS INC.950 UNION ST, FREMONT NEBRASKA 68025 (DODGE)",1,C,,
68025SPRSW131NO,-96.499,41.431000000000004,False,31,053,964200,31,31053,31053964200,1400000US31053964200,SUPERSWEET FEEDS,131 N BROAD,FREMONT,NE,68025,"SUPERSWEET FEEDS.131 N BROAD, FREMONT NEBRASKA 68025 (DODGE)",0,C,,
68037SHGRVJUNCT,-96.155,41.006,False,31,025,965700,31,31025,31025965700,1400000US31025965700,ASH GROVE CEMENT CO,16215 HWY 50,LOUISVILLE,NE,68037,"ASH GROVE CEMENT CO.16215 HWY 50, LOUISVILLE NEBRASKA 68037 (CASS)",0,C,,110000596793
6804WLYMNR19746,-96.024,41.05,False,31,025,965700,31,31025,31025965700,1400000US31025965700,"LYMAN-RICHEY SAND & GRAVEL COMPANY - PIT#3, WEST CULLOM",19746 72ND STREET,PLATTSMOUTH,NE,68048,"LYMAN-RICHEY SAND & GRAVEL COMPANY - PIT#3, WEST CULLOM.19746 72ND STREET, PLATTSMOUTH NEBRASKA 68048 (CASS)",0,C,,110043671014
68047DVNDSRR3XX,-96.71,42.105,False,31,173,940100,31,31173,31173940100,1400000US31173940100,DV INDUSTRIES INC,RRTE 3,PENDER,NE,68047,"DV INDUSTRIES INC.RRTE 3, PENDER NEBRASKA 68047 (THURSTON)",0,C,,
68047TMTCQINDUS,-96.71700000000001,42.103,False,31,173,940100,31,31173,31173940100,1400000US31173940100,AUTOMATIC EQUIPMENT MANUFACTURING CO/BLUE OX DIV,ONE MILL RD INDUSTRIAL PARK,PENDER,NE,68047,"AUTOMATIC EQUIPMENT MANUFACTURING CO/BLUE OX DIV.ONE MILL RD INDUSTRIAL PARK, PENDER NEBRASKA 68047 (THURSTON)",0,C,,110000447455
68067CRCLR102SL,-96.486,42.147,False,31,173,940100,31,31173,31173940100,1400000US31173940100,CIRCLE R TRAILERS,102 SLADE AVE,WALTHILL,NE,68067,"CIRCLE R TRAILERS.102 SLADE AVE, WALTHILL NEBRASKA 68067 (THURSTON)",0,C,,
68064MCXXX600EA,-96.337,41.306000000000004,False,31,055,007504,31,31055,31055007504,1400000US31055007504,3M CO-VALLEY,600 E MEIGS,VALLEY,NE,68064,"3M CO-VALLEY.600 E MEIGS, VALLEY NEBRASKA 68064 (DOUGLAS)",0,C,,110000447464
68064VLMNTWESTH,-96.366,41.328,False,31,055,007504,31,31055,31055007504,1400000US31055007504,VALMONT INDUSTRIES INC,28800 IDA ST,VALLEY,NE,68064,"VALMONT INDUSTRIES INC.28800 IDA ST, VALLEY NEBRASKA 68064 (DOUGLAS)",0,C,,110057862013
68064RDYMX27985,-96.35700000000001,41.321000000000005,False,31,055,007504,31,31055,31055007504,1400000US31055007504,READY MIXED CONCRETE COMPANY  VALLEY PLANT,27985 IDA STREET,VALLEY,NE,68064,"READY MIXED CONCRETE COMPANY  VALLEY PLANT.27985 IDA STREET, VALLEY NEBRASKA 68064 (DOUGLAS)",0,C,,110001520364
6806WLYMNR28333,-96.36200000000001,41.321000000000005,False,31,055,007504,31,31055,31055007504,1400000US31055007504,LYMAN RICHEY SAND AND GRAVEL: VALLEY PLANT (PIT#7),28333 IDA STREET,VALLEY,NE,68064,"LYMAN RICHEY SAND AND GRAVEL: VALLEY PLANT (PIT#7).28333 IDA STREET, VALLEY NEBRASKA 68064 (DOUGLAS)",0,C,,110039494231
6806WMDWST481NR,-96.329,41.303000000000004,False,31,055,007504,31,31055,31055007504,1400000US31055007504,MIDWEST MFG VALLEY TREATING PLANT,4801 NORTH 264TH STREET,VALLEY,NE,68064,"MIDWEST MFG VALLEY TREATING PLANT.4801 NORTH 264TH STREET, VALLEY NEBRASKA 68064 (DOUGLAS)",0,C,,110060280342
68101CMPBL1202D,-95.931,41.261,False,31,055,000500,31,31055,31055000500,1400000US31055000500,PINNACLE FOODS CORP,1116 CAPITAL AVE,OMAHA,NE,68102,"PINNACLE FOODS CORP.1116 CAPITAL AVE, OMAHA NEBRASKA 68102 (DOUGLAS)",0,C,,
68102NDSTR1015N,-95.934,41.27,False,31,055,000500,31,31055,31055000500,1400000US31055000500,INDUSTRIAL CHEMICAL LABORATORIES INC,1015 N 14TH ST,OMAHA,NE,68102,"INDUSTRIAL CHEMICAL LABORATORIES INC.1015 N 14TH ST, OMAHA NEBRASKA 68102 (DOUGLAS)",0,C,,
68110BCNCX1919N,-95.93,41.276,False,31,055,000500,31,31055,31055000500,1400000US31055000500,BCI INC,1919 N 11TH ST,OMAHA,NE,68110,"BCI INC.1919 N 11TH ST, OMAHA NEBRASKA 68110 (DOUGLAS)",0,C,,
68110RMNMR5606L,-95.917,41.31,False,31,055,000500,31,31055,31055000500,1400000US31055000500,ROMAN MARBLE PRODUCTS INC,5606 LINBERGH DR,OMAHA,NE,68110,"ROMAN MARBLE PRODUCTS INC.5606 LINBERGH DR, OMAHA NEBRASKA 68110 (DOUGLAS)",1,C,,110000447534
68110PHLLP2828N,-95.93,41.284,False,31,055,000500,31,31055,31055000500,1400000US31055000500,PHILLIPS MANUFACTURING CO,2828 N 11TH ST,OMAHA,NE,68110,"PHILLIPS MANUFACTURING CO.2828 N 11TH ST, OMAHA NEBRASKA 68110 (DOUGLAS)",0,C,,
68110KCHMT1404G,-95.935,41.277,False,31,055,000500,31,31055,31055000500,1400000US31055000500,KOCH MATERIALS CO,1404 GRACE ST,OMAHA,NE,681102549,"KOCH MATERIALS CO.1404 GRACE ST, OMAHA NEBRASKA 68110 (DOUGLAS)",0,C,,
68110RDYMX7SEWA,-95.925,41.273999999999994,False,31,055,000500,31,31055,31055000500,1400000US31055000500,READY-MIXED CONCRETE COMPANY: 7TH&SEWARD PLANT,700 SEWARD STREET,OMAHA,NE,68110,"READY-MIXED CONCRETE COMPANY: 7TH&SEWARD PLANT.700 SEWARD STREET, OMAHA NEBRASKA 68110 (DOUGLAS)",0,C,,110020056838
68110DRKWL162N1,-95.93,41.275,False,31,055,000500,31,31055,31055000500,1400000US31055000500,DRAKE-WILLIAMS STEEL,1602 N 11TH ST,OMAHA,NE,68110,"DRAKE-WILLIAMS STEEL.1602 N 11TH ST, OMAHA NEBRASKA 68110 (DOUGLAS)",0,C,,110001508413
6811WMNRCH22AVE,-95.902,41.282,False,31,055,000500,31,31055,31055000500,1400000US31055000500,MONARCH OIL CO,2200 AVE H E,OMAHA,NE,68110,"MONARCH OIL CO.2200 AVE H E, OMAHA NEBRASKA 68110 (DOUGLAS)",0,C,,110010164053
68102CRGLL701AB,-95.93799999999999,41.262,False,31,055,001600,31,31055,31055001600,1400000US31055001600,CARGILL INC,701 ABBOTT DR,OMAHA,NE,68102,"CARGILL INC.701 ABBOTT DR, OMAHA NEBRASKA 68102 (DOUGLAS)",0,C,,
68102MRCND1608W,-95.93799999999999,41.266000000000005,False,31,055,001600,31,31055,31055001600,1400000US31055001600,MO-RE-CO INDUSTRY PLATING,1608 WEBSTER,OMAHA,NE,68102,"MO-RE-CO INDUSTRY PLATING.1608 WEBSTER, OMAHA NEBRASKA 68102 (DOUGLAS)",0,C,,
68102PSNLT2000C,-95.94200000000001,41.265,False,31,055,001600,31,31055,31055001600,1400000US31055001600,EPSEN LITHOGRAPHING,2000 CALIFORNIA ST,OMAHA,NE,68102,"EPSEN LITHOGRAPHING.2000 CALIFORNIA ST, OMAHA NEBRASKA 68102 (DOUGLAS)",0,C,,
68102SRCNC500DO,-95.92399999999999,41.25899999999999,False,31,055,001800,31,31055,31055001800,1400000US31055001800,ASARCO INC OMAHA PLANT,500 DOUGLAS ST,OMAHA,NE,681021895,"ASARCO INC OMAHA PLANT.500 DOUGLAS ST, OMAHA NEBRASKA 68102 (DOUGLAS)",1,C,,
68103QCHMC302PI,-95.921,41.248000000000005,False,31,055,002200,31,31055,31055002200,1400000US31055002200,PENN SPECIALTY CHEMICALS INC,302 PIERCE ST,OMAHA,NE,68108,"PENN SPECIALTY CHEMICALS INC.302 PIERCE ST, OMAHA NEBRASKA 68108 (DOUGLAS)",0,C,,
68103THDLC115HI,-95.91799999999999,41.243,False,31,055,002300,31,31055,31055002300,1400000US31055002300,DIAL CORP,115 HICKORY ST,OMAHA,NE,68103,"DIAL CORP.115 HICKORY ST, OMAHA NEBRASKA 68103 (DOUGLAS)",0,C,,
68107CMRCS41110,-95.928,41.218,False,31,055,002500,31,31055,31055002500,1400000US31055002500,SYNGENTA CROP PROTECTION LLC-OMAHA PLANT,4111 GIBSON RD,OMAHA,NE,68107,"SYNGENTA CROP PROTECTION LLC-OMAHA PLANT.4111 GIBSON RD, OMAHA NEBRASKA 68107 (DOUGLAS)",0,C,,110000447491
68107GRTRM5100S,-95.95,41.207,False,31,055,003200,31,31055,31055003200,1400000US31055003200,GREATER OMAHA PACKING CO,5100 SOUTH 26TH ST,OMAHA,NE,68107,"GREATER OMAHA PACKING CO.5100 SOUTH 26TH ST, OMAHA NEBRASKA 68107 (DOUGLAS)",0,C,,
68107MHDBL4734S,-95.95100000000001,41.211000000000006,False,31,055,003200,31,31055,31055003200,1400000US31055003200,DARLING INTERNATIONAL INC,4734 S 27TH ST,OMAHA,NE,68107,"DARLING INTERNATIONAL INC.4734 S 27TH ST, OMAHA NEBRASKA 68107 (DOUGLAS)",0,C,,
68107VNWTR3002F,-95.956,41.22,False,31,055,003200,31,31055,31055003200,1400000US31055003200,UNIVAR USA INC OMAHA,3002  F ST,OMAHA,NE,68107,"UNIVAR USA INC OMAHA.3002  F ST, OMAHA NEBRASKA 68107 (DOUGLAS)",0,C,,110000447516
68107CNGRF29CST,-95.954,41.224,False,31,055,003200,31,31055,31055003200,1400000US31055003200,CONAGRA FOOD OMAHA B-MILL,2900 C ST,OMAHA,NE,68107,"CONAGRA FOOD OMAHA B-MILL.2900 C ST, OMAHA NEBRASKA 68107 (DOUGLAS)",0,C,,110045794690
68107LCKWN2420Z,-95.947,41.196999999999996,False,31,055,002900,31,31055,31055002900,1400000US31055002900,LACKAWANNA LEATHER CO,2420 Z ST,OMAHA,NE,68107,"LACKAWANNA LEATHER CO.2420 Z ST, OMAHA NEBRASKA 68107 (DOUGLAS)",1,C,,
68107NRTHR3435G,-95.955,41.208,False,31,055,003100,31,31055,31055003100,1400000US31055003100,JBS OMAHA - SWIFT BEEF CO,3435 GOMEZ AVE,OMAHA,NE,68107,"JBS OMAHA - SWIFT BEEF CO.3435 GOMEZ AVE, OMAHA NEBRASKA 68107 (DOUGLAS)",0,C,,110045780400
68107RNXXX3811D,-95.959,41.223,False,31,055,003100,31,31055,31055003100,1400000US31055003100,AARON OMAHA,3811 DAHLMAN AVE,OMAHA,NE,68107,"AARON OMAHA.3811 DAHLMAN AVE, OMAHA NEBRASKA 68107 (DOUGLAS)",0,C,,
68107SWFTC5015S,-95.963,41.208,False,31,055,003100,31,31055,31055003100,1400000US31055003100,SMITHFIELD PACKAGED MEATS CORP - OMAHA,5015 S 33RD ST,OMAHA,NE,68107,"SMITHFIELD PACKAGED MEATS CORP - OMAHA.5015 S 33RD ST, OMAHA NEBRASKA 68107 (DOUGLAS)",0,C,,110000577411
68137BFNBR3301G,-95.963,41.218,False,31,055,003100,31,31055,31055003100,1400000US31055003100,BEEF NEBRASKA INC,3301 G ST,OMAHA,NE,681070203,"BEEF NEBRASKA INC.3301 G ST, OMAHA NEBRASKA 68107 (DOUGLAS)",0,C,,
68107BFMRC4003D,-95.96,41.221000000000004,False,31,055,003100,31,31055,31055003100,1400000US31055003100,BEEF AMERICA OPERATING CO,4003 DAHLMAN AVE,OMAHA,NE,68107,"BEEF AMERICA OPERATING CO.4003 DAHLMAN AVE, OMAHA NEBRASKA 68107 (DOUGLAS)",0,C,,
68106MRCNL5020S,-95.963,41.208999999999996,False,31,055,003100,31,31055,31055003100,1400000US31055003100,AMERICAN LABORATORIES INC,5020 S 33RD ST,OMAHA,NE,68107,"AMERICAN LABORATORIES INC.5020 S 33RD ST, OMAHA NEBRASKA 68107 (DOUGLAS)",0,C,,
68107NBRSK4501S,-95.96600000000001,41.213,False,31,055,003100,31,31055,31055003100,1400000US31055003100,NEBRASKA BEEF LTD,4501 S 36 STREET,OMAHA,NE,68107,"NEBRASKA BEEF LTD.4501 S 36 STREET, OMAHA NEBRASKA 68107 (DOUGLAS)",0,C,,
68107RDYMX362LS,-95.96700000000001,41.211999999999996,False,31,055,003100,31,31055,31055003100,1400000US31055003100,READY MIXED CONCRETE CO 36TH & L PLANT,3602 L ST,OMAHA,NE,68107,"READY MIXED CONCRETE CO 36TH & L PLANT.3602 L ST, OMAHA NEBRASKA 68107 (DOUGLAS)",0,C,,110001508306
68107PHLLP4949S,-95.955,41.208999999999996,False,31,055,003100,31,31055,31055003100,1400000US31055003100,PHILLIPS MANUFACTURING CO.,4949 S 30TH ST,OMAHA,NE,68107,"PHILLIPS MANUFACTURING CO..4949 S 30TH ST, OMAHA NEBRASKA 68107 (DOUGLAS)",0,C,,110018873879
6810WTNCRP39DAH,-95.96,41.221000000000004,False,31,055,003100,31,31055,31055003100,1400000US31055003100,EATON OMAHA POWER CENTER,3900 DAHLMAN AVE,OMAHA,NE,68107,"EATON OMAHA POWER CENTER.3900 DAHLMAN AVE, OMAHA NEBRASKA 68107 (DOUGLAS)",0,C,,110004075795
68108NXCRT1444S,-95.94200000000001,41.244,False,31,055,002000,31,31055,31055002000,1400000US31055002000,NOX-CRETE MANUFACTURING INC,1444 S 20TH ST,OMAHA,NE,68108,"NOX-CRETE MANUFACTURING INC.1444 S 20TH ST, OMAHA NEBRASKA 68108 (DOUGLAS)",0,C,,110001509252
68110LZRCR4225N,-95.947,41.297,False,31,055,000700,31,31055,31055000700,1400000US31055000700,LOZIER CORP,4224 N 22ND STREET,OMAHA,NE,68110,"LOZIER CORP.4224 N 22ND STREET, OMAHA NEBRASKA 68110 (DOUGLAS)",0,C,,110000800731
68110LZRCR6316P,-95.931,41.317,False,31,055,000400,31,31055,31055000400,1400000US31055000400,LOZIER CORP NORTH PLANT,6316 PERSHING DRIVE,OMAHA,NE,68110,"LOZIER CORP NORTH PLANT.6316 PERSHING DRIVE, OMAHA NEBRASKA 68110 (DOUGLAS)",0,C,,110000447525
68110WTCCR6200N,-95.93700000000001,41.316,False,31,055,000400,31,31055,31055000400,1400000US31055000400,WITCO CORP LUBRICANTS BUSINESS UNIT,6200 N 16TH ST,OMAHA,NE,68110,"WITCO CORP LUBRICANTS BUSINESS UNIT.6200 N 16TH ST, OMAHA NEBRASKA 68110 (DOUGLAS)",0,C,,
68112KCHMT7075N,-95.935,41.321999999999996,False,31,055,000400,31,31055,31055000400,1400000US31055000400,FLINT HILLS RESOURCES PINE BEND LLC - OMAHA 2,7075 N 14TH AVE,OMAHA,NE,68112,"FLINT HILLS RESOURCES PINE BEND LLC - OMAHA 2.7075 N 14TH AVE, OMAHA NEBRASKA 68112 (DOUGLAS)",0,C,,110012703912
68117NTRNT6664L,-96.031,41.216,False,31,055,007409,31,31055,31055007409,1400000US31055007409,INTERNATIONAL NUTRITION INC.,7706 I PLAZA,OMAHA,NE,681271841,"INTERNATIONAL NUTRITION INC..7706 I PLAZA, OMAHA NEBRASKA 68127 (DOUGLAS)",0,C,,110000447561
68127CNTNN4133S,-96.024,41.216,False,31,055,007409,31,31055,31055007409,1400000US31055007409,CROWN BEVERAGE PACKAGING INC,4133 S 72ND ST,OMAHA,NE,68127,"CROWN BEVERAGE PACKAGING INC.4133 S 72ND ST, OMAHA NEBRASKA 68127 (DOUGLAS)",0,C,,
68127MJRSP4519S,-96.125,41.216,False,31,055,007409,31,31055,31055007409,1400000US31055007409,MAJORS PLASTICS INC,4519 S 134TH ST,OMAHA,NE,68127,"MAJORS PLASTICS INC.4519 S 134TH ST, OMAHA NEBRASKA 68127 (DOUGLAS)",1,C,,
68127PPSCL4603S,-96.024,41.214,False,31,055,007409,31,31055,31055007409,1400000US31055007409,PEPSI COLA BOTTLING GROUP,4603 S 72 ST,OMAHA,NE,68127,"PEPSI COLA BOTTLING GROUP.4603 S 72 ST, OMAHA NEBRASKA 68127 (DOUGLAS)",0,C,,
68127WYRHS7517F,-96.029,41.22,False,31,055,007409,31,31055,31055007409,1400000US31055007409,WEYERHAEUSER PAPER CO,7517 F ST,OMAHA,NE,68127,"WEYERHAEUSER PAPER CO.7517 F ST, OMAHA NEBRASKA 68127 (DOUGLAS)",0,C,,
68137CNTRL11615,-96.09200000000001,41.215,False,31,055,007409,31,31055,31055007409,1400000US31055007409,SEAGATE TECHNOLOGY INC OMAHA,11615 I ST,OMAHA,NE,68137,"SEAGATE TECHNOLOGY INC OMAHA.11615 I ST, OMAHA NEBRASKA 68137 (DOUGLAS)",0,C,,
68137FRHFC11502,-96.09200000000001,41.218999999999994,False,31,055,007409,31,31055,31055007409,1400000US31055007409,FRUEHAUF TRAILER CORP,11502 I ST,OMAHA,NE,68137,"FRUEHAUF TRAILER CORP.11502 I ST, OMAHA NEBRASKA 68137 (DOUGLAS)",0,C,,
68137GLNCR13810,-96.12899999999999,41.213,False,31,055,007409,31,31055,31055007409,1400000US31055007409,GLENCO RAILCAR SERVICE,13810 L ST,OMAHA,NE,68137,"GLENCO RAILCAR SERVICE.13810 L ST, OMAHA NEBRASKA 68137 (DOUGLAS)",0,C,,
68137KKRND13709,-96.12899999999999,41.215,False,31,055,007409,31,31055,31055007409,1400000US31055007409,KUKER IND INC,13709 INDL RD,OMAHA,NE,68137,"KUKER IND INC.13709 INDL RD, OMAHA NEBRASKA 68137 (DOUGLAS)",1,C,,
68137MLNVN13434,-96.124,41.22,False,31,055,007409,31,31055,31055007409,1400000US31055007409,MALNOVE INC,13434 F ST,OMAHA,NE,68137,"MALNOVE INC.13434 F ST, OMAHA NEBRASKA 68137 (DOUGLAS)",0,C,,
68137RLCRS13840,-96.13,41.213,False,31,055,007409,31,31055,31055007409,1400000US31055007409,CHIEF TRANSPORTATION PRODUCTS INC,13840 L ST,OMAHA,NE,681371509,"CHIEF TRANSPORTATION PRODUCTS INC.13840 L ST, OMAHA NEBRASKA 68137 (DOUGLAS)",0,C,,
68137TTNTW120TH,-96.11200000000001,41.216,False,31,055,007409,31,31055,31055007409,1400000US31055007409,CONNECTIVITY SOLUTIONS MANUFACTURING INC,12500 I ST,OMAHA,NE,68137,"CONNECTIVITY SOLUTIONS MANUFACTURING INC.12500 I ST, OMAHA NEBRASKA 68137 (DOUGLAS)",0,C,,110001507879
68137XDXCR11616,-96.094,41.217,False,31,055,007409,31,31055,31055007409,1400000US31055007409,ANACOMP MAGNETICS,11616 I ST,OMAHA,NE,681371212,"ANACOMP MAGNETICS.11616 I ST, OMAHA NEBRASKA 68137 (DOUGLAS)",1,C,,
68144SCWHR14310,-96.137,41.222,False,31,055,007409,31,31055,31055007409,1400000US31055007409,ASC WHIRLPOOL INC,14310 C CIR,OMAHA,NE,68144,"ASC WHIRLPOOL INC.14310 C CIR, OMAHA NEBRASKA 68144 (DOUGLAS)",0,C,,
68127MJRSP10305,-96.074,41.216,False,31,055,007409,31,31055,31055007409,1400000US31055007409,MAJORS PLASTICS INC,10305 I STREET,OMAHA,NE,681271182,"MAJORS PLASTICS INC.10305 I STREET, OMAHA NEBRASKA 68127 (DOUGLAS)",0,C,,
68172SWFTD9828J,-96.068,41.214,False,31,055,007409,31,31055,31055007409,1400000US31055007409,FORBO ADHESIVES LLC,9828 J ST,OMAHA,NE,68127,"FORBO ADHESIVES LLC.9828 J ST, OMAHA NEBRASKA 68127 (DOUGLAS)",0,C,,110001513951
68127SPHRC4221S,-96.053,41.218,False,31,055,007409,31,31055,31055007409,1400000US31055007409,SOPHIR CO,4221 S 90 ST,OMAHA,NE,681271303,"SOPHIR CO.4221 S 90 ST, OMAHA NEBRASKA 68127 (DOUGLAS)",0,C,,
68137FLTWD13737,-96.12899999999999,41.217,False,31,055,007409,31,31055,31055007409,1400000US31055007409,FLEETWOOD TRAVEL TRAILERS OF NEBRASKA INC 93,13737 INDUSTRIAL RD,OMAHA,NE,68137,"FLEETWOOD TRAVEL TRAILERS OF NEBRASKA INC 93.13737 INDUSTRIAL RD, OMAHA NEBRASKA 68137 (DOUGLAS)",0,C,,
68137SKYLR4430S,-96.084,41.215,False,31,055,007409,31,31055,31055007409,1400000US31055007409,SKYLARK MEATS,4430 S 110TH ST,OMAHA,NE,681370000,"SKYLARK MEATS.4430 S 110TH ST, OMAHA NEBRASKA 68137 (DOUGLAS)",0,C,,
68127MRCNL4410S,-96.072,41.216,False,31,055,007409,31,31055,31055007409,1400000US31055007409,AMERICAN LABS INC,4410 S 102ND ST,OMAHA,NE,68127,"AMERICAN LABS INC.4410 S 102ND ST, OMAHA NEBRASKA 68127 (DOUGLAS)",0,C,,
68127PHLLP4601S,-96.03,41.215,False,31,055,007409,31,31055,31055007409,1400000US31055007409,PHILLIPS MANUFACTURING CO,4601 S 76TH CIR,OMAHA,NE,68127,"PHILLIPS MANUFACTURING CO.4601 S 76TH CIR, OMAHA NEBRASKA 68127 (DOUGLAS)",0,C,,
68127VLLYK8710J,-96.04700000000001,41.216,False,31,055,007409,31,31055,31055007409,1400000US31055007409,VALLEY OAK CABINETS,8710 J ST,OMAHA,NE,68127,"VALLEY OAK CABINETS.8710 J ST, OMAHA NEBRASKA 68127 (DOUGLAS)",0,C,,
68127HRCRS9000F,-96.053,41.22,False,31,055,007409,31,31055,31055007409,1400000US31055007409,HARCROS CHEMICALS INC,9000 F ST,OMAHA,NE,68127,"HARCROS CHEMICALS INC.9000 F ST, OMAHA NEBRASKA 68127 (DOUGLAS)",0,C,,110000447614
68144SFTYK13915,-96.13,41.224,False,31,055,007409,31,31055,31055007409,1400000US31055007409,SAFETY-KLEEN SYSTEMS OMAHA (OMA),13915 A PLAZA,OMAHA,NE,68144,"SAFETY-KLEEN SYSTEMS OMAHA (OMA).13915 A PLAZA, OMAHA NEBRASKA 68144 (DOUGLAS)",0,C,,110000615521
68137SRCNH13537,-96.125,41.218,False,31,055,007409,31,31055,31055007409,1400000US31055007409,SOURCEONE HEALTHCARE TECHNOLOGIES INC.,13537 I CIR,OMAHA,NE,68137,"SOURCEONE HEALTHCARE TECHNOLOGIES INC..13537 I CIR, OMAHA NEBRASKA 68137 (DOUGLAS)",0,C,,110015781304
6813WCMCLL13423,-96.12299999999999,41.218999999999994,False,31,055,007409,31,31055,31055007409,1400000US31055007409,"COMC, LLC",13423 F STREET,OMAHA,NE,68137,"COMC, LLC.13423 F STREET, OMAHA NEBRASKA 68137 (DOUGLAS)",0,C,,110043324612
68117WLLSD7122J,-96.023,41.216,False,31,055,007003,31,31055,31055007003,1400000US31055007003,LALA BRANDED PRODUCTS INC,7122 J ST,OMAHA,NE,68117,"LALA BRANDED PRODUCTS INC.7122 J ST, OMAHA NEBRASKA 68117 (DOUGLAS)",0,C,,110000562837
68117RDNGN6534L,-96.01299999999999,41.213,False,31,055,007003,31,31055,31055007003,1400000US31055007003,RADIO ENGINEERING INDUSTRIES,6534 L ST,OMAHA,NE,68117,"RADIO ENGINEERING INDUSTRIES.6534 L ST, OMAHA NEBRASKA 68117 (DOUGLAS)",0,C,,110001516789
68117WLLMH4334S,-96.016,41.218999999999994,False,31,055,007003,31,31055,31055007003,1400000US31055007003,WILLIAM H HARVEY CO,4334 S 67TH ST,OMAHA,NE,68117,"WILLIAM H HARVEY CO.4334 S 67TH ST, OMAHA NEBRASKA 68117 (DOUGLAS)",0,C,,110000447570
68117FMXNT5050F,-95.992,41.22,False,31,055,007003,31,31055,31055007003,1400000US31055007003,FOAMEX INTL INC,5050 F ST,OMAHA,NE,681171362,"FOAMEX INTL INC.5050 F ST, OMAHA NEBRASKA 68117 (DOUGLAS)",0,C,,
68117BLTZL6930F,-96.02,41.22,False,31,055,007003,31,31055,31055007003,1400000US31055007003,PRINCE AGRI PRODUCTS,6930 F ST,OMAHA,NE,68117,"PRINCE AGRI PRODUCTS.6930 F ST, OMAHA NEBRASKA 68117 (DOUGLAS)",0,C,,110000447552
6811WQNGLB571FS,-96.001,41.22,False,31,055,007003,31,31055,31055007003,1400000US31055007003,QUIN GLOBAL US INC,5710 F ST,OMAHA,NE,68117,"QUIN GLOBAL US INC.5710 F ST, OMAHA NEBRASKA 68117 (DOUGLAS)",0,C,,110070543977
68122VCKRS6600N,-96.024,41.318999999999996,False,31,055,007313,31,31055,31055007313,1400000US31055007313,EATON CORP,6600 N 72ND ST,OMAHA,NE,681221798,"EATON CORP.6600 N 72ND ST, OMAHA NEBRASKA 68122 (DOUGLAS)",0,C,,
68122TRNSG749IR,-96.059,41.325,False,31,055,007313,31,31055,31055007313,1400000US31055007313,"TRANSGENOMIC, INC.",7409 IRVINGTON RD,OMAHA,NE,68122,"TRANSGENOMIC, INC..7409 IRVINGTON RD, OMAHA NEBRASKA 68122 (DOUGLAS)",0,C,,110022812107
68123RCDNCHIGHW,-95.91,41.071999999999996,False,31,153,010208,31,31153,31153010208,1400000US31153010208,PCS NITROGEN FERTILIZER LP,202 ALLIED RD,BELLEVUE,NE,68123,"PCS NITROGEN FERTILIZER LP.202 ALLIED RD, BELLEVUE NEBRASKA 68123 (SARPY)",1,C,,
68123NTNLB14401,-95.913,41.098,False,31,153,010208,31,31153,31153010208,1400000US31153010208,NATIONAL BY-PRODUCTS INC,14401 S 5TH ST,OMAHA,NE,68123,"NATIONAL BY-PRODUCTS INC.14401 S 5TH ST, OMAHA NEBRASKA 68123 (SARPY)",0,C,,
68131RBRTS2901C,-95.955,41.268,False,31,055,001100,31,31055,31055001100,1400000US31055001100,HILAND DAIRY CO,2901 CUMING ST,OMAHA,NE,68131,"HILAND DAIRY CO.2901 CUMING ST, OMAHA NEBRASKA 68131 (DOUGLAS)",0,C,,110000538222
68132MHSTL4601F,-95.98299999999999,41.258,False,31,055,004400,31,31055,31055004400,1400000US31055004400,OMAHA STEEL CASTINGS CO,4601 FARNAM ST,OMAHA,NE,68132,"OMAHA STEEL CASTINGS CO.4601 FARNAM ST, OMAHA NEBRASKA 68132 (DOUGLAS)",0,C,,110000447669
68144NSHCR3838S,-96.08200000000001,41.222,False,31,055,006904,31,31055,31055006904,1400000US31055006904,NASHUA CORP,3838 S 108TH ST,OMAHA,NE,68144,"NASHUA CORP.3838 S 108TH ST, OMAHA NEBRASKA 68144 (DOUGLAS)",0,C,,
68305MGNLMMAGNO,-95.84700000000001,40.407,False,31,127,968200,31,31127,31127968200,1400000US31127968200,MAGNOLIA METAL CORP,63859 730TH RD,AUBURN,NE,68305,"MAGNOLIA METAL CORP.63859 730TH RD, AUBURN NEBRASKA 68305 (NEMAHA)",0,C,,110041158902
68305TRNGLRR2BO,-95.844,40.405,False,31,127,968200,31,31127,31127968200,1400000US31127968200,ARMSTRONG CABINET PRODUCTS,72976 638A AVE,AUBURN,NE,68305,"ARMSTRONG CABINET PRODUCTS.72976 638A AVE, AUBURN NEBRASKA 68305 (NEMAHA)",0,C,,110000447696
68305BRNCN2100S,-95.839,40.383,False,31,127,968200,31,31127,31127968200,1400000US31127968200,AUBURN CONSOLIDATED INDUSTRIES INC,2100 SOUTH J ST,AUBURN,NE,68305,"AUBURN CONSOLIDATED INDUSTRIES INC.2100 SOUTH J ST, AUBURN NEBRASKA 68305 (NEMAHA)",0,C,,
6830WRNSCM2111J,-95.839,40.383,False,31,127,968200,31,31127,31127968200,1400000US31127968200,ARIENS COMPANY - AUBURN OPERATIONS,2111 J. STREET,AUBURN,NE,68305,"ARIENS COMPANY - AUBURN OPERATIONS.2111 J. STREET, AUBURN NEBRASKA 68305 (NEMAHA)",0,C,,110043694552
68310CMNCFROUTE,-96.84100000000001,40.308,False,31,067,964700,31,31067,31067964700,1400000US31067964700,AGRIUM U.S. INC HOMESTEAD TERMINAL,22292 SW 89TH RD,BEATRICE,NE,68310,"AGRIUM U.S. INC HOMESTEAD TERMINAL.22292 SW 89TH RD, BEATRICE NEBRASKA 68310 (GAGE)",0,C,,110056955567
68310FRMLN4MIWE,-96.84100000000001,40.319,False,31,067,964700,31,31067,31067964700,1400000US31067964700,"KOCH FERTILIZER BEATRICE,LLC",21178 SW 89TH RD,BEATRICE,NE,68310,"KOCH FERTILIZER BEATRICE,LLC.21178 SW 89TH RD, BEATRICE NEBRASKA 68310 (GAGE)",0,C,,110000596846
68310FDKSM70080,-96.745,40.281,False,31,067,965000,31,31067,31067965000,1400000US31067965000,F D KEES MFG CO,700-800 PARK AVE,BEATRICE,NE,68310,"F D KEES MFG CO.700-800 PARK AVE, BEATRICE NEBRASKA 68310 (GAGE)",0,C,,
68310HVRGR70071,-96.745,40.26,False,31,067,965100,31,31067,31067965100,1400000US31067965100,HOOVER MATERIALS HANDLING GROUP INC.,700 S SEVENTH ST,BEATRICE,NE,68310,"HOOVER MATERIALS HANDLING GROUP INC..700 S SEVENTH ST, BEATRICE NEBRASKA 68310 (GAGE)",0,C,,110000447712
68310DMPST711S6,-96.74700000000001,40.26,False,31,067,965100,31,31067,31067965100,1400000US31067965100,DEMPSTER INDUSTRIES INC.,711 S 6TH ST,BEATRICE,NE,68310,"DEMPSTER INDUSTRIES INC..711 S 6TH ST, BEATRICE NEBRASKA 68310 (GAGE)",0,C,,110000769222
68310STRKR500IR,-96.74700000000001,40.28,False,31,067,964800,31,31067,31067964800,1400000US31067964800,STORE KRAFT MFG CO,500 IRVING,BEATRICE,NE,683100807,"STORE KRAFT MFG CO.500 IRVING, BEATRICE NEBRASKA 68310 (GAGE)",0,C,,
68310LNDLK2020S,-96.74600000000001,40.242,False,31,067,964800,31,31067,31067964800,1400000US31067964800,LAND O'LAKES FARMLAND FEED,2020 S 6TH ST,BEATRICE,NE,68310,"LAND O'LAKES FARMLAND FEED.2020 S 6TH ST, BEATRICE NEBRASKA 68310 (GAGE)",0,C,,
68310NPCNC501WS,-96.756,40.292,False,31,067,964800,31,31067,31067964800,1400000US31067964800,NEAPCO LLC - BEATRICE,501 W SARGENT ST,BEATRICE,NE,68310,"NEAPCO LLC - BEATRICE.501 W SARGENT ST, BEATRICE NEBRASKA 68310 (GAGE)",0,C,,110000447721
68310CHSCC415IN,-96.758,40.289,False,31,067,964800,31,31067,31067964800,1400000US31067964800,IRWIN INDL TOOL BEATRICE OPS,415 INDUSTRIAL ROW,BEATRICE,NE,68310,"IRWIN INDL TOOL BEATRICE OPS.415 INDUSTRIAL ROW, BEATRICE NEBRASKA 68310 (GAGE)",0,C,,
68310CCMCR2101R,-96.75399999999999,40.3,False,31,067,964800,31,31067,31067964800,1400000US31067964800,ACCUMA CORP,2101 RIDGEWAY DR,BEATRICE,NE,68310,"ACCUMA CORP.2101 RIDGEWAY DR, BEATRICE NEBRASKA 68310 (GAGE)",0,C,,110013286808
6831WBTRCC23S6T,-96.74600000000001,40.236999999999995,False,31,067,964800,31,31067,31067964800,1400000US31067964800,BEATRICE CONCRETE CO INC,2300 S 6TH ST,BEATRICE,NE,68310,"BEATRICE CONCRETE CO INC.2300 S 6TH ST, BEATRICE NEBRASKA 68310 (GAGE)",0,C,,110015785462
6831WDNXBT722KI,-96.764,40.287,False,31,067,964800,31,31067,31067964800,1400000US31067964800,DUONIX BEATRICE LP,722 KINNEY DR,BEATRICE,NE,68310,"DUONIX BEATRICE LP.722 KINNEY DR, BEATRICE NEBRASKA 68310 (GAGE)",0,C,,110045416974
68310CPXNCRR3BO,-96.82,40.302,True,31,067,964800,31,31067,31067964800,1400000US31067964800,CEPEX INC,RR #3,BEATRICE,NE,683109417,"CEPEX INC RR #3, BEATRICE, NE, 683109417",0,C,,
68333FRMLNPOBOX,-96.96600000000001,40.580999999999996,False,31,151,960900,31,31151,31151960900,1400000US31151960900,SMITHFIELD FRESH MEATS CORP-CRETE,2223 COUNTY RD I,CRETE,NE,68333,"SMITHFIELD FRESH MEATS CORP-CRETE.2223 COUNTY RD I, CRETE NEBRASKA 68333 (SALINE)",0,C,,110064150449
68341PTRSN108SO,-96.919,40.393,False,31,151,960900,31,31151,31151960900,1400000US31151960900,IRWIN INDUSTRIAL TOOL CO INC,108 S PEAR ST,DE WITT,NE,68341,"IRWIN INDUSTRIAL TOOL CO INC.108 S PEAR ST, DE WITT NEBRASKA 68341 (SALINE)",0,C,,110000447758
68333LPPTFBOX96,-96.946,40.638000000000005,False,31,151,960600,31,31151,31151960600,1400000US31151960600,NESTLE PURINA PETCARE CO,2305 E HWY 33,CRETE,NE,68333,"NESTLE PURINA PETCARE CO.2305 E HWY 33, CRETE NEBRASKA 68333 (SALINE)",0,C,,110000596864
68333THCRT14THN,-96.963,40.626,False,31,151,960600,31,31151,31151960600,1400000US31151960600,LAUHOFF GRAIN CO CRETE MILLS DIV,14TH & NORMAN,CRETE,NE,68333,"LAUHOFF GRAIN CO CRETE MILLS DIV.14TH & NORMAN, CRETE NEBRASKA 68333 (SALINE)",0,C,,
6833WCRTRD132W1,-96.97399999999999,40.623000000000005,False,31,151,960600,31,31151,31151960600,1400000US31151960600,CRETE READY MIX CO,1320 W 11TH ST,CRETE,NE,68333,"CRETE READY MIX CO.1320 W 11TH ST, CRETE NEBRASKA 68333 (SALINE)",0,C,,110001516583
68340RNKMF1MWES,-97.74600000000001,40.14,False,31,169,963100,31,31169,31169963100,1400000US31169963100,REINKE MANUFACTURING CO INC,5325 REINKE RD,DESHLER,NE,68340,"REINKE MANUFACTURING CO INC.5325 REINKE RD, DESHLER NEBRASKA 68340 (THAYER)",0,C,,110045794315
68352GLPCHPOBOX,-97.162,40.121,False,31,095,963700,31,31095,31095963700,1400000US31095963700,LOVELAND PRODUCTS INC,56908 HWY 8,FAIRBURY,NE,68352,"LOVELAND PRODUCTS INC.56908 HWY 8, FAIRBURY NEBRASKA 68352 (JEFFERSON)",0,C,,110000447767
68352NDCTTE6MIH,-97.124,40.074,False,31,095,963600,31,31095,31095963600,1400000US31095963600,ENDICOTT CLAY PRODUCTS CO INC,57120 707TH RD,ENDICOTT,NE,68350,"ENDICOTT CLAY PRODUCTS CO INC.57120 707TH RD, ENDICOTT NEBRASKA 68350 (JEFFERSON)",0,C,,110000447776
68410MRCNMINDUS,-95.875,40.667,False,31,131,966900,31,31131,31131966900,1400000US31131966900,ELSTER AMERICAN METER CO LLC,2221 IND US TRIAL RD,NEBRASKA CITY,NE,68410,"ELSTER AMERICAN METER CO LLC.2221 IND US TRIAL RD, NEBRASKA CITY NEBRASKA 68410 (OTOE)",0,C,,110000748022
68410XCLCR6047T,-95.854,40.67,False,31,131,966900,31,31131,31131966900,1400000US31131966900,EXCEL/DPM CARGILL PROCESSED MEAT PRODS,604 7TH CORSO,NEBRASKA CITY,NE,68410,"EXCEL/DPM CARGILL PROCESSED MEAT PRODS.604 7TH CORSO, NEBRASKA CITY NEBRASKA 68410 (OTOE)",0,C,,110001518448
68410CRGLLPOBOX,-95.88,40.667,False,31,131,966900,31,31131,31131966900,1400000US31131966900,CARGILL MEAT SOLUTIONS CORP,2601 INDUSTRIAL RD,NEBRASKA CITY,NE,68410,"CARGILL MEAT SOLUTIONS CORP.2601 INDUSTRIAL RD, NEBRASKA CITY NEBRASKA 68410 (OTOE)",0,C,,110000550001
68434HGHSB210NO,-97.10700000000001,40.909,False,31,159,960200,31,31159,31159960200,1400000US31159960200,HUGHES BROTHERS INC,210 N 13TH ST,SEWARD,NE,68434,"HUGHES BROTHERS INC.210 N 13TH ST, SEWARD NEBRASKA 68434 (SEWARD)",0,C,,110000447801
68434TNNCT14752,-97.105,40.896,False,31,159,960200,31,31159,31159960200,1400000US31159960200,TENNECO AUTOMOTIVE,1111 IZAAK WALTON RD,SEWARD,NE,68434,"TENNECO AUTOMOTIVE.1111 IZAAK WALTON RD, SEWARD NEBRASKA 68434 (SEWARD)",0,C,,110045890639
68434GRHLD548S6,-97.09899999999999,40.904,False,31,159,960200,31,31159,31159960200,1400000US31159960200,GERHOLD CONCRETE CO SEWARD PLANT,548 S 6TH ST,SEWARD,NE,68434,"GERHOLD CONCRETE CO SEWARD PLANT.548 S 6TH ST, SEWARD NEBRASKA 68434 (SEWARD)",0,C,,110020055161
68450CMPBL333SO,-96.196,40.365,False,31,097,967600,31,31097,31097967600,1400000US31097967600,TECUMSEH POULTRY LLC (DBA MBA POULTRY),333 S THIRD ST,TECUMSEH,NE,68450,"TECUMSEH POULTRY LLC (DBA MBA POULTRY).333 S THIRD ST, TECUMSEH NEBRASKA 68450 (JOHNSON)",0,C,,110001131775
68462BRWNM14441,-96.524,40.918,False,31,109,010100,31,31109,31109010100,1400000US31109010100,BROWNIE MANUFACTURING CO INC,14441 US HWY 6,WAVERLY,NE,684620446,"BROWNIE MANUFACTURING CO INC.14441 US HWY 6, WAVERLY NEBRASKA 68462 (LANCASTER)",0,C,,
68462NTNLC11200,-96.521,40.922,False,31,109,010100,31,31109,31109010100,1400000US31109010100,NATIONAL CRANE,11200 N 148TH,WAVERLY,NE,684629689,"NATIONAL CRANE.11200 N 148TH, WAVERLY NEBRASKA 68462 (LANCASTER)",0,C,,
68527BRNNG13400,-96.539,40.814,False,31,109,010100,31,31109,31109010100,1400000US31109010100,BRUNING HYDRAULICS,13400 O ST,LINCOLN,NE,68520,"BRUNING HYDRAULICS.13400 O ST, LINCOLN NEBRASKA 68520 (LANCASTER)",0,C,,
68520PRKRH252N1,-96.54,40.815,False,31,109,010100,31,31109,31109010100,1400000US31109010100,PARKER HANNIFIN CORP,252 N 134TH ST,LINCOLN,NE,68527,"PARKER HANNIFIN CORP.252 N 134TH ST, LINCOLN NEBRASKA 68527 (LANCASTER)",0,C,,110024422631
68517LSSLT777BL,-96.615,40.915,False,31,109,010100,31,31109,31109010100,1400000US31109010100,LES-TERRY BUNDY GENERATING STATION,7707 BLUFF RD,LINCOLN,NE,68517,"LES-TERRY BUNDY GENERATING STATION.7707 BLUFF RD, LINCOLN NEBRASKA 68517 (LANCASTER)",0,C,,110014390514
6846WTCMSH1315B,-96.54299999999999,40.904,False,31,109,010100,31,31109,31109010100,1400000US31109010100,TECUMSEH POULTRY LLC - WAVERLY PLANT,13151 DOVERS STREET,WAVERLY,NE,68462,"TECUMSEH POULTRY LLC - WAVERLY PLANT.13151 DOVERS STREET, WAVERLY NEBRASKA 68462 (LANCASTER)",0,C,,110029535288
68463TXSGLBOX17,-96.137,40.867,False,31,025,965900,31,31025,31025965900,1400000US31025965900,PCS PHOSPHATE CO INC,E GARFIELD ST,WEEPING WATER,NE,68463,"PCS PHOSPHATE CO INC.E GARFIELD ST, WEEPING WATER NEBRASKA 68463 (CASS)",0,C,,110000606498
68467KRYND522WE,-97.6,40.888000000000005,False,31,185,969700,31,31185,31185969700,1400000US31185969700,KROY INDUSTRIES ALCAN PIPE USA,522 W 26TH,YORK,NE,684670309,"KROY INDUSTRIES ALCAN PIPE USA.522 W 26TH, YORK NEBRASKA 68467 (YORK)",0,C,,
68467SNDST2800D,-97.594,40.89,False,31,185,969700,31,31185,31185969700,1400000US31185969700,HAMILTON SUNDSTRAND CORP (COLLINS AEROSPACE),2800 DIVISION AVE,YORK,NE,68467,"HAMILTON SUNDSTRAND CORP (COLLINS AEROSPACE).2800 DIVISION AVE, YORK NEBRASKA 68467 (YORK)",0,C,,110000800795
68467HGHPL1414C,-97.544,40.9,False,31,185,969700,31,31185,31185969700,1400000US31185969700,GREEN PLAINS YORK LLC,1414 COUNTY RD O,YORK,NE,68467,"GREEN PLAINS YORK LLC.1414 COUNTY RD O, YORK NEBRASKA 68467 (YORK)",0,C,,110000606504
68467CHMPN3200E,-97.59,40.896,False,31,185,969700,31,31185,31185969700,1400000US31185969700,CHAMPION HOME BUILDERS INC,3200 ENTERPRISE AVE,YORK,NE,68467,"CHAMPION HOME BUILDERS INC.3200 ENTERPRISE AVE, YORK NEBRASKA 68467 (YORK)",0,C,,110000743250
68467KRYBL521W2,-97.59899999999999,40.888000000000005,False,31,185,969700,31,31185,31185969700,1400000US31185969700,KROY BUILDING PRODUCTS,521 W 26TH ST,YORK,NE,68467,"KROY BUILDING PRODUCTS.521 W 26TH ST, YORK NEBRASKA 68467 (YORK)",0,C,,110013738553
68501GDYRT4021N,-96.64399999999999,40.853,False,31,109,000100,31,31109,31109000100,1400000US31109000100,CONTITECH USA INC,4021 N 56TH ST,LINCOLN,NE,68504,"CONTITECH USA INC.4021 N 56TH ST, LINCOLN NEBRASKA 68504 (LANCASTER)",0,C,,110000447838
68505TLXCM8601N,-96.617,40.869,False,31,109,000100,31,31109,31109000100,1400000US31109000100,"TELEX COMMUNICATIONS, INC.",8601 E CORNHUSKER HWY,LINCOLN,NE,68507,"TELEX COMMUNICATIONS, INC..8601 E CORNHUSKER HWY, LINCOLN NEBRASKA 68507 (LANCASTER)",0,C,,110000701081
68507RCHRD78THA,-96.618,40.866,False,31,109,000100,31,31109,31109000100,1400000US31109000100,ADM,7800 THAYER ST,LINCOLN,NE,68507,"ADM.7800 THAYER ST, LINCOLN NEBRASKA 68507 (LANCASTER)",0,C,,110002382680
68529CNCRT6300C,-96.637,40.865,False,31,109,000100,31,31109,31109000100,1400000US31109000100,CONCRETE IND INC,6300 CORNHUSKER HWY,LINCOLN,NE,68529,"CONCRETE IND INC.6300 CORNHUSKER HWY, LINCOLN NEBRASKA 68529 (LANCASTER)",0,C,,
68507PRNML5500N,-96.617,40.869,False,31,109,000100,31,31109,31109000100,1400000US31109000100,LAND O'LAKES PURINA FEED LLC - LINCOLN,5500 N COTNER BLVD,LINCOLN,NE,68507,"LAND O'LAKES PURINA FEED LLC - LINCOLN.5500 N COTNER BLVD, LINCOLN NEBRASKA 68507 (LANCASTER)",0,C,,110000447856
68501MCLNC900N2,-96.691,40.823,False,31,109,000700,31,31109,31109000700,1400000US31109000700,TEXTRON TURF CARE & SPECIALTY CARE PRODS,900 N 21ST ST,LINCOLN,NE,68503,"TEXTRON TURF CARE & SPECIALTY CARE PRODS.900 N 21ST ST, LINCOLN NEBRASKA 68503 (LANCASTER)",0,C,,
68502DMFDC540SO,-96.714,40.792,False,31,109,002200,31,31109,31109002200,1400000US31109002200,ADM MILLING CO,540 SOUTH STREET,LINCOLN,NE,68502,"ADM MILLING CO.540 SOUTH STREET, LINCOLN NEBRASKA 68502 (LANCASTER)",0,C,,110015682260
68504BRNSW4300I,-96.68,40.856,False,31,109,002900,31,31109,31109002900,1400000US31109002900,BRUNSWICK CORP,4300 INDUSTRIAL AVE,LINCOLN,NE,68504,"BRUNSWICK CORP.4300 INDUSTRIAL AVE, LINCOLN NEBRASKA 68504 (LANCASTER)",0,C,,
68504BRNSW4131N,-96.654,40.855,False,31,109,002900,31,31109,31109002900,1400000US31109002900,BRUNSWICK CORP,4131 N 48TH ST,LINCOLN,NE,68504,"BRUNSWICK CORP.4131 N 48TH ST, LINCOLN NEBRASKA 68504 (LANCASTER)",0,C,,
68507DTRFN5945N,-96.625,40.872,False,31,109,002900,31,31109,31109002900,1400000US31109002900,DEETER FOUNDRY INC,5945 NORTH 70TH ST,LINCOLN,NE,68507,"DEETER FOUNDRY INC.5945 NORTH 70TH ST, LINCOLN NEBRASKA 68507 (LANCASTER)",0,C,,
68507NTNLD6940C,-96.626,40.869,False,31,109,002900,31,31109,31109002900,1400000US31109002900,CLEAVER-BROOKS INC,6940 CORNHUSKER HWY,LINCOLN,NE,68507,"CLEAVER-BROOKS INC.6940 CORNHUSKER HWY, LINCOLN NEBRASKA 68507 (LANCASTER)",0,C,,110000447847
68504LNCLN4001I,-96.68,40.853,False,31,109,002900,31,31109,31109002900,1400000US31109002900,LINCOLN MFG CO,4001 INDUSTRIAL AVE,LINCOLN,NE,68504,"LINCOLN MFG CO.4001 INDUSTRIAL AVE, LINCOLN NEBRASKA 68504 (LANCASTER)",0,C,,
68504SCNCX47SUP,-96.655,40.857,False,31,109,002900,31,31109,31109002900,1400000US31109002900,TELEDYNE ISCO A BUSINESS UNIT OF TELEDYNE INSTRUMENTS INC,4700 SUPERIOR ST,LINCOLN,NE,68504,"TELEDYNE ISCO A BUSINESS UNIT OF TELEDYNE INSTRUMENTS INC.4700 SUPERIOR ST, LINCOLN NEBRASKA 68504 (LANCASTER)",0,C,,110004072468
6850WPLLST72AMA,-96.62,40.871,False,31,109,002900,31,31109,31109002900,1400000US31109002900,APOLLO STEEL CO,7200 AMANDA RD,LINCOLN,NE,68507,"APOLLO STEEL CO.7200 AMANDA RD, LINCOLN NEBRASKA 68507 (LANCASTER)",0,C,,110004082714
6850WRMRSK62CRN,-96.637,40.866,False,31,109,002900,31,31109,31109002900,1400000US31109002900,REIMERS-KAUFMAN CONCRETE PRODUCTS,6200 CORNH US KER HWY,LINCOLN,NE,68507,"REIMERS-KAUFMAN CONCRETE PRODUCTS.6200 CORNH US KER HWY, LINCOLN NEBRASKA 68507 (LANCASTER)",0,C,,110040960449
68504NTFRX3700N,-96.662,40.855,True,31,109,002900,31,31109,31109002900,1400000US31109002900,NOTIFIER,3700 N 56TH ST,LINCOLN,NE,68504,"NOTIFIER 3700 N 56TH ST, LINCOLN, NE, 68504",1,C,,
68504SNYDR4700F,-96.655,40.849000000000004,False,31,109,000300,31,31109,31109000300,1400000US31109000300,SNYDER IND INC,4700 FREMONT ST,LINCOLN,NE,68504,"SNYDER IND INC.4700 FREMONT ST, LINCOLN NEBRASKA 68504 (LANCASTER)",0,C,,
68504CNTRN3425N,-96.65899999999999,40.847,False,31,109,000300,31,31109,31109000300,1400000US31109000300,CENTURION WIRELESS TECHNOLOGIES,3425 N 44TH ST,LINCOLN,NE,68504,"CENTURION WIRELESS TECHNOLOGIES.3425 N 44TH ST, LINCOLN NEBRASKA 68504 (LANCASTER)",0,C,,110024887247
68505MDWGL726LS,-96.711,40.81,False,31,109,002100,31,31109,31109002100,1400000US31109002100,"SOUTHERN FOODS GROUP, LLC D/B/A MEADOW GOLD DAIRIES",726 L ST,LINCOLN,NE,68505,"SOUTHERN FOODS GROUP, LLC D/B/A MEADOW GOLD DAIRIES.726 L ST, LINCOLN NEBRASKA 68505 (LANCASTER)",0,C,,110000561295
68508CKFML200SO,-96.719,40.812,False,31,109,002100,31,31109,31109002100,1400000US31109002100,SMITHFIELD PACKAGED MEATS CORP-LINCOLN,200 S 2ND ST,LINCOLN,NE,68508,"SMITHFIELD PACKAGED MEATS CORP-LINCOLN.200 S 2ND ST, LINCOLN NEBRASKA 68508 (LANCASTER)",0,C,,110000447874
68501VNSCK305MS,-96.71700000000001,40.811,False,31,109,002100,31,31109,31109002100,1400000US31109002100,VAN SICKLE PAINT MFG CO,305 M ST,LINCOLN,NE,68501,"VAN SICKLE PAINT MFG CO.305 M ST, LINCOLN NEBRASKA 68501 (LANCASTER)",0,C,,
6850WHSKRC21S1S,-96.72,40.813,False,31,109,002100,31,31109,31109002100,1400000US31109002100,HUSKER CONCRETE,201 S 1ST ST,LINCOLN,NE,68508,"HUSKER CONCRETE.201 S 1ST ST, LINCOLN NEBRASKA 68508 (LANCASTER)",0,C,,110070550890
68508HYDRZ1001Y,-96.70700000000001,40.825,False,31,109,000500,31,31109,31109000500,1400000US31109000500,HYDROZO INC,1001 Y ST,LINCOLN,NE,68508,"HYDROZO INC.1001 Y ST, LINCOLN NEBRASKA 68508 (LANCASTER)",1,C,,
68501CPTLC1001N,-96.708,40.824,False,31,109,000500,31,31109,31109000500,1400000US31109000500,CAPITAL CONTRACTORS INC,1001 N 9TH ST,LINCOLN,NE,68501,"CAPITAL CONTRACTORS INC.1001 N 9TH ST, LINCOLN NEBRASKA 68501 (LANCASTER)",0,C,,
68512SQRDC1717C,-96.695,40.766,False,31,109,003605,31,31109,31109003605,1400000US31109003605,SCHNEIDER ELECTRIC USA,1717 CENTER PARK RD,LINCOLN,NE,68512,"SCHNEIDER ELECTRIC USA.1717 CENTER PARK RD, LINCOLN NEBRASKA 68512 (LANCASTER)",0,C,,110002382519
68512WSPKF1901W,-96.695,40.76,False,31,109,003605,31,31109,31109003605,1400000US31109003605,WIS-PAK OF LINCOLN,1901 WINDHOEK DR,LINCOLN,NE,68512,"WIS-PAK OF LINCOLN.1901 WINDHOEK DR, LINCOLN NEBRASKA 68512 (LANCASTER)",0,C,,
68517DRSYL10401,-96.574,40.891999999999996,False,31,109,003717,31,31109,31109003717,1400000US31109003717,SANDOZ PHARMACEUTICALS CORP,10401 HWY 6,LINCOLN,NE,68517,"SANDOZ PHARMACEUTICALS CORP.10401 HWY 6, LINCOLN NEBRASKA 68517 (LANCASTER)",0,C,,
68521MLXNC1400W,-96.741,40.844,False,31,109,003102,31,31109,31109003102,1400000US31109003102,MOLEX LLC,1400 W BOND CIR,LINCOLN,NE,68521,"MOLEX LLC.1400 W BOND CIR, LINCOLN NEBRASKA 68521 (LANCASTER)",0,C,,110001515076
68524KWSKM6600N,-96.758,40.878,False,31,109,003102,31,31109,31109003102,1400000US31109003102,KAWASAKI MOTORS MANUFACTURING CORP USA,6600 NW 27TH ST,LINCOLN,NE,68524,"KAWASAKI MOTORS MANUFACTURING CORP USA.6600 NW 27TH ST, LINCOLN NEBRASKA 68524 (LANCASTER)",0,C,,110000447963
68521MTRML901WE,-96.735,40.846,False,31,109,003102,31,31109,31109003102,1400000US31109003102,METROMAIL,901 W BOND,LINCOLN,NE,68521,"METROMAIL.901 W BOND, LINCOLN NEBRASKA 68521 (LANCASTER)",0,C,,
68521SMDMR3700N,-96.738,40.848,False,31,109,003102,31,31109,31109003102,1400000US31109003102,QUEBECOR WORLD LINCOLN DIV,3700 NW 12TH ST,LINCOLN,NE,68521,"QUEBECOR WORLD LINCOLN DIV.3700 NW 12TH ST, LINCOLN NEBRASKA 68521 (LANCASTER)",0,C,,110000447927
68521MLXNC700KI,-96.734,40.852,False,31,109,003102,31,31109,31109003102,1400000US31109003102,MOLEX LLC,700 KINGBIRD RD,LINCOLN,NE,68521,"MOLEX LLC.700 KINGBIRD RD, LINCOLN NEBRASKA 68521 (LANCASTER)",0,C,,110000447909
68521NRDNL601WE,-96.73,40.835,False,31,109,003104,31,31109,31109003104,1400000US31109003104,ZOETIS LLC,601 W CORNH US KER HWY,LINCOLN,NE,68521,"ZOETIS LLC.601 W CORNH US KER HWY, LINCOLN NEBRASKA 68521 (LANCASTER)",0,C,,110000447918
68522LNCLN600WE,-96.728,40.802,False,31,109,003402,31,31109,31109003402,1400000US31109003402,LINCOLN INDUSTRIES INC,600 WEST E STREET,LINCOLN,NE,68522,"LINCOLN INDUSTRIES INC.600 WEST E STREET, LINCOLN NEBRASKA 68522 (LANCASTER)",0,C,,110000847745
68522LSTRL625WE,-96.729,40.799,False,31,109,003402,31,31109,31109003402,1400000US31109003402,LESTER ELECTRICAL,625 W A ST,LINCOLN,NE,68522,"LESTER ELECTRICAL.625 W A ST, LINCOLN NEBRASKA 68522 (LANCASTER)",0,C,,110000447936
68522YNKHL3705S,-96.749,40.777,False,31,109,003604,31,31109,31109003604,1400000US31109003604,YANKEE HILL BRICK MANUFACTURING CO,3705 S CODDINGTON AVE,LINCOLN,NE,68522,"YANKEE HILL BRICK MANUFACTURING CO.3705 S CODDINGTON AVE, LINCOLN NEBRASKA 68522 (LANCASTER)",0,C,,110000447945
68501LNCLN8000S,-96.73700000000001,40.732,False,31,109,003604,31,31109,31109003604,1400000US31109003604,LES -ROKEBY STATION,8000 SW 12TH ST,LINCOLN,NE,68523,"LES -ROKEBY STATION.8000 SW 12TH ST, LINCOLN NEBRASKA 68523 (LANCASTER)",0,C,,
68601BCTNDINDUS,-97.34200000000001,41.437,False,31,141,965500,31,31141,31141965500,1400000US31141965500,BECTON DICKINSON MEDICAL -MEDICATION DELIVERY SOLUTIONS,2153 12TH AVE,COLUMBUS,NE,68601,"BECTON DICKINSON MEDICAL -MEDICATION DELIVERY SOLUTIONS.2153 12TH AVE, COLUMBUS NEBRASKA 68601 (PLATTE)",0,C,,110000596873
68601BHLNMHWY30,-97.27799999999999,41.43600000000001,False,31,141,965500,31,31141,31141965500,1400000US31141965500,BEHLEN MFG CO,4025 E 23RD ST,COLUMBUS,NE,68601,"BEHLEN MFG CO.4025 E 23RD ST, COLUMBUS NEBRASKA 68601 (PLATTE)",0,C,,110000447990
68601DGLSLHIGHW,-97.287,41.435,False,31,141,965500,31,31141,31141965500,1400000US31141965500,CAMACO COLUMBUS MANUFACTURING,1851 E 32ND AVE,COLUMBUS,NE,68601,"CAMACO COLUMBUS MANUFACTURING.1851 E 32ND AVE, COLUMBUS NEBRASKA 68601 (PLATTE)",0,C,,110001512186
68601KNTFDHWY30,-97.258,41.438,False,31,141,965500,31,31141,31141965500,1400000US31141965500,KENT NUTRITION GROUP INC,5445 E 23RD ST,COLUMBUS,NE,68601,"KENT NUTRITION GROUP INC.5445 E 23RD ST, COLUMBUS NEBRASKA 68601 (PLATTE)",0,C,,110000743278
68602FLSHC20741,-97.344,41.43600000000001,False,31,141,965500,31,31141,31141965500,1400000US31141965500,FLEISCHER MFG INC,2074 14TH AVE,COLUMBUS,NE,68602,"FLEISCHER MFG INC.2074 14TH AVE, COLUMBUS NEBRASKA 68602 (PLATTE)",0,C,,
68601MNNST3000E,-97.291,41.423,False,31,141,965500,31,31141,31141965500,1400000US31141965500,ADM CORN PROCESSING-COLUMBUS,3000 E 8TH ST,COLUMBUS,NE,68601,"ADM CORN PROCESSING-COLUMBUS.3000 E 8TH ST, COLUMBUS NEBRASKA 68601 (PLATTE)",0,C,,110000448043
68601FLXCN2021E,-97.303,41.438,False,31,141,965500,31,31141,31141965500,1400000US31141965500,FLEXCON CO INC,2021 E 23RD ST,COLUMBUS,NE,68601,"FLEXCON CO INC.2021 E 23RD ST, COLUMBUS NEBRASKA 68601 (PLATTE)",0,C,,110000448025
68601PLTTC15392,-97.306,41.438,False,31,141,965500,31,31141,31141965500,1400000US31141965500,PLATTE CO PROCESSED MEATS,1539 23RD ST E,COLUMBUS,NE,68601,"PLATTE CO PROCESSED MEATS.1539 23RD ST E, COLUMBUS NEBRASKA 68601 (PLATTE)",0,C,,
68601RNCRP33E8T,-97.286,41.424,False,31,141,965500,31,31141,31141965500,1400000US31141965500,MIBA INDUSTRIAL BEARINGS US LLC,3300 E 8TH ST,COLUMBUS,NE,68601,"MIBA INDUSTRIAL BEARINGS US LLC.3300 E 8TH ST, COLUMBUS NEBRASKA 68601 (PLATTE)",0,C,,110020050790
68601VSHYD20641,-97.34200000000001,41.437,False,31,141,965500,31,31141,31141965500,1400000US31141965500,VISHAY DALE PLANT 6,2064 12TH AVE,COLUMBUS,NE,68601,"VISHAY DALE PLANT 6.2064 12TH AVE, COLUMBUS NEBRASKA 68601 (PLATTE)",0,C,,110004072324
68601RLNCL16E29,-97.291,41.43,False,31,141,965500,31,31141,31141965500,1400000US31141965500,VALMONT NEWMARK INC,1600 E 29TH AVE,COLUMBUS,NE,68601,"VALMONT NEWMARK INC.1600 E 29TH AVE, COLUMBUS NEBRASKA 68601 (PLATTE)",0,C,,110004085187
6860WBDPHR92E19,-97.319,41.43600000000001,False,31,141,965500,31,31141,31141965500,1400000US31141965500,BECTON DICKINSON & CO,920 E. 19TH ST.,COLUMBUS,NE,68601,"BECTON DICKINSON & CO.920 E. 19TH ST., COLUMBUS NEBRASKA 68601 (PLATTE)",0,C,,110013303656
6860WVSHYD28614,-97.31,41.43600000000001,False,31,141,965500,31,31141,31141965500,1400000US31141965500,VISHAY DALE PLANT 4,2086 14TH AVE,COLUMBUS,NE,68601,"VISHAY DALE PLANT 4.2086 14TH AVE, COLUMBUS NEBRASKA 68601 (PLATTE)",0,C,,110045838705
6860WCRGLL1529B,-97.307,41.438,False,31,141,965500,31,31141,31141965500,1400000US31141965500,CARGILL,1529 E 23RD ST,COLUMBUS,NE,68601,"CARGILL.1529 E 23RD ST, COLUMBUS NEBRASKA 68601 (PLATTE)",0,C,,110070070128
68601DLLCT11222,-97.34100000000001,41.43899999999999,False,31,141,965400,31,31141,31141965400,1400000US31141965400,VISHAY DALE PLANT 2,1122 23RD ST,COLUMBUS,NE,68601,"VISHAY DALE PLANT 2.1122 23RD ST, COLUMBUS NEBRASKA 68601 (PLATTE)",0,C,,110000448007
68601MDMRC24511,-97.346,41.44,False,31,141,965400,31,31141,31141965400,1400000US31141965400,MID-AMERICAN RESEARCH CHEMICAL CORP,2451-16 AVE,COLUMBUS,NE,68601,"MID-AMERICAN RESEARCH CHEMICAL CORP.2451-16 AVE, COLUMBUS NEBRASKA 68601 (PLATTE)",2,C,,110000448034
68601PPLTN2500E,-97.296,41.43899999999999,False,31,141,965400,31,31141,31141965400,1400000US31141965400,EGS ELECTRICAL GROUP,2500 E 23RD ST,COLUMBUS,NE,68601,"EGS ELECTRICAL GROUP.2500 E 23RD ST, COLUMBUS NEBRASKA 68601 (PLATTE)",1,C,,110000448061
68602HNKMC3330E,-97.28200000000001,41.43899999999999,False,31,141,965400,31,31141,31141965400,1400000US31141965400,HENKE MACHINE INC,3330 EAST 23RD ST,COLUMBUS,NE,686021006,"HENKE MACHINE INC.3330 EAST 23RD ST, COLUMBUS NEBRASKA 68602 (PLATTE)",0,C,,
68601MRMNMHIGHW,-97.25200000000001,41.437,False,31,037,964700,31,31141,31037964700,1400000US31037964700,ADM ANIMAL NUTRITION INC,2174 E 59TH AVE,COLUMBUS,NE,68601,"ADM ANIMAL NUTRITION INC.2174 E 59TH AVE, COLUMBUS NEBRASKA 68601 (PLATTE)",0,C,,110000596882
68634CRGLLHWY30,-97.485,41.393,False,31,141,965298,31,31141,31141965298,1400000US31141965298,"CARGILL, INC",28115 158TH ST,DUNCAN,NE,68634,"CARGILL, INC.28115 158TH ST, DUNCAN NEBRASKA 68634 (PLATTE)",0,C,,110010161163
68644LNDSYEASTH,-97.69,41.702,False,31,141,965100,31,31141,31141965100,1400000US31141965100,LINDSAY MANUFACTURING CO,214 E 2ND ST,LINDSAY,NE,68644,"LINDSAY MANUFACTURING CO.214 E 2ND ST, LINDSAY NEBRASKA 68644 (PLATTE)",0,C,,110000596891
68661XCLCRWESTH,-97.096,41.452,False,31,037,964800,31,31037,31037964800,1400000US31037964800,CARGILL MEAT SOLUTIONS CORP,590 RD 9,SCHUYLER,NE,68661,"CARGILL MEAT SOLUTIONS CORP.590 RD 9, SCHUYLER NEBRASKA 68661 (COLFAX)",0,C,,110000596908
68701DLLCT2300R,-97.425,42.059,False,31,119,960700,31,31119,31119960700,1400000US31119960700,VISHAY DALE ELECTRONICS INC,2300 RIVERSIDE BLVD,NORFOLK,NE,687020074,"VISHAY DALE ELECTRONICS INC.2300 RIVERSIDE BLVD, NORFOLK NEBRASKA 68702 (MADISON)",0,C,,
68701MCMPN1000E,-97.397,42.062,False,31,119,960700,31,31119,31119960700,1400000US31119960700,FLEXMAG INDUSTRIES PLASTIFORM DIV,1000 E EISENHOWER AVE,NORFOLK,NE,68701,"FLEXMAG INDUSTRIES PLASTIFORM DIV.1000 E EISENHOWER AVE, NORFOLK NEBRASKA 68701 (MADISON)",0,C,,110000448105
68702GRHLD19RIV,-97.42200000000001,42.055,False,31,119,960700,31,31119,31119960700,1400000US31119960700,GERHOLD CONCRETE CO NORFOLK PLANT,1900 RIVERSIDE,NORFOLK,NE,68701,"GERHOLD CONCRETE CO NORFOLK PLANT.1900 RIVERSIDE, NORFOLK NEBRASKA 68701 (MADISON)",0,C,,110010167354
68701GDYRT2701W,-97.45200000000001,42.016999999999996,False,31,119,961100,31,31119,31119961100,1400000US31119961100,CONTITECH USA INC,2701 W OMAHA AVE,NORFOLK,NE,68701,"CONTITECH USA INC.2701 W OMAHA AVE, NORFOLK NEBRASKA 68701 (MADISON)",0,C,,110000448098
68701GLLTT700EA,-97.399,42.018,False,31,119,961100,31,31119,31119961100,1400000US31119961100,HILAND ICE CREAM CO,700 E OMAHA AVE,NORFOLK,NE,68701,"HILAND ICE CREAM CO.700 E OMAHA AVE, NORFOLK NEBRASKA 68701 (MADISON)",0,C,,110000536992
68701MDMRC805OM,-97.419,42.018,False,31,119,961100,31,31119,31119961100,1400000US31119961100,MILK SPECIALTIES GLOBAL-NORFOLK,805 OMAHA AVE,NORFOLK,NE,68701,"MILK SPECIALTIES GLOBAL-NORFOLK.805 OMAHA AVE, NORFOLK NEBRASKA 68701 (MADISON)",0,C,,110000448114
68701NCRCR1601W,-97.432,42.018,False,31,119,961100,31,31119,31119961100,1400000US31119961100,NUCOR CORP-VULCRAFT/NUCOR COLD FINISH DIV,1601 W OMAHA AVE,NORFOLK,NE,68701,"NUCOR CORP-VULCRAFT/NUCOR COLD FINISH DIV.1601 W OMAHA AVE, NORFOLK NEBRASKA 68701 (MADISON)",0,C,,110000448123
68701SHRWDSOUTH,-97.421,41.994,False,31,119,961100,31,31119,31119961100,1400000US31119961100,TYCO HEALTHCARE,1222 SHERWOOD RD.,NORFOLK,NE,68701,"TYCO HEALTHCARE.1222 SHERWOOD RD., NORFOLK NEBRASKA 68701 (MADISON)",0,C,,110000448141
68701LNDLK1400R,-97.40100000000001,42.016999999999996,False,31,119,961100,31,31119,31119961100,1400000US31119961100,LAND O'LAKES INC FARMLAND FEED,1400 PINE & INDUSTRIAL RD,NORFOLK,NE,68701,"LAND O'LAKES INC FARMLAND FEED.1400 PINE & INDUSTRIAL RD, NORFOLK NEBRASKA 68701 (MADISON)",0,C,,
68701WSPKN1400W,-97.429,42.007,False,31,119,961100,31,31119,31119961100,1400000US31119961100,WIS-PAK OF NORFOLK INC,1400 W TAHAZOUKA DR,NORFOLK,NE,68701,"WIS-PAK OF NORFOLK INC.1400 W TAHAZOUKA DR, NORFOLK NEBRASKA 68701 (MADISON)",0,C,,
68701PRCNCEASTH,-97.464,42.023,False,31,119,961100,31,31119,31119961100,1400000US31119961100,GREENSTONE INDUSTRIES NORFOLK INC,E HWY 24,NORFOLK,NE,687011533,"GREENSTONE INDUSTRIES NORFOLK INC.E HWY 24, NORFOLK NEBRASKA 68701 (MADISON)",0,C,,
68701BPNCX1600S,-97.402,42.013999999999996,False,31,119,961100,31,31119,31119961100,1400000US31119961100,IBP INC,1600 S PINE INDL,NORFOLK,NE,68701,"IBP INC.1600 S PINE INDL, NORFOLK NEBRASKA 68701 (MADISON)",0,C,,
6870WWLNDN86WSU,-97.41799999999999,41.975,False,31,119,961100,31,31119,31119961100,1400000US31119961100,WEILAND INC,806 W SOUTH AIRPORT RD - SE CNR E SOUTH AIRPORT RD & HWY 81,NORFOLK,NE,68701,"WEILAND INC.806 W SOUTH AIRPORT RD - SE CNR E SOUTH AIRPORT RD & HWY 81, NORFOLK NEBRASKA 68701 (MADISON)",0,C,,110069330174
68731BPNCXHIGHW,-96.417,42.428999999999995,False,31,043,010300,31,31043,31043010300,1400000US31043010300,TYSON FRESH MEATS INC,1131 DAKOTA AVENUE,DAKOTA CITY,NE,68731,"TYSON FRESH MEATS INC.1131 DAKOTA AVENUE, DAKOTA CITY NEBRASKA 68731 (DAKOTA)",0,C,,110060335301
68776CNGRS300CO,-96.415,42.441,False,31,043,010300,31,31043,31043010300,1400000US31043010300,CONAGRA SPECIALTY GRAIN CO,300 CONAGRA ST,SOUTH SIOUX CITY,NE,68776,"CONAGRA SPECIALTY GRAIN CO.300 CONAGRA ST, SOUTH SIOUX CITY NEBRASKA 68776 (DAKOTA)",0,C,,
68776BFPRD36016,-96.41799999999999,42.431000000000004,False,31,043,010300,31,31043,31043010300,1400000US31043010300,EMPIRICAL FOODS (SSC),360 164TH ST,SOUTH SIOUX CITY,NE,68776,"EMPIRICAL FOODS (SSC).360 164TH ST, SOUTH SIOUX CITY NEBRASKA 68776 (DAKOTA)",0,C,,110000448178
68731BPNCWGSTXX,-96.404,42.426,False,31,043,010300,31,31043,31043010300,1400000US31043010300,TYSON FRESH MEATS INC WWTP,1674 C AVE,DAKOTA CITY,NE,68731,"TYSON FRESH MEATS INC WWTP.1674 C AVE, DAKOTA CITY NEBRASKA 68731 (DAKOTA)",0,C,,110038965563
68776SXLND2E48T,-96.405,42.442,False,31,043,010300,31,31043,31043010300,1400000US31043010300,SIOUXLAND CONCRETE CO,200 E 48TH ST,SOUTH SIOUX CITY,NE,68776,"SIOUXLAND CONCRETE CO.200 E 48TH ST, SOUTH SIOUX CITY NEBRASKA 68776 (DAKOTA)",0,C,,110017761849
68739MDMRCWESTH,-97.28200000000001,42.613,False,31,027,977100,31,31027,31027977100,1400000US31027977100,LEPRINO FOODS CO,W HWY 84,HARTINGTON,NE,68739,"LEPRINO FOODS CO.W HWY 84, HARTINGTON NEBRASKA 68739 (CEDAR)",0,C,,
68739HYDRLHWY84,-97.273,42.611999999999995,False,31,027,977100,31,31027,31027977100,1400000US31027977100,HYDRAULIC COMPONENTS INDUSTRY,HWY 84 & KATHOL RD BOX 187,HARTINGTON,NE,68739,"HYDRAULIC COMPONENTS INDUSTRY.HWY 84 & KATHOL RD BOX 187, HARTINGTON NEBRASKA 68739 (CEDAR)",0,C,,110002081247
6873WGRHLD88475,-97.26899999999999,42.652,False,31,027,977100,31,31027,31027977100,1400000US31027977100,GERHOLD CONCRETE CO HARTINGTON PLANT,88475 HIGHWAY 57,HARTINGTON,NE,68739,"GERHOLD CONCRETE CO HARTINGTON PLANT.88475 HIGHWAY 57, HARTINGTON NEBRASKA 68739 (CEDAR)",0,C,,110044322596
68748BPNCX1200I,-97.46700000000001,41.816,False,31,119,961300,31,31119,31119961300,1400000US31119961300,TYSON FRESH MEATS INC MADISON NEBRASKA,1200 INDUSTRIAL PKWY,MADISON,NE,68748,"TYSON FRESH MEATS INC MADISON NEBRASKA.1200 INDUSTRIAL PKWY, MADISON NEBRASKA 68748 (MADISON)",0,C,,110000448169
68764RCHRD120WE,-98.24700000000001,42.335,False,31,003,979600,31,31003,31003979600,1400000US31003979600,MID-AMERICA DAIRYMEN INC,120 W 2ND ST,ORCHARD,NE,68764,"MID-AMERICA DAIRYMEN INC.120 W 2ND ST, ORCHARD NEBRASKA 68764 (ANTELOPE)",1,C,,
68776SXCTY25GST,-96.404,42.467,False,31,043,010200,31,31043,31043010200,1400000US31043010200,SIOUX CITY FOUNDRY CO,24TH & G ST,SOUTH SIOUX CITY,NE,68776,"SIOUX CITY FOUNDRY CO.24TH & G ST, SOUTH SIOUX CITY NEBRASKA 68776 (DAKOTA)",0,C,,110014060390
68776CNTRL39THD,-96.41799999999999,42.452,False,31,043,010200,31,31043,31043010200,1400000US31043010200,ADM ANIMAL NUTRITION INC,425 W 39TH ST,SOUTH SIOUX CITY,NE,68776,"ADM ANIMAL NUTRITION INC.425 W 39TH ST, SOUTH SIOUX CITY NEBRASKA 68776 (DAKOTA)",0,C,,110000448187
68784MLTNG105NO,-96.865,42.272,False,31,051,977800,31,31051,31051977800,1400000US31051977800,MG WALDBAUM CO,105 N MAIN ST,WAKEFIELD,NE,68784,"MG WALDBAUM CO.105 N MAIN ST, WAKEFIELD NEBRASKA 68784 (DIXON)",0,C,,110000448196
68784MGWLDHWY35,-96.835,42.293,False,31,051,977800,31,31051,31051977800,1400000US31051977800,BIG RED FARMS,HWY 35 N,WAKEFIELD,NE,687840573,"BIG RED FARMS.HWY 35 N, WAKEFIELD NEBRASKA 68784 (DIXON)",0,C,,
68784MGWLDHWY9N,-96.87,42.308,False,31,051,977800,31,31051,31051977800,1400000US31051977800,HUSKER PRIDE,HWY 9 N,WAKEFIELD,NE,687840573,"HUSKER PRIDE.HWY 9 N, WAKEFIELD NEBRASKA 68784 (DIXON)",0,C,,
68787GRTDN1200N,-97.001,42.24100000000001,False,31,179,978700,31,31179,31179978700,1400000US31179978700,GREAT DANE LLC,1200 CENTENNIAL RD,WAYNE,NE,68787,"GREAT DANE LLC.1200 CENTENNIAL RD, WAYNE NEBRASKA 68787 (WAYNE)",0,C,,110000448203
6878WGRHLD89CEN,-96.99799999999999,42.236999999999995,False,31,179,978700,31,31179,31179978700,1400000US31179978700,GERHOLD CONCRETE CO WAYNE PLANT,809 CENTENNIAL RD,WAYNE,NE,68787,"GERHOLD CONCRETE CO WAYNE PLANT.809 CENTENNIAL RD, WAYNE NEBRASKA 68787 (WAYNE)",0,C,,110067546971
68788BPNCXHIGHW,-96.708,41.798,False,31,039,972800,31,31039,31039972800,1400000US31039972800,WEST POINT DAIRY PRODUCTS LLC,1715 E RD,WEST POINT,NE,68788,"WEST POINT DAIRY PRODUCTS LLC.1715 E RD, WEST POINT NEBRASKA 68788 (CUMING)",0,C,,110040084583
68788WSTPNPOBOX,-96.709,41.854,False,31,039,972800,31,31039,31039972800,1400000US31039972800,WEST POINT DAIRY PRODUCTS LLC,1715 E ROAD,WEST POINT,NE,68788,"WEST POINT DAIRY PRODUCTS LLC.1715 E ROAD, WEST POINT NEBRASKA 68788 (CUMING)",0,C,,110000769231
68788VLMNT1700S,-96.70200000000001,41.825,False,31,039,972800,31,31039,31039972800,1400000US31039972800,VALMONT COATINGS,1700 S BEEMER ST,WEST POINT,NE,68788,"VALMONT COATINGS.1700 S BEEMER ST, WEST POINT NEBRASKA 68788 (CUMING)",0,C,,110000448212
6878WGRHLD143SU,-96.70200000000001,41.825,False,31,039,972800,31,31039,31039972800,1400000US31039972800,GERHOLD CONCRETE CO WEST POINT PLANT,1430 S BEEMER ST,WEST POINT,NE,68788,"GERHOLD CONCRETE CO WEST POINT PLANT.1430 S BEEMER ST, WEST POINT NEBRASKA 68788 (CUMING)",0,C,,110014397893
68802DLCSFNORTH,-98.352,40.95,False,31,079,000200,31,31079,31079000200,1400000US31079000200,ORE-IDA FOODS INC DELICIOUS FOODS DIV PLANT I,204 E ROBERTS ST,GRAND ISLAND,NE,688010730,"ORE-IDA FOODS INC DELICIOUS FOODS DIV PLANT I.204 E ROBERTS ST, GRAND ISLAND NEBRASKA 68801 (HALL)",0,C,,
68801VRHDD2514E,-98.32600000000001,40.944,False,31,079,000200,31,31079,31079000200,1400000US31079000200,OVERHEAD DOOR CORP,2514 E HWY 30,GRAND ISLAND,NE,68801,"OVERHEAD DOOR CORP.2514 E HWY 30, GRAND ISLAND NEBRASKA 68801 (HALL)",0,C,,
68801CNCPT1515E,-98.32600000000001,40.935,False,31,079,000200,31,31079,31079000200,1400000US31079000200,CONCEPT FIBERGLASS INC,1515 E 4TH ST,GRAND ISLAND,NE,68801,"CONCEPT FIBERGLASS INC.1515 E 4TH ST, GRAND ISLAND NEBRASKA 68801 (HALL)",0,C,,
68801CNCPT611NW,-98.325,40.938,False,31,079,000200,31,31079,31079000200,1400000US31079000200,CONCEPT FIBERGLASS,611 WILLOW ST,GRAND ISLAND,NE,68801,"CONCEPT FIBERGLASS.611 WILLOW ST, GRAND ISLAND NEBRASKA 68801 (HALL)",0,C,,110001520275
68802CHFTM1924E,-98.322,40.937,False,31,079,000200,31,31079,31079000200,1400000US31079000200,CHIEF AUTOMOTIVE TECHNOLOGIES,1924 E 4TH ST,GRAND ISLAND,NE,68802,"CHIEF AUTOMOTIVE TECHNOLOGIES.1924 E 4TH ST, GRAND ISLAND NEBRASKA 68802 (HALL)",0,C,,110001518046
68802FRDNW3445W,-98.382,40.900999999999996,False,31,079,000600,31,31079,31079000600,1400000US31079000600,CNH INDUSTRIAL AMERICA LLC,3445 W STOLLEY PARK RD,GRAND ISLAND,NE,68803,"CNH INDUSTRIAL AMERICA LLC.3445 W STOLLEY PARK RD, GRAND ISLAND NEBRASKA 68803 (HALL)",0,C,,110000448267
68802HRNDY3625O,-98.38600000000001,40.917,False,31,079,000600,31,31079,31079000600,1400000US31079000600,HORNADY MANUFACTURING CO,3625 W OLD POTASH HWY,GRAND ISLAND,NE,68803,"HORNADY MANUFACTURING CO.3625 W OLD POTASH HWY, GRAND ISLAND NEBRASKA 68803 (HALL)",0,C,,110011600428
68803CHFCS1808R,-98.395,40.903,False,31,079,000600,31,31079,31079000600,1400000US31079000600,CHIEF INDUSTRIES AGRI DIVISON GRAND ISLAND,1808 RAYMOND DR,GRAND ISLAND,NE,68803,"CHIEF INDUSTRIES AGRI DIVISON GRAND ISLAND.1808 RAYMOND DR, GRAND ISLAND NEBRASKA 68803 (HALL)",0,C,,110000769240
68803CHFND2391S,-98.397,40.898,False,31,079,000600,31,31079,31079000600,1400000US31079000600,CHIEF INDUSTRIES INC - BUILDINGS DIV,2391 S N RD,GRAND ISLAND,NE,68803,"CHIEF INDUSTRIES INC - BUILDINGS DIV.2391 S N RD, GRAND ISLAND NEBRASKA 68803 (HALL)",0,C,,110000448294
68802MNFRT555SO,-98.32,40.922,False,31,079,001000,31,31079,31079001000,1400000US31079001000,SWIFT BEEF CO,555 S STUHR RD,GRAND ISLAND,NE,68801,"SWIFT BEEF CO.555 S STUHR RD, GRAND ISLAND NEBRASKA 68801 (HALL)",0,C,,110000448285
68801GRNDS916NS,-98.301,40.939,False,31,079,001000,31,31079,31079001000,1400000US31079001000,GRAND ISLAND ACCESSORIES INC,916 N SHADY BEND RD,GRAND ISLAND,NE,688018499,"GRAND ISLAND ACCESSORIES INC.916 N SHADY BEND RD, GRAND ISLAND NEBRASKA 68801 (HALL)",0,C,,
68801LCTRN2809E,-98.311,40.935,False,31,079,001000,31,31079,31079001000,1400000US31079001000,ELECTRONIC DISPLAY SYSTEMS,2809 E HWY 30,GRAND ISLAND,NE,68801,"ELECTRONIC DISPLAY SYSTEMS.2809 E HWY 30, GRAND ISLAND NEBRASKA 68801 (HALL)",0,C,,110002434161
68810BLLTWAPPOL,-98.49,40.875,False,31,079,000100,31,31079,31079000100,1400000US31079000100,BULLET WEIGHTS INC,APPOLLO DR,ALDA,NE,688100187,"BULLET WEIGHTS INC.APPOLLO DR, ALDA NEBRASKA 68810 (HALL)",0,C,,
68801CRWNS4112A,-98.323,40.976000000000006,False,31,079,000100,31,31079,31079000100,1400000US31079000100,"BKEP MATERIALS, LLC - GRAND ISLAND",4112 N ACADEMY RD,GRAND ISLAND,NE,68801,"BKEP MATERIALS, LLC - GRAND ISLAND.4112 N ACADEMY RD, GRAND ISLAND NEBRASKA 68801 (HALL)",0,C,,110002441929
6880WFLTRS232SN,-98.31700000000001,41.005,False,31,079,000100,31,31079,31079000100,1400000US31079000100,FILTER SPECIALISTS INC,2302 S N RD,GRAND ISLAND,NE,68803,"FILTER SPECIALISTS INC.2302 S N RD, GRAND ISLAND NEBRASKA 68803 (HALL)",0,C,,110064022668
68810LNPLSARGOI,-98.473,40.866,False,31,079,001300,31,31079,31079001300,1400000US31079001300,LEON PLASTICS INC.,108 APOLLO RD,ALDA,NE,68810,"LEON PLASTICS INC..108 APOLLO RD, ALDA NEBRASKA 68810 (HALL)",0,C,,110011041675
68832DNVSTOLDHW,-98.37,40.772,False,31,079,001300,31,31079,31079001300,1400000US31079001300,3-D INVESTMENT INC,112 W PLUM ST,DONIPHAN,NE,68832,"3-D INVESTMENT INC.112 W PLUM ST, DONIPHAN NEBRASKA 68832 (HALL)",0,C,,
68801PLTTG1035W,-98.34899999999999,40.855,False,31,079,001300,31,31079,31079001300,1400000US31079001300,PLATTE GENERATING STATION,1035 W WILDWOOD DR,GRAND ISLAND,NE,68801,"PLATTE GENERATING STATION.1035 W WILDWOOD DR, GRAND ISLAND NEBRASKA 68801 (HALL)",0,C,,110000448249
6880WSTNDR416GL,-98.37100000000001,40.871,False,31,079,001300,31,31079,31079001300,1400000US31079001300,STANDARD IRON INC,4160 GOLD CORE RD,GRAND ISLAND,NE,68801,"STANDARD IRON INC.4160 GOLD CORE RD, GRAND ISLAND NEBRASKA 68801 (HALL)",0,C,,110022482865
68818CNTRYINDUS,-98.021,40.874,False,31,081,969300,31,31081,31081969300,1400000US31081969300,FIBERGLASS PRODUCTS INC,102 GRANT STREET,AURORA,NE,68818,"FIBERGLASS PRODUCTS INC.102 GRANT STREET, AURORA NEBRASKA 68818 (HAMILTON)",0,C,,110001514638
68818NBRSK1205S,-98.036,40.868,False,31,081,969300,31,31081,31081969300,1400000US31081969300,PACIFIC ETHANOL -AURORA EAST LLC,1205 S O RD,AURORA,NE,68818,"PACIFIC ETHANOL -AURORA EAST LLC.1205 S O RD, AURORA NEBRASKA 68818 (HAMILTON)",0,C,,110000448329
688181FBRG105HA,-98.023,40.873000000000005,False,31,081,969300,31,31081,31081969300,1400000US31081969300,A-1 FIBERGLASS,105 HAMILTON,AURORA,NE,68818,"A-1 FIBERGLASS.105 HAMILTON, AURORA NEBRASKA 68818 (HAMILTON)",0,C,,
68818BNNVL111GR,-98.021,40.873000000000005,False,31,081,969300,31,31081,31081969300,1400000US31081969300,BONNAVILLA HOMES,111 GRANT ST,AURORA,NE,68818,"BONNAVILLA HOMES.111 GRANT ST, AURORA NEBRASKA 68818 (HAMILTON)",0,C,,110013286817
688181FBRG1318W,-98.04,40.871,False,31,081,969300,31,31081,31081969300,1400000US31081969300,A-1 FIBERGLASS,1318 WILSON ST,AURORA,NE,68818,"A-1 FIBERGLASS.1318 WILSON ST, AURORA NEBRASKA 68818 (HAMILTON)",0,C,,110020497121
6881WVNTNR213HA,-98.046,40.87,False,31,081,969300,31,31081,31081969300,1400000US31081969300,PACIFIC ETHANOL -AURORA WEST LLC,2103 HARVEST DR,AURORA,NE,68818,"PACIFIC ETHANOL -AURORA WEST LLC.2103 HARVEST DR, AURORA NEBRASKA 68818 (HAMILTON)",0,C,,110046120167
68822BCTND150SO,-99.631,41.403999999999996,False,31,041,971900,31,31041,31041971900,1400000US31041971900,BECTON DICKINSON & CO VSD,150 S 1ST AVE,BROKEN BOW,NE,68822,"BECTON DICKINSON & CO VSD.150 S 1ST AVE, BROKEN BOW NEBRASKA 68822 (CUSTER)",0,C,,
68840GBBNFEFRTS,-98.836,40.751999999999995,False,31,019,969100,31,31019,31019969100,1400000US31019969100,GIBBON FIBERGLASS,112 E FRONT ST,GIBBON,NE,68840,"GIBBON FIBERGLASS.112 E FRONT ST, GIBBON NEBRASKA 68840 (BUFFALO)",0,C,,
68840GBBNPEHWY3,-98.839,40.751999999999995,False,31,019,969100,31,31019,31019969100,1400000US31019969100,GIBBON PACKING LLC,EAST HWY 30,GIBBON,NE,68840,"GIBBON PACKING LLC.EAST HWY 30, GIBBON NEBRASKA 68840 (BUFFALO)",0,C,,110000596999
68840NTRFL6090O,-98.92,40.731,False,31,019,969100,31,31019,31019969100,1400000US31019969100,THE ANDERSONS INC - GIBBON,6090 OPTIC RD,GIBBON,NE,68840,"THE ANDERSONS INC - GIBBON.6090 OPTIC RD, GIBBON NEBRASKA 68840 (BUFFALO)",0,C,,110000448347
68840NRTFLRR2BO,-98.894,40.737,True,31,019,969100,31,31047,31019969100,1400000US31019969100,NUTRA-FLO CHEMICAL CO,RR#2 BOX 52,GIBBON,NE,68840,"NUTRA-FLO CHEMICAL CO RR#2 BOX 52, GIBBON, NE, 68840",2,C,,
68847CLMNP125AI,-99.016,40.723,False,31,019,969203,31,31019,31019969203,1400000US31019969203,PRAMAC AMERICA,4970 AIRPORT RD,KEARNEY,NE,68847,"PRAMAC AMERICA.4970 AIRPORT RD, KEARNEY NEBRASKA 68847 (BUFFALO)",0,C,,110000448356
68848BLDWNEASTH,-99.01899999999999,40.71,False,31,019,969203,31,31019,31019969203,1400000US31019969203,BALDWIN FILTERS INC,4400 E HWY 30,KEARNEY,NE,68847,"BALDWIN FILTERS INC.4400 E HWY 30, KEARNEY NEBRASKA 68847 (BUFFALO)",0,C,,110000597015
68847CHFND4400E,-99.02,40.714,False,31,019,969203,31,31019,31019969203,1400000US31019969203,CHIEF INDUSTRIES INC - AGRI/INDUSTRIAL DIV,4400 E 39TH ST,KEARNEY,NE,68847,"CHIEF INDUSTRIES INC - AGRI/INDUSTRIAL DIV.4400 E 39TH ST, KEARNEY NEBRASKA 68847 (BUFFALO)",0,C,,110001520621
68847THWST923WR,-99.094,40.694,False,31,019,969600,31,31019,31019969600,1400000US31019969600,WEST PHARMACEUTICAL SERVICES,923 W RAILROAD ST,KEARNEY,NE,68845,"WEST PHARMACEUTICAL SERVICES.923 W RAILROAD ST, KEARNEY NEBRASKA 68845 (BUFFALO)",0,C,,110015738264
68847TNCRP4200E,-99.027,40.71,False,31,019,969300,31,31019,31019969300,1400000US31019969300,EATON CORP,4200 HIGHWAY 30 E,KEARNEY,NE,68847,"EATON CORP.4200 HIGHWAY 30 E, KEARNEY NEBRASKA 68847 (BUFFALO)",0,C,,110000597006
6884WKRNYC298HW,-99.045,40.704,False,31,019,969300,31,31019,31019969300,1400000US31019969300,KEARNEY CRETE & BLOCK CO,2908 HWY 30 E,KEARNEY,NE,68847,"KEARNEY CRETE & BLOCK CO.2908 HWY 30 E, KEARNEY NEBRASKA 68847 (BUFFALO)",0,C,,110010166159
68850RTHMNRR2XX,-99.711,40.81,False,31,047,968100,31,31047,31047968100,1400000US31047968100,ORTHMAN MANUFACTURING INC NORTH PLANT,75765 RD 435,LEXINGTON,NE,68850,"ORTHMAN MANUFACTURING INC NORTH PLANT.75765 RD 435, LEXINGTON NEBRASKA 68850 (DAWSON)",0,C,,110000448383
68850VLLYS1810E,-99.71600000000001,40.769,False,31,047,968400,31,31047,31047968400,1400000US31047968400,BEHLEN MANUFACTURING CO BIG VALLEY DIV,1810 E HWY 30,LEXINGTON,NE,68850,"BEHLEN MANUFACTURING CO BIG VALLEY DIV.1810 E HWY 30, LEXINGTON NEBRASKA 68850 (DAWSON)",0,C,,
68850BPNCX1500S,-99.73700000000001,40.760999999999996,False,31,047,968400,31,31047,31047968400,1400000US31047968400,TYSON FRESH MEATS INC,1500 S PLUM CREEK PKWY,LEXINGTON,NE,68850,"TYSON FRESH MEATS INC.1500 S PLUM CREEK PKWY, LEXINGTON NEBRASKA 68850 (DAWSON)",0,C,,110000760276
68850NBRSK74965,-99.712,40.738,False,31,047,968400,31,31047,31047968400,1400000US31047968400,NEBRASKA PUBLIC POWER DISTRICT CANADAY STEAM PLANT,74965 RD 435,LEXINGTON,NE,688505557,"NEBRASKA PUBLIC POWER DISTRICT CANADAY STEAM PLANT.74965 RD 435, LEXINGTON NEBRASKA 68850 (DAWSON)",0,C,,110001979477
6885WRTHMN152EA,-99.721,40.771,False,31,047,968400,31,31047,31047968400,1400000US31047968400,ORTHMAN MANUFACTURING INC SOUTH PLANT,1502 EAST WALNUT STREET,LEXINGTON,NE,68850,"ORTHMAN MANUFACTURING INC SOUTH PLANT.1502 EAST WALNUT STREET, LEXINGTON NEBRASKA 68850 (DAWSON)",1,C,,110001520845
6885WSTHFR62EAS,-99.743,40.747,False,31,047,968400,31,31047,31047968400,1400000US31047968400,SOUTH FRONTIER FACILITY,620 EAST FRONTIER STREET,LEXINGTON,NE,68850,"SOUTH FRONTIER FACILITY.620 EAST FRONTIER STREET, LEXINGTON NEBRASKA 68850 (DAWSON)",0,C,,110070058067
68869MDMRC102LI,-98.906,41.025,False,31,019,968900,31,31019,31019968900,1400000US31019968900,LEPRINO FOODS CO,102 LINCOLN AVE,RAVENNA,NE,68869,"LEPRINO FOODS CO.102 LINCOLN AVE, RAVENNA NEBRASKA 68869 (BUFFALO)",1,C,,110000448392
68869BNGBN35955,-98.875,41.023999999999994,False,31,019,968900,31,31019,31019968900,1400000US31019968900,KAAPA ETHANOL RAVENNA LLC,35955 NAVAHO RD,RAVENNA,NE,68869,"KAAPA ETHANOL RAVENNA LLC.35955 NAVAHO RD, RAVENNA NEBRASKA 68869 (BUFFALO)",0,C,,110031127126
68901FBRGLROUTE,-98.31299999999999,40.565,False,31,001,966200,31,31001,31001966200,1400000US31001966200,A-1 FIBERGLASS,4495 S GUNPOWDER CIR,HASTINGS,NE,68901,"A-1 FIBERGLASS.4495 S GUNPOWDER CIR, HASTINGS NEBRASKA 68901 (ADAMS)",0,C,,110000448427
68901RCNCXHASTI,-98.305,40.556999999999995,False,31,001,966200,31,31001,31001966200,1400000US31001966200,ERIC INC HASTINGS INDUSTRIES DIV,4855 EAST INDUSTRY CIR INDUSTRIAL PARK EAST,HASTINGS,NE,689020548,"ERIC INC HASTINGS INDUSTRIES DIV.4855 EAST INDUSTRY CIR INDUSTRIAL PARK EAST, HASTINGS NEBRASKA 68902 (ADAMS)",0,C,,
68901WHLNNEHWY6,-98.316,40.582,False,31,001,966200,31,31001,31001966200,1400000US31001966200,WHELAN ENERGY CENTER (WEC 1 HU WEC 2 PPGA),4520 E S ST,HASTINGS,NE,68901,"WHELAN ENERGY CENTER (WEC 1 HU WEC 2 PPGA).4520 E S ST, HASTINGS NEBRASKA 68901 (ADAMS)",0,C,,110001505602
68901SRMYN6700E,-98.28,40.568000000000005,False,31,001,966200,31,31001,31001966200,1400000US31001966200,US ARMY NATIONAL GUARD GREENLIEF TRAINING SITE RANGES,6700 EAST J STREET,HASTINGS,NE,68901,"US ARMY NATIONAL GUARD GREENLIEF TRAINING SITE RANGES.6700 EAST J STREET, HASTINGS NEBRASKA 68901 (ADAMS)",0,F,,110012703949
68901HSTNG2001S,-98.406,40.57,False,31,001,966000,31,31001,31001966000,1400000US31001966000,ARMOUR FOOD CO,2001 SUMMIT AVE,HASTINGS,NE,68901,"ARMOUR FOOD CO.2001 SUMMIT AVE, HASTINGS NEBRASKA 68901 (ADAMS)",0,C,,
68901THRMK1800C,-98.405,40.574,False,31,001,966000,31,31001,31001966000,1400000US31001966000,THERMO KING CORP,1800 CENTENNIAL AVE,HASTINGS,NE,68901,"THERMO KING CORP.1800 CENTENNIAL AVE, HASTINGS NEBRASKA 68901 (ADAMS)",0,C,,110000448454
68901TLRRGHASTI,-98.412,40.568000000000005,False,31,001,966000,31,31035,31001966000,1400000US31001966000,T-L IRRIGATION CO,151 E HWY 6 & AB RD,HASTINGS,NE,68901,"T-L IRRIGATION CO.151 E HWY 6 & AB RD, HASTINGS NEBRASKA 68901 (CLAY)",0,C,,110000608192
68902DNCRP1900S,-98.40700000000001,40.571999999999996,False,31,001,966000,31,31001,31001966000,1400000US31001966000,DANA CORP PERFECT CIRCLE DIV,1900 SUMMIT AVE,HASTINGS,NE,68901,"DANA CORP PERFECT CIRCLE DIV.1900 SUMMIT AVE, HASTINGS NEBRASKA 68901 (ADAMS)",0,C,,
68901LVTTS1009M,-98.395,40.564,False,31,001,966000,31,31001,31001966000,1400000US31001966000,LOVETT & SONS PACKING COMPANY,1009 M STREET,HASTINGS,NE,68901,"LOVETT & SONS PACKING COMPANY.1009 M STREET, HASTINGS NEBRASKA 68901 (ADAMS)",0,C,,
68901MRSHL108SC,-98.385,40.583,False,31,001,966100,31,31001,31001966100,1400000US31001966100,MARSHALLTOWN INSTRUMENTS,108 S COLORADO AVE,HASTINGS,NE,68901,"MARSHALLTOWN INSTRUMENTS.108 S COLORADO AVE, HASTINGS NEBRASKA 68901 (ADAMS)",0,C,,
68901NGRSL1341W,-98.399,40.585,False,31,001,965800,31,31001,31001965800,1400000US31001965800,FLOWSERVE CORP,1341 W 2ND ST,HASTINGS,NE,68901,"FLOWSERVE CORP.1341 W 2ND ST, HASTINGS NEBRASKA 68901 (ADAMS)",0,C,,110000448445
68901DTTNL1601W,-98.40299999999999,40.585,False,31,001,965800,31,31001,31001965800,1400000US31001965800,DUTTON-LAINSON CO,1601 W 2ND ST,HASTINGS,NE,68901,"DUTTON-LAINSON CO.1601 W 2ND ST, HASTINGS NEBRASKA 68901 (ADAMS)",0,C,,110045949462
68901SPLYC1933W,-98.41,40.585,False,31,001,965800,31,31001,31001965800,1400000US31001965800,U S POLY CO,1933 W 2ND ST,HASTINGS,NE,68901,"U S POLY CO.1933 W 2ND ST, HASTINGS NEBRASKA 68901 (ADAMS)",0,C,,110031020008
68902HSTNG3MILE,-98.306,40.583,False,31,001,965400,31,31001,31001965400,1400000US31001965400,HASTINGS NITROGEN PLANT,3 MILES E ON HWY 6,HASTINGS,NE,689020949,"HASTINGS NITROGEN PLANT.3 MILES E ON HWY 6, HASTINGS NEBRASKA 68902 (ADAMS)",0,C,,
68901CHFTHEASTH,-98.319,40.585,False,31,001,965400,31,31001,31001965400,1400000US31001965400,CHIEF ETHANOL FUELS INC,4225 E SOUTH ST,HASTINGS,NE,68901,"CHIEF ETHANOL FUELS INC.4225 E SOUTH ST, HASTINGS NEBRASKA 68901 (ADAMS)",0,C,,110000448409
68949BCTNDWESTH,-99.397,40.433,False,31,137,967000,31,31137,31137967000,1400000US31137967000,BECTON DICKINSON CO HOLDREGE,1329 W HWY 6,HOLDREGE,NE,68949,"BECTON DICKINSON CO HOLDREGE.1329 W HWY 6, HOLDREGE NEBRASKA 68949 (PHELPS)",0,C,,110000597033
68949HLDRGWESTH,-99.39200000000001,40.433,False,31,137,967000,31,31137,31137967000,1400000US31137967000,HOLDREGE SEED & FARM SUPPLY CO INC,W HWY 6,HOLDREGE,NE,689490530,"HOLDREGE SEED & FARM SUPPLY CO INC.W HWY 6, HOLDREGE NEBRASKA 68949 (PHELPS)",0,C,,110007677031
68959GRYSN900WF,-98.96600000000001,40.499,False,31,099,966700,31,31099,31099966700,1400000US31099966700,GRAYSON TOOL CO,900 WEST 5TH ST,MINDEN,NE,68959,"GRAYSON TOOL CO.900 WEST 5TH ST, MINDEN NEBRASKA 68959 (KEARNEY)",0,C,,
68978MDMRC355WE,-98.075,40.018,False,31,129,960100,31,31129,31129960100,1400000US31129960100,MID-AMERICA DAIRYMEN INC,355 W 2ND ST,SUPERIOR,NE,68978,"MID-AMERICA DAIRYMEN INC.355 W 2ND ST, SUPERIOR NEBRASKA 68978 (NUCKOLLS)",1,C,,
69001CRNBLNORTH,-100.65,40.223,False,31,145,963200,31,31145,31145963200,1400000US31145963200,VAN DIEST SUPPLY CO,71703 U.S. HWY 83,MC COOK,NE,69001,"VAN DIEST SUPPLY CO.71703 U.S. HWY 83, MC COOK NEBRASKA 69001 (RED WILLOW)",0,C,,110038269799
69001DYCPR400SO,-100.62200000000001,40.192,False,31,145,963300,31,31145,31145963300,1400000US31145963300,PARKER HANNIFIN,400 S ST,MC COOK,NE,69001,"PARKER HANNIFIN.400 S ST, MC COOK NEBRASKA 69001 (RED WILLOW)",0,C,,110024422640
69001VLMNT75SHW,-100.617,40.195,False,31,145,963300,31,31145,31145963300,1400000US31145963300,VALMONT INDUSTRIES INC,75 SOUTH HWY 83,MC COOK,NE,69001,"VALMONT INDUSTRIES INC.75 SOUTH HWY 83, MC COOK NEBRASKA 69001 (RED WILLOW)",0,C,,110006073113
6900WGRHLDBNRIG,-100.618,40.195,False,31,145,963300,31,31145,31145963300,1400000US31145963300,GERHOLD CONCRETE CO MCCOOK PLANT,B & N RIGHT OF WAY,MC COOK,NE,69001,"GERHOLD CONCRETE CO MCCOOK PLANT.B & N RIGHT OF WAY, MC COOK NEBRASKA 69001 (RED WILLOW)",0,C,,110067544866
69024KGLRLRAILR,-100.83,40.228,False,31,087,962700,31,31087,31087962700,1400000US31087962700,KUGLER OIL CO,RAILROAD ST,CULBERTSON,NE,69024,"KUGLER OIL CO.RAILROAD ST, CULBERTSON NEBRASKA 69024 (HITCHCOCK)",0,C,,
69044TRNTNHC2PB,-100.98,40.196,False,31,087,962700,31,31087,31087962700,1400000US31087962700,TRENTON AGRI PRODUCTS LLC,36638 US HWY 34,TRENTON,NE,69044,"TRENTON AGRI PRODUCTS LLC.36638 US HWY 34, TRENTON NEBRASKA 69044 (HITCHCOCK)",0,C,,110017696340
6902WKGLRC71748,-100.96,40.292,False,31,087,962700,31,31087,31087962700,1400000US31087962700,KUGLER OIL CO - CDF,71748 RAILROAD ST,CULBERTSON,NE,69024,"KUGLER OIL CO - CDF.71748 RAILROAD ST, CULBERTSON NEBRASKA 69024 (HITCHCOCK)",0,C,,110018874262
69129LPRNF100DA,-102.464,41.092,False,31,049,955400,31,31049,31049955400,1400000US31049955400,LEPRINO FOODS CO,100 DANA,CHAPPELL,NE,69129,"LEPRINO FOODS CO.100 DANA, CHAPPELL NEBRASKA 69129 (DEUEL)",0,C,,
69130MNRTQ121ME,-99.98700000000001,40.854,False,31,047,968300,31,31047,31047968300,1400000US31047968300,TENNECO AUTOMOTIVE OPERATING CO INC,121 MERIDIAN AVE,COZAD,NE,69130,"TENNECO AUTOMOTIVE OPERATING CO INC.121 MERIDIAN AVE, COZAD NEBRASKA 69130 (DAWSON)",0,C,,110000448533
69130CNTRL300WE,-99.988,40.855,False,31,047,968300,31,31047,31047968300,1400000US31047968300,ADM ALLIANCE NUTRITION INC,300 W 2ND ST,COZAD,NE,69130,"ADM ALLIANCE NUTRITION INC.300 W 2ND ST, COZAD NEBRASKA 69130 (DAWSON)",1,C,,110041052099
69153SCXXX301WE,-101.73700000000001,41.123999999999995,False,31,101,000200,31,31101,31101000200,1400000US31101000200,ASC,301 W O ST,OGALLALA,NE,69153,"ASC.301 W O ST, OGALLALA NEBRASKA 69153 (KEITH)",0,C,,
6915WRNLDM61WES,-101.725,41.123999999999995,False,31,101,000200,31,31101,31101000200,1400000US31101000200,ARNOLD MAGNETIC TECHNOLOGIES - OGALLALA ELECTRONICS,601 WEST 1ST STREET,OGALLALA,NE,69153,"ARNOLD MAGNETIC TECHNOLOGIES - OGALLALA ELECTRONICS.601 WEST 1ST STREET, OGALLALA NEBRASKA 69153 (KEITH)",0,C,,110001519376
69162PRSTL1GREE,-102.954,41.148,False,31,033,955000,31,31033,31033955000,1400000US31033955000,"ADC TELECOMMUNICATIONS, INC.",1 GREENWOOD RD,SIDNEY,NE,69162,"ADC TELECOMMUNICATIONS, INC..1 GREENWOOD RD, SIDNEY NEBRASKA 69162 (CHEYENNE)",0,C,,110000448542
69301DYCPREASTH,-102.839,42.092,False,31,013,951200,31,31013,31013951200,1400000US31013951200,PARKER HANNIFIN ALLIANCE PLANT,2490 COUNTY RD 58,ALLIANCE,NE,69301,"PARKER HANNIFIN ALLIANCE PLANT.2490 COUNTY RD 58, ALLIANCE NEBRASKA 69301 (BOX BUTTE)",0,C,,110039214463
69334THWSTWEST8,-103.331,41.75899999999999,False,31,123,952500,31,31123,31123952500,1400000US31123952500,WESTERN SUGAR COOPERATIVE,WEST 8TH ST,BAYARD,NE,69334,"WESTERN SUGAR COOPERATIVE.WEST 8TH ST, BAYARD NEBRASKA 69334 (MORRILL)",0,C,,
6933WBRDGP9216R,-103.07700000000001,41.645,False,31,123,952500,31,31123,31123952500,1400000US31123952500,BRIDGEPORT ETHANOL LLC,10106 SOUTH RAILROAD AVENUE,BRIDGEPORT,NE,69336,"BRIDGEPORT ETHANOL LLC.10106 SOUTH RAILROAD AVENUE, BRIDGEPORT NEBRASKA 69336 (MORRILL)",0,C,,110038367380
69341LCKWDHWY92,-103.51799999999999,41.784,False,31,157,953200,31,31157,31157953200,1400000US31157953200,LOCKWOOD CORP,HWY 92 E,GERING,NE,69341,"LOCKWOOD CORP.HWY 92 E, GERING NEBRASKA 69341 (SCOTTS BLUFF)",0,C,,
69357WSTRN19402,-103.818,41.946000000000005,False,31,157,953000,31,31157,31157953000,1400000US31157953000,WESTERN SUGAR CO,40284 22ND AVE,MITCHELL,NE,69357,"WESTERN SUGAR CO.40284 22ND AVE, MITCHELL NEBRASKA 69357 (SCOTTS BLUFF)",1,C,,
69358CRGLL112RA,-103.928,41.963,False,31,157,953100,31,31157,31157953100,1400000US31157953100,CARGILL INC,112 RAILROAD ST E,MORRILL,NE,69358,"CARGILL INC.112 RAILROAD ST E, MORRILL NEBRASKA 69358 (SCOTTS BLUFF)",0,C,,
69361WSTRN2100E,-103.633,41.858999999999995,False,31,157,953700,31,31157,31157953700,1400000US31157953700,WESTERN SUGAR COOPERATIVE,2100 E OVERLAND DR,SCOTTSBLUFF,NE,69361,"WESTERN SUGAR COOPERATIVE.2100 E OVERLAND DR, SCOTTSBLUFF NEBRASKA 69361 (SCOTTS BLUFF)",0,C,,110000448579
69361WSTRN4179T,-103.65100000000001,41.853,False,31,157,953700,31,31157,31157953700,1400000US31157953700,WESTERN VALLEY PROCESSING INC,417 9TH AVE,SCOTTSBLUFF,NE,69361,"WESTERN VALLEY PROCESSING INC.417 9TH AVE, SCOTTSBLUFF NEBRASKA 69361 (SCOTTS BLUFF)",0,C,,
68008CNCRT237NO,-96.131,41.54600000000001,False,31,177,050102,31,31177,31177050102,1400000US31177050102,CONCRETE EQUIPMENT CO IN C,237 N 13TH ST,BLAIR,NE,680081673,"CONCRETE EQUIPMENT CO IN C.237 N 13TH ST, BLAIR NEBRASKA 68008 (WASHINGTON)",0,C,,110000447357
68008CRGLL650IN,-96.098,41.534,False,31,177,050102,31,31177,31177050102,1400000US31177050102,CARGILL CORN MILLING NORTH AMERICA,650 INDUSTRIAL PARK DRIVE,BLAIR,NE,680082649,"CARGILL CORN MILLING NORTH AMERICA.650 INDUSTRIAL PARK DRIVE, BLAIR NEBRASKA 68008 (WASHINGTON)",0,C,,110059765696
68008MDWST650IN,-96.103,41.538999999999994,False,31,177,050102,31,31177,31177050102,1400000US31177050102,EVONIK CORP,650 INDUSTRIAL PARK DR - PO BOX 544,BLAIR,NE,68008,"EVONIK CORP.650 INDUSTRIAL PARK DR - PO BOX 544, BLAIR NEBRASKA 68008 (WASHINGTON)",0,C,,110040981532
68008GRHLD21NIN,-96.102,41.545,False,31,177,050102,31,31177,31177050102,1400000US31177050102,GERHOLD CONCRETE CO BLAIR PLANT,201 N INDUSTRIAL DR,BLAIR,NE,68008,"GERHOLD CONCRETE CO BLAIR PLANT.201 N INDUSTRIAL DR, BLAIR NEBRASKA 68008 (WASHINGTON)",0,C,,110020056810
68008PGL1C650IN,-96.103,41.538999999999994,False,31,177,050102,31,31177,31177050102,1400000US31177050102,PURAC AMERICA INC,650 INDUSTRIAL PARK DR,BLAIR,NE,68008,"PURAC AMERICA INC.650 INDUSTRIAL PARK DR, BLAIR NEBRASKA 68008 (WASHINGTON)",0,C,,110057607175
6811WNVZYM6S1ST,-96.10799999999999,41.536,False,31,177,050102,31,31177,31177050102,1400000US31177050102,NOVOZYMES BLAIR INC,600 S 1ST ST,BLAIR,NE,68008,"NOVOZYMES BLAIR INC.600 S 1ST ST, BLAIR NEBRASKA 68008 (WASHINGTON)",0,C,,110039181079
68101RLTPL914NO,-95.94,41.269,False,31,055,001200,31,31055,31055001200,1400000US31055001200,AIRLITE PLASTICS CO,914 N 18TH ST,OMAHA,NE,681021649,"AIRLITE PLASTICS CO.914 N 18TH ST, OMAHA NEBRASKA 68102 (DOUGLAS)",0,C,,
68102TGRDR182IZ,-95.94,41.269,False,31,055,001200,31,31055,31055001200,1400000US31055001200,TIGER DOOR LLC,1802 IZARD ST,OMAHA,NE,68102,"TIGER DOOR LLC.1802 IZARD ST, OMAHA NEBRASKA 68102 (DOUGLAS)",0,C,,110015589656
68102PRDCT915NO,-95.978,41.268,False,31,055,004900,31,31055,31055004900,1400000US31055004900,PRODUCTS UNLIMITED INC,915 N 20TH ST,OMAHA,NE,681024319,"PRODUCTS UNLIMITED INC.915 N 20TH ST, OMAHA NEBRASKA 68102 (DOUGLAS)",0,C,,
68127MGCHM7577B,-96.029,41.2,False,31,055,007459,31,31055,31055007459,1400000US31055007459,OMEGA CHEMICAL CO INC,7577 BURLINGTON,RALSTON,NE,68127,"OMEGA CHEMICAL CO INC.7577 BURLINGTON, RALSTON NEBRASKA 68127 (DOUGLAS)",0,C,,
68138CNCRT14306,-96.13799999999999,41.176,False,31,153,010633,31,31153,31153010633,1400000US31153010633,WATKINS CONCRETE BLOCK,14306 GILES RD,OMAHA,NE,68138,"WATKINS CONCRETE BLOCK.14306 GILES RD, OMAHA NEBRASKA 68138 (SARPY)",0,C,,110001512710
6850WRDYMX1822Y,-96.695,40.825,False,31,109,000400,31,31109,31109000400,1400000US31109000400,READY MIXED CONCRETE LINCOLN Y STREET PLANT,1822 Y ST,LINCOLN,NE,68508,"READY MIXED CONCRETE LINCOLN Y STREET PLANT.1822 Y ST, LINCOLN NEBRASKA 68508 (LANCASTER)",0,C,,110001511052
68503SNRTC162N2,-96.69200000000001,40.829,False,31,109,000400,31,31109,31109000400,1400000US31109000400,STANLEY HEALTHCARE SOLUTIONS,4600 VINE STREET,LINCOLN,NE,68503,"STANLEY HEALTHCARE SOLUTIONS.4600 VINE STREET, LINCOLN NEBRASKA 68503 (LANCASTER)",1,C,,110006572869
68516CNCRT5001H,-96.648,40.759,False,31,109,002702,31,31109,31109002702,1400000US31109002702,CONCRETE IND INC,5001 HWY 2,LINCOLN,NE,68516,"CONCRETE IND INC.5001 HWY 2, LINCOLN NEBRASKA 68516 (LANCASTER)",0,C,,
68601CNTNNHWY30,-97.382,41.43899999999999,False,31,141,965300,31,31141,31141965300,1400000US31141965300,HUBBARD FEEDS INC,4431 E 23RD ST,COLUMBUS,NE,68601,"HUBBARD FEEDS INC.4431 E 23RD ST, COLUMBUS NEBRASKA 68601 (PLATTE)",0,C,,110000743269
68601STNCR32051,-97.367,41.428999999999995,False,31,141,965600,31,31141,31141965600,1400000US31141965600,STONE CREEK CORP,3205 12TH ST,COLUMBUS,NE,68601,"STONE CREEK CORP.3205 12TH ST, COLUMBUS NEBRASKA 68601 (PLATTE)",0,C,,
68601DLLCT22101,-97.355,41.428999999999995,False,31,141,965600,31,31141,31141965600,1400000US31141965600,VISHAY-DALE PLANT 8,2210 13TH ST,COLUMBUS,NE,68601,"VISHAY-DALE PLANT 8.2210 13TH ST, COLUMBUS NEBRASKA 68601 (PLATTE)",0,C,,110004082108
68702WLNTG606PH,-97.398,42.03,False,31,119,960600,31,31119,31119960600,1400000US31119960600,WALNUT GROVE PRODS  NORFOLK PLANT,606 PHILIP AVE,NORFOLK,NE,687025156,"WALNUT GROVE PRODS  NORFOLK PLANT.606 PHILIP AVE, NORFOLK NEBRASKA 68702 (MADISON)",0,C,,
68702NRCNREHWY2,-97.382,42.019,False,31,119,960600,31,31119,31119960600,1400000US31119960600,NORCO NORFOLK,54651 HIGHWAY 275,BATTLE CREEK,NE,68701,"NORCO NORFOLK.54651 HIGHWAY 275, BATTLE CREEK NEBRASKA 68701 (MADISON)",2,C,,
68701LKHRN32NVI,-97.382,42.067,False,31,119,960600,31,31119,31119960600,1400000US31119960600,ELKHORN VALLEY ETHANOL LLC,3002 N VICTORY RD,NORFOLK,NE,68701,"ELKHORN VALLEY ETHANOL LLC.3002 N VICTORY RD, NORFOLK NEBRASKA 68701 (MADISON)",0,C,,110018859467
6870WCHSNT15EMA,-97.382,42.019,False,31,119,960600,31,31119,31119960600,1400000US31119960600,CHS NUTRITION NORFOLK,1500 E OMAHA AVE,NORFOLK,NE,68701,"CHS NUTRITION NORFOLK.1500 E OMAHA AVE, NORFOLK NEBRASKA 68701 (MADISON)",0,C,,110070070126
69138GSHNR10001,-100.154,40.93,False,31,047,968200,31,31047,31047968200,1400000US31047968200,GRN CORP,1000 12TH ST,GOTHENBURG,NE,69138,"GRN CORP.1000 12TH ST, GOTHENBURG NEBRASKA 69138 (DAWSON)",0,C,,
69138BLDWN300WE,-100.16799999999999,40.921,False,31,047,968200,31,31047,31047968200,1400000US31047968200,BALDWIN FILTERS INC,300 W 1ST ST,GOTHENBURG,NE,69138,"BALDWIN FILTERS INC.300 W 1ST ST, GOTHENBURG NEBRASKA 69138 (DAWSON)",0,C,,110001514549
69138LNDLK315WF,-100.17200000000001,40.926,False,31,047,968200,31,31047,31047968200,1400000US31047968200,LAND O'LAKES PURINA FEED LLC - GOTHENBURG,315 W FOURTH,GOTHENBURG,NE,69138,"LAND O'LAKES PURINA FEED LLC - GOTHENBURG.315 W FOURTH, GOTHENBURG NEBRASKA 69138 (DAWSON)",1,C,,110010164892
68066RNWHXRURAL,-96.541,41.224,False,31,155,968400,31,31155,31155968400,1400000US31155968400,DARLING INTERNATIONAL INC,RRTE 1,WAHOO,NE,68066,"DARLING INTERNATIONAL INC.RRTE 1, WAHOO NEBRASKA 68066 (SAUNDERS)",0,C,,110006606583
6800WMXXXX33CUN,-96.354,41.118,False,31,155,968400,31,31155,31155968400,1400000US31155968400,U-MIX,330 COUNTY RD B,ASHLAND,NE,68003,"U-MIX.330 COUNTY RD B, ASHLAND NEBRASKA 68003 (SAUNDERS)",0,C,,110006576981
6804WLTNLL1344C,-96.48100000000001,41.196999999999996,False,31,155,968400,31,31155,31155968400,1400000US31155968400,ALTEN LLC,1344 COUNTY ROAD 10,MEAD,NE,68041,"ALTEN LLC.1344 COUNTY ROAD 10, MEAD NEBRASKA 68041 (SAUNDERS)",0,C,,110028118757
68355WSPNCE5THI,-95.51700000000001,40.034,False,31,147,964500,31,31147,31147964500,1400000US31147964500,WATKINS AIRCRAFT SUPPORT PROD,E 5TH INDL PARK,FALLS CITY,NE,68355,"WATKINS AIRCRAFT SUPPORT PROD.E 5TH INDL PARK, FALLS CITY NEBRASKA 68355 (RICHARDSON)",0,C,,
68376CNTRL1003R,-95.944,40.159,False,31,147,968500,31,31147,31147968500,1400000US31147968500,ADM ALLIANCE NUTRITION INC,940 VALLEY ST,HUMBOLDT,NE,68376,"ADM ALLIANCE NUTRITION INC.940 VALLEY ST, HUMBOLDT NEBRASKA 68376 (RICHARDSON)",0,C,,
68521WNDRS1821X,-96.694,40.841,False,31,109,003003,31,31109,31109003003,1400000US31109003003,GEIST INC,1821 YOLANDE AVE,LINCOLN,NE,68521,"GEIST INC.1821 YOLANDE AVE, LINCOLN NEBRASKA 68521 (LANCASTER)",0,C,,
68524BRNSW4720N,-96.775,40.86,False,31,109,983200,31,31109,31109983200,1400000US31109983200,BRUNSWICK BLDG 820,4720 NW 38TH ST,LINCOLN,NE,68524,"BRUNSWICK BLDG 820.4720 NW 38TH ST, LINCOLN NEBRASKA 68524 (LANCASTER)",0,C,,
68524TRCNN4000N,-96.78200000000001,40.853,False,31,109,983200,31,31109,31109983200,1400000US31109983200,TRI-CON INDUSTRIES LTD,4000 NW 44TH ST,LINCOLN,NE,68524,"TRI-CON INDUSTRIES LTD.4000 NW 44TH ST, LINCOLN NEBRASKA 68524 (LANCASTER)",0,C,,110011386598
68524FRSSN5700N,-96.774,40.869,False,31,109,983200,31,31109,31109983200,1400000US31109983200,FOUR SEASONS PAINT MANUFACTURING CO,5700 NW 38TH ST,LINCOLN,NE,68524,"FOUR SEASONS PAINT MANUFACTURING CO.5700 NW 38TH ST, LINCOLN NEBRASKA 68524 (LANCASTER)",0,C,,110000447954
68524DNCNV371AV,-96.74700000000001,40.848,False,31,109,983200,31,31109,31109983200,1400000US31109983200,DUNCAN AVIATION,3701 AVIATION RD,LINCOLN,NE,68524,"DUNCAN AVIATION.3701 AVIATION RD, LINCOLN NEBRASKA 68524 (LANCASTER)",0,C,,110000800786
68524SRFRC2411W,-96.75399999999999,40.842,False,31,109,983200,31,31109,31109983200,1400000US31109983200,US AIR FORCE NEBRASKA ANG,2411 W BUTLER AVE,LINCOLN,NE,68524,"US AIR FORCE NEBRASKA ANG.2411 W BUTLER AVE, LINCOLN NEBRASKA 68524 (LANCASTER)",0,F,,110024942632
6852WTRCNN42NW3,-96.772,40.854,False,31,109,983200,31,31109,31109983200,1400000US31109983200,TRI-CON INDUSTRIES STAMPING PLANT,4020 NW 36TH ST,LINCOLN,NE,68524,"TRI-CON INDUSTRIES STAMPING PLANT.4020 NW 36TH ST, LINCOLN NEBRASKA 68524 (LANCASTER)",0,C,,110004083152
68528LNCLN545WE,-96.728,40.814,False,31,109,003301,31,31109,31109003301,1400000US31109003301,LINCOLN STEEL CO,545 W O ST,LINCOLN,NE,68528,"LINCOLN STEEL CO.545 W O ST, LINCOLN NEBRASKA 68528 (LANCASTER)",0,C,,
68632TMPTT1827I,-97.132,41.266999999999996,False,31,023,967700,31,31023,31023967700,1400000US31023967700,TIMPTE INC,1827 IND US TRIAL DR,DAVID CITY,NE,68632,"TIMPTE INC.1827 IND US TRIAL DR, DAVID CITY NEBRASKA 68632 (BUTLER)",0,C,,110000448070
68702NRFLKRTE4X,-97.368,41.993,False,31,167,962100,31,31167,31167962100,1400000US31167962100,DARLING INTERNATIONAL INC,RTE 4,NORFOLK,NE,68702,"DARLING INTERNATIONAL INC.RTE 4, NORFOLK NEBRASKA 68702 (STANTON)",0,C,,
68716PTSFD112FR,-96.809,41.928000000000004,False,31,039,972900,31,31039,31039972900,1400000US31039972900,PEET'S FEEDS,112 FRAISER ST,BEEMER,NE,687160425,"PEET'S FEEDS.112 FRAISER ST, BEEMER NEBRASKA 68716 (CUMING)",0,C,,
68802DLCSF204EA,-98.375,40.91,False,31,079,000800,31,31079,31079000800,1400000US31079000800,ADM ANIMAL NUTRITION INC,3410 W 2ND ST,GRAND ISLAND,NE,68803,"ADM ANIMAL NUTRITION INC.3410 W 2ND ST, GRAND ISLAND NEBRASKA 68803 (HALL)",1,C,,110000497695
68803SFTYK2700W,-98.369,40.913000000000004,False,31,079,000800,31,31079,31079000800,1400000US31079000800,SAFETY-KLEEN SYSTEMS (506501),2700 W 2ND ST,GRAND ISLAND,NE,68803,"SAFETY-KLEEN SYSTEMS (506501).2700 W 2ND ST, GRAND ISLAND NEBRASKA 68803 (HALL)",0,C,,110015682135
68802GRHLD1431S,-98.37799999999999,40.906,False,31,079,000800,31,31079,31079000800,1400000US31079000800,GERHOLD CONCRETE CO GRAND ISLAND PLANT,1431 SOUTH WEBB ROAD,GRAND ISLAND,NE,68803,"GERHOLD CONCRETE CO GRAND ISLAND PLANT.1431 SOUTH WEBB ROAD, GRAND ISLAND NEBRASKA 68803 (HALL)",0,C,,110015634205
68025HBBRDRTE4X,-96.443,41.321000000000005,False,31,155,968100,31,31053,31155968100,1400000US31155968100,HUBBARD FEEDS INC,787 COUNTY RD T,FREMONT,NE,68025,"HUBBARD FEEDS INC.787 COUNTY RD T, FREMONT NEBRASKA 68025 (DODGE)",0,C,,
68633MDMRCFOURT,-96.887,41.724,False,31,053,963600,31,31053,31053963600,1400000US31053963600,LEPRINO FOODS CO,404-27-A,DODGE,NE,68633,"LEPRINO FOODS CO.404-27-A, DODGE NEBRASKA 68633 (DODGE)",0,C,,
68026RTCNCRR4NH,-96.49799999999999,41.516000000000005,False,31,053,963600,31,31053,31053963600,1400000US31053963600,AERO-TEC INC,1651 HWY 275-77,FREMONT,NE,68025,"AERO-TEC INC.1651 HWY 275-77, FREMONT NEBRASKA 68025 (DODGE)",0,C,,
68057NRTHS137PE,-96.67,41.67,False,31,053,963600,31,31053,31053963600,1400000US31053963600,NORTHEAST NEBRASKA BIODIESEL LLC,137 PEBBLE ST,SCRIBNER,NE,68057,"NORTHEAST NEBRASKA BIODIESEL LLC.137 PEBBLE ST, SCRIBNER NEBRASKA 68057 (DODGE)",0,C,,110037193667
68701NCRSTRURAL,-97.36,42.078,False,31,167,962200,31,31167,31167962200,1400000US31167962200,NUCOR STEEL NEBRASKA,2911 E NUCOR RD,NORFOLK,NE,68701,"NUCOR STEEL NEBRASKA.2911 E NUCOR RD, NORFOLK NEBRASKA 68701 (STANTON)",0,C,,110000448132
68702SGRNF367EH,-97.35,42.003,False,31,167,962200,31,31119,31167962200,1400000US31167962200,U.S. GREENFIBER LLC,3607 E HWY 24,NORFOLK,NE,68702,"U.S. GREENFIBER LLC.3607 E HWY 24, NORFOLK NEBRASKA 68702 (MADISON)",0,C,,110021088339
68701MSDVT2911E,-97.352,42.077,False,31,167,962200,31,31167,31167962200,1400000US31167962200,TMS INTERNATIONAL LLC,2911 E NUCOR RD,NORFOLK,NE,68701,"TMS INTERNATIONAL LLC.2911 E NUCOR RD, NORFOLK NEBRASKA 68701 (STANTON)",0,C,,110031019993
68701SGRNF3421L,-97.355,41.998999999999995,False,31,167,962200,31,31167,31167962200,1400000US31167962200,US GREENFIBER LLC,3421 OLD HWY 8,NORFOLK,NE,68701,"US GREENFIBER LLC.3421 OLD HWY 8, NORFOLK NEBRASKA 68701 (STANTON)",0,C,,110027229069
68107WSTRN4815S,-95.931,41.211000000000006,False,31,055,002700,31,31055,31055002700,1400000US31055002700,WESTERN QLF FEED,4815 S 12TH PLAZA,SOUTH OMAHA,NE,68107,"WESTERN QLF FEED.4815 S 12TH PLAZA, SOUTH OMAHA NEBRASKA 68107 (DOUGLAS)",0,C,,
68102CRGLL1201M,-95.931,41.211000000000006,False,31,055,002700,31,31055,31055002700,1400000US31055002700,WESTWAY FEED PRODUCTS LLC,1201 M ST,OMAHA,NE,68107,"WESTWAY FEED PRODUCTS LLC.1201 M ST, OMAHA NEBRASKA 68107 (DOUGLAS)",0,C,,110000447482
68361PSCTBRR2XX,-97.59700000000001,40.539,False,31,059,091700,31,31059,31059091700,1400000US31059091700,IPSCO TUBULARS INC,RR 2,GENEVA,NE,68361,"IPSCO TUBULARS INC.RR 2, GENEVA NEBRASKA 68361 (FILLMORE)",0,C,,
68354BFRMN1214R,-97.601,40.611,False,31,059,091700,31,31059,31059091700,1400000US31059091700,FLINT HILLS RESOURCES FAIRMONT LLC,1214 COUNTY RD G,FAIRMONT,NE,68354,"FLINT HILLS RESOURCES FAIRMONT LLC.1214 COUNTY RD G, FAIRMONT NEBRASKA 68354 (FILLMORE)",0,C,,110030917603
6836WFRTGNRSTXX,-97.58200000000001,40.539,False,31,059,091700,31,31059,31059091700,1400000US31059091700,FORTIGEN GENEVA LLC,2240 R ST,GENEVA,NE,68361,"FORTIGEN GENEVA LLC.2240 R ST, GENEVA NEBRASKA 68361 (FILLMORE)",0,C,,110067246117
68718BLMNGHWY84,-97.71700000000001,42.6,False,31,107,976300,31,31107,31107976300,1400000US31107976300,BLOOM N EGG FARM,HWY 84 W,BLOOMFIELD,NE,68718,"BLOOM N EGG FARM.HWY 84 W, BLOOMFIELD NEBRASKA 68718 (KNOX)",0,C,,
69361NDSTR105SK,-103.598,41.869,False,31,157,953400,31,31157,31157953400,1400000US31157953400,INDUSTRIAL/MIDWEC,105 SKYPORT DR,SCOTTSBLUFF,NE,69361,"INDUSTRIAL/MIDWEC.105 SKYPORT DR, SCOTTSBLUFF NEBRASKA 69361 (SCOTTS BLUFF)",0,C,,
68467CHMPN1914S,-97.59200000000001,40.845,False,31,185,969800,31,31185,31185969800,1400000US31185969800,REDMAN HOMES OF NEBRASKA,1914 S GRANT AVE,YORK,NE,68467,"REDMAN HOMES OF NEBRASKA.1914 S GRANT AVE, YORK NEBRASKA 68467 (YORK)",0,C,,
6846WYRKRD423W3,-97.59700000000001,40.864000000000004,False,31,185,969800,31,31185,31185969800,1400000US31185969800,YORK READY MIX PLANT,423 W 3RD ST,YORK,NE,68467,"YORK READY MIX PLANT.423 W 3RD ST, YORK NEBRASKA 68467 (YORK)",0,C,,110045737039
68801STRTN1215S,-98.34700000000001,40.909,False,31,079,000900,31,31079,31079000900,1400000US31079000900,STA-RITE INDUSTRIES INC,1215 S ADAMS,GRAND ISLAND,NE,688017172,"STA-RITE INDUSTRIES INC.1215 S ADAMS, GRAND ISLAND NEBRASKA 68801 (HALL)",0,C,,
68801CHFND1119S,-98.34700000000001,40.91,False,31,079,000900,31,31079,31079000900,1400000US31079000900,CHIEF INDUSTRIES - FABRICATION DIV,1119 S ADAMS ST,GRAND ISLAND,NE,68801,"CHIEF INDUSTRIES - FABRICATION DIV.1119 S ADAMS ST, GRAND ISLAND NEBRASKA 68801 (HALL)",0,C,,110000448221
68826TLNTCHWY14,-98.0,41.075,False,31,081,969100,31,31121,31081969100,1400000US31081969100,ATLANTIC HOMES DIV 47,HWY 14 N,CENTRAL CITY,NE,688260148,"ATLANTIC HOMES DIV 47.HWY 14 N, CENTRAL CITY NEBRASKA 68826 (MERRICK)",0,C,,
68933SDGRCSTATE,-98.141,40.525,False,31,035,962200,31,31035,31035962200,1400000US31035962200,U.S. USDA AGRICULTURAL RESEARCH SERVICE RLHUSMARC,STATE SPUR 18D,CLAY CENTER,NE,689330166,"U.S. USDA AGRICULTURAL RESEARCH SERVICE RLHUSMARC.STATE SPUR 18D, CLAY CENTER NEBRASKA 68933 (CLAY)",0,F,,110006369526
68901SNRSC36RD3,-98.27799999999999,40.568000000000005,False,31,035,962200,31,31001,31035962200,1400000US31035962200,SUNRISE COMPOSITES INC,360 RD 3167,HASTINGS,NE,68901,"SUNRISE COMPOSITES INC.360 RD 3167, HASTINGS NEBRASKA 68901 (ADAMS)",0,C,,110031531180
68062THRSTHWY87,-96.705,42.177,False,31,173,940200,31,31173,31173940200,1400000US31173940200,THURSTON MANUFACTURING CO,HWY 87A,THURSTON,NE,680620218,"THURSTON MANUFACTURING CO.HWY 87A, THURSTON NEBRASKA 68062 (THURSTON)",0,C,,
68902GPCRN2801E,-98.339,40.592,False,31,001,965600,31,31001,31001965600,1400000US31001965600,AGP PROCESSING INC,2801 E 7TH ST,HASTINGS,NE,68901,"AGP PROCESSING INC.2801 E 7TH ST, HASTINGS NEBRASKA 68901 (ADAMS)",0,C,,110000448472
68713LPHGLEASTH,-98.96700000000001,42.526,False,31,089,974200,31,31089,31089974200,1400000US31089974200,AZZ GALVANIZING - NEBRASKA,87561 477TH AVE - E HWY 20,ATKINSON,NE,68713,"AZZ GALVANIZING - NEBRASKA.87561 477TH AVE - E HWY 20, ATKINSON NEBRASKA 68713 (HOLT)",0,C,,110000746836
68713LSNNDEASTH,-98.98899999999999,42.538999999999994,False,31,089,974200,31,31089,31089974200,1400000US31089974200,OLSON INDUSTRIES INC,E HWY 20,ATKINSON,NE,68713,"OLSON INDUSTRIES INC.E HWY 20, ATKINSON NEBRASKA 68713 (HOLT)",0,C,,
6871WNDKTH8759H,-98.96,42.519,False,31,089,974200,31,31089,31089974200,1400000US31089974200,GREEN PLAINS ATKINSON LLC,87590 HILLCREST RD,ATKINSON,NE,68713,"GREEN PLAINS ATKINSON LLC.87590 HILLCREST RD, ATKINSON NEBRASKA 68713 (HOLT)",0,C,,110056255396
68979CNTRL201SA,-97.848,40.606,False,31,035,962100,31,31035,31035962100,1400000US31035962100,CENTRAL NEBRASKA WOOD PRESERVE RS,105 N OWEN,SUTTON,NE,68979,"CENTRAL NEBRASKA WOOD PRESERVE RS.105 N OWEN, SUTTON NEBRASKA 68979 (CLAY)",0,C,,110064178786
68112MHPBL7475P,-95.946,41.33,False,31,055,000200,31,31055,31055000200,1400000US31055000200,OMAHA PUBLIC POWER DISTRICT NORTH OMAHA STATION,7475 PERSHING DR,OMAHA,NE,68112,"OMAHA PUBLIC POWER DISTRICT NORTH OMAHA STATION.7475 PERSHING DR, OMAHA NEBRASKA 68112 (DOUGLAS)",0,C,,110041061374
68355MCKLB810E5,-95.598,40.05,False,31,147,968600,31,31147,31147968600,1400000US31147968600,MICKELBERRY'S INC,810 E 5TH ST,FALLS CITY,NE,68355,"MICKELBERRY'S INC.810 E 5TH ST, FALLS CITY NEBRASKA 68355 (RICHARDSON)",0,C,,
6835WMSTRTHIGHW,-95.59899999999999,40.045,False,31,147,968600,31,31147,31147968600,1400000US31147968600,THE AMES COS INC,314 HWY 73,FALLS CITY,NE,68355,"THE AMES COS INC.314 HWY 73, FALLS CITY NEBRASKA 68355 (RICHARDSON)",0,C,,110007128857
68368NBRSK4500W,-96.78299999999999,40.552,False,31,109,010300,31,31109,31109010300,1400000US31109010300,NEBRASKA PUBLIC POWER DISTRICT SHELDON STATION,4500 W PELLA RD,HALLAM,NE,68368,"NEBRASKA PUBLIC POWER DISTRICT SHELDON STATION.4500 W PELLA RD, HALLAM NEBRASKA 68368 (LANCASTER)",0,C,,110000447785
68430BDNTP1060S,-96.70700000000001,40.696999999999996,False,31,109,010300,31,31109,31109010300,1400000US31109010300,BEDIENT PIPE ORGAN CO,1060 SALTILLIO RD,ROCA,NE,68430,"BEDIENT PIPE ORGAN CO.1060 SALTILLIO RD, ROCA NEBRASKA 68430 (LANCASTER)",0,C,,110012703930
68410MHPBLRR3XX,-95.773,40.621,False,31,131,966600,31,31131,31131966600,1400000US31131966600,OMAHA PUBLIC POWER DISTRICT NEBRASKA CITY STATION,7264 L RD,NEBRASKA CITY,NE,68410,"OMAHA PUBLIC POWER DISTRICT NEBRASKA CITY STATION.7264 L RD, NEBRASKA CITY NEBRASKA 68410 (OTOE)",0,C,,110000606489
6841WNBRSK7264L,-95.775,40.622,False,31,131,966600,31,31131,31131966600,1400000US31131966600,NEBRASKA ASH CO,7264 L RD,NEBRASKA CITY,NE,68410,"NEBRASKA ASH CO.7264 L RD, NEBRASKA CITY NEBRASKA 68410 (OTOE)",0,C,,110057512641
69145CLNHR5MISO,-103.65899999999999,41.153999999999996,False,31,105,954500,31,31105,31105954500,1400000US31105954500,CLEAN HARBORS ENVIRONMENTAL SERVICES INC,2247 S HWY 71,KIMBALL,NE,69145,"CLEAN HARBORS ENVIRONMENTAL SERVICES INC.2247 S HWY 71, KIMBALL NEBRASKA 69145 (KIMBALL)",0,C,,110041638458
69145CSTRN4386E,-103.62700000000001,41.238,False,31,105,954500,31,31105,31105954500,1400000US31105954500,IOS,4386 E HWY 30,KIMBALL,NE,69145,"IOS.4386 E HWY 30, KIMBALL NEBRASKA 69145 (KIMBALL)",0,C,,110046122753
69165GRLDGSHWY2,-101.14200000000001,41.081,False,31,111,960600,31,31111,31111960600,1400000US31111960600,GERALD GENTLEMAN STATION,6089 S HIGHWAY 25,SUTHERLAND,NE,69165,"GERALD GENTLEMAN STATION.6089 S HIGHWAY 25, SUTHERLAND NEBRASKA 69165 (LINCOLN)",0,C,,110000606522
69341FRSTM780RU,-103.64299999999999,41.821000000000005,False,31,157,953800,31,31157,31157953800,1400000US31157953800,FURST-MCNESS CO,780 RUNDELL RD,GERING,NE,69341,"FURST-MCNESS CO.780 RUNDELL RD, GERING NEBRASKA 69341 (SCOTTS BLUFF)",0,C,,
68901TNCRP300E3,-98.38,40.622,False,31,001,965500,31,31001,31001965500,1400000US31001965500,EATON CORP VEHICLE GROUP,300 E 39TH ST,HASTINGS,NE,68901,"EATON CORP VEHICLE GROUP.300 E 39TH ST, HASTINGS NEBRASKA 68901 (ADAMS)",0,C,,110001517234
69033PGSRVEHWY6,-101.625,40.505,False,31,029,961900,31,31029,31029961900,1400000US31029961900,UAP DISTRIBUTION INC.,901 E HWY 6,IMPERIAL,NE,69033,"UAP DISTRIBUTION INC..901 E HWY 6, IMPERIAL NEBRASKA 69033 (CHASE)",0,C,,110038228799
68803CRGLL2819O,-98.37100000000001,40.914,False,31,079,000700,31,31079,31079000700,1400000US31079000700,CARGILL INC,2819 OLD W HWY 30,GRAND ISLAND,NE,68803,"CARGILL INC.2819 OLD W HWY 30, GRAND ISLAND NEBRASKA 68803 (HALL)",0,C,,
69165STHRLHWY30,-101.09,41.163000000000004,False,31,111,959800,31,31111,31111959800,1400000US31111959800,SUTHERLAND ETHANOL CO LLC,2 MILES E HWY 30,SUTHERLAND,NE,69165,"SUTHERLAND ETHANOL CO LLC.2 MILES E HWY 30, SUTHERLAND NEBRASKA 69165 (LINCOLN)",2,C,,
69165MDWST27532,-101.09200000000001,41.162,False,31,111,959800,31,31111,31111959800,1400000US31111959800,MIDWEST RENEWABLE ENERGY LLC,27532 W HWY 30,SUTHERLAND,NE,69165,"MIDWEST RENEWABLE ENERGY LLC.27532 W HWY 30, SUTHERLAND NEBRASKA 69165 (LINCOLN)",0,C,,110017696331
68005RDYMX182HW,-95.936,41.141000000000005,False,31,153,010204,31,31153,31153010204,1400000US31153010204,READY MIXED CONCRETE CO BELLEVUE PLANT,1820 HWY 370,BELLEVUE,NE,68005,"READY MIXED CONCRETE CO BELLEVUE PLANT.1820 HWY 370, BELLEVUE NEBRASKA 68005 (SARPY)",0,C,,110006579434
68026GRHLD33NBR,-96.49700000000001,41.461000000000006,False,31,053,963800,31,31053,31053963800,1400000US31053963800,MATERIALS PACKAGING CORP,3300 N BROAD STREET,FREMONT,NE,68026,"MATERIALS PACKAGING CORP.3300 N BROAD STREET, FREMONT NEBRASKA 68026 (DODGE)",0,C,,110002382920
6802WMTRLS331NB,-96.49700000000001,41.461000000000006,False,31,053,963800,31,31053,31053963800,1400000US31053963800,MATERIALS PACKAGING CORP,3310 N BROAD ST,FREMONT,NE,68025,"MATERIALS PACKAGING CORP.3310 N BROAD ST, FREMONT NEBRASKA 68025 (DODGE)",0,C,,110064454709
68128SHMRC935S9,-96.06299999999999,41.167,False,31,153,010616,31,31153,31153010616,1400000US31153010616,SHAMROCK CONCRETE CO PAPILLION PLANT,9305 S 97TH ST,PAPILLION,NE,68128,"SHAMROCK CONCRETE CO PAPILLION PLANT.9305 S 97TH ST, PAPILLION NEBRASKA 68128 (SARPY)",0,C,,110012168242
68134RDYMX2728N,-96.045,41.284,False,31,055,006603,31,31055,31055006603,1400000US31055006603,READY MIXED CONCRETE CO 87TH & MAPLE PLANT,2728 N 85TH ST,OMAHA,NE,68134,"READY MIXED CONCRETE CO 87TH & MAPLE PLANT.2728 N 85TH ST, OMAHA NEBRASKA 68134 (DOUGLAS)",0,C,,110001513853
68137RDYMX4765S,-96.12700000000001,41.211000000000006,False,31,055,007455,31,31055,31055007455,1400000US31055007455,READY MIXED CONCRETE CO MILLARD PLANT,4765 S 135TH ST,OMAHA,NE,68137,"READY MIXED CONCRETE CO MILLARD PLANT.4765 S 135TH ST, OMAHA NEBRASKA 68137 (DOUGLAS)",0,C,,110010168905
68137TYSNF13076,-96.117,41.203,False,31,055,007464,31,31055,31055007464,1400000US31055007464,TYSON PROCESSING SERVICES INC,13076 RENFRO CIR,OMAHA,NE,68137,"TYSON PROCESSING SERVICES INC.13076 RENFRO CIR, OMAHA NEBRASKA 68137 (DOUGLAS)",0,C,,110012703921
68138RDYMX15353,-96.15299999999999,41.184,False,31,153,010625,31,31153,31153010625,1400000US31153010625,READY MIXED CONCRETE CO CHALCO PLANT,15353 CHANDLER RD,OMAHA,NE,68138,"READY MIXED CONCRETE CO CHALCO PLANT.15353 CHANDLER RD, OMAHA NEBRASKA 68138 (SARPY)",0,C,,110010160002
68467KNGFT1313R,-97.712,40.883,False,31,185,969600,31,31185,31185969600,1400000US31185969600,KING OF THE ROAD,1313 RD G,YORK,NE,68467,"KING OF THE ROAD.1313 RD G, YORK NEBRASKA 68467 (YORK)",0,C,,110007379103
68602GRHLD4521H,-97.383,41.438,False,31,141,965700,31,31141,31141965700,1400000US31141965700,GERHOLD CONCRETE CO - COLUMBUS PLANT,4521 HOWARD BLVD,COLUMBUS,NE,68601,"GERHOLD CONCRETE CO - COLUMBUS PLANT.4521 HOWARD BLVD, COLUMBUS NEBRASKA 68601 (PLATTE)",0,C,,110010169441
6860WCNTRL6621S,-97.40799999999999,41.443000000000005,False,31,141,965700,31,31141,31141965700,1400000US31141965700,CENTRAL SAND AND GRAVEL: COLUMBUS PLANT (PIT#71),6621 SHADY LAKE ROAD,COLUMBUS,NE,68601,"CENTRAL SAND AND GRAVEL: COLUMBUS PLANT (PIT#71).6621 SHADY LAKE ROAD, COLUMBUS NEBRASKA 68601 (PLATTE)",0,C,,110039494286
68048SHMRC2356I,-95.89299999999999,40.986999999999995,False,31,025,966100,31,31025,31025966100,1400000US31025966100,SHAMROCK CONCRETE CO  PLATTSMOUTH PLANT,2356 INDUSTRIAL RD,PLATTSMOUTH,NE,68048,"SHAMROCK CONCRETE CO  PLATTSMOUTH PLANT.2356 INDUSTRIAL RD, PLATTSMOUTH NEBRASKA 68048 (CASS)",0,C,,110012168046
6804WFRTRR369WI,-95.905,40.985,False,31,025,966100,31,31025,31025966100,1400000US31025966100,FORTERRA CONCRETE PRODUCTS - PLATTSMOUTH,369 WILES RD,PLATTSMOUTH,NE,68048,"FORTERRA CONCRETE PRODUCTS - PLATTSMOUTH.369 WILES RD, PLATTSMOUTH NEBRASKA 68048 (CASS)",0,C,,110069318599
68112GGMNF4432M,-95.978,41.343999999999994,False,31,055,007304,31,31055,31055007304,1400000US31055007304,G & G MANUFACTURING CO,4432 MCKINLEY ST,OMAHA,NE,68112,"G & G MANUFACTURING CO.4432 MCKINLEY ST, OMAHA NEBRASKA 68112 (DOUGLAS)",0,C,,110004086042
68113SRFRC16PEA,-95.92399999999999,41.111999999999995,False,31,153,010302,31,31153,31153010302,1400000US31153010302,US AIR FORCE OFFUTT AFB NE,106 PEACEKEEPER DR STE 2N3,OFFUTT AFB,NE,68113,"US AIR FORCE OFFUTT AFB NE.106 PEACEKEEPER DR STE 2N3, OFFUTT AFB NEBRASKA 68113 (SARPY)",0,F,,110001512603
68769HSKRG5448H,-97.708,42.351000000000006,False,31,139,979200,31,31139,31139979200,1400000US31139979200,HUSKER AG LLC,54048 HWY 20,PLAINVIEW,NE,68769,"HUSKER AG LLC.54048 HWY 20, PLAINVIEW NEBRASKA 68769 (PIERCE)",0,C,,110013808308
6876WGRHLD54472,-97.624,42.351000000000006,False,31,139,979200,31,31139,31139979200,1400000US31139979200,GERHOLD CONCRETE CO OSMOND PLANT,54472 HIGHWAY 20,OSMOND,NE,68765,"GERHOLD CONCRETE CO OSMOND PLANT.54472 HIGHWAY 20, OSMOND NEBRASKA 68765 (PIERCE)",0,C,,110067545071
68959KPTHN845KA,-99.07700000000001,40.483000000000004,False,31,099,966600,31,31099,31099966600,1400000US31099966600,KAAPA ETHANOL LLC,8450 KAAPA LN,MINDEN,NE,68959,"KAAPA ETHANOL LLC.8450 KAAPA LN, MINDEN NEBRASKA 68959 (KEARNEY)",0,C,,110017358811
68826PLTTV2142T,-97.973,41.111000000000004,False,31,121,966800,31,31121,31121966800,1400000US31121966800,GREEN PLAINS CENTRAL CITY LLC,214 20TH ST,CENTRAL CITY,NE,68826,"GREEN PLAINS CENTRAL CITY LLC.214 20TH ST, CENTRAL CITY NEBRASKA 68826 (MERRICK)",0,C,,110022409883
6802WNTRVT2141W,-96.24799999999999,41.233000000000004,False,31,055,007509,31,31055,31055007509,1400000US31055007509,MERCK ANIMAL HEALTH,21401 W CENTER ROAD,ELKHORN,NE,68022,"MERCK ANIMAL HEALTH.21401 W CENTER ROAD, ELKHORN NEBRASKA 68022 (DOUGLAS)",0,C,,110001513880
68138CLSMH841S1,-96.12,41.174,False,31,153,010629,31,31153,31153010629,1400000US31153010629,CLAAS OMAHA INC,8401 S 132ND ST,OMAHA,NE,68138,"CLAAS OMAHA INC.8401 S 132ND ST, OMAHA NEBRASKA 68138 (SARPY)",0,C,,110057216187
68301NRGYD13238,-96.546,40.484,False,31,067,964600,31,31067,31067964600,1400000US31067964600,E ENERGY ADAMS,13238 E ASPEN RD,ADAMS,NE,68301,"E ENERGY ADAMS.13238 E ASPEN RD, ADAMS NEBRASKA 68301 (GAGE)",0,C,,110030484107
68620VRSNL26152,-97.98200000000001,41.678000000000004,False,31,011,960200,31,31011,31011960200,1400000US31011960200,VALERO RENEWABLE FUELS CO LLC DBA VALERO ALBION PLANT,2615 260TH ST,ALBION,NE,68620,"VALERO RENEWABLE FUELS CO LLC DBA VALERO ALBION PLANT.2615 260TH ST, ALBION NEBRASKA 68620 (BOONE)",0,C,,110028118748
68743SXLND151KN,-96.6,42.458999999999996,False,31,043,010400,31,31043,31043010400,1400000US31043010400,SIOUXLAND ETHANOL LLC,1501 KNOX BLVD,JACKSON,NE,68743,"SIOUXLAND ETHANOL LLC.1501 KNOX BLVD, JACKSON NEBRASKA 68743 (DAKOTA)",0,C,,110029535171
68862VRSNR48267,-98.816,41.568000000000005,False,31,175,971300,31,31175,31175971300,1400000US31175971300,GREEN PLAINS ORD LLC,48267 VAL-E RD,ORD,NE,68862,"GREEN PLAINS ORD LLC.48267 VAL-E RD, ORD NEBRASKA 68862 (VALLEY)",0,C,,110029535242
69150MDMRC768RD,-101.54,40.854,False,31,135,959300,31,31135,31135959300,1400000US31135959300,MID AMERICA AGRI PRODUCTS WHEATLAND LLC,76080 ROAD 338,MADRID,NE,69150,"MID AMERICA AGRI PRODUCTS WHEATLAND LLC.76080 ROAD 338, MADRID NEBRASKA 69150 (PERKINS)",0,C,,110035761967
6802WLYMNR17177,-96.315,41.066,False,31,153,010701,31,31153,31153010701,1400000US31153010701,LYMAN RICHEY SAND AND GRAVEL: LINOMA PLANT (PIT#50),171771 SOUTH 225TH STREET,GRETNA,NE,68028,"LYMAN RICHEY SAND AND GRAVEL: LINOMA PLANT (PIT#50).171771 SOUTH 225TH STREET, GRETNA NEBRASKA 68028 (SARPY)",0,C,,110039073926
6802WRDYMX13631,-96.26100000000001,41.108000000000004,False,31,153,010701,31,31153,31153010701,1400000US31153010701,READY MIXED CONCRETE CO GRETNA PLANT,13631 S 220TH ST,GRETNA,NE,68028,"READY MIXED CONCRETE CO GRETNA PLANT.13631 S 220TH ST, GRETNA NEBRASKA 68028 (SARPY)",0,C,,110045936653
6804WLYMNR3EAST,-95.91799999999999,41.04600000000001,False,31,025,965600,31,31025,31025965600,1400000US31025965600,LYMAN RICHEY SAND AND GRAVEL: EAST OREAPOLIS PLANT (PIT#4),300 EAST BAY ROAD,PLATTSMOUTH,NE,68048,"LYMAN RICHEY SAND AND GRAVEL: EAST OREAPOLIS PLANT (PIT#4).300 EAST BAY ROAD, PLATTSMOUTH NEBRASKA 68048 (CASS)",0,C,,110037609576
6806WLYMNR91NRT,-96.331,41.266999999999996,False,31,055,007508,31,31055,31055007508,1400000US31055007508,LYMAN RICHEY SAND AND GRAVEL: WATERLOO PLANT (PIT#40),910 NORTH 264TH STREET,WATERLOO,NE,68069,"LYMAN RICHEY SAND AND GRAVEL: WATERLOO PLANT (PIT#40).910 NORTH 264TH STREET, WATERLOO NEBRASKA 68069 (DOUGLAS)",0,C,,110001515566
6888WPNRTR7874S,-98.60799999999999,40.816,False,31,079,001400,31,31079,31079001400,1400000US31079001400,GREEN PLAINS WOOD RIVER LLC,7874 S 140TH RD,WOOD RIVER,NE,68883,"GREEN PLAINS WOOD RIVER LLC.7874 S 140TH RD, WOOD RIVER NEBRASKA 68883 (HALL)",0,C,,110056552555
6902WMDMRC17PTT,-100.163,40.28,False,31,065,963900,31,31065,31065963900,1400000US31065963900,NEBRASKA CORN PROCESSING LLC,107 POTTER STREET,CAMBRIDGE,NE,69022,"NEBRASKA CORN PROCESSING LLC.107 POTTER STREET, CAMBRIDGE NEBRASKA 69022 (FURNAS)",0,C,,110017852625
6881WTHMSC155WH,-98.101,40.872,False,31,081,969200,31,31081,31081969200,1400000US31081969200,MARS PETCARE US INC,1055 W HWY 34,AURORA,NE,68818,"MARS PETCARE US INC.1055 W HWY 34, AURORA NEBRASKA 68818 (HAMILTON)",0,C,,110002434143
68503STNLY46VIN,-96.656,40.821,False,31,109,000900,31,31109,31109000900,1400000US31109000900,STANLEY HEALTHCARE SOLUTIONS,4600 VINE ST,LINCOLN,NE,68503,"STANLEY HEALTHCARE SOLUTIONS.4600 VINE ST, LINCOLN NEBRASKA 68503 (LANCASTER)",0,C,,110045726087
6813WTCCMH328KE,-96.04799999999999,41.288000000000004,False,31,055,006504,31,31055,31055006504,1400000US31055006504,TCC - OMAHA,3208 KEYSTONE DRIVE,OMAHA,NE,68134,"TCC - OMAHA.3208 KEYSTONE DRIVE, OMAHA NEBRASKA 68134 (DOUGLAS)",0,C,,110001515263
6814WNTRSY9575N,-96.084,41.346000000000004,False,31,055,007317,31,31055,31055007317,1400000US31055007317,INTERSYSTEMS INTERNATIONAL INC,9575 N. 109TH AVENUE,OMAHA,NE,68142,"INTERSYSTEMS INTERNATIONAL INC.9575 N. 109TH AVENUE, OMAHA NEBRASKA 68142 (DOUGLAS)",0,C,,110057945087
6841WGVLNF2EAST,-95.84700000000001,40.676,False,31,131,967000,31,31131,31131967000,1400000US31131967000,GAVILON FERTILIZER LLC,200 EAST CENTRAL AVENUE,NEBRASKA CITY,NE,68410,"GAVILON FERTILIZER LLC.200 EAST CENTRAL AVENUE, NEBRASKA CITY NEBRASKA 68410 (OTOE)",0,C,,110060280351
6841WCNCRT9184T,-95.85700000000001,40.68,False,31,131,967000,31,31131,31131967000,1400000US31131967000,CONCRETE INDUSTRIES INC,918 4TH AVE,NEBRASKA CITY,NE,68410,"CONCRETE INDUSTRIES INC.918 4TH AVE, NEBRASKA CITY NEBRASKA 68410 (OTOE)",0,C,,110017761572
6806WMHSTL921EA,-96.61200000000001,41.217,False,31,155,968300,31,31155,31155968300,1400000US31155968300,OMAHA STEEL CASTINGS CO LLC,921 E 12TH ST,WAHOO,NE,68066,"OMAHA STEEL CASTINGS CO LLC.921 E 12TH ST, WAHOO NEBRASKA 68066 (SAUNDERS)",0,C,,110045442927
6820WCNCRT2382P,-96.234,41.15,False,31,153,010632,31,31153,31153010632,1400000US31153010632,CONCRETE SUPPLY,20020 HUSKER DR,GRETNA,NE,68028,"CONCRETE SUPPLY.20020 HUSKER DR, GRETNA NEBRASKA 68028 (SARPY)",0,C,,110015713129
6851WRDYMX5131N,-96.65100000000001,40.758,False,31,109,003704,31,31109,31109003704,1400000US31109003704,READY-MIXED CONCRETE CO (52ND & HWY 2),5131 NEBRASKA HWY,LINCOLN,NE,68516,"READY-MIXED CONCRETE CO (52ND & HWY 2).5131 NEBRASKA HWY, LINCOLN NEBRASKA 68516 (LANCASTER)",0,C,,110040954250
6916WBLLLM9665R,-103.131,41.236000000000004,False,31,033,954800,31,31033,31033954800,1400000US31033954800,BELL LUMBER & POLE CO,9665 RD 34,SIDNEY,NE,69162,"BELL LUMBER & POLE CO.9665 RD 34, SIDNEY NEBRASKA 69162 (CHEYENNE)",0,C,,110056267864
6815WLTCRT15CUN,-95.99600000000001,41.395,False,31,177,050202,31,31177,31177050202,1400000US31177050202,"LATICRETE INTERNATIONAL, INC. C/O PONCA HILLS",1050 COUNTY ROAD P47,OMAHA,NE,68152,"LATICRETE INTERNATIONAL, INC. C/O PONCA HILLS.1050 COUNTY ROAD P47, OMAHA NEBRASKA 68152 (WASHINGTON)",1,C,,110064272512
6841WHGHWY488RA,-96.416,40.711,False,31,131,966800,31,31131,31131966800,1400000US31131966800,HIGHWAY 2 READY MIX,488 ROAD F,PALMYRA,NE,68418,"HIGHWAY 2 READY MIX.488 ROAD F, PALMYRA NEBRASKA 68418 (OTOE)",0,C,,110069279060
6879WGRHLD1616T,-96.925,41.98,False,31,039,972700,31,31039,31039972700,1400000US31039972700,GERHOLD CONCRETE CO WISNER PLANT,1751 6TH RD,WISNER,NE,68791,"GERHOLD CONCRETE CO WISNER PLANT.1751 6TH RD, WISNER NEBRASKA 68791 (CUMING)",0,C,,110044322612
6885WCHFTH1111E,-99.76799999999999,40.746,False,31,047,968600,31,31047,31047968600,1400000US31047968600,CHIEF ETHANOL FUELS INC,1111 EAST INDUSTRY DRIVE,LEXINGTON,NE,68850,"CHIEF ETHANOL FUELS INC.1111 EAST INDUSTRY DRIVE, LEXINGTON NEBRASKA 68850 (DAWSON)",0,C,,110069243278
6810WDRLNG355S3,-95.962,41.228,False,31,055,003402,31,31055,31055003402,1400000US31055003402,DARLING INGREDIENTS INC,3505 S 34TH ST,OMAHA,NE,68105,"DARLING INGREDIENTS INC.3505 S 34TH ST, OMAHA NEBRASKA 68105 (DOUGLAS)",0,C,,110001516967
6894WLLMND152W4,-99.4,40.438,False,31,137,967100,31,31137,31137967100,1400000US31137967100,ALLMAND BROTHERS INC,1502 W 4TH AVE,HOLDREGE,NE,68949,"ALLMAND BROTHERS INC.1502 W 4TH AVE, HOLDREGE NEBRASKA 68949 (PHELPS)",0,C,,110001516707
68127KLLGG9601F,-96.052,41.207,True,31,055,007458,31,31055,31055007458,1400000US31055007458,KELLOGG CO,9601 F ST,OMAHA,NE,68127,"KELLOGG CO 9601 F ST, OMAHA, NE, 68127",0,C,,
68329TMYCN100WE,-96.153,40.481,True,31,097,967500,31,31097,31097967500,1400000US31097967500,TAMY CO INC,100 W MAIN,COOK,NE,683290297,"TAMY CO INC 100 W MAIN, COOK, NE, 683290297",0,C,,
68787TMPTN1200C,-96.995,42.198,True,31,179,978600,31,31179,31179978600,1400000US31179978600,TIMPTE INC,1200 CENTENNIAL RD,WAYNE,NE,68787,"TIMPTE INC 1200 CENTENNIAL RD, WAYNE, NE, 68787",0,C,,
