TRIFID,LONGITUDE,LATITUDE,ESTIMATE,STATEFP,COUNTYFP,TRACTCE,STATEGEOID,COUNTYGEOID,TRACTGEOID,AFFGEOID,FACILITY_NAME,STREET,CITY,STUSPS,ZIP_CODE,FACILITY,FAC_CLOSED_IND,ASGN_FEDERAL_IND,BIA_CODE,EPA_REGISTRY_ID
03038DYNCC4TINK,-71.329,42.895,False,33,015,003400,33,33015,33015003400,1400000US33015003400,DYNACO CORP,4 TINKHAM AVE,DERRY,NH,3038,"DYNACO CORP.4 TINKHAM AVE, DERRY NEW HAMPSHIRE 03038 (ROCKINGHAM)",0,C,,
03038LLNBR3MANC,-71.328,42.894,False,33,015,003400,33,33015,33015003400,1400000US33015003400,FIREYE INC,3 MANCHESTER RD,DERRY,NH,3038,"FIREYE INC.3 MANCHESTER RD, DERRY NEW HAMPSHIRE 03038 (ROCKINGHAM)",0,C,,110009420830
03038MCCRD8ATIN,-71.33,42.894,False,33,015,003400,33,33015,33015003400,1400000US33015003400,MCCORD WINN TEXTRON,8A TINKHAM AVE,DERRY,NH,3038,"MCCORD WINN TEXTRON.8A TINKHAM AVE, DERRY NEW HAMPSHIRE 03038 (ROCKINGHAM)",1,C,,
03038SCNCX20AST,-71.335,42.894,False,33,015,003400,33,33015,33015003400,1400000US33015003400,US CAN CO DERRY PLANT #24,20 A ST,DERRY,NH,3038,"US CAN CO DERRY PLANT #24.20 A ST, DERRY NEW HAMPSHIRE 03038 (ROCKINGHAM)",1,C,,
03038LCTRN3TSIE,-71.317,42.89,True,33,015,003400,33,33015,33015003400,1400000US33015003400,ELECTRONICS CORP OF AMERICA,3 TSIENNETO RD,DERRY,NH,3038,"ELECTRONICS CORP OF AMERICA 3 TSIENNETO RD, DERRY, NH, 3038",0,C,,
03038HDCCRRT28M,-71.328,42.895,False,33,015,003302,33,33015,33015003302,1400000US33015003302,SANMINA-SCI CORP HADCO CORP A SUBSIDIARY,7 MANCHESTER RD 2  TREASURE LN,DERRY,NH,30383031,"SANMINA-SCI CORP HADCO CORP A SUBSIDIARY.7 MANCHESTER RD 2  TREASURE LN, DERRY NEW HAMPSHIRE 03038 (ROCKINGHAM)",0,C,,
03047STCSTRTE31,-72.388,43.343,False,33,019,975800,33,33019,33019975800,1400000US33019975800,CANAM STEEL CORP,386 RIVER RD,CLAREMONT,NH,3743,"CANAM STEEL CORP.386 RIVER RD, CLAREMONT NEW HAMPSHIRE 03743 (SULLIVAN)",0,C,,110000771816
03743CLRMNRFDNU,-72.378,43.368,False,33,019,975800,33,33019,33019975800,1400000US33019975800,CLAREMONT OSB PLANT,RFD #2 RIVER RD,CLAREMONT,NH,3743,"CLAREMONT OSB PLANT.RFD #2 RIVER RD, CLAREMONT NEW HAMPSHIRE 03743 (SULLIVAN)",0,C,,
03743CPMNC131SU,-72.347,43.373999999999995,False,33,019,975800,33,33019,33019975800,1400000US33019975800,CPM INC,131 SULLIVAN ST,CLAREMONT,NH,37438410,"CPM INC.131 SULLIVAN ST, CLAREMONT NEW HAMPSHIRE 03743 (SULLIVAN)",0,C,,
03743DRTMTSULLI,-72.347,43.373999999999995,False,33,019,975800,33,33019,33019975800,1400000US33019975800,HOMESTEAD INDUSTRIES INC,R2 BOX 752 SULLIVAN ST,CLAREMONT,NH,3743,"HOMESTEAD INDUSTRIES INC.R2 BOX 752 SULLIVAN ST, CLAREMONT NEW HAMPSHIRE 03743 (SULLIVAN)",0,C,,
03743JYTCHGRISS,-72.384,43.342,False,33,019,975800,33,33019,33019975800,1400000US33019975800,CLAREMONT FOUNDRY INC,GRISSOM LN,CLAREMONT,NH,3743,"CLAREMONT FOUNDRY INC.GRISSOM LN, CLAREMONT NEW HAMPSHIRE 03743 (SULLIVAN)",0,C,,
03743SLLVNRIVER,-72.388,43.343999999999994,False,33,019,975800,33,33019,33019975800,1400000US33019975800,"SULLIVAN-PALATEK, INC.",386 RIVER RD,CLAREMONT,NH,3743,"SULLIVAN-PALATEK, INC..386 RIVER RD, CLAREMONT NEW HAMPSHIRE 03743 (SULLIVAN)",1,C,,110000602982
03743CYPPRPLAIN,-72.377,43.391000000000005,False,33,019,975800,33,33019,33019975800,1400000US33019975800,COY PAPER CO,PLAINS RD,CLAREMONT,NH,3743,"COY PAPER CO.PLAINS RD, CLAREMONT NEW HAMPSHIRE 03743 (SULLIVAN)",0,C,,
03743PCPPR130SU,-72.346,43.373000000000005,False,33,019,975800,33,33019,33019975800,1400000US33019975800,APC PAPER CO,130 SULLIVAN ST,CLAREMONT,NH,3743,"APC PAPER CO.130 SULLIVAN ST, CLAREMONT NEW HAMPSHIRE 03743 (SULLIVAN)",0,C,,110001522745
03743STCSTRTE12,-72.39,43.342,False,33,019,975800,33,33019,33019975800,1400000US33019975800,EAST COAST STEEL INC,RTE 12A INTERSECTION OF RIVER RD & GRISSOM LN,CLAREMONT,NH,3743,"EAST COAST STEEL INC.RTE 12A INTERSECTION OF RIVER RD & GRISSOM LN, CLAREMONT NEW HAMPSHIRE 03743 (SULLIVAN)",0,C,,
03743GRNMNRIVER,-72.393,43.34,False,33,019,975800,33,33019,33019975800,1400000US33019975800,GREEN MOUNTAIN METALS OF VT INC,RIVER RD,CLAREMONT,NH,3743,"GREEN MOUNTAIN METALS OF VT INC.RIVER RD, CLAREMONT NEW HAMPSHIRE 03743 (SULLIVAN)",0,C,,
03051BLZRS8SAGA,-71.42699999999999,42.73,False,33,011,012300,33,33011,33011012300,1400000US33011012300,BALZERS,8 SAGAMORE PARK RD,HUDSON,NH,3051,"BALZERS.8 SAGAMORE PARK RD, HUDSON NEW HAMPSHIRE 03051 (HILLSBOROUGH)",1,C,,
03051CHMRC16FLA,-71.431,42.731,False,33,011,012300,33,33011,33011012300,1400000US33011012300,PARKER HANNIFIN CORP CHOMERICS DIV,16 FLAGSTONE DR,HUDSON,NH,3051,"PARKER HANNIFIN CORP CHOMERICS DIV.16 FLAGSTONE DR, HUDSON NEW HAMPSHIRE 03051 (HILLSBOROUGH)",0,C,,110000313321
03051CLCMP65RIV,-71.421,42.707,False,33,011,012300,33,33011,33011012300,1400000US33011012300,BENCHMARK ELECTRONICS HUDSON DIV,65 RIVER RD,HUDSON,NH,3051,"BENCHMARK ELECTRONICS HUDSON DIV.65 RIVER RD, HUDSON NEW HAMPSHIRE 03051 (HILLSBOROUGH)",1,C,,110024421552
03051DRFBR11PAR,-71.381,42.778999999999996,False,33,011,012300,33,33011,33011012300,1400000US33011012300,DURO FIBER CO INC,11 PARK AVE,HUDSON,NH,3051,"DURO FIBER CO INC.11 PARK AVE, HUDSON NEW HAMPSHIRE 03051 (HILLSBOROUGH)",0,C,,110000313349
03051HDCCR21FLA,-71.431,42.731,False,33,011,012300,33,33011,33011012300,1400000US33011012300,SANMINA-SCI CORP HADCO CORP A SUBSIDIARY,21 FLAGSTONE DRIVE 2-4 HAMPSHIRE DR,HUDSON,NH,3051,"SANMINA-SCI CORP HADCO CORP A SUBSIDIARY.21 FLAGSTONE DRIVE 2-4 HAMPSHIRE DR, HUDSON NEW HAMPSHIRE 03051 (HILLSBOROUGH)",0,C,,
03051MCMMC6WENT,-71.433,42.736999999999995,False,33,011,012300,33,33011,33011012300,1400000US33011012300,"M/A-COM INC, MICROWAVE CIRCUITS INC",6 WENTWORTH DR,HUDSON,NH,3051,"M/A-COM INC, MICROWAVE CIRCUITS INC.6 WENTWORTH DR, HUDSON NEW HAMPSHIRE 03051 (HILLSBOROUGH)",1,C,,
03051SNDRS65RIV,-71.421,42.707,False,33,011,012300,33,33011,33011012300,1400000US33011012300,LOCKHEED SANDERS INC PTP1,65 RIVER RD,HUDSON,NH,3051,"LOCKHEED SANDERS INC PTP1.65 RIVER RD, HUDSON NEW HAMPSHIRE 03051 (HILLSBOROUGH)",0,C,,
03051SPRGL267LO,-71.423,42.724,False,33,011,012300,33,33011,33011012300,1400000US33011012300,VECTRON INTERNATIONAL INC,267 LOWELL RD,HUDSON,NH,3051,"VECTRON INTERNATIONAL INC.267 LOWELL RD, HUDSON NEW HAMPSHIRE 03051 (HILLSBOROUGH)",0,C,,110000904166
03051PRFRM4PARK,-71.382,42.782,False,33,011,012300,33,33011,33011012300,1400000US33011012300,MORGAN ADVANCED CERAMICS INC,4 PARK AVE,HUDSON,NH,3051,"MORGAN ADVANCED CERAMICS INC.4 PARK AVE, HUDSON NEW HAMPSHIRE 03051 (HILLSBOROUGH)",0,C,,110004116661
03051FLXTC4INDU,-71.387,42.78,False,33,011,012300,33,33011,33011012300,1400000US33011012300,VULCAN FLEX CIRCUIT CORP,2 INDUSTRIAL DR,HUDSON,NH,3051,"VULCAN FLEX CIRCUIT CORP.2 INDUSTRIAL DR, HUDSON NEW HAMPSHIRE 03051 (HILLSBOROUGH)",0,C,,110000801008
03051HDSNC5EXEC,-71.426,42.74,False,33,011,012300,33,33011,33011012300,1400000US33011012300,HUDSON COLOR CONCENTRATES INC,5 EXECUTIVE DR,HUDSON,NH,3051,"HUDSON COLOR CONCENTRATES INC.5 EXECUTIVE DR, HUDSON NEW HAMPSHIRE 03051 (HILLSBOROUGH)",0,C,,
03051PRNCT12PAR,-71.381,42.78,False,33,011,012300,33,33011,33011012300,1400000US33011012300,PRINCETON TECHNOLOGY CORP,12 PARK AVE,HUDSON,NH,3051,"PRINCETON TECHNOLOGY CORP.12 PARK AVE, HUDSON NEW HAMPSHIRE 03051 (HILLSBOROUGH)",0,C,,110004112941
03051PRNCT33CNS,-71.389,42.773999999999994,False,33,011,012300,33,33011,33011012300,1400000US33011012300,PRINCETON TECHNOLOGY CORP,33 CONSTITUTION DR,HUDSON,NH,3051,"PRINCETON TECHNOLOGY CORP.33 CONSTITUTION DR, HUDSON NEW HAMPSHIRE 03051 (HILLSBOROUGH)",0,C,,110033160451
0305WCLTRC6HAMP,-71.43,42.733000000000004,False,33,011,012300,33,33011,33011012300,1400000US33011012300,"COLT RECYCLING, LLC",6 HAMPSHIRE DRIVE,HUDSON,NH,3051,"COLT RECYCLING, LLC.6 HAMPSHIRE DRIVE, HUDSON NEW HAMPSHIRE 03051 (HILLSBOROUGH)",0,C,,110038888264
0305WSPRYN22FLA,-71.431,42.729,False,33,011,012300,33,33011,33011012300,1400000US33011012300,SPRAYING SYSTEMS CO. - EAST COAST FACILITY,22 FLAGSTONE DRIVE,HUDSON,NH,3051,"SPRAYING SYSTEMS CO. - EAST COAST FACILITY.22 FLAGSTONE DRIVE, HUDSON NEW HAMPSHIRE 03051 (HILLSBOROUGH)",0,C,,110004086943
0305WVRTRN12EXE,-71.42699999999999,42.74,False,33,011,012300,33,33011,33011012300,1400000US33011012300,VARITRON ALTRONICS,12 EXECUTIVE DR,HUDSON,NH,3051,"VARITRON ALTRONICS.12 EXECUTIVE DR, HUDSON NEW HAMPSHIRE 03051 (HILLSBOROUGH)",0,C,,110067354348
03051TLDYN110LO,-71.42699999999999,42.75,False,33,011,012200,33,33011,33011012200,1400000US33011012200,TELEDYNE PRINTED CIRCUIT TECHNOLOGY,110 LOWELL RD,HUDSON,NH,3051,"TELEDYNE PRINTED CIRCUIT TECHNOLOGY.110 LOWELL RD, HUDSON NEW HAMPSHIRE 03051 (HILLSBOROUGH)",0,C,,110002375359
03053NCSTD23IND,-71.434,42.923,False,33,015,980011,33,33015,33015980011,1400000US33015980011,STURM RUGERS & CO INC UNI-CAST DIV,11 INDUSTRIAL DR,LONDONDERRY,NH,3053,"STURM RUGERS & CO INC UNI-CAST DIV.11 INDUSTRIAL DR, LONDONDERRY NEW HAMPSHIRE 03053 (ROCKINGHAM)",0,C,,
03103RMTCNMANCH,-71.441,42.93,False,33,015,980011,33,33011,33015980011,1400000US33015980011,ARMTEC IND INC,3 FRENCH DR,MANCHESTER,NH,31037406,"ARMTEC IND INC.3 FRENCH DR, MANCHESTER NEW HAMPSHIRE 03103 (HILLSBOROUGH)",1,C,,
03053CYTYC2PREI,-71.449,42.931000000000004,False,33,015,980011,33,33015,33015980011,1400000US33015980011,HOLOGIC INC,4 NAVIGATOR RD,LONDONDERRY,NH,3053,"HOLOGIC INC.4 NAVIGATOR RD, LONDONDERRY NEW HAMPSHIRE 03053 (ROCKINGHAM)",0,C,,110031177303
03053DXTRL144HA,-71.425,42.928000000000004,False,33,015,980011,33,33015,33015980011,1400000US33015980011,ENTHONE,144 HARVEY RD,LONDONDERRY,NH,3053,"ENTHONE.144 HARVEY RD, LONDONDERRY NEW HAMPSHIRE 03053 (ROCKINGHAM)",0,C,,
03053BRTMF32IND,-71.431,42.92,False,33,015,980011,33,33015,33015980011,1400000US33015980011,KLUBER LUBRICATION NA LP,32 IND US TRIAL DR -,LONDONDERRY,NH,3053,"KLUBER LUBRICATION NA LP.32 IND US TRIAL DR -, LONDONDERRY NEW HAMPSHIRE 03053 (ROCKINGHAM)",0,C,,110001524002
0305WVLCNF6GERG,-71.428,42.931999999999995,False,33,015,980011,33,33015,33015980011,1400000US33015980011,VULCAN FLEX CIRCUIT CORP,6 GEORGE AVE,LONDONDERRY,NH,30532016,"VULCAN FLEX CIRCUIT CORP.6 GEORGE AVE, LONDONDERRY NEW HAMPSHIRE 03053 (ROCKINGHAM)",0,C,,110043693697
03053THDXT8DELT,-71.421,42.913000000000004,False,33,015,003703,33,33015,33015003703,1400000US33015003703,DEXTER CORP ELECTRONIC MATERIALS DIV,8 DELTA DR SUITE A,LONDONDERRY,NH,3053,"DEXTER CORP ELECTRONIC MATERIALS DIV.8 DELTA DR SUITE A, LONDONDERRY NEW HAMPSHIRE 03053 (ROCKINGHAM)",0,C,,
03053CCCLB7SYMM,-71.37899999999999,42.92,False,33,015,003703,33,33015,33015003703,1400000US33015003703,COCA-COLA BOTTLING CO OF NORTHERN NEW ENGLAND INC,7 SYMMES DR,LONDONDERRY,NH,3053,"COCA-COLA BOTTLING CO OF NORTHERN NEW ENGLAND INC.7 SYMMES DR, LONDONDERRY NEW HAMPSHIRE 03053 (ROCKINGHAM)",0,C,,
03053PRTTY7DELT,-71.421,42.913000000000004,False,33,015,003703,33,33015,33015003703,1400000US33015003703,ELECTROPAC PROTOTYPE INC.,7 DELTA DR,LONDONDERRY,NH,3053,"ELECTROPAC PROTOTYPE INC..7 DELTA DR, LONDONDERRY NEW HAMPSHIRE 03053 (ROCKINGHAM)",0,C,,110000886943
03053WRKPL562MA,-71.408,42.925,False,33,015,003703,33,33015,33015003703,1400000US33015003703,WORKPLACE SYS INC,562 MAMMOTH RD,LONDONDERRY,NH,3053,"WORKPLACE SYS INC.562 MAMMOTH RD, LONDONDERRY NEW HAMPSHIRE 03053 (ROCKINGHAM)",0,C,,
03079KLBRL54WEN,-71.421,42.903,False,33,015,003703,33,33015,33015003703,1400000US33015003703,KLUBER LUBRICATION,54 WENTWORTH AVE,LONDONDERRY,NH,3053,"KLUBER LUBRICATION.54 WENTWORTH AVE, LONDONDERRY NEW HAMPSHIRE 03053 (ROCKINGHAM)",0,C,,
03054TLDYN8DELT,-71.421,42.913000000000004,False,33,015,003703,33,33011,33015003703,1400000US33015003703,TELEDYNE HALCO,8 DELTA DR,LONDONDERRY,NH,3054,"TELEDYNE HALCO.8 DELTA DR, LONDONDERRY NEW HAMPSHIRE 03054 (HILLSBOROUGH)",0,C,,
0305WLCMMN9AKIR,-71.419,42.933,False,33,015,003703,33,33015,33015003703,1400000US33015003703,L3 TECHNOLOGIES,9 AKIRA WAY,LONDONDERRY,NH,3053,"L3 TECHNOLOGIES.9 AKIRA WAY, LONDONDERRY NEW HAMPSHIRE 03053 (ROCKINGHAM)",0,C,,110046123379
03053LCMTN3PLAN,-71.42,42.917,False,33,015,003703,33,33015,33015003703,1400000US33015003703,ALCUMET INC,3 PLANEVIEW DR,LONDONDERRY,NH,3053,"ALCUMET INC.3 PLANEVIEW DR, LONDONDERRY NEW HAMPSHIRE 03053 (ROCKINGHAM)",0,C,,110032724069
03054JNSCHRAILR,-71.488,42.858000000000004,False,33,011,014100,33,33011,33011014100,1400000US33011014100,JCI JONES CHEMICALS INC,RAILROAD AVE,MERRIMACK,NH,3054,"JCI JONES CHEMICALS INC.RAILROAD AVE, MERRIMACK NEW HAMPSHIRE 03054 (HILLSBOROUGH)",0,C,,110000561874
03054KLLSM220DW,-71.48899999999999,42.821999999999996,False,33,011,014100,33,33011,33011014100,1400000US33011014100,KOLLSMAN,220 DANIEL WEBSTER HWY,MERRIMACK,NH,30544809,"KOLLSMAN.220 DANIEL WEBSTER HWY, MERRIMACK NEW HAMPSHIRE 03054 (HILLSBOROUGH)",0,C,,
03054NHSRB221DA,-71.486,42.824,False,33,011,014100,33,33011,33011014100,1400000US33011014100,ANHEUSER-BUSCH LLC (MERRIMACK BREWERY),221 DANIEL WEBSTER HWY,MERRIMACK,NH,3054,"ANHEUSER-BUSCH LLC (MERRIMACK BREWERY).221 DANIEL WEBSTER HWY, MERRIMACK NEW HAMPSHIRE 03054 (HILLSBOROUGH)",0,C,,110040981195
03054NSHCR57DAN,-71.473,42.803000000000004,False,33,011,014100,33,33011,33011014100,1400000US33011014100,NASHUA - A CENVEO CO,59 DANIEL WEBSTER HWY,MERRIMACK,NH,3054,"NASHUA - A CENVEO CO.59 DANIEL WEBSTER HWY, MERRIMACK NEW HAMPSHIRE 03054 (HILLSBOROUGH)",0,C,,110041031442
03054SNDRSDWHIG,-71.486,42.81399999999999,False,33,011,014100,33,33011,33011014100,1400000US33011014100,LOCKHEED SANDERS INC MERRIMACK,DW HWY NORTH,MERRIMACK,NH,3054,"LOCKHEED SANDERS INC MERRIMACK.DW HWY NORTH, MERRIMACK NEW HAMPSHIRE 03054 (HILLSBOROUGH)",0,C,,
03054YLDHS33ELM,-71.47800000000001,42.879,False,33,011,014100,33,33011,33011014100,1400000US33011014100,YIELD HOUSE INC,33 ELM ST,MERRIMACK,NH,3054,"YIELD HOUSE INC.33 ELM ST, MERRIMACK NEW HAMPSHIRE 03054 (HILLSBOROUGH)",0,C,,
03054HFSTP9WEBB,-71.477,42.803000000000004,False,33,011,014100,33,33011,33011014100,1400000US33011014100,HF STAPLES & CO INC,9 WEBB DR,MERRIMACK,NH,3054,"HF STAPLES & CO INC.9 WEBB DR, MERRIMACK NEW HAMPSHIRE 03054 (HILLSBOROUGH)",0,C,,
03054CHMFB701DA,-71.467,42.895,False,33,011,014100,33,33011,33011014100,1400000US33011014100,SAINT-GOBAIN PERFORMANCE PLASTICS CORP,701 DANIEL WEBSTER HWY,MERRIMACK,NH,3054,"SAINT-GOBAIN PERFORMANCE PLASTICS CORP.701 DANIEL WEBSTER HWY, MERRIMACK NEW HAMPSHIRE 03054 (HILLSBOROUGH)",0,C,,110000313385
03054HRCRS441DA,-71.494,42.861999999999995,False,33,011,014100,33,33011,33011014100,1400000US33011014100,HARCROS CHEMICALS INC,441 DANIEL WEBSTER HWY,MERRIMACK,NH,3054,"HARCROS CHEMICALS INC.441 DANIEL WEBSTER HWY, MERRIMACK NEW HAMPSHIRE 03054 (HILLSBOROUGH)",0,C,,
03054CLTRF12AST,-71.488,42.833,False,33,011,014100,33,33011,33011014100,1400000US33011014100,COLT REFINING INC,12A STAR DR,MERRIMACK,NH,3054,"COLT REFINING INC.12A STAR DR, MERRIMACK NEW HAMPSHIRE 03054 (HILLSBOROUGH)",0,C,,110031001145
03054MCMMN21CON,-71.506,42.831,False,33,011,014300,33,33011,33011014300,1400000US33011014300,M/A-COM INC CONTROL COMPONENTS DIV,21 CONTINENTAL BLVD,MERRIMACK,NH,30544343,"M/A-COM INC CONTROL COMPONENTS DIV.21 CONTINENTAL BLVD, MERRIMACK NEW HAMPSHIRE 03054 (HILLSBOROUGH)",1,C,,
03054NTRDN7CONT,-71.5,42.836999999999996,False,33,011,014300,33,33011,33011014300,1400000US33011014300,TEXAS INSTRUMENTS,7 CONTINENTAL BLVD,MERRIMACK,NH,30544334,"TEXAS INSTRUMENTS.7 CONTINENTAL BLVD, MERRIMACK NEW HAMPSHIRE 03054 (HILLSBOROUGH)",0,C,,
03054CRCTT6ACON,-71.5,42.838,False,33,011,014300,33,33011,33011014300,1400000US33011014300,CIRCUIT TECHNOLOGY INC,6A CONTINENTAL BLVD,MERRIMACK,NH,3054,"CIRCUIT TECHNOLOGY INC.6A CONTINENTAL BLVD, MERRIMACK NEW HAMPSHIRE 03054 (HILLSBOROUGH)",0,C,,110004115190
03054MRRMCDWHIG,-71.522,42.856,True,33,011,014300,33,33011,33011014300,1400000US33011014300,MERRIMACK WASTEWATER TREATMENT FACILITY,DW HWY,MERRIMACK,NH,3054,"MERRIMACK WASTEWATER TREATMENT FACILITY DW HWY, MERRIMACK, NH, 3054",0,C,,
03055HNDRXOLDWI,-71.694,42.839,False,33,011,016202,33,33011,33011016202,1400000US33011016202,MARMON UTILITY LLC,53 OLD WILTON RD,MILFORD,NH,3055,"MARMON UTILITY LLC.53 OLD WILTON RD, MILFORD NEW HAMPSHIRE 03055 (HILLSBOROUGH)",0,C,,110038046575
03055HTCHNOLDWI,-71.7,42.84,False,33,011,016202,33,33011,33011016202,1400000US33011016202,HITCHINER MANUFACTURING CO INC,594 ELM ST,MILFORD,NH,3055,"HITCHINER MANUFACTURING CO INC.594 ELM ST, MILFORD NEW HAMPSHIRE 03055 (HILLSBOROUGH)",0,C,,110000744525
03055TCHNC50MEA,-71.703,42.836999999999996,False,33,011,016202,33,33011,33011016202,1400000US33011016202,TECHNICAL GRAPHICS INC,50 MEADOWBROOK INDUSTRIAL PARK,MILFORD,NH,3055,"TECHNICAL GRAPHICS INC.50 MEADOWBROOK INDUSTRIAL PARK, MILFORD NEW HAMPSHIRE 03055 (HILLSBOROUGH)",0,C,,
03055HTCHN1SCAR,-71.707,42.836000000000006,False,33,011,016202,33,33011,33011016202,1400000US33011016202,HITCHINER MANUFACTURING CO INC (AUTOMATED CASTING FACILITY),1 SCARBOROUGH LN,MILFORD,NH,3055,"HITCHINER MANUFACTURING CO INC (AUTOMATED CASTING FACILITY).1 SCARBOROUGH LN, MILFORD NEW HAMPSHIRE 03055 (HILLSBOROUGH)",0,C,,110008053685
03055CRTRN528RT,-71.648,42.809,False,33,011,016202,33,33011,33011016202,1400000US33011016202,CIRTRONICS CORP,528 RTE 13 S,MILFORD,NH,3055,"CIRTRONICS CORP.528 RTE 13 S, MILFORD NEW HAMPSHIRE 03055 (HILLSBOROUGH)",0,C,,110013288511
03055GRNTS408EL,-71.686,42.841,False,33,011,016202,33,33011,33011016202,1400000US33011016202,GRANITE STATE MILFORD,408 ELM ST,MILFORD,NH,3055,"GRANITE STATE MILFORD.408 ELM ST, MILFORD NEW HAMPSHIRE 03055 (HILLSBOROUGH)",0,C,,110015767071
03055KRKMT69MEA,-71.703,42.836000000000006,False,33,011,016202,33,33011,33011016202,1400000US33011016202,HAYDON KERK MOTION SOLUTIONS INC,69 MEADOWBROOK DR,MILFORD,NH,3055,"HAYDON KERK MOTION SOLUTIONS INC.69 MEADOWBROOK DR, MILFORD NEW HAMPSHIRE 03055 (HILLSBOROUGH)",0,C,,110004100749
03055WTTSR46POW,-71.638,42.828,False,33,011,016201,33,33011,33011016201,1400000US33011016201,WATTS REGULATOR-ALCAST,46 POWERS ST,MILFORD,NH,3055,"WATTS REGULATOR-ALCAST.46 POWERS ST, MILFORD NEW HAMPSHIRE 03055 (HILLSBOROUGH)",1,C,,
03055SNTGB47POW,-71.638,42.828,False,33,011,016201,33,33011,33011016201,1400000US33011016201,COORSTEK IGNITER PRODUCTS,47 POWERS ST,MILFORD,NH,3055,"COORSTEK IGNITER PRODUCTS.47 POWERS ST, MILFORD NEW HAMPSHIRE 03055 (HILLSBOROUGH)",0,C,,110000313447
03055CNTRM38POW,-71.638,42.828,False,33,011,016201,33,33011,33011016201,1400000US33011016201,CONTROMATICS,38 POWERS ST,MILFORD,NH,3055,"CONTROMATICS.38 POWERS ST, MILFORD NEW HAMPSHIRE 03055 (HILLSBOROUGH)",1,C,,
03060BTSVL55PAL,-71.47,42.756,False,33,011,010800,33,33011,33011010800,1400000US33011010800,BATESVILLE MANUFACTURING INC.,55 PALM ST,NASHUA,NH,3060,"BATESVILLE MANUFACTURING INC..55 PALM ST, NASHUA NEW HAMPSHIRE 03060 (HILLSBOROUGH)",0,C,,110000313456
03060DCNLC41SIM,-71.49,42.756,False,33,011,010800,33,33011,33011010800,1400000US33011010800,MASS DESIGN INC,41 SIMON ST,NASHUA,NH,3060,"MASS DESIGN INC.41 SIMON ST, NASHUA NEW HAMPSHIRE 03060 (HILLSBOROUGH)",0,C,,110000313465
03060TRDYN44SIM,-71.49,42.756,False,33,011,010800,33,33011,33011010800,1400000US33011010800,AMPHENOL TCS,44 SIMON ST,NASHUA,NH,3060,"AMPHENOL TCS.44 SIMON ST, NASHUA NEW HAMPSHIRE 03060 (HILLSBOROUGH)",0,C,,110044931982
03061BRNZCSIMON,-71.486,42.751999999999995,False,33,011,010800,33,33011,33011010800,1400000US33011010800,BRONZE CRAFT CORP,37 WILL ST,NASHUA,NH,3060,"BRONZE CRAFT CORP.37 WILL ST, NASHUA NEW HAMPSHIRE 03060 (HILLSBOROUGH)",0,C,,110000313517
03060CTNGS55CRO,-71.445,42.761,False,33,011,010600,33,33011,33011010600,1400000US33011010600,COATING SYSTEMS INC,55 CROWN ST,NASHUA,NH,3060,"COATING SYSTEMS INC.55 CROWN ST, NASHUA NEW HAMPSHIRE 03060 (HILLSBOROUGH)",0,C,,
03060NGRSL150BU,-71.444,42.753,False,33,011,010600,33,33011,33011010600,1400000US33011010600,GL&V PULP GROUP INC,150 BURKE ST,NASHUA,NH,3060,"GL&V PULP GROUP INC.150 BURKE ST, NASHUA NEW HAMPSHIRE 03060 (HILLSBOROUGH)",0,C,,
03060PRMRN90EAS,-71.453,42.76,False,33,011,010600,33,33011,33011010600,1400000US33011010600,PRIMERO INC,90 E HOLLIS ST,NASHUA,NH,3060,"PRIMERO INC.90 E HOLLIS ST, NASHUA NEW HAMPSHIRE 03060 (HILLSBOROUGH)",0,C,,
03060TRNGL25CRO,-71.44800000000001,42.761,False,33,011,010600,33,33011,33011010600,1400000US33011010600,TRIANGLE PACIFIC CORP,25 CROWN ST,NASHUA,NH,3060,"TRIANGLE PACIFIC CORP.25 CROWN ST, NASHUA NEW HAMPSHIRE 03060 (HILLSBOROUGH)",0,C,,
03061DTMTN46BRI,-71.449,42.763000000000005,False,33,011,010600,33,33011,33011010600,1400000US33011010600,DATA MATE INC,46 BRIDGE ST,NASHUA,NH,30610408,"DATA MATE INC.46 BRIDGE ST, NASHUA NEW HAMPSHIRE 03061 (HILLSBOROUGH)",0,C,,
03061BBRBB20MAR,-71.456,42.758,False,33,011,010600,33,33011,33011010600,1400000US33011010600,BEEBE RUBBER CO,20 MARSHALL ST,NASHUA,NH,3060,"BEEBE RUBBER CO.20 MARSHALL ST, NASHUA NEW HAMPSHIRE 03060 (HILLSBOROUGH)",0,C,,
03060NRCRS13TEM,-71.457,42.762,False,33,011,010600,33,33011,33011010600,1400000US33011010600,HONEYWELL SAFETY PRODUCTS,103 TEMPLE ST,NASHUA,NH,3060,"HONEYWELL SAFETY PRODUCTS.103 TEMPLE ST, NASHUA NEW HAMPSHIRE 03060 (HILLSBOROUGH)",0,C,,110022411040
03060NSHRD16CMM,-71.455,42.76,False,33,011,010600,33,33011,33011010600,1400000US33011010600,NASHUA REDIMIX CONCRETE INC,16 COMMERCIAL ST,NASHUA,NH,3060,"NASHUA REDIMIX CONCRETE INC.16 COMMERCIAL ST, NASHUA NEW HAMPSHIRE 03060 (HILLSBOROUGH)",0,C,,
03060PCDHS3EAST,-71.439,42.71,False,33,011,011102,33,33011,33011011102,1400000US33011011102,WORTHEN INDUSTRIES INC UPACO DIV,3 E SPITBROOK RD,NASHUA,NH,3060,"WORTHEN INDUSTRIES INC UPACO DIV.3 E SPITBROOK RD, NASHUA NEW HAMPSHIRE 03060 (HILLSBOROUGH)",0,C,,110004087595
03061SNDRSDWHWY,-71.447,42.708999999999996,False,33,011,011102,33,33011,33011011102,1400000US33011011102,BAE SYSTEMS INFORMATION & ELECTRONIC SYSTEMS INTEGRATION,65 SPIT BROOK RD,NASHUA,NH,3060,"BAE SYSTEMS INFORMATION & ELECTRONIC SYSTEMS INTEGRATION.65 SPIT BROOK RD, NASHUA NEW HAMPSHIRE 03060 (HILLSBOROUGH)",0,C,,110000885588
03061WRGRCPOISS,-71.439,42.716,False,33,011,011102,33,33011,33011011102,1400000US33011011102,HAMPSHIRE CHEMICAL CORP,2 E SPIT BROOK RD,NASHUA,NH,30615737,"HAMPSHIRE CHEMICAL CORP.2 E SPIT BROOK RD, NASHUA NEW HAMPSHIRE 03061 (HILLSBOROUGH)",0,C,,
03060RDBLL100FA,-71.469,42.76,False,33,011,010700,33,33011,33011010700,1400000US33011010700,NORCROSS FOOTWEAR INC RED BALL DIV,100 FACTORY ST,NASHUA,NH,3060,"NORCROSS FOOTWEAR INC RED BALL DIV.100 FACTORY ST, NASHUA NEW HAMPSHIRE 03060 (HILLSBOROUGH)",0,C,,
03060CLNLL1CHES,-71.469,42.76,False,33,011,010700,33,33011,33011010700,1400000US33011010700,COLONIAL ELECTRONIC MANUFACTURERS INC.,ONE CHESTNUT ST,NASHUA,NH,3060,"COLONIAL ELECTRONIC MANUFACTURERS INC..ONE CHESTNUT ST, NASHUA NEW HAMPSHIRE 03060 (HILLSBOROUGH)",0,C,,110013288520
03061NMCRN575AM,-71.533,42.799,False,33,011,010200,33,33011,33011010200,1400000US33011010200,NIM-COR INC,575 AMHERST ST,NASHUA,NH,30616010,"NIM-COR INC.575 AMHERST ST, NASHUA NEW HAMPSHIRE 03061 (HILLSBOROUGH)",0,C,,
03063CCCLS600AM,-71.536,42.801,False,33,011,010200,33,33011,33011010200,1400000US33011010200,COCA-COLA USA FOUNTAIN,600 AMHERST ST,NASHUA,NH,30631149,"COCA-COLA USA FOUNTAIN.600 AMHERST ST, NASHUA NEW HAMPSHIRE 03063 (HILLSBOROUGH)",0,C,,
03063CRCTC4STAT,-71.52600000000001,42.795,False,33,011,010200,33,33011,33011010200,1400000US33011010200,CIRCUIT CONNECT INC,4 STATE ST,NASHUA,NH,3063,"CIRCUIT CONNECT INC.4 STATE ST, NASHUA NEW HAMPSHIRE 03063 (HILLSBOROUGH)",0,C,,110000883848
03063HRCRS8CAPI,-71.528,42.793,False,33,011,010200,33,33011,33011010200,1400000US33011010200,HARCROS CHEMICALS INC,8 CAPITAL ST,NASHUA,NH,3063,"HARCROS CHEMICALS INC.8 CAPITAL ST, NASHUA NEW HAMPSHIRE 03063 (HILLSBOROUGH)",0,C,,110004087256
03063MPHNL18CEL,-71.539,42.8,False,33,011,010200,33,33011,33011010200,1400000US33011010200,AMPHENOL BACKPLANE SYSTEMS,18 CELINA AVE,NASHUA,NH,3063,"AMPHENOL BACKPLANE SYSTEMS.18 CELINA AVE, NASHUA NEW HAMPSHIRE 03063 (HILLSBOROUGH)",0,C,,110017743227
0306WWRTHN34CEL,-71.53399999999999,42.798,False,33,011,010200,33,33011,33011010200,1400000US33011010200,WORTHEN INDUSTRIES,34 CELLU DR,NASHUA,NH,3063,"WORTHEN INDUSTRIES.34 CELLU DR, NASHUA NEW HAMPSHIRE 03063 (HILLSBOROUGH)",0,C,,110023083973
0306WRPDMC22CHA,-71.502,42.777,False,33,011,010200,33,33011,33011010200,1400000US33011010200,RAPID MACHINING,22 CHARRON RD,NASHUA,NH,3063,"RAPID MACHINING.22 CHARRON RD, NASHUA NEW HAMPSHIRE 03063 (HILLSBOROUGH)",0,C,,110063683713
0306WRPDSH14PER,-71.52,42.78,False,33,011,010200,33,33011,33011010200,1400000US33011010200,RAPID SHEET METAL LLC,104 PERIMETER RD,NASHUA,NH,3063,"RAPID SHEET METAL LLC.104 PERIMETER RD, NASHUA NEW HAMPSHIRE 03063 (HILLSBOROUGH)",0,C,,110059543944
0306WRPDSH15CHA,-71.501,42.778,False,33,011,010200,33,33011,33011010200,1400000US33011010200,RAPID SHEET METAL,15 CHARRON AVE,NASHUA,NH,3063,"RAPID SHEET METAL.15 CHARRON AVE, NASHUA NEW HAMPSHIRE 03063 (HILLSBOROUGH)",0,C,,110064452907
03063KLLSM3CAPI,-71.526,42.792,True,33,011,010200,33,33011,33011010200,1400000US33011010200,KOLLSMAN,3 CAPITAL ST,NASHUA,NH,3063,"KOLLSMAN 3 CAPITAL ST, NASHUA, NH, 3063",0,C,,
03061NSHCR44FRA,-71.469,42.762,False,33,011,010500,33,33011,33011010500,1400000US33011010500,NASHUA CORP,30 FRONT ST,NASHUA,NH,3064,"NASHUA CORP.30 FRONT ST, NASHUA NEW HAMPSHIRE 03064 (HILLSBOROUGH)",0,C,,
03061SNDRS95CAN,-71.458,42.763999999999996,False,33,011,010500,33,33011,33011010500,1400000US33011010500,BAE SYSTEMS INFORMATION & ELECTRONIC SYSTEMS INTEGRATION,95 CANAL ST,NASHUA,NH,30640868,"BAE SYSTEMS INFORMATION & ELECTRONIC SYSTEMS INTEGRATION.95 CANAL ST, NASHUA NEW HAMPSHIRE 03064 (HILLSBOROUGH)",0,C,,110000885579
03060STRCP29FRO,-71.468,42.763000000000005,False,33,011,010500,33,33011,33011010500,1400000US33011010500,SOTO RECEPTOR COPIER PRODUCTS INC,29 FRONT STREET,NASHUA,NH,3060,"SOTO RECEPTOR COPIER PRODUCTS INC.29 FRONT STREET, NASHUA NEW HAMPSHIRE 03060 (HILLSBOROUGH)",0,C,,
03061SHLDH100NO,-71.491,42.739,False,33,011,011402,33,33011,33011011402,1400000US33011011402,SHELDAHL-NASHUA,100 NORTHEASTERN BLVD,NASHUA,NH,3062,"SHELDAHL-NASHUA.100 NORTHEASTERN BLVD, NASHUA NEW HAMPSHIRE 03062 (HILLSBOROUGH)",1,C,,
03062DVNCD118NO,-71.493,42.74,False,33,011,011402,33,33011,33011011402,1400000US33011011402,ADVANCED CIRCUIT TECHNOLOGY I NC,118 NORTHEASTERN BLVD,NASHUA,NH,3062,"ADVANCED CIRCUIT TECHNOLOGY I NC.118 NORTHEASTERN BLVD, NASHUA NEW HAMPSHIRE 03062 (HILLSBOROUGH)",0,C,,110000313553
03062JTRNC16PRO,-71.492,42.742,False,33,011,011402,33,33011,33011011402,1400000US33011011402,J TRONICS INC,16 PROGRESS AVE,NASHUA,NH,3062,"J TRONICS INC.16 PROGRESS AVE, NASHUA NEW HAMPSHIRE 03062 (HILLSBOROUGH)",1,C,,
03062TRDYN4PITT,-71.49,42.738,False,33,011,011402,33,33011,33011011402,1400000US33011011402,AMPHENOL APC INC,91 NORTHEASTERN BLVD,NASHUA,NH,3062,"AMPHENOL APC INC.91 NORTHEASTERN BLVD, NASHUA NEW HAMPSHIRE 03062 (HILLSBOROUGH)",0,C,,110028155332
03062STRNN85NOR,-71.48899999999999,42.738,False,33,011,011402,33,33011,33011011402,1400000US33011011402,ASTRON INC,85 NORTHEASTERN BLVD,NASHUA,NH,3062,"ASTRON INC.85 NORTHEASTERN BLVD, NASHUA NEW HAMPSHIRE 03062 (HILLSBOROUGH)",1,C,,
03062XLCRP25PRO,-71.491,42.742,False,33,011,011402,33,33011,33011011402,1400000US33011011402,XL CORP & SPRAY TEK,25 PROGRESS AVE,NASHUA,NH,3062,"XL CORP & SPRAY TEK.25 PROGRESS AVE, NASHUA NEW HAMPSHIRE 03062 (HILLSBOROUGH)",0,C,,
03077GMNVL1OTTE,-71.167,43.034,False,33,015,055002,33,33015,33015055002,1400000US33015055002,GEMINI VALVE,1 OTTER CT,RAYMOND,NH,3077,"GEMINI VALVE.1 OTTER CT, RAYMOND NEW HAMPSHIRE 03077 (ROCKINGHAM)",0,C,,110000313580
03079DVRST5NORT,-71.244,42.781000000000006,False,33,015,100301,33,33015,33015100301,1400000US33015100301,GENCORP POLYMER PRODUCTS DESIGN CENTER,5 NORTHEASTERN BLVD,SALEM,NH,3079,"GENCORP POLYMER PRODUCTS DESIGN CENTER.5 NORTHEASTERN BLVD, SALEM NEW HAMPSHIRE 03079 (ROCKINGHAM)",0,C,,
03079HDCCR7MANO,-71.25,42.778,False,33,015,100301,33,33015,33015100301,1400000US33015100301,HADCO CORP TECHNOLOGY CENTER ONE DIV,7 MANOR PKY,SALEM,NH,3079,"HADCO CORP TECHNOLOGY CENTER ONE DIV.7 MANOR PKY, SALEM NEW HAMPSHIRE 03079 (ROCKINGHAM)",0,C,,
03079RDRXN49PEL,-71.253,42.775,False,33,015,100301,33,33015,33015100301,1400000US33015100301,ARDROX INC,49 PELHAM RD,SALEM,NH,3079,"ARDROX INC.49 PELHAM RD, SALEM NEW HAMPSHIRE 03079 (ROCKINGHAM)",0,C,,
03079SLMCC23SOU,-71.22800000000001,42.778999999999996,False,33,015,100301,33,33015,33015100301,1400000US33015100301,COCA-COLA BOTTLING CO INC,23 S BROADWAY,SALEM,NH,3079,"COCA-COLA BOTTLING CO INC.23 S BROADWAY, SALEM NEW HAMPSHIRE 03079 (ROCKINGHAM)",0,C,,
03079HDCCR10MAN,-71.25,42.778999999999996,False,33,015,100301,33,33015,33015100301,1400000US33015100301,SANMINA CORP,10 MANOR PKY,SALEM,NH,3079,"SANMINA CORP.10 MANOR PKY, SALEM NEW HAMPSHIRE 03079 (ROCKINGHAM)",0,C,,
03079PRLXC7INDU,-71.256,42.778,False,33,015,100301,33,33015,33015100301,1400000US33015100301,PARLEX CORP,7 INDUSTRIAL WAY,SALEM,NH,3079,"PARLEX CORP.7 INDUSTRIAL WAY, SALEM NEW HAMPSHIRE 03079 (ROCKINGHAM)",0,C,,
03079CLSTC9NORT,-71.245,42.781000000000006,False,33,015,100301,33,33015,33015100301,1400000US33015100301,CELESTICA CORP,9 NORTHEASTERN BLVD,SALEM,NH,3079,"CELESTICA CORP.9 NORTHEASTERN BLVD, SALEM NEW HAMPSHIRE 03079 (ROCKINGHAM)",0,C,,
03079RGSST17NRT,-71.262,42.775,False,33,015,100301,33,33015,33015100301,1400000US33015100301,AIRGAS USA LLC,17 NORTHWESTERN DR,SALEM,NH,3079,"AIRGAS USA LLC.17 NORTHWESTERN DR, SALEM NEW HAMPSHIRE 03079 (ROCKINGHAM)",0,C,,110012252098
0307WTNRTH19KEE,-71.24600000000001,42.775,False,33,015,100301,33,33015,33015100301,1400000US33015100301,EIT LLC,19 KEEWAYDIN DR,SALEM,NH,3079,"EIT LLC.19 KEEWAYDIN DR, SALEM NEW HAMPSHIRE 03079 (ROCKINGHAM)",0,C,,110055080237
03079DGTLQ9NORT,-71.246,42.784,True,33,015,100301,33,33015,33015100301,1400000US33015100301,DIGITAL EQUIPMENT CORP,9 NORTHEASTERN BLVD,SALEM,NH,30791994,"DIGITAL EQUIPMENT CORP 9 NORTHEASTERN BLVD, SALEM, NH, 30791994",0,C,,
03079NVXCR3OLDR,-71.236,42.792,False,33,015,100200,33,33015,33015100200,1400000US33015100200,UNIVEX CORP,3 OLD ROCKINGHAM RD,SALEM,NH,3079,"UNIVEX CORP.3 OLD ROCKINGHAM RD, SALEM NEW HAMPSHIRE 03079 (ROCKINGHAM)",0,C,,
03101NCHRL400BE,-71.46600000000001,42.993,False,33,011,200400,33,33011,33011200400,1400000US33011200400,ANCHOR ELECTRIC CO,400 BEDFORD ST,MANCHESTER,NH,31010959,"ANCHOR ELECTRIC CO.400 BEDFORD ST, MANCHESTER NEW HAMPSHIRE 03101 (HILLSBOROUGH)",0,C,,
03101SCMNF150DO,-71.467,42.997,False,33,011,200400,33,33011,33011200400,1400000US33011200400,"SCI SYS INC, PLANT 14",150 DOW ST,MANCHESTER,NH,3101,"SCI SYS INC, PLANT 14.150 DOW ST, MANCHESTER NEW HAMPSHIRE 03101 (HILLSBOROUGH)",1,C,,
03101LDSCN15DWS,-71.467,42.997,False,33,011,200400,33,33011,33011200400,1400000US33011200400,"LADESCO, INC.",150 DOW ST TOWER 2,MANCHESTER,NH,3101,"LADESCO, INC..150 DOW ST TOWER 2, MANCHESTER NEW HAMPSHIRE 03101 (HILLSBOROUGH)",0,C,,110020514932
03102CRLCB345MC,-71.473,42.994,False,33,011,000300,33,33011,33011000300,1400000US33011000300,GENERAL CABLE INDUSTRIES INC,345 MCGREGOR ST,MANCHESTER,NH,3102,"GENERAL CABLE INDUSTRIES INC.345 MCGREGOR ST, MANCHESTER NEW HAMPSHIRE 03102 (HILLSBOROUGH)",0,C,,110000313606
03103DSGRNGRENI,-71.441,42.933,False,33,011,980101,33,33011,33011980101,1400000US33011980101,VIBRACOUSTIC NA LP,50 AMMON DR,MANCHESTER,NH,3103,"VIBRACOUSTIC NA LP.50 AMMON DR, MANCHESTER NEW HAMPSHIRE 03103 (HILLSBOROUGH)",0,C,,110000313615
03103GLDBN1BOUC,-71.42699999999999,42.93600000000001,False,33,011,980101,33,33011,33011980101,1400000US33011980101,GOLD BOND BUILDING PRODS,1 BOUCHARD ST,MANCHESTER,NH,3103,"GOLD BOND BUILDING PRODS.1 BOUCHARD ST, MANCHESTER NEW HAMPSHIRE 03103 (HILLSBOROUGH)",1,C,,
03103SNDRS1050P,-71.447,42.935,False,33,011,980101,33,33011,33011980101,1400000US33011980101,INTERFLEX CORP,1050 PERIMETER RD,MANCHESTER,NH,3103,"INTERFLEX CORP.1050 PERIMETER RD, MANCHESTER NEW HAMPSHIRE 03103 (HILLSBOROUGH)",0,C,,
03108SMMTPAMMON,-71.441,42.933,False,33,011,980101,33,33011,33011980101,1400000US33011980101,SUMMIT PACKAGING SYS,AMMON DR GRENIERFIELD,MANCHESTER,NH,3108,"SUMMIT PACKAGING SYS.AMMON DR GRENIERFIELD, MANCHESTER NEW HAMPSHIRE 03108 (HILLSBOROUGH)",0,C,,
03108LCKHD5PERI,-71.433,42.945,False,33,011,980101,33,33011,33011980101,1400000US33011980101,LOCKHEED SANDERS MACHINING CENTER MAN 15,5 PERIMETER RD,MANCHESTER,NH,3108,"LOCKHEED SANDERS MACHINING CENTER MAN 15.5 PERIMETER RD, MANCHESTER NEW HAMPSHIRE 03108 (HILLSBOROUGH)",0,C,,
03103GTPRD655SW,-71.449,42.966,False,33,011,002500,33,33011,33011002500,1400000US33011002500,OSRAM SYLVANIA INC,655 SOUTH WILLOW ST,MANCHESTER,NH,3103,"OSRAM SYLVANIA INC.655 SOUTH WILLOW ST, MANCHESTER NEW HAMPSHIRE 03103 (HILLSBOROUGH)",1,C,,110000885828
03103LCTRP252WI,-71.461,42.977,False,33,011,001900,33,33011,33011001900,1400000US33011001900,ELECTROPAC CO INC,252 WILLOW ST,MANCHESTER,NH,3103,"ELECTROPAC CO INC.252 WILLOW ST, MANCHESTER NEW HAMPSHIRE 03103 (HILLSBOROUGH)",0,C,,110000313624
03103MNCHS89CAL,-71.462,42.976000000000006,False,33,011,001900,33,33011,33011001900,1400000US33011001900,MANCHESTER REDIMIX CONCRETE INC,89 CALEF RD,MANCHESTER,NH,3103,"MANCHESTER REDIMIX CONCRETE INC.89 CALEF RD, MANCHESTER NEW HAMPSHIRE 03103 (HILLSBOROUGH)",0,C,,110009002006
03103MRBSN2060B,-71.453,42.946000000000005,False,33,011,002600,33,33011,33011002600,1400000US33011002600,MOORE CORP BUSINESS FORMS & SYSTEMS DIV,2060 BROWN AVE,MANCHESTER,NH,3103,"MOORE CORP BUSINESS FORMS & SYSTEMS DIV.2060 BROWN AVE, MANCHESTER NEW HAMPSHIRE 03103 (HILLSBOROUGH)",0,C,,
03103TXTRN645HA,-71.425,42.935,False,33,011,002600,33,33011,33011002600,1400000US33011002600,EPE CORP,645 HARVEY RD SUITE : 11,MANCHESTER,NH,3103,"EPE CORP.645 HARVEY RD SUITE : 11, MANCHESTER NEW HAMPSHIRE 03103 (HILLSBOROUGH)",0,C,,110000313642
03103SNMNC140AB,-71.423,42.935,False,33,011,002600,33,33011,33011002600,1400000US33011002600,SANMINA CORP,140 ABBY RD,MANCHESTER,NH,3103,"SANMINA CORP.140 ABBY RD, MANCHESTER NEW HAMPSHIRE 03103 (HILLSBOROUGH)",0,C,,110004093640
03103PLYVC253AB,-71.42,42.93600000000001,False,33,011,002600,33,33011,33011002600,1400000US33011002600,TECOMET INC,253 ABBY RD,MANCHESTER,NH,3103,"TECOMET INC.253 ABBY RD, MANCHESTER NEW HAMPSHIRE 03103 (HILLSBOROUGH)",0,C,,110020514941
0310WMNCHS164GF,-71.445,42.945,False,33,011,002600,33,33011,33011002600,1400000US33011002600,BRENNTAG LUBRICANTS NORTH EAST-MANCHESTER,1064 GOFFS FALLS RD,MANCHESTER,NH,3103,"BRENNTAG LUBRICANTS NORTH EAST-MANCHESTER.1064 GOFFS FALLS RD, MANCHESTER NEW HAMPSHIRE 03103 (HILLSBOROUGH)",0,C,,110067559065
03103NYLTC333SU,-71.472,42.971000000000004,False,33,011,002400,33,33011,33011002400,1400000US33011002400,NYLON CORP OF AMERICA,333 SUNDIAL AVE,MANCHESTER,NH,3103,"NYLON CORP OF AMERICA.333 SUNDIAL AVE, MANCHESTER NEW HAMPSHIRE 03103 (HILLSBOROUGH)",0,C,,110000313633
03103VLCRS406BR,-71.467,42.971000000000004,False,33,011,002400,33,33011,33011002400,1400000US33011002400,VELCRO USA INC,406 BROWN AVE,MANCHESTER,NH,3103,"VELCRO USA INC.406 BROWN AVE, MANCHESTER NEW HAMPSHIRE 03103 (HILLSBOROUGH)",0,C,,110001521906
03105KLWLL111CA,-71.40899999999999,42.988,False,33,011,001000,33,33011,33011001000,1400000US33011001000,KALWALL CORP PANELS & ACCESSORIES DIV,1111 CANDIA RD,MANCHESTER,NH,31095207,"KALWALL CORP PANELS & ACCESSORIES DIV.1111 CANDIA RD, MANCHESTER NEW HAMPSHIRE 03109 (HILLSBOROUGH)",0,C,,110000313651
03103HTCHC900HO,-71.406,42.978,False,33,011,001000,33,33011,33011001000,1400000US33011001000,HITACHI CABLE MANCHESTER INC,900 HOLT AVE,MANCHESTER,NH,3103,"HITACHI CABLE MANCHESTER INC.900 HOLT AVE, MANCHESTER NEW HAMPSHIRE 03103 (HILLSBOROUGH)",0,C,,
03103RYTHN676IS,-71.41199999999999,42.968999999999994,False,33,011,001000,33,33011,33011001000,1400000US33011001000,RAYTHEON CO,676 ISLAND POND RD,MANCHESTER,NH,3103,"RAYTHEON CO.676 ISLAND POND RD, MANCHESTER NEW HAMPSHIRE 03103 (HILLSBOROUGH)",0,C,,
03109PRTTL111ZA,-71.407,42.983000000000004,False,33,011,001000,33,33011,33011001000,1400000US33011001000,"PRATTA ELECTRONIC MATERIAL, INC","111 ZACHARY RD, BUILDING #2 UNIT A",MANCHESTER,NH,3109,"PRATTA ELECTRONIC MATERIAL, INC.111 ZACHARY RD, BUILDING #2 UNIT A, MANCHESTER NEW HAMPSHIRE 03109 (HILLSBOROUGH)",0,C,,
03106GNRLL31HOO,-71.44800000000001,43.062,False,33,013,003001,33,33013,33013003001,1400000US33013003001,GE CO,9 INDUSTRIAL PARK DR,HOOKSETT,NH,3106,"GE CO.9 INDUSTRIAL PARK DR, HOOKSETT NEW HAMPSHIRE 03106 (MERRIMACK)",0,C,,110000313660
03106SCSYS300TE,-71.465,43.047,False,33,013,003001,33,33013,33013003001,1400000US33013003001,SCI SYS INC,300 TECHNOLOGY DR,HOOKSETT,NH,3106,"SCI SYS INC.300 TECHNOLOGY DR, HOOKSETT NEW HAMPSHIRE 03106 (MERRIMACK)",0,C,,
03106HKSTT38HAC,-71.476,43.082,False,33,013,003001,33,33013,33013003001,1400000US33013003001,HOOKSETT CRUSHED STONE PIKE INDUSTRIES INC,38 HACKETT HILL RD,HOOKSETT,NH,3106,"HOOKSETT CRUSHED STONE PIKE INDUSTRIES INC.38 HACKETT HILL RD, HOOKSETT NEW HAMPSHIRE 03106 (MERRIMACK)",0,C,,110004109054
03106LDCST24LEH,-71.454,43.063,False,33,013,003001,33,33013,33013003001,1400000US33013003001,OLDCASTLE LAWN & GARDEN,24 LEHOUX DR,HOOKSETT,NH,3106,"OLDCASTLE LAWN & GARDEN.24 LEHOUX DR, HOOKSETT NEW HAMPSHIRE 03106 (MERRIMACK)",0,C,,
0330WRDMXC75RIV,-71.469,43.077,False,33,013,003001,33,33013,33013003001,1400000US33013003001,REDIMIX COS INC,75 RIVER RD,BOW,NH,3304,"REDIMIX COS INC.75 RIVER RD, BOW NEW HAMPSHIRE 03304 (MERRIMACK)",0,C,,110044782615
03217LWPCK6MILL,-71.631,43.692,False,33,009,961100,33,33009,33009961100,1400000US33009961100,L W PACKARD & CO INC,6 MILL ST,ASHLAND,NH,3217,"L W PACKARD & CO INC.6 MILL ST, ASHLAND NEW HAMPSHIRE 03217 (GRAFTON)",0,C,,
03222CLLYCOLDBR,-71.72800000000001,43.592,False,33,001,965100,33,33001,33001965100,1400000US33001965100,CALLEY & CURRIER COMPANY INC,OLD BRISTOL RD,BRISTOL,NH,3222,"CALLEY & CURRIER COMPANY INC.OLD BRISTOL RD, BRISTOL NEW HAMPSHIRE 03222 (BELKNAP)",0,C,,
03256LWPCK1PACK,-71.638,43.623999999999995,False,33,001,965100,33,33001,33001965100,1400000US33001965100,LW PACKARD & CO INC,58  PACKARD DR,NEW HAMPTON,NH,3256,"LW PACKARD & CO INC.58  PACKARD DR, NEW HAMPTON NEW HAMPSHIRE 03256 (BELKNAP)",0,C,,
03222FRDNBPOBOX,-71.751,43.585,False,33,009,961200,33,33009,33009961200,1400000US33009961200,FREUDENBERG-NOK SEALING TECHNOLOGIES,450 PLEASANT ST,BRISTOL,NH,3222,"FREUDENBERG-NOK SEALING TECHNOLOGIES.450 PLEASANT ST, BRISTOL NEW HAMPSHIRE 03222 (GRAFTON)",0,C,,110007681758
03235LCNXTFRANK,-71.657,43.42100000000001,False,33,013,043001,33,33013,33013043001,1400000US33013043001,VITEX EXTRUSION,43 INDUSTRIAL PARK DR,FRANKLIN,NH,3235,"VITEX EXTRUSION.43 INDUSTRIAL PARK DR, FRANKLIN NEW HAMPSHIRE 03235 (MERRIMACK)",0,C,,
03235RWDCRFRANK,-71.656,43.42100000000001,False,33,013,043001,33,33013,33013043001,1400000US33013043001,WYMAN-GORDON INVESTMENT CASTINGS INC,FRANKLIN INDUSTRIAL PARK,FRANKLIN,NH,3235,"WYMAN-GORDON INVESTMENT CASTINGS INC.FRANKLIN INDUSTRIAL PARK, FRANKLIN NEW HAMPSHIRE 03235 (MERRIMACK)",0,C,,
03235WBSTRSMAIN,-71.654,43.425,False,33,013,043001,33,33013,33013043001,1400000US33013043001,WATTS REGULATOR CO DBA WEBSTER VALVE,583 S MAIN ST,FRANKLIN,NH,3235,"WATTS REGULATOR CO DBA WEBSTER VALVE.583 S MAIN ST, FRANKLIN NEW HAMPSHIRE 03235 (MERRIMACK)",0,C,,110000313697
03235WBSTRSOMAI,-71.658,43.413000000000004,False,33,013,043001,33,33013,33013043001,1400000US33013043001,WEBSTER FOUNDRY CO,791 S MAIN ST,FRANKLIN,NH,3235,"WEBSTER FOUNDRY CO.791 S MAIN ST, FRANKLIN NEW HAMPSHIRE 03235 (MERRIMACK)",2,C,,110000313697
03235PLYCLINDUS,-71.657,43.42100000000001,False,33,013,043001,33,33013,33013043001,1400000US33013043001,POLYCLAD LAMINATES-INDUSTRIAL PARK,40 INDUSTRIAL PARK DR,FRANKLIN,NH,3235,"POLYCLAD LAMINATES-INDUSTRIAL PARK.40 INDUSTRIAL PARK DR, FRANKLIN NEW HAMPSHIRE 03235 (MERRIMACK)",0,C,,110000739693
03235NRPLXRANGE,-71.669,43.447,True,33,013,043001,33,33013,33013043001,1400000US33013043001,NORPLEX/OAK,RANGE RD,FRANKLIN,NH,3235,"NORPLEX/OAK RANGE RD, FRANKLIN, NH, 3235",1,C,,
03235PLYCL45TAN,-71.657,43.45,False,33,013,043002,33,33013,33013043002,1400000US33013043002,POLYCLAD LAMINATES-TANNERY STREET,45 TANNERY ST,FRANKLIN,NH,3235,"POLYCLAD LAMINATES-TANNERY STREET.45 TANNERY ST, FRANKLIN NEW HAMPSHIRE 03235 (MERRIMACK)",0,C,,110000313688
03244GTPRDWESTM,-71.916,43.111999999999995,False,33,011,025500,33,33011,33011025500,1400000US33011025500,OSRAM SYLVANIA PRODUCTS INC,275 W MAIN ST,HILLSBORO,NH,3244,"OSRAM SYLVANIA PRODUCTS INC.275 W MAIN ST, HILLSBORO NEW HAMPSHIRE 03244 (HILLSBOROUGH)",0,C,,110000313704
03244NRTNCPOBOX,-71.88600000000001,43.118,False,33,011,025500,33,33011,33011025500,1400000US33011025500,NORTON CO,31 NORTON DR,HILLSBORO,NH,3244,"NORTON CO.31 NORTON DR, HILLSBORO NEW HAMPSHIRE 03244 (HILLSBOROUGH)",1,C,,
03246HBRTM113FA,-71.475,43.523999999999994,False,33,001,966000,33,33001,33001966000,1400000US33001966000,HEBERT FOUNDRY & MACHINE CO,113 FAIR ST,LACONIA,NH,3246,"HEBERT FOUNDRY & MACHINE CO.113 FAIR ST, LACONIA NEW HAMPSHIRE 03246 (BELKNAP)",0,C,,110000313722
03246LLNRG54WAT,-71.472,43.527,False,33,001,966000,33,33001,33001966000,1400000US33001966000,ALLEN-ROGERS LTD,54 WATER ST,LACONIA,NH,32463308,"ALLEN-ROGERS LTD.54 WATER ST, LACONIA NEW HAMPSHIRE 03246 (BELKNAP)",0,C,,
03246LWSSN93LEX,-71.48899999999999,43.545,False,33,001,966000,33,33001,33001966000,1400000US33001966000,LEWIS & SAUNDERS INC,93 LEXINGTON DR,LACONIA,NH,3247,"LEWIS & SAUNDERS INC.93 LEXINGTON DR, LACONIA NEW HAMPSHIRE 03247 (BELKNAP)",0,C,,
03246MTZLCPRIMR,-71.492,43.548,False,33,001,966000,33,33001,33001966000,1400000US33001966000,METZ ELECTRONICS CORP,94 PRIMROSE DR O'SHEA INDUSTRIAL PARK,LACONIA,NH,3246,"METZ ELECTRONICS CORP.94 PRIMROSE DR O'SHEA INDUSTRIAL PARK, LACONIA NEW HAMPSHIRE 03246 (BELKNAP)",0,C,,110007401105
03246NCNCX206FA,-71.476,43.527,False,33,001,966000,33,33001,33001966000,1400000US33001966000,UNICO INC,206 FAIR ST,LACONIA,NH,3246,"UNICO INC.206 FAIR ST, LACONIA NEW HAMPSHIRE 03246 (BELKNAP)",0,C,,
03246NWHMP155LE,-71.491,43.544,False,33,001,966000,33,33001,33001966000,1400000US33001966000,NEW HAMPSHIRE BALL BEARINGS I NC,155 LEXINGTON DR,LACONIA,NH,3246,"NEW HAMPSHIRE BALL BEARINGS I NC.155 LEXINGTON DR, LACONIA NEW HAMPSHIRE 03246 (BELKNAP)",0,C,,110000313731
03247VDNGNONEKO,-71.491,43.547,False,33,001,966000,33,33001,33001966000,1400000US33001966000,AAVID THERMALLOY LLC,1 AAVID CIR,LACONIA,NH,3246,"AAVID THERMALLOY LLC.1 AAVID CIR, LACONIA NEW HAMPSHIRE 03246 (BELKNAP)",0,C,,110000313740
03246LCTRC64PRI,-71.491,43.547,False,33,001,966000,33,33001,33001966000,1400000US33001966000,ELECTRO CIRCUITS INC,64 PRIMROSE DR,LACONIA,NH,3246,"ELECTRO CIRCUITS INC.64 PRIMROSE DR, LACONIA NEW HAMPSHIRE 03246 (BELKNAP)",0,C,,
03246BCFBR30COO,-71.473,43.523,False,33,001,966000,33,33001,33001966000,1400000US33001966000,ABC FABRICATORS INC.,30 COOK CT,LACONIA,NH,3246,"ABC FABRICATORS INC..30 COOK CT, LACONIA NEW HAMPSHIRE 03246 (BELKNAP)",0,C,,110000313713
03246RTSSC187WA,-71.477,43.526,False,33,001,966000,33,33001,33001966000,1400000US33001966000,BODYCOTE THERMAL PROCESSING INC,187 WATER ST,LACONIA,NH,3246,"BODYCOTE THERMAL PROCESSING INC.187 WATER ST, LACONIA NEW HAMPSHIRE 03246 (BELKNAP)",0,C,,110000762684
03251BRNDYRT3AC,-71.684,44.049,False,33,009,960400,33,33009,33009960400,1400000US33009960400,BURNDY LLC,34 BERN DIBNER RD,LINCOLN,NH,3251,"BURNDY LLC.34 BERN DIBNER RD, LINCOLN NEW HAMPSHIRE 03251 (GRAFTON)",0,C,,110000581308
03263SNCKLMAINS,-71.33,43.305,False,33,013,035000,33,33013,33013035000,1400000US33013035000,SUNCOOK LEATHERS INC,5 MAIN ST,PITTSFIELD,NH,3263,"SUNCOOK LEATHERS INC.5 MAIN ST, PITTSFIELD NEW HAMPSHIRE 03263 (MERRIMACK)",0,C,,
03264HTCHNHIGHL,-71.711,43.765,False,33,009,961000,33,33009,33009961000,1400000US33009961000,HITCHINER MFG CO INC,HIGHLAND ST,PLYMOUTH,NH,3264,"HITCHINER MFG CO INC.HIGHLAND ST, PLYMOUTH NEW HAMPSHIRE 03264 (GRAFTON)",1,C,,
03276PRPHRMAINS,-71.594,43.443000000000005,False,33,001,965598,33,33001,33001965598,1400000US33001965598,PERIPHERAL PRODUCTS INC,MAIN ST,TILTON,NH,3276,"PERIPHERAL PRODUCTS INC.MAIN ST, TILTON NEW HAMPSHIRE 03276 (BELKNAP)",0,C,,
03276QNTCRMANVI,-71.551,43.46,False,33,001,965598,33,33001,33001965598,1400000US33001965598,3M CORP (FORMERLYQUIN-T CORP NH),MANVILLE RD,TILTON,NH,32760309,"3M CORP (FORMERLYQUIN-T CORP NH).MANVILLE RD, TILTON NEW HAMPSHIRE 03276 (BELKNAP)",2,C,,
032763MTLT1PAPE,-71.546,43.458,False,33,001,965598,33,33001,33001965598,1400000US33001965598,3M TILTON,1 PAPER TRAIL,TILTON,NH,3276,"3M TILTON.1 PAPER TRAIL, TILTON NEW HAMPSHIRE 03276 (BELKNAP)",0,C,,110004089548
03276SRRTT15PAR,-71.593,43.443000000000005,False,33,013,044000,33,33013,33013044000,1400000US33013044000,SURRETTE AMERICA,15 PARK ST,NORTHFIELD,NH,3276,"SURRETTE AMERICA.15 PARK ST, NORTHFIELD NEW HAMPSHIRE 03276 (MERRIMACK)",0,C,,
03276WYMNGGRANI,-71.585,43.442,False,33,013,044000,33,33013,33013044000,1400000US33013044000,WYMAN-GORDON INVESTMENT CASTINGS INC,GRANITE ST,NORTHFIELD,NH,3276,"WYMAN-GORDON INVESTMENT CASTINGS INC.GRANITE ST, NORTHFIELD NEW HAMPSHIRE 03276 (MERRIMACK)",0,C,,
03276NRTHF6AXLE,-71.594,43.43,False,33,013,044000,33,33013,33013044000,1400000US33013044000,FREUDENBERG-NOK,6 AXLE DR,NORTHFIELD,NH,3276,"FREUDENBERG-NOK.6 AXLE DR, NORTHFIELD NEW HAMPSHIRE 03276 (MERRIMACK)",0,C,,
03301CNCRD92OLD,-71.516,43.201,False,33,013,044100,33,33013,33013044100,1400000US33013044100,CONCORD LITHO GROUP INC,92 OLD TURNPIKE RD,CONCORD,NH,3301,"CONCORD LITHO GROUP INC.92 OLD TURNPIKE RD, CONCORD NEW HAMPSHIRE 03301 (MERRIMACK)",0,C,,
03301SPRGL70PEM,-71.505,43.213,False,33,013,044100,33,33013,33013044100,1400000US33013044100,VISHAY-SPRAGUE INC,70 PEMBROKE RD,CONCORD,NH,3301,"VISHAY-SPRAGUE INC.70 PEMBROKE RD, CONCORD NEW HAMPSHIRE 03301 (MERRIMACK)",0,C,,
03301STWWD60OLD,-71.518,43.198,False,33,013,044100,33,33013,33013044100,1400000US33013044100,STOWE WOODWARD,60 OLD TURNPIKE RD,CONCORD,NH,3301,"STOWE WOODWARD.60 OLD TURNPIKE RD, CONCORD NEW HAMPSHIRE 03301 (MERRIMACK)",0,C,,110002088179
03301WHTMN172PE,-71.488,43.206,False,33,013,044100,33,33013,33013044100,1400000US33013044100,WHITE MOUNTAIN IMAGING,46 CHENELL DR,CONCORD,NH,3301,"WHITE MOUNTAIN IMAGING.46 CHENELL DR, CONCORD NEW HAMPSHIRE 03301 (MERRIMACK)",0,C,,110039414817
03301SCRCR39CHE,-71.49,43.207,False,33,013,044100,33,33013,33013044100,1400000US33013044100,SECURE CARE PRODUCTS INC,39 CHENELL DR,CONCORD,NH,3301,"SECURE CARE PRODUCTS INC.39 CHENELL DR, CONCORD NEW HAMPSHIRE 03301 (MERRIMACK)",0,C,,110004102738
03301PRXRT146PE,-71.492,43.215,False,33,013,044100,33,33013,33013044100,1400000US33013044100,PRAXAIR SURFACE TECHNOLOGIES INC,146 PEMBROKE RD,CONCORD,NH,3301,"PRAXAIR SURFACE TECHNOLOGIES INC.146 PEMBROKE RD, CONCORD NEW HAMPSHIRE 03301 (MERRIMACK)",0,C,,110004109660
03301RVNGL3INDU,-71.485,43.208,False,33,013,044100,33,33013,33013044100,1400000US33013044100,HIGHLANDS FUEL DELIVERY LLC,30 INDUSTRIAL PARK,CONCORD,NH,3301,"HIGHLANDS FUEL DELIVERY LLC.30 INDUSTRIAL PARK, CONCORD NEW HAMPSHIRE 03301 (MERRIMACK)",0,C,,110031020062
03301RGNLM24CHE,-71.49600000000001,43.208,False,33,013,044100,33,33013,33013044100,1400000US33013044100,"AGILE MAGNETICS,INC",24 CHENELL DR,CONCORD,NH,3301,"AGILE MAGNETICS,INC.24 CHENELL DR, CONCORD NEW HAMPSHIRE 03301 (MERRIMACK)",0,C,,110031001163
03302NRTHR99AIR,-71.517,43.201,True,33,013,044100,33,33013,33013044100,1400000US33013044100,"NORTHERN TELECOM INC, NSSD",99 AIRPORT RD,CONCORD,NH,33020649,"NORTHERN TELECOM INC, NSSD 99 AIRPORT RD, CONCORD, NH, 33020649",1,C,,
03301KLLRPRIVER,-71.488,43.148,False,33,013,031001,33,33013,33013031001,1400000US33013031001,KELLER PRODUCTS INC,RIVER RD,BOW,NH,3304,"KELLER PRODUCTS INC.RIVER RD, BOW NEW HAMPSHIRE 03304 (MERRIMACK)",1,C,,
03301KLWLLRIVER,-71.488,43.148,False,33,013,031001,33,33013,33013031001,1400000US33013031001,KALWALL CORP FLAT SHEE T DIV,168 RIVER RD,BOW,NH,3304,"KALWALL CORP FLAT SHEE T DIV.168 RIVER RD, BOW NEW HAMPSHIRE 03304 (MERRIMACK)",0,C,,110024891535
03301ZTCHC8DOWR,-71.506,43.155,False,33,013,031001,33,33013,33013031001,1400000US33013031001,Z-TECH CORP,8 DOW RD,BOW,NH,3304,"Z-TECH CORP.8 DOW RD, BOW NEW HAMPSHIRE 03304 (MERRIMACK)",0,C,,
03302NVRSLHALLS,-71.525,43.177,False,33,013,031001,33,33013,33013031001,1400000US33013031001,UNIVERSAL PACKAGING CORP,HALL ST,CONCORD,NH,3302,"UNIVERSAL PACKAGING CORP.HALL ST, CONCORD NEW HAMPSHIRE 03302 (MERRIMACK)",0,C,,
03304PTCFR509RT,-71.527,43.172,False,33,013,031001,33,33013,33013031001,1400000US33013031001,PITCO FRIALATOR INC,553 RT 3A,BOW,NH,3304,"PITCO FRIALATOR INC.553 RT 3A, BOW NEW HAMPSHIRE 03304 (MERRIMACK)",0,C,,110000313811
03304PBLCS97RIV,-71.469,43.141000000000005,False,33,013,031001,33,33013,33013031001,1400000US33013031001,MERRIMACK STATION,431 RIVER RD,BOW,NH,3304,"MERRIMACK STATION.431 RIVER RD, BOW NEW HAMPSHIRE 03304 (MERRIMACK)",0,C,,110000313802
03304BLSLF52HAL,-71.525,43.177,False,33,013,031001,33,33013,33013031001,1400000US33013031001,KENT NUTRITION GROUP INC,520 HALL ST,BOW,NH,3304,"KENT NUTRITION GROUP INC.520 HALL ST, BOW NEW HAMPSHIRE 03304 (MERRIMACK)",0,C,,110011507128
0330WGSTFB97RIV,-71.47399999999999,43.138999999999996,False,33,013,031001,33,33013,33013031001,1400000US33013031001,AUGUSTA FIBERGLASS COATINGS INC,97 RIVER RD,BOW,NH,3304,"AUGUSTA FIBERGLASS COATINGS INC.97 RIVER RD, BOW NEW HAMPSHIRE 03304 (MERRIMACK)",0,C,,110039575420
03301LLDPH28LOC,-71.545,43.243,False,33,013,032800,33,33013,33013032800,1400000US33013032800,ALLIED PHOTO PRODUCTS CO INC,28 LOCKE RD,CONCORD,NH,3301,"ALLIED PHOTO PRODUCTS CO INC.28 LOCKE RD, CONCORD NEW HAMPSHIRE 03301 (MERRIMACK)",0,C,,
03301BYCHG14WHI,-71.579,43.286,False,33,013,032800,33,33013,33013032800,1400000US33013032800,BOYCE HIGHLANDS,14 WHITNEY RD,CONCORD,NH,3301,"BOYCE HIGHLANDS.14 WHITNEY RD, CONCORD NEW HAMPSHIRE 03301 (MERRIMACK)",0,C,,
03301PGBLT26COM,-71.538,43.218,False,33,013,032400,33,33013,33013032400,1400000US33013032400,PAGE BELTING CO,26 COMMERCIAL ST,CONCORD,NH,3301,"PAGE BELTING CO.26 COMMERCIAL ST, CONCORD NEW HAMPSHIRE 03301 (MERRIMACK)",0,C,,
03301WKSDR330NO,-71.562,43.233000000000004,False,33,013,032600,33,33013,33013032600,1400000US33013032600,HP HOOD LLC,330 N STATE ST,CONCORD,NH,3301,"HP HOOD LLC.330 N STATE ST, CONCORD NEW HAMPSHIRE 03301 (MERRIMACK)",0,C,,110008053676
03302CNCRD12COM,-71.595,43.286,False,33,013,038000,33,33013,33013038000,1400000US33013038000,CONCORD PHOTO ENGRAVING CO INC,12 COMMERCIAL ST,CONCORD,NH,3301,"CONCORD PHOTO ENGRAVING CO INC.12 COMMERCIAL ST, CONCORD NEW HAMPSHIRE 03301 (MERRIMACK)",0,C,,110000496099
03303LKTRS126HI,-71.641,43.327,False,33,013,038000,33,33013,33013038000,1400000US33013038000,ELEKTRISOLA INC,126 HIGH ST,BOSCAWEN,NH,3303,"ELEKTRISOLA INC.126 HIGH ST, BOSCAWEN NEW HAMPSHIRE 03303 (MERRIMACK)",0,C,,110000313795
03303GGRGT55RIV,-71.597,43.29600000000001,False,33,013,038000,33,33013,33013038000,1400000US33013038000,AGGREGATE INDUSTRIES NORTHEAST REGION INC.,55 RIVER RD,BOSCAWEN,NH,3303,"AGGREGATE INDUSTRIES NORTHEAST REGION INC..55 RIVER RD, BOSCAWEN NEW HAMPSHIRE 03303 (MERRIMACK)",0,C,,110023056510
03303BDLCT175SO,-71.59,43.271,False,33,013,032706,33,33013,33013032706,1400000US33013032706,BEEDE ELECTRICAL INSTRUMENT CO INC,88 VILLAGE ST,PENACOOK,NH,3303,"BEEDE ELECTRICAL INSTRUMENT CO INC.88 VILLAGE ST, PENACOOK NEW HAMPSHIRE 03303 (MERRIMACK)",0,C,,110004087880
03431CNCRD15KIT,-72.305,42.92,False,33,005,971401,33,33005,33005971401,1400000US33005971401,SMITHS MEDICAL ASD INC.,25 PRODUCTION AVE,KEENE,NH,3431,"SMITHS MEDICAL ASD INC..25 PRODUCTION AVE, KEENE NEW HAMPSHIRE 03431 (CHESHIRE)",1,C,,110000313820
03431MPBCRPRECI,-72.263,42.92,False,33,005,971401,33,33005,33005971401,1400000US33005971401,"MINIATURE PRECISION BEARINGS, PLANT 1","PRECISION PARK, PO BOX 547",KEENE,NH,3431,"MINIATURE PRECISION BEARINGS, PLANT 1.PRECISION PARK, PO BOX 547, KEENE NEW HAMPSHIRE 03431 (CHESHIRE)",0,C,,
03431MRKMC150CO,-72.267,42.92100000000001,False,33,005,971401,33,33005,33005971401,1400000US33005971401,MARKEM-IMAJE CORP,150 CONGRESS ST,KEENE,NH,3431,"MARKEM-IMAJE CORP.150 CONGRESS ST, KEENE NEW HAMPSHIRE 03431 (CHESHIRE)",0,C,,110000800884
03431MPBCRPRECA,-72.263,42.92,False,33,005,971401,33,33005,33005971401,1400000US33005971401,MPB CORP (DBA TIMKEN AEROSPACE),32 OPTICAL AVE,KEENE,NH,3431,"MPB CORP (DBA TIMKEN AEROSPACE).32 OPTICAL AVE, KEENE NEW HAMPSHIRE 03431 (CHESHIRE)",0,C,,110067041329
03431SPRGCAVONS,-72.294,42.931999999999995,False,33,005,971402,33,33005,33005971402,1400000US33005971402,SPRAGUE & CARLETON CO INC,AVON ST,KEENE,NH,3431,"SPRAGUE & CARLETON CO INC.AVON ST, KEENE NEW HAMPSHIRE 03431 (CHESHIRE)",0,C,,
03440CHCGC120MA,-71.94,43.034,False,33,011,025000,33,33011,33011025000,1400000US33011025000,CHICAGO CUTLERY GOODELL DIV,120 MAIN ST,ANTRIM,NH,3440,"CHICAGO CUTLERY GOODELL DIV.120 MAIN ST, ANTRIM NEW HAMPSHIRE 03440 (HILLSBOROUGH)",1,C,,
03442MNDNCANTRI,-71.92699999999999,43.011,False,33,011,021500,33,33011,33011021500,1400000US33011021500,MONADNOCK PAPER MILL,117 ANTRIM RD,BENNINGTON,NH,3442,"MONADNOCK PAPER MILL.117 ANTRIM RD, BENNINGTON NEW HAMPSHIRE 03442 (HILLSBOROUGH)",0,C,,110017750389
03451BRDGPMONUM,-72.505,42.821000000000005,False,33,005,971600,33,33005,33005971600,1400000US33005971600,BRIDGEPORT METAL GOODS MANUFACTURING CO,MONUMENT RD,HINSDALE,NH,3451,"BRIDGEPORT METAL GOODS MANUFACTURING CO.MONUMENT RD, HINSDALE NEW HAMPSHIRE 03451 (CHESHIRE)",0,C,,
03451SHLTPOLDRT,-72.457,42.792,False,33,005,971700,33,33005,33005971700,1400000US33005971700,ASHUELOT PAPER CO,OLD RTE 119,HINSDALE,NH,3451,"ASHUELOT PAPER CO.OLD RTE 119, HINSDALE NEW HAMPSHIRE 03451 (CHESHIRE)",0,C,,
03452DDBNSPETER,-72.009,42.817,False,33,005,970500,33,33005,33005970500,1400000US33005970500,D D BEAN & SONS CO,PETERBOROUGH RD RTE 202 N,JAFFREY,NH,3452,"D D BEAN & SONS CO.PETERBOROUGH RD RTE 202 N, JAFFREY NEW HAMPSHIRE 03452 (CHESHIRE)",0,C,,
03452JHNSN20FIT,-72.01,42.808,False,33,005,970500,33,33005,33005970500,1400000US33005970500,JOHNSON ABRASIVES CO INC,20 FITZGERALD DR,JAFFREY,NH,3452,"JOHNSON ABRASIVES CO INC.20 FITZGERALD DR, JAFFREY NEW HAMPSHIRE 03452 (CHESHIRE)",0,C,,
03452MLLPRPRESC,-71.985,42.799,False,33,005,970500,33,33005,33005970500,1400000US33005970500,EMD MILLIPORE CORP,11 PRESCOTT RD,JAFFREY,NH,3452,"EMD MILLIPORE CORP.11 PRESCOTT RD, JAFFREY NEW HAMPSHIRE 03452 (CHESHIRE)",0,C,,110000313848
03452NWHMPRTE12,-72.014,42.81100000000001,False,33,005,970500,33,33005,33005970500,1400000US33005970500,NEW HAMPSHIRE BALL BEARINGS INC,RTE 124,JAFFREY,NH,3452,"NEW HAMPSHIRE BALL BEARINGS INC.RTE 124, JAFFREY NEW HAMPSHIRE 03452 (CHESHIRE)",0,C,,
03452PCGRP77WEB,-72.015,42.815,False,33,005,970500,33,33005,33005970500,1400000US33005970500,WW  CROSS INC,77 WEBSTER ST,JAFFREY,NH,3452,"WW  CROSS INC.77 WEBSTER ST, JAFFREY NEW HAMPSHIRE 03452 (CHESHIRE)",0,C,,
03452NWHMPFITZG,-72.01,42.808,False,33,005,970500,33,33005,33005970500,1400000US33005970500,"NEW HAMPSHIRE BALL BEARINGS, INC",FITZGERALD DR,JAFFREY,NH,3452,"NEW HAMPSHIRE BALL BEARINGS, INC.FITZGERALD DR, JAFFREY NEW HAMPSHIRE 03452 (CHESHIRE)",1,C,,
03452MNDDN52FIT,-72.01,42.808,False,33,005,970500,33,33005,33005970500,1400000US33005970500,MONADNOCK SCREEN PLATE CO INC,52 FITZGERALD DR,JAFFREY,NH,3452,"MONADNOCK SCREEN PLATE CO INC.52 FITZGERALD DR, JAFFREY NEW HAMPSHIRE 03452 (CHESHIRE)",0,C,,
03458NWHMPROUTE,-71.96300000000001,42.856,False,33,011,023000,33,33011,33011023000,1400000US33011023000,NEW HAMPSHIRE BALL BEARINGS INC,175 JAFFERY RD,PETERBOROUGH,NH,3458,"NEW HAMPSHIRE BALL BEARINGS INC.175 JAFFERY RD, PETERBOROUGH NEW HAMPSHIRE 03458 (HILLSBOROUGH)",0,C,,110004087988
03465TRYML18MON,-72.178,42.826,False,33,005,970800,33,33005,33005970800,1400000US33005970800,TROY MILLS INC,30  MONADNOCK ST,TROY,NH,3465,"TROY MILLS INC.30  MONADNOCK ST, TROY NEW HAMPSHIRE 03465 (CHESHIRE)",0,C,,
03561LTTLTRIVER,-71.78699999999999,44.306999999999995,False,33,009,960100,33,33009,33009960100,1400000US33009960100,LITTLETON LUMBER & SUPPLY CO INC,RIVER RD,LITTLETON,NH,3561,"LITTLETON LUMBER & SUPPLY CO INC.RIVER RD, LITTLETON NEW HAMPSHIRE 03561 (GRAFTON)",0,C,,
03561SHRWN146UN,-71.765,44.308,False,33,009,960100,33,33009,33009960100,1400000US33009960100,SHERWIN-DODGE PRINTERS & PUBLISHERS,146 UNION ST,LITTLETON,NH,3561,"SHERWIN-DODGE PRINTERS & PUBLISHERS.146 UNION ST, LITTLETON NEW HAMPSHIRE 03561 (GRAFTON)",0,C,,
03561BRNDYLITTL,-71.794,44.301,False,33,009,960100,33,33009,33009960100,1400000US33009960100,BURNDY LLC,150 BURNDY RD,LITTLETON,NH,3561,"BURNDY LLC.150 BURNDY RD, LITTLETON NEW HAMPSHIRE 03561 (GRAFTON)",0,C,,110000836490
03561HTCHNBEACO,-71.764,44.308,False,33,009,960100,33,33009,33009960100,1400000US33009960100,HITCHINER MANUFACTURING CO INC LITTLETON BEACON STREET,24 BEACON ST,LITTLETON,NH,3561,"HITCHINER MANUFACTURING CO INC LITTLETON BEACON STREET.24 BEACON ST, LITTLETON NEW HAMPSHIRE 03561 (GRAFTON)",1,C,,110007689331
03561MNTGMINDLP,-71.8,44.298,False,33,009,960100,33,33009,33009960100,1400000US33009960100,MONTGOMERY WIRE,571 INDUSTRIAL PARK RD,LITTLETON,NH,3561,"MONTGOMERY WIRE.571 INDUSTRIAL PARK RD, LITTLETON NEW HAMPSHIRE 03561 (GRAFTON)",1,C,,110000313884
03561NRTNCHIGHL,-71.751,44.303000000000004,False,33,009,960100,33,33009,33009960100,1400000US33009960100,LITTLETON -PIKE,390 HIGHLAND ST,LITTLETON,NH,3561,"LITTLETON -PIKE.390 HIGHLAND ST, LITTLETON NEW HAMPSHIRE 03561 (GRAFTON)",0,C,,110001521684
03561RVNGL89MEA,-71.806,44.298,False,33,009,960100,33,33009,33009960100,1400000US33009960100,HIGHLANDS FUEL DELIVERY,890 MEADOW ST,LITTLETON,NH,3561,"HIGHLANDS FUEL DELIVERY.890 MEADOW ST, LITTLETON NEW HAMPSHIRE 03561 (GRAFTON)",0,C,,110006426126
03570JMSRV650MA,-71.169,44.472,False,33,007,950600,33,33007,33007950600,1400000US33007950600,FRASER N.H. LLC - BERLIN PULP MILL,650 MAIN ST,BERLIN,NH,3570,"FRASER N.H. LLC - BERLIN PULP MILL.650 MAIN ST, BERLIN NEW HAMPSHIRE 03570 (COOS)",0,C,,110007681632
0357WFCBRLPBX69,-71.138,44.521,False,33,007,950600,33,33007,33007950600,1400000US33007950600,FCI BERLIN,1 SUCCESS LOOP,BERLIN,NH,3570,"FCI BERLIN.1 SUCCESS LOOP, BERLIN NEW HAMPSHIRE 03570 (COOS)",0,F,,110040500179
03582JMSRVMAINS,-71.51,44.599,False,33,007,950400,33,33007,33007950400,1400000US33007950400,WAUSAU PAPER PRINTING & WRITING LLC,10 MECHANIC ST,GROVETON,NH,3582,"WAUSAU PAPER PRINTING & WRITING LLC.10 MECHANIC ST, GROVETON NEW HAMPSHIRE 03582 (COOS)",0,C,,110000313919
03582GRVTNA1MEC,-71.51100000000001,44.599,False,33,007,950400,33,33007,33007950400,1400000US33007950400,GROVETON PAPER BOARD INC.,19 MAIN ST,GROVETON,NH,3582,"GROVETON PAPER BOARD INC..19 MAIN ST, GROVETON NEW HAMPSHIRE 03582 (COOS)",0,C,,110038495296
03585NWNGL365MA,-71.906,44.216,False,33,009,960300,33,33009,33009960300,1400000US33009960300,NEW ENGLAND WIRE TECHNOLOGIES,130 N MAIN ST,LISBON,NH,3585,"NEW ENGLAND WIRE TECHNOLOGIES.130 N MAIN ST, LISBON NEW HAMPSHIRE 03585 (GRAFTON)",0,C,,110000313928
03609WHTMTROUTE,-72.44800000000001,43.153,False,33,005,970200,33,33005,33005970200,1400000US33005970200,"WHITE METAL ROLLING & STAMPING, CORP",RTE 12,NORTH WALPOLE,NH,3609,"WHITE METAL ROLLING & STAMPING, CORP.RTE 12, NORTH WALPOLE NEW HAMPSHIRE 03609 (CHESHIRE)",0,C,,
03608CLDRVBREWE,-72.416,43.13,False,33,005,970200,33,33005,33005970200,1400000US33005970200,COLD RIVER MATERIALS,1 SCALE LN,WALPOLE,NH,3608,"COLD RIVER MATERIALS.1 SCALE LN, WALPOLE NEW HAMPSHIRE 03608 (CHESHIRE)",0,C,,110007131638
03741CNNDVRTE4R,-72.075,43.65,False,33,009,961400,33,33009,33009961400,1400000US33009961400,WEBSTER VALVE CANAAN DIV,RTE 4 RR #1 BOX 148 A,CANAAN,NH,37419729,"WEBSTER VALVE CANAAN DIV.RTE 4 RR #1 BOX 148 A, CANAAN NEW HAMPSHIRE 03741 (GRAFTON)",0,C,,
03754DRRWLRTE11,-72.33800000000001,43.373000000000005,False,33,019,975901,33,33019,33019975901,1400000US33019975901,DORR WOOLEN CO,RTE 11 & 103,GUILD,NH,3754,"DORR WOOLEN CO.RTE 11 & 103, GUILD NEW HAMPSHIRE 03754 (SULLIVAN)",0,C,,
03743TNXNC91BMA,-72.342,43.376000000000005,False,33,019,975901,33,33019,33019975901,1400000US33019975901,TANX INC,91B MAIN ST,CLAREMONT,NH,3743,"TANX INC.91B MAIN ST, CLAREMONT NEW HAMPSHIRE 03743 (SULLIVAN)",0,C,,
0374WNWHMP35CNN,-72.391,43.401,False,33,019,975901,33,33019,33019975901,1400000US33019975901,CASCADED PURCHASE HOLDING INC (DBA NEW HAMPSHIRE INDUSTRIES),35 CONNECTICUT RIVERBEND PL,CLAREMONT,NH,3743,"CASCADED PURCHASE HOLDING INC (DBA NEW HAMPSHIRE INDUSTRIES).35 CONNECTICUT RIVERBEND PL, CLAREMONT NEW HAMPSHIRE 03743 (SULLIVAN)",0,C,,110069330156
03755HYPRTETNAR,-72.235,43.681999999999995,False,33,009,961601,33,33009,33009961601,1400000US33009961601,HYPERTHERM INC,21 GREAT HOLLOW RD,HANOVER,NH,3755,"HYPERTHERM INC.21 GREAT HOLLOW RD, HANOVER NEW HAMPSHIRE 03755 (GRAFTON)",0,C,,110001123052
03766SPLTBHIGHW,-72.286,43.638999999999996,False,33,009,961700,33,33009,33009961700,1400000US33009961700,TIMKEN AEROSPACE( MPB CORP DBA) LEBANON,336 MECHANIC ST,LEBANON,NH,3766,"TIMKEN AEROSPACE( MPB CORP DBA) LEBANON.336 MECHANIC ST, LEBANON NEW HAMPSHIRE 03766 (GRAFTON)",0,C,,110000313955
03784THRMLINDUS,-72.311,43.633,False,33,009,961700,33,33009,33009961700,1400000US33009961700,VICTOR TECNOLOGIES,82 BENNING ST,WEST LEBANON,NH,3784,"VICTOR TECNOLOGIES.82 BENNING ST, WEST LEBANON NEW HAMPSHIRE 03784 (GRAFTON)",0,C,,110007681650
03766NWHMP68ETN,-72.244,43.661,False,33,009,961700,33,33009,33009961700,1400000US33009961700,CASCADED PURCHASE HOLDING INC (DBA NEW HAMPSHIRE INDUSTRIES),68 ETNA RD,LEBANON,NH,3766,"CASCADED PURCHASE HOLDING INC (DBA NEW HAMPSHIRE INDUSTRIES).68 ETNA RD, LEBANON NEW HAMPSHIRE 03766 (GRAFTON)",1,C,,110002057693
03766LMNSC4LUCE,-72.26100000000001,43.681000000000004,False,33,009,961700,33,33009,33009961700,1400000US33009961700,LUMINESCENT SYSTEMS INC,4 LUCENT DR,LEBANON,NH,3766,"LUMINESCENT SYSTEMS INC.4 LUCENT DR, LEBANON NEW HAMPSHIRE 03766 (GRAFTON)",0,C,,110004102694
03784RVNGL13GLE,-72.307,43.633,False,33,009,961700,33,33009,33009961700,1400000US33009961700,"HIGHLANDS FUEL DELIVERY, LLC",103 GLEN RD,WEST LEBANON,NH,3784,"HIGHLANDS FUEL DELIVERY, LLC.103 GLEN RD, WEST LEBANON NEW HAMPSHIRE 03784 (GRAFTON)",0,C,,110004115298
03766HYPRT1ETNA,-72.242,43.665,False,33,009,961700,33,33009,33009961700,1400000US33009961700,HYPERTHERM INC,100 ETNA RD,LEBANON,NH,3766,"HYPERTHERM INC.100 ETNA RD, LEBANON NEW HAMPSHIRE 03766 (GRAFTON)",0,C,,110032989675
0376WHYPRT88ETN,-72.243,43.663000000000004,False,33,009,961700,33,33009,33009961700,1400000US33009961700,HYPERTHERM INC,88 ETNA RD,LEBANON,NH,3766,"HYPERTHERM INC.88 ETNA RD, LEBANON NEW HAMPSHIRE 03766 (GRAFTON)",0,C,,110004089520
0376WHYPRT71HEA,-72.235,43.647,False,33,009,961700,33,33009,33009961700,1400000US33009961700,HYPERTHERM INC,71 HEATER RD,LEBANON,NH,3766,"HYPERTHERM INC.71 HEATER RD, LEBANON NEW HAMPSHIRE 03766 (GRAFTON)",0,C,,110046444781
03773STRMRGUILD,-72.152,43.38,False,33,019,975400,33,33019,33019975400,1400000US33019975400,STURM RUGER & CO INC,411 SUNAPEE ST,NEWPORT,NH,3773,"STURM RUGER & CO INC.411 SUNAPEE ST, NEWPORT NEW HAMPSHIRE 03773 (SULLIVAN)",0,C,,110000313964
03773RYMLNGUILD,-72.149,43.38,False,33,019,975400,33,33019,33019975400,1400000US33019975400,RAYMAL INC,475 SUNAPEE ST,NEWPORT,NH,3773,"RAYMAL INC.475 SUNAPEE ST, NEWPORT NEW HAMPSHIRE 03773 (SULLIVAN)",0,C,,
03801SHPRC135MC,-70.767,43.074,False,33,015,069200,33,33015,33015069200,1400000US33015069200,S & H PRECISION MFG CO INC,135 MCDONOUGH ST,PORTSMOUTH,NH,3801,"S & H PRECISION MFG CO INC.135 MCDONOUGH ST, PORTSMOUTH NEW HAMPSHIRE 03801 (ROCKINGHAM)",0,C,,
03801SMPLX4023W,-70.8,43.098,False,33,015,107500,33,33015,33015107500,1400000US33015107500,SUBCOM CABLE SYSTEMS LLC,100 PISCATAQUA DR,NEWINGTON,NH,3801,"SUBCOM CABLE SYSTEMS LLC.100 PISCATAQUA DR, NEWINGTON NEW HAMPSHIRE 03801 (ROCKINGHAM)",0,C,,110000314008
03801DMTRG122OL,-70.80199999999999,43.101000000000006,False,33,015,107500,33,33015,33015107500,1400000US33015107500,GEORGIA-PACIFIC GYPSUM LLC NEWINGTON NH,170 SHATTUCK WAY,NEWINGTON,NH,3801,"GEORGIA-PACIFIC GYPSUM LLC NEWINGTON NH.170 SHATTUCK WAY, NEWINGTON NEW HAMPSHIRE 03801 (ROCKINGHAM)",0,C,,110043784401
03801NSLBN25NIM,-70.822,43.111000000000004,False,33,015,107500,33,33015,33015107500,1400000US33015107500,THERMO NESLAB INC,25 NIMBLE HILL RD,NEWINGTON,NH,3801,"THERMO NESLAB INC.25 NIMBLE HILL RD, NEWINGTON NEW HAMPSHIRE 03801 (ROCKINGHAM)",0,C,,110011033292
03801NWNGT165GO,-70.791,43.1,False,33,015,107500,33,33015,33015107500,1400000US33015107500,NEWINGTON STATION,165 GOSLING RD,NEWINGTON,NH,3801,"NEWINGTON STATION.165 GOSLING RD, NEWINGTON NEW HAMPSHIRE 03801 (ROCKINGHAM)",0,C,,110045448262
03801SPRGR126RI,-70.815,43.111999999999995,False,33,015,107500,33,33015,33015107500,1400000US33015107500,SPRAGUE RIVER ROAD TERMINAL,372 SHATTUCK WAY,NEWINGTON,NH,3801,"SPRAGUE RIVER ROAD TERMINAL.372 SHATTUCK WAY, NEWINGTON NEW HAMPSHIRE 03801 (ROCKINGHAM)",0,C,,110041839268
03801SPRGV78PAT,-70.803,43.106,False,33,015,107500,33,33015,33015107500,1400000US33015107500,AXEL JOHNSON CORP AVERY LANE,78 PATTERSON LN,NEWINGTON,NH,3801,"AXEL JOHNSON CORP AVERY LANE.78 PATTERSON LN, NEWINGTON NEW HAMPSHIRE 03801 (ROCKINGHAM)",0,C,,
03801CLSTC72PEA,-70.811,43.088,False,33,015,107500,33,33015,33015107500,1400000US33015107500,SIG SAUER INC,72 PEASE BLVD,NEWINGTON,NH,3801,"SIG SAUER INC.72 PEASE BLVD, NEWINGTON NEW HAMPSHIRE 03801 (ROCKINGHAM)",0,C,,110004105940
03801CNDNW99OLD,-70.805,43.103,False,33,015,107500,33,33015,33015107500,1400000US33015107500,ESSENTIAL POWER NEWINGTON LLC,200 SHATTUCK WAY,NEWINGTON,NH,3801,"ESSENTIAL POWER NEWINGTON LLC.200 SHATTUCK WAY, NEWINGTON NEW HAMPSHIRE 03801 (ROCKINGHAM)",0,C,,110021167011
03801SFTYK398SH,-70.818,43.114,False,33,015,107500,33,33015,33015107500,1400000US33015107500,SAFETY-KLEEN SYSTEMS INC,410 SHATTUCK WAY,NEWINGTON,NH,3801,"SAFETY-KLEEN SYSTEMS INC.410 SHATTUCK WAY, NEWINGTON NEW HAMPSHIRE 03801 (ROCKINGHAM)",0,C,,110033022226
0380WWSTNG178SH,-70.803,43.102,False,33,015,107500,33,33015,33015107500,1400000US33015107500,WESTINGHOUSE ELECTRIC CO LLC,178 SHATTUCK WAY,NEWINGTON,NH,3801,"WESTINGHOUSE ELECTRIC CO LLC.178 SHATTUCK WAY, NEWINGTON NEW HAMPSHIRE 03801 (ROCKINGHAM)",0,C,,110004090947
0380WSDDSF32NEW,-70.818,43.09,False,33,015,107500,33,33015,33015107500,1400000US33015107500,US DOD USAF PEASE ANG,302 NEWMARKET ST,PORTSMOUTH,NH,3801,"US DOD USAF PEASE ANG.302 NEWMARKET ST, PORTSMOUTH NEW HAMPSHIRE 03801 (ROCKINGHAM)",0,F,,110009360538
03820CLRSTWASHI,-70.872,43.195,False,33,017,081400,33,33017,33017081400,1400000US33017081400,CLAROSTAT MANUFACTURING CO INC,WASHINGTON ST,DOVER,NH,3820,"CLAROSTAT MANUFACTURING CO INC.WASHINGTON ST, DOVER NEW HAMPSHIRE 03820 (STRAFFORD)",1,C,,
03820RSLNC1WASH,-70.872,43.195,False,33,017,081400,33,33017,33017081400,1400000US33017081400,URASEAL INC,1 WASHINGTON ST SUITE 2156,DOVER,NH,3820,"URASEAL INC.1 WASHINGTON ST SUITE 2156, DOVER NEW HAMPSHIRE 03820 (STRAFFORD)",0,C,,110000314035
03820DVDSNINDUS,-70.904,43.185,False,33,017,081600,33,33017,33017081600,1400000US33017081600,TEXTRON AUTOMOTIVE INTERIORS,85 INDUSTRAIL PARK DR,DOVER,NH,3820,"TEXTRON AUTOMOTIVE INTERIORS.85 INDUSTRAIL PARK DR, DOVER NEW HAMPSHIRE 03820 (STRAFFORD)",0,C,,
03820GNRLLLITTL,-70.888,43.199,False,33,017,081600,33,33017,33017081600,1400000US33017081600,GE CO,LITTLEWORTH RD,DOVER,NH,3820,"GE CO.LITTLEWORTH RD, DOVER NEW HAMPSHIRE 03820 (STRAFFORD)",0,C,,
03820CGBNC14FAR,-70.913,43.18,False,33,017,081600,33,33017,33017081600,1400000US33017081600,COGEBI INC,14 FARADAY DR,DOVER,NH,3820,"COGEBI INC.14 FARADAY DR, DOVER NEW HAMPSHIRE 03820 (STRAFFORD)",0,C,,
03820DVDSTPOBOX,-70.9,43.187,False,33,017,081600,33,33017,33017081600,1400000US33017081600,COLLINS & AIKMAN TOOLING & EQUIPMENT GROUP,16 INDUSTRIAL PARK DR,DOVER,NH,3820,"COLLINS & AIKMAN TOOLING & EQUIPMENT GROUP.16 INDUSTRIAL PARK DR, DOVER NEW HAMPSHIRE 03820 (STRAFFORD)",0,C,,110012708169
03820CMBRD2912L,-70.896,43.19,False,33,017,081600,33,33017,33017081600,1400000US33017081600,PACE INDUSTRIES - CAMBRIDGE NORTH DIV,29 1/2 LITTLEWORTH RD,DOVER,NH,3820,"PACE INDUSTRIES - CAMBRIDGE NORTH DIV.29 1/2 LITTLEWORTH RD, DOVER NEW HAMPSHIRE 03820 (STRAFFORD)",0,C,,110000314017
03820DTMGN140CR,-70.919,43.183,False,33,017,081600,33,33017,33017081600,1400000US33017081600,VISHAY-HIREL SYSTEMS LLC (FORMERLY D T MAGNETICS),140 CROSBY RD,DOVER,NH,3820,"VISHAY-HIREL SYSTEMS LLC (FORMERLY D T MAGNETICS).140 CROSBY RD, DOVER NEW HAMPSHIRE 03820 (STRAFFORD)",0,C,,110004107564
0382WTRBCM5FARA,-70.913,43.18,False,33,017,081600,33,33017,33017081600,1400000US33017081600,TURBOCAM ENERGY SOLUTIONS LLC,5 FARADAY DR,DOVER,NH,3820,"TURBOCAM ENERGY SOLUTIONS LLC.5 FARADAY DR, DOVER NEW HAMPSHIRE 03820 (STRAFFORD)",0,C,,110044979967
03833BRCKHEXETE,-70.965,42.995,False,33,015,061001,33,33015,33015061001,1400000US33015061001,"BROCKHOUSE CORP, DONNELLY DIV",EXETER INDUSTRIAL PARK,EXETER,NH,3833,"BROCKHOUSE CORP, DONNELLY DIV.EXETER INDUSTRIAL PARK, EXETER NEW HAMPSHIRE 03833 (ROCKINGHAM)",1,C,,
03833NRTHS16KIN,-70.972,42.976000000000006,False,33,015,061001,33,33015,33015061001,1400000US33015061001,NORTHEAST LANTERN LTD,16 KINGSTON RD #11,EXETER,NH,3833,"NORTHEAST LANTERN LTD.16 KINGSTON RD #11, EXETER NEW HAMPSHIRE 03833 (ROCKINGHAM)",0,C,,
03833NRTHS6COMM,-70.964,42.995,False,33,015,061001,33,33015,33015061001,1400000US33015061001,NORTHEAST LANTERN LTD,6 COMMERCE WAY,EXETER,NH,3833,"NORTHEAST LANTERN LTD.6 COMMERCE WAY, EXETER NEW HAMPSHIRE 03833 (ROCKINGHAM)",0,C,,110004104870
03833SGRMS18IND,-70.964,42.992,False,33,015,061001,33,33015,33015061001,1400000US33015061001,SIG SAUER INC,18 INDUSTRIAL DR,EXETER,NH,3833,"SIG SAUER INC.18 INDUSTRIAL DR, EXETER NEW HAMPSHIRE 03833 (ROCKINGHAM)",0,C,,110007693004
03833GTPRDPORTS,-70.929,42.986999999999995,False,33,015,106400,33,33015,33015106400,1400000US33015106400,OSRAM SYLVANIA PRODUCTS INC,131 PORTSMOUTH AVE,EXETER,NH,3833,"OSRAM SYLVANIA PRODUCTS INC.131 PORTSMOUTH AVE, EXETER NEW HAMPSHIRE 03833 (ROCKINGHAM)",0,C,,110000314053
03833CHMTN57HAM,-70.898,42.971000000000004,False,33,015,106400,33,33015,33015106400,1400000US33015106400,CHEMTAN CO INC,57 HAMPTON RD,EXETER,NH,3833,"CHEMTAN CO INC.57 HAMPTON RD, EXETER NEW HAMPSHIRE 03833 (ROCKINGHAM)",0,C,,110000314044
03835DVDSNROUTE,-71.057,43.373000000000005,False,33,017,087000,33,33017,33017087000,1400000US33017087000,COLLINS & AIKMAN AUTOMOTIVE INTERIORS,56 DAVIDSON DR,FARMINGTON,NH,3835,"COLLINS & AIKMAN AUTOMOTIVE INTERIORS.56 DAVIDSON DR, FARMINGTON NEW HAMPSHIRE 03835 (STRAFFORD)",0,C,,110000581326
03835LTNSHSOUTH,-71.066,43.395,False,33,017,087000,33,33017,33017087000,1400000US33017087000,ALTON SHOE CO,S MAIN ST,FARMINGTON,NH,3835,"ALTON SHOE CO.S MAIN ST, FARMINGTON NEW HAMPSHIRE 03835 (STRAFFORD)",0,C,,
03840NVLRNOCEAN,-70.813,43.038999999999994,False,33,015,107400,33,33015,33015107400,1400000US33015107400,NOVEL IRON WORKS INC,250 OCEAN RD,GREENLAND,NH,3840,"NOVEL IRON WORKS INC.250 OCEAN RD, GREENLAND NEW HAMPSHIRE 03840 (ROCKINGHAM)",0,C,,110000581335
03802NTNLS1HIGH,-70.794,43.06100000000001,False,33,015,107400,33,33015,33015107400,1400000US33015107400,NATIONAL SEA PRODUCTS INC,1 HIGH LINER AVE,PORTSMOUTH,NH,38020839,"NATIONAL SEA PRODUCTS INC.1 HIGH LINER AVE, PORTSMOUTH NEW HAMPSHIRE 03802 (ROCKINGHAM)",0,C,,
0380WTLDYN162CR,-70.796,43.081,False,33,015,107400,33,33015,33015107400,1400000US33015107400,TELEDYNE INSTRUMENTS INC D/B/A TELEDYNE DGO'BRIEN,162 CORPORATE DR SUITE 100,PORTSMOUTH,NH,3801,"TELEDYNE INSTRUMENTS INC D/B/A TELEDYNE DGO'BRIEN.162 CORPORATE DR SUITE 100, PORTSMOUTH NEW HAMPSHIRE 03801 (ROCKINGHAM)",0,C,,110056324419
0380WLNZBL11INT,-70.804,43.083,False,33,015,107400,33,33015,33015107400,1400000US33015107400,LONZA BIOLOGICS INC,101 INTERNATIONAL DR,PORTSMOUTH,NH,3801,"LONZA BIOLOGICS INC.101 INTERNATIONAL DR, PORTSMOUTH NEW HAMPSHIRE 03801 (ROCKINGHAM)",0,C,,110013998941
03841JHNSN130RT,-71.188,42.857,False,33,015,103100,33,33015,33015103100,1400000US33015103100,JOHNSON & JOHNSTON ASSOC INC,130 RT 111,HAMPSTEAD,NH,38412343,"JOHNSON & JOHNSTON ASSOC INC.130 RT 111, HAMPSTEAD NEW HAMPSHIRE 03841 (ROCKINGHAM)",1,C,,
03849MTZLCRTE16,-71.102,43.903999999999996,False,33,003,955500,33,33003,33003955500,1400000US33003955500,METZ ELECTRONICS CORP,RT 16,MADISON,NH,3849,"METZ ELECTRONICS CORP.RT 16, MADISON NEW HAMPSHIRE 03849 (CARROLL)",0,C,,
0384WPKNDS92SAN,-71.15100000000001,43.943999999999996,False,33,003,955500,33,33003,33003955500,1400000US33003955500,"PIKE INDUSTRIES, INC.",92 SANDS LANE,MADISON,NH,3849,"PIKE INDUSTRIES, INC..92 SANDS LANE, MADISON NEW HAMPSHIRE 03849 (CARROLL)",0,C,,110007131503
03856THKNGROUTE,-70.943,43.023999999999994,False,33,015,067501,33,33015,33015067501,1400000US33015067501,HUTCHINSON SEALING SYSTEMS INC,171 RT 85,NEWFIELDS,NH,3856,"HUTCHINSON SEALING SYSTEMS INC.171 RT 85, NEWFIELDS NEW HAMPSHIRE 03856 (ROCKINGHAM)",0,C,,110000314080
03857SSXGRMAINS,-70.935,43.073,False,33,015,067501,33,33015,33015067501,1400000US33015067501,ESSEX GROUP INC,YOUNGS LN,NEWMARKET,NH,3857,"ESSEX GROUP INC.YOUNGS LN, NEWMARKET NEW HAMPSHIRE 03857 (ROCKINGHAM)",0,C,,
03860YLDHSROUTE,-71.115,44.018,False,33,003,955300,33,33003,33003955300,1400000US33003955300,YIELD HOUSE INC,RTE 16/302,NORTH CONWAY,NH,3860,"YIELD HOUSE INC.RTE 16/302, NORTH CONWAY NEW HAMPSHIRE 03860 (CARROLL)",0,C,,
03865PRCSS144NO,-71.096,42.839,False,33,015,101100,33,33015,33015101100,1400000US33015101100,CHART INC D&S DIV,146 MAIN ST,PLAISTOW,NH,38650467,"CHART INC D&S DIV.146 MAIN ST, PLAISTOW NEW HAMPSHIRE 03865 (ROCKINGHAM)",0,C,,
03867BSTNF50MIL,-70.935,43.336000000000006,False,33,017,084200,33,33017,33017084200,1400000US33017084200,BACON  FELT CO INC,31 FRONT ST,EAST ROCHESTER,NH,3868,"BACON  FELT CO INC.31 FRONT ST, EAST ROCHESTER NEW HAMPSHIRE 03868 (STRAFFORD)",2,C,,110000314115
03867JRVSC100JA,-70.97399999999999,43.327,False,33,017,084200,33,33017,33017084200,1400000US33017084200,JARVIS CUTTING TOOLS INC,100 JARVIS AVE,ROCHESTER,NH,38678801,"JARVIS CUTTING TOOLS INC.100 JARVIS AVE, ROCHESTER NEW HAMPSHIRE 03867 (STRAFFORD)",0,C,,
03867LYDLLCHEST,-70.993,43.326,False,33,017,084200,33,33017,33017084200,1400000US33017084200,LYDALL FILTRATION/SEPARATION INC,134 CHESTNUT HILL RD,ROCHESTER,NH,3867,"LYDALL FILTRATION/SEPARATION INC.134 CHESTNUT HILL RD, ROCHESTER NEW HAMPSHIRE 03867 (STRAFFORD)",0,C,,110002465323
03867SPLDNSPAUL,-70.984,43.373000000000005,False,33,017,084200,33,33017,33017084200,1400000US33017084200,SPAULDING COMPOSITE CO FABRICATION DIV,SPAULDING AVE,ROCHESTER,NH,3867,"SPAULDING COMPOSITE CO FABRICATION DIV.SPAULDING AVE, ROCHESTER NEW HAMPSHIRE 03867 (STRAFFORD)",0,C,,
03868TLLTS20SPA,-70.982,43.373000000000005,False,33,017,084200,33,33017,33017084200,1400000US33017084200,TILLOTSON HEALTHCARE CORP,20 SPAULDING AVE,ROCHESTER,NH,38688743,"TILLOTSON HEALTHCARE CORP.20 SPAULDING AVE, ROCHESTER NEW HAMPSHIRE 03868 (STRAFFORD)",0,C,,
03867CLBYF15OAK,-70.984,43.275,False,33,017,084500,33,33017,33017084500,1400000US33017084500,COLBY FOOTWEAR,15 OAK ST,GONIC,NH,3839,"COLBY FOOTWEAR.15 OAK ST, GONIC NEW HAMPSHIRE 03839 (STRAFFORD)",0,C,,
03867GRNTS17HAR,-70.982,43.277,False,33,017,084500,33,33017,33017084500,1400000US33017084500,GRANITE STATE PLATING CO INC,17 HARDING AVE,GONIC,NH,3867,"GRANITE STATE PLATING CO INC.17 HARDING AVE, GONIC NEW HAMPSHIRE 03867 (STRAFFORD)",0,C,,
03839TXTLTGEORG,-70.97,43.27,False,33,017,084500,33,33017,33017084500,1400000US33017084500,JAEGER USA INC,104 PICKERING RD,GONIC,NH,3839,"JAEGER USA INC.104 PICKERING RD, GONIC NEW HAMPSHIRE 03839 (STRAFFORD)",0,C,,110007684185
03839BRXND253RO,-70.952,43.229,False,33,017,084500,33,33017,33017084500,1400000US33017084500,BROX INDUSTRIES INC,253 ROCHESTER NECK RD,ROCHESTER,NH,3839,"BROX INDUSTRIES INC.253 ROCHESTER NECK RD, ROCHESTER NEW HAMPSHIRE 03839 (STRAFFORD)",0,C,,110009113921
03867WKFLDROCHE,-70.969,43.244,False,33,017,084500,33,33017,33017084500,1400000US33017084500,WAKEFIELD MATERIALS CORP,ROCHESTER NECK RD,ROCHESTER,NH,3867,"WAKEFIELD MATERIALS CORP.ROCHESTER NECK RD, ROCHESTER NEW HAMPSHIRE 03867 (STRAFFORD)",0,C,,
03839GGRGT245RC,-70.953,43.23,False,33,017,084500,33,33017,33017084500,1400000US33017084500,AGGREGATE INDUSTRIES NORTHEAST REGION INC,245 ROCHESTER NECK RD,ROCHESTER,NH,3839,"AGGREGATE INDUSTRIES NORTHEAST REGION INC.245 ROCHESTER NECK RD, ROCHESTER NEW HAMPSHIRE 03839 (STRAFFORD)",0,C,,110017735673
03867CTNMNPICKE,-70.97800000000001,43.29600000000001,False,33,017,084300,33,33017,33017084300,1400000US33017084300,ACTION MFG INC,PICKERING RD,GONIC,NH,3867,"ACTION MFG INC.PICKERING RD, GONIC NEW HAMPSHIRE 03867 (STRAFFORD)",1,C,,
0386WSMPLL9GREA,-70.971,43.292,False,33,017,084300,33,33017,33017084300,1400000US33017084300,SIMPLE LIFE RECYCLING,9 GREAT FALLS AVE SUITE 3,ROCHESTER,NH,3867,"SIMPLE LIFE RECYCLING.9 GREAT FALLS AVE SUITE 3, ROCHESTER NEW HAMPSHIRE 03867 (STRAFFORD)",0,C,,110055062275
03867KWTHMFARMI,-70.995,43.315,False,33,017,084400,33,33017,33017084400,1400000US33017084400,KW THOMPSON TOOL CO INC,400 N MAIN ST,ROCHESTER,NH,3867,"KW THOMPSON TOOL CO INC.400 N MAIN ST, ROCHESTER NEW HAMPSHIRE 03867 (STRAFFORD)",0,C,,110000581344
03867BRCKHGREAT,-70.98,43.299,True,33,017,084400,33,33017,33017084400,1400000US33017084400,"BROCKHOUSE CORP, GREAT FALL DIV",GREAT FALLS AVE,ROCHESTER,NH,3867,"BROCKHOUSE CORP, GREAT FALL DIV GREAT FALLS AVE, ROCHESTER, NH, 3867",1,C,,
03874BLYMN700LA,-70.87100000000001,42.895,False,33,015,063002,33,33015,33015063002,1400000US33015063002,VENTURE HOLDINGS CORP (DBA BAILEY MANUFACTURING),700 LAFAYETTE RD,SEABROOK,NH,3874,"VENTURE HOLDINGS CORP (DBA BAILEY MANUFACTURING).700 LAFAYETTE RD, SEABROOK NEW HAMPSHIRE 03874 (ROCKINGHAM)",0,C,,
03874SPHRX239WA,-70.85,42.88,False,33,015,063002,33,33015,33015063002,1400000US33015063002,SPHEREX INC,239 WALTON RD,SEABROOK,NH,3874,"SPHEREX INC.239 WALTON RD, SEABROOK NEW HAMPSHIRE 03874 (ROCKINGHAM)",0,C,,
03874DXTRDONEDE,-70.887,42.88399999999999,False,33,015,063001,33,33015,33015063001,1400000US33015063001,HENKEL US OPERATIONS CORP,167 BATCHELDER RD,SEABROOK,NH,3874,"HENKEL US OPERATIONS CORP.167 BATCHELDER RD, SEABROOK NEW HAMPSHIRE 03874 (ROCKINGHAM)",0,C,,110054890258
03874KJQNN135FO,-70.88,42.882,False,33,015,063001,33,33015,33015063001,1400000US33015063001,HENKEL CORP,137 FOLLY MILL RD,SEABROOK,NH,3874,"HENKEL CORP.137 FOLLY MILL RD, SEABROOK NEW HAMPSHIRE 03874 (ROCKINGHAM)",1,C,,110000314151
03874RDYNM142BA,-70.88600000000001,42.887,False,33,015,063001,33,33015,33015063001,1400000US33015063001,AERODYNAMICS INC,142 BATCHELDER RD,SEABROOK,NH,3874,"AERODYNAMICS INC.142 BATCHELDER RD, SEABROOK NEW HAMPSHIRE 03874 (ROCKINGHAM)",0,C,,110008995301
03874HYSLR164FO,-70.884,42.884,True,33,015,063001,33,33015,33015063001,1400000US33015063001,HYSOL AEROSPACE & INDL PRODUCTS DIV,164 FOLLY MILL RD,SEABROOK,NH,3874,"HYSOL AEROSPACE & INDL PRODUCTS DIV 164 FOLLY MILL RD, SEABROOK, NH, 3874",0,C,,
03878GNRLL130MA,-70.862,43.25899999999999,False,33,017,083001,33,33017,33017083001,1400000US33017083001,GE CO,130 MAIN ST,SOMERSWORTH,NH,3878,"GE CO.130 MAIN ST, SOMERSWORTH NEW HAMPSHIRE 03878 (STRAFFORD)",0,C,,110000314197
03878FCMTP200MA,-70.862,43.259,True,33,017,083001,33,33017,33017083001,1400000US33017083001,FACEMATE PL/GF INC,200 MAIN ST,SOMERSWORTH,NH,3878,"FACEMATE PL/GF INC 200 MAIN ST, SOMERSWORTH, NH, 3878",0,C,,
03878JNCPCONECE,-70.852,43.245,False,33,017,083002,33,33017,33017083002,1400000US33017083002,JANCO P/C INC,1 CENTRE RD,SOMERSWORTH,NH,3878,"JANCO P/C INC.1 CENTRE RD, SOMERSWORTH NEW HAMPSHIRE 03878 (STRAFFORD)",1,C,,
03878DWTYP366RT,-70.905,43.261,False,33,017,083002,33,33017,33017083002,1400000US33017083002,TRELLEBORG SEALING SOLNS,366 RT 108,SOMERSWORTH,NH,3878,"TRELLEBORG SEALING SOLNS.366 RT 108, SOMERSWORTH NEW HAMPSHIRE 03878 (STRAFFORD)",0,C,,110000314188
03885FBRGLSTRAT,-70.887,42.976000000000006,False,33,015,067000,33,33015,33015067000,1400000US33015067000,FIBERGLASS PLUS INC,STRATHAM INDUSTRIAL PARK,STRATHAM,NH,3885,"FIBERGLASS PLUS INC.STRATHAM INDUSTRIAL PARK, STRATHAM NEW HAMPSHIRE 03885 (ROCKINGHAM)",1,C,,
03885VTRNC2MARI,-70.889,42.972,False,33,015,067000,33,33015,33015067000,1400000US33015067000,VITRONICS SOLTEC,2 MARIN WAY,STRATHAM,NH,3885,"VITRONICS SOLTEC.2 MARIN WAY, STRATHAM NEW HAMPSHIRE 03885 (ROCKINGHAM)",0,C,,
03570SCSNSJERIC,-71.19800000000001,44.481,False,33,007,950800,33,33007,33007950800,1400000US33007950800,ISAACSON STRUCTURAL STEEL INC,40 JERICHO RD,BERLIN,NH,3570,"ISAACSON STRUCTURAL STEEL INC.40 JERICHO RD, BERLIN NEW HAMPSHIRE 03570 (COOS)",0,C,,
03574LTTLTRTE11,-71.668,44.318999999999996,False,33,009,960200,33,33009,33009960200,1400000US33009960200,COMMONWEALTH WOOD PRESERVES INC OF NH,1161 WHITEFIELD RD,BETHLEHEM,NH,3574,"COMMONWEALTH WOOD PRESERVES INC OF NH.1161 WHITEFIELD RD, BETHLEHEM NEW HAMPSHIRE 03574 (GRAFTON)",0,C,,
03581JMSRVCASCA,-71.187,44.443999999999996,False,33,007,950900,33,33007,33007950900,1400000US33007950900,GORHAM PAPER & TISSUE LLC,72 CASCADE FLATS,GORHAM,NH,3581,"GORHAM PAPER & TISSUE LLC.72 CASCADE FLATS, GORHAM NEW HAMPSHIRE 03581 (COOS)",0,C,,110043304670
03581RJCHPSTATE,-71.016,44.385,False,33,007,950900,33,33007,33007950900,1400000US33007950900,RJ CHIPPING ENTERPRISES INC.,1598 STATE RT 2,SHELBURNE,NH,3581,"RJ CHIPPING ENTERPRISES INC..1598 STATE RT 2, SHELBURNE NEW HAMPSHIRE 03581 (COOS)",0,C,,110012709060
03581GRHMS44LAN,-71.202,44.398,False,33,007,950900,33,33007,33007950900,1400000US33007950900,GORHAM SAND & GRAVEL PIKE INDUSTRIES INC,44 LANCASTER RD (ROUTE 2),GORHAM,NH,3581,"GORHAM SAND & GRAVEL PIKE INDUSTRIES INC.44 LANCASTER RD (ROUTE 2), GORHAM NEW HAMPSHIRE 03581 (COOS)",0,C,,110001521675
03824THLNC122MA,-70.988,43.136,False,33,017,080500,33,33017,33017080500,1400000US33017080500,LANCE CORP,122 MAST RD,LEE,NH,3824,"LANCE CORP.122 MAST RD, LEE NEW HAMPSHIRE 03824 (STRAFFORD)",0,C,,
03842FSSMN380LA,-70.846,42.946000000000005,False,33,015,065001,33,33015,33015065001,1400000US33015065001,FOSS MANUFACTURING CO INC,380 LAFAYETTE RD,HAMPTON,NH,3842,"FOSS MANUFACTURING CO INC.380 LAFAYETTE RD, HAMPTON NEW HAMPSHIRE 03842 (ROCKINGHAM)",0,C,,
03576TLLTSRFD1R,-71.308,44.871,False,33,007,950300,33,33007,33007950300,1400000US33007950300,TILLOTSON RUBBER CO INC,ONE SPUR RD,DIXVILLE NOTCH,NH,3576,"TILLOTSON RUBBER CO INC.ONE SPUR RD, DIXVILLE NOTCH NEW HAMPSHIRE 03576 (COOS)",0,C,,110028020852
03603PMPNTSOUTH,-72.426,43.231,False,33,019,975700,33,33019,33019975700,1400000US33019975700,POMPANETTE BOMAR DIV,SW ST BOX W,CHARLESTOWN,NH,3603,"POMPANETTE BOMAR DIV.SW ST BOX W, CHARLESTOWN NEW HAMPSHIRE 03603 (SULLIVAN)",0,C,,
0360WWHLNN99CED,-72.403,43.266000000000005,False,33,019,975700,33,33019,33019975700,1400000US33019975700,WHELEN ENGINEERING,99 CEDA RD,CHARLESTOWN,NH,3603,"WHELEN ENGINEERING.99 CEDA RD, CHARLESTOWN NEW HAMPSHIRE 03603 (SULLIVAN)",0,C,,110007133020
03801GLDBNFREEM,-70.767,43.088,False,33,015,069300,33,33015,33015069300,1400000US33015069300,NEW NGC INC D/B/A NATIONAL GYPSUM CO,9 MICHAEL J SUCCI DRIVE,PORTSMOUTH,NH,3802,"NEW NGC INC D/B/A NATIONAL GYPSUM CO.9 MICHAEL J SUCCI DRIVE, PORTSMOUTH NEW HAMPSHIRE 03802 (ROCKINGHAM)",0,C,,110001522530
03801RVNGL5PREB,-70.767,43.09,False,33,015,069300,33,33015,33015069300,1400000US33015069300,IRVING OIL TERMINALS INC,50 PREBLE WAY,PORTSMOUTH,NH,3801,"IRVING OIL TERMINALS INC.50 PREBLE WAY, PORTSMOUTH NEW HAMPSHIRE 03801 (ROCKINGHAM)",0,C,,110009418656
03820HDLBR121BR,-70.868,43.206,False,33,017,081500,33,33017,33017081500,1400000US33017081500,HEIDELBERG HARRIS INC,121 BROADWAY,DOVER,NH,38203290,"HEIDELBERG HARRIS INC.121 BROADWAY, DOVER NEW HAMPSHIRE 03820 (STRAFFORD)",0,C,,
03820TCHFB40MAP,-70.87899999999999,43.205,False,33,017,081500,33,33017,33017081500,1400000US33017081500,AGILITY MANUFACTURING INC,279 LOCUST ST,DOVER,NH,3820,"AGILITY MANUFACTURING INC.279 LOCUST ST, DOVER NEW HAMPSHIRE 03820 (STRAFFORD)",0,C,,110009421688
0382WSGSRN129BR,-70.868,43.206,False,33,017,081500,33,33017,33017081500,1400000US33017081500,SIG SAUER INC,129 BROADWAY,DOVER,NH,3820,"SIG SAUER INC.129 BROADWAY, DOVER NEW HAMPSHIRE 03820 (STRAFFORD)",0,C,,110063683170
03229PPRTC1966M,-71.748,43.192,False,33,013,039000,33,33013,33013039000,1400000US33013039000,PAPERTECH CORP,1966 MAPLE ST,CONTOOCOOK,NH,3229,"PAPERTECH CORP.1966 MAPLE ST, CONTOOCOOK NEW HAMPSHIRE 03229 (MERRIMACK)",0,C,,
03818YLDHS71HOB,-71.12899999999999,43.974,False,33,003,955400,33,33003,33003955400,1400000US33003955400,YIELD HOUSE IND INC,71 HOBBS ST,CONWAY,NH,38182525,"YIELD HOUSE IND INC.71 HOBBS ST, CONWAY NEW HAMPSHIRE 03818 (CARROLL)",0,C,,
03842BRZNC94TID,-70.821,42.924,False,33,015,065007,33,33015,33015065007,1400000US33015065007,BRAZONICS INC,94 TIDE MILL RD,HAMPTON,NH,3842,"BRAZONICS INC.94 TIDE MILL RD, HAMPTON NEW HAMPSHIRE 03842 (ROCKINGHAM)",0,C,,110030742766
03866PRMTN216AI,-70.929,43.287,False,33,017,084100,33,33017,33017084100,1400000US33017084100,PRIME TANNING CO INC-NH,216 AIR PORT DR,ROCHESTER,NH,3866,"PRIME TANNING CO INC-NH.216 AIR PORT DR, ROCHESTER NEW HAMPSHIRE 03866 (STRAFFORD)",0,C,,
0386WTHMPS41LDD,-70.975,43.285,False,33,017,084100,33,33017,33017084100,1400000US33017084100,THOMPSON INVESTMENT CASTING,41 OLD DOVER RD,ROCHESTER,NH,3867,"THOMPSON INVESTMENT CASTING.41 OLD DOVER RD, ROCHESTER NEW HAMPSHIRE 03867 (STRAFFORD)",0,C,,110004109777
03867TLDYN20IND,-71.0,43.31,False,33,017,084600,33,33017,33017084600,1400000US33017084600,LAARS HEATING SYSTEMS,20 INDUSTRIAL WAY,ROCHESTER,NH,3867,"LAARS HEATING SYSTEMS.20 INDUSTRIAL WAY, ROCHESTER NEW HAMPSHIRE 03867 (STRAFFORD)",0,C,,110000314124
03784CNTRC16AIR,-72.309,43.623000000000005,False,33,009,961800,33,33009,33009961800,1400000US33009961800,CENTRICUT,16 AIRPARK RD,WEST LEBANON,NH,3784,"CENTRICUT.16 AIRPARK RD, WEST LEBANON NEW HAMPSHIRE 03784 (GRAFTON)",0,C,,110006426386
03784LBNNC335PL,-72.327,43.618,False,33,009,961800,33,33009,33009961800,1400000US33009961800,LEBANON CRUSHED STONE PIKE INDUSTRIES INC,335 PLAINFIELD RD,WEST LEBANON,NH,3784,"LEBANON CRUSHED STONE PIKE INDUSTRIES INC.335 PLAINFIELD RD, WEST LEBANON NEW HAMPSHIRE 03784 (GRAFTON)",0,C,,110009420643
0378WNVNRD9TECH,-72.313,43.623000000000005,False,33,009,961800,33,33009,33009961800,1400000US33009961800,NOVO NORDISK US BIO PRODUCTION INC,9 TECHNOLOGY DR,WEST LEBANON,NH,3784,"NOVO NORDISK US BIO PRODUCTION INC.9 TECHNOLOGY DR, WEST LEBANON NEW HAMPSHIRE 03784 (GRAFTON)",0,C,,110069351418
03801PBLCSGOSLI,-70.78399999999999,43.097,False,33,015,107100,33,33015,33015107100,1400000US33015107100,SCHILLER STATION,400 GOSLING RD,PORTSMOUTH,NH,3801,"SCHILLER STATION.400 GOSLING RD, PORTSMOUTH NEW HAMPSHIRE 03801 (ROCKINGHAM)",0,C,,110000602991
03447PLPCM57CRE,-72.152,42.763999999999996,False,33,005,970700,33,33005,33005970700,1400000US33005970700,DUXBURY COMPOSITE PRODUCTS DBA PLP COMPOSITES,57 CREAMERY RD,FITZWILLIAM,NH,3447,"DUXBURY COMPOSITE PRODUCTS DBA PLP COMPOSITES.57 CREAMERY RD, FITZWILLIAM NEW HAMPSHIRE 03447 (CHESHIRE)",0,C,,110007682070
03470CLWRNBRIDG,-72.331,42.768,True,33,005,970700,33,33005,33005970700,1400000US33005970700,AC LAWRENCE LEATHER CO INC,BRIDGE ST,WINCHESTER,NH,3470,"AC LAWRENCE LEATHER CO INC BRIDGE ST, WINCHESTER, NH, 3470",1,C,,
03051BRXND85GRE,-71.415,42.786,False,33,011,012100,33,33011,33011012100,1400000US33011012100,BROX INDUSTRIES INC,85 GREELEY ST,HUDSON,NH,3051,"BROX INDUSTRIES INC.85 GREELEY ST, HUDSON NEW HAMPSHIRE 03051 (HILLSBOROUGH)",0,C,,110013336390
03051WKFLD85GRE,-71.415,42.786,False,33,011,012100,33,33011,33011012100,1400000US33011012100,AGGREGATE INDUSTRIES NORTHEAST REGION INC,85 GREELEY ST,HUDSON,NH,3051,"AGGREGATE INDUSTRIES NORTHEAST REGION INC.85 GREELEY ST, HUDSON NEW HAMPSHIRE 03051 (HILLSBOROUGH)",0,C,,110013336390
03071WRWCK31TUR,-71.828,42.751000000000005,False,33,011,022500,33,33011,33011022500,1400000US33011022500,WARWICK MILLS INC,301 TURNPIKE RD,NEW IPSWICH,NH,3071,"WARWICK MILLS INC.301 TURNPIKE RD, NEW IPSWICH NEW HAMPSHIRE 03071 (HILLSBOROUGH)",0,C,,110001522184
03106BRXND1500H,-71.45100000000001,43.071000000000005,False,33,013,044200,33,33013,33013044200,1400000US33013044200,BROX INDUSTRIES INC,1500 HOOKSETT RD,HOOKSETT,NH,3106,"BROX INDUSTRIES INC.1500 HOOKSETT RD, HOOKSETT NEW HAMPSHIRE 03106 (MERRIMACK)",0,C,,110004092758
03841THNDR11HAZ,-71.154,42.876000000000005,False,33,015,104101,33,33015,33015104101,1400000US33015104101,THUNDERLINE-Z,11 HAZEL DR,HAMPSTEAD,NH,3841,"THUNDERLINE-Z.11 HAZEL DR, HAMPSTEAD NEW HAMPSHIRE 03841 (ROCKINGHAM)",0,C,,110004116689
03053CTSNT34LON,-71.342,42.878,False,33,015,003701,33,33015,33015003701,1400000US33015003701,BENCHMARK ELECTRONICS NH DIV,34A LONDONDERRY RD,LONDONDERRY,NH,3053,"BENCHMARK ELECTRONICS NH DIV.34A LONDONDERRY RD, LONDONDERRY NEW HAMPSHIRE 03053 (ROCKINGHAM)",0,C,,110012201312
03077WKFLD91CHE,-71.187,42.996,False,33,015,055001,33,33015,33015055001,1400000US33015055001,AGGREGATE INDUSTRIES NORTHEAST REGION INC.,91 CHESTER RD PO BOX 1448,RAYMOND,NH,3077,"AGGREGATE INDUSTRIES NORTHEAST REGION INC..91 CHESTER RD PO BOX 1448, RAYMOND NEW HAMPSHIRE 03077 (ROCKINGHAM)",0,C,,110013335612
03101RCKWL460EL,-71.46300000000001,42.983999999999995,False,33,011,001400,33,33011,33011001400,1400000US33011001400,ROCKWELL AUTOMATION,460 ELM ST,MANCHESTER,NH,3101,"ROCKWELL AUTOMATION.460 ELM ST, MANCHESTER NEW HAMPSHIRE 03101 (HILLSBOROUGH)",0,C,,110012709042
03102WKFLD888DU,-71.49600000000001,43.021,False,33,011,000204,33,33011,33011000204,1400000US33011000204,AGGREGATE INDUSTRIES NORTHEAST REGION INC,888 DUNBARTON RD,MANCHESTER,NH,3102,"AGGREGATE INDUSTRIES NORTHEAST REGION INC.888 DUNBARTON RD, MANCHESTER NEW HAMPSHIRE 03102 (HILLSBOROUGH)",0,C,,110013336407
03103PMCCR680HA,-71.447,42.98,False,33,011,001800,33,33011,33011001800,1400000US33011001800,MARMON AEROSPACE & DEFENSE LLC,680 HAYWARD ST,MANCHESTER,NH,3103,"MARMON AEROSPACE & DEFENSE LLC.680 HAYWARD ST, MANCHESTER NEW HAMPSHIRE 03103 (HILLSBOROUGH)",0,C,,110002057700
03431KNGSB80LAU,-72.26899999999999,42.927,False,33,005,971100,33,33005,33005971100,1400000US33005971100,KINGSBURY CORP,80 LAUREL ST,KEENE,NH,3431,"KINGSBURY CORP.80 LAUREL ST, KEENE NEW HAMPSHIRE 03431 (CHESHIRE)",0,C,,110001521559
03801WKFLD650PE,-70.777,43.048,False,33,015,107200,33,33015,33015107200,1400000US33015107200,MACLELLAN CONCRETE CO INC,650 PEVERLY HILL RD,PORTSMOUTH,NH,3801,"MACLELLAN CONCRETE CO INC.650 PEVERLY HILL RD, PORTSMOUTH NEW HAMPSHIRE 03801 (ROCKINGHAM)",0,C,,110043305269
0380WPKNDS65PEV,-70.777,43.048,False,33,015,107200,33,33015,33015107200,1400000US33015107200,PIKE INDUSTRIES INC - PORTSMOUTH,650 PEVERLY ROAD,PORTSMOUTH,NH,3801,"PIKE INDUSTRIES INC - PORTSMOUTH.650 PEVERLY ROAD, PORTSMOUTH NEW HAMPSHIRE 03801 (ROCKINGHAM)",0,C,,110009113958
03801DTGNR2460L,-70.792,43.042,True,33,015,107200,33,33015,33015107200,1400000US33015107200,DATA GENERAL CORPORATION,2460 LAFAYETTE RD,PORTSMOUTH,NH,3801,"DATA GENERAL CORPORATION 2460 LAFAYETTE RD, PORTSMOUTH, NH, 3801",0,C,,
03851STRNB11IND,-70.995,43.468999999999994,False,33,017,088000,33,33017,33017088000,1400000US33017088000,EASTERN BOATS INC,11 INDUSTRIAL WAY,MILTON,NH,3851,"EASTERN BOATS INC.11 INDUSTRIAL WAY, MILTON NEW HAMPSHIRE 03851 (STRAFFORD)",0,C,,110004106155
03835PKNDS383FA,-71.02,43.407,False,33,017,088000,33,33017,33017088000,1400000US33017088000,PIKE INDUSTRIES INC FARMINGTON,383 FARMINGTON RD,FARMINGTON,NH,3835,"PIKE INDUSTRIES INC FARMINGTON.383 FARMINGTON RD, FARMINGTON NEW HAMPSHIRE 03835 (STRAFFORD)",0,C,,110007132432
03869JNCLC50GOO,-70.863,43.226000000000006,False,33,017,082000,33,33017,33017082000,1400000US33017082000,JANCO ELECTRONICS INC,50 GOODWIN RD,ROLLINSFORD,NH,3869,"JANCO ELECTRONICS INC.50 GOODWIN RD, ROLLINSFORD NEW HAMPSHIRE 03869 (STRAFFORD)",0,C,,110013288548
03031RSNSY62RT1,-71.589,42.81100000000001,False,33,011,015200,33,33011,33011015200,1400000US33011015200,RESIN SYSTEMS CORP,62 RT 101-A,AMHERST,NH,30312245,"RESIN SYSTEMS CORP.62 RT 101-A, AMHERST NEW HAMPSHIRE 03031 (HILLSBOROUGH)",0,C,,110006073177
03031KLLSM10COL,-71.594,42.809,True,33,011,015200,33,33011,33011015200,1400000US33011015200,KOLLSMAN,10 COLUMBIA DR,AMHERST,NH,3031,"KOLLSMAN 10 COLUMBIA DR, AMHERST, NH, 3031",0,C,,
03253NKWRL189WA,-71.51100000000001,43.646,False,33,001,965300,33,33001,33001965300,1400000US33001965300,EFI / INKWARE,189 WAUKEWAN ST,MEREDITH,NH,3253,"EFI / INKWARE.189 WAUKEWAN ST, MEREDITH NEW HAMPSHIRE 03253 (BELKNAP)",0,C,,110004097691
03814RVNGL135RT,-71.109,43.702,False,33,003,955900,33,33003,33003955900,1400000US33003955900,IRVING OIL CORP,135 RTE 16B,OSSIPEE,NH,3814,"IRVING OIL CORP.135 RTE 16B, OSSIPEE NEW HAMPSHIRE 03814 (CARROLL)",0,C,,110023047512
03820SCSTR325MA,-70.898,43.168,False,33,017,081100,33,33017,33017081100,1400000US33017081100,REDIMIX COS INC,325 MAST RD,DOVER,NH,3820,"REDIMIX COS INC.325 MAST RD, DOVER NEW HAMPSHIRE 03820 (STRAFFORD)",0,C,,110020514950
03827PLRRF89EXE,-70.93,42.888999999999996,False,33,015,062500,33,33015,33015062500,1400000US33015062500,"POLAR REFRIGERANT TECHNOLOGY,L LC",89 EXETER RD,SOUTH HAMPTON,NH,3827,"POLAR REFRIGERANT TECHNOLOGY,L LC.89 EXETER RD, SOUTH HAMPTON NEW HAMPSHIRE 03827 (ROCKINGHAM)",0,C,,110004092936
03046RGNLM85RAY,-71.653,43.132,False,33,013,030000,33,33013,33013030000,1400000US33013030000,REGIONAL MFG SPECIALISTS INC,85 RAY RD,DUNBARTON,NH,3046,"REGIONAL MFG SPECIALISTS INC.85 RAY RD, DUNBARTON NEW HAMPSHIRE 03046 (MERRIMACK)",0,C,,110007686058
03584FTCHF178SU,-71.568,44.503,False,33,007,950500,33,33007,33007950500,1400000US33007950500,FITCH FUEL CO INC,178 SUMMER ST,LANCASTER,NH,3584,"FITCH FUEL CO INC.178 SUMMER ST, LANCASTER NEW HAMPSHIRE 03584 (COOS)",0,C,,110024942393
03049PRKRH26CLI,-71.556,42.711000000000006,False,33,011,017100,33,33011,33011017100,1400000US33011017100,PARKER HANNIFIN CORP PNEUTRONICS DIV,26 CLINTON DR #103,HOLLIS,NH,3049,"PARKER HANNIFIN CORP PNEUTRONICS DIV.26 CLINTON DR #103, HOLLIS NEW HAMPSHIRE 03049 (HILLSBOROUGH)",0,C,,110009422008
0383WNRTHR61PIN,-70.952,42.975,False,33,015,106200,33,33015,33015106200,1400000US33015106200,OWENS CORNING ROOFING & ASPHALT LLC,61 PINE RD,BRENTWOOD,NH,3833,"OWENS CORNING ROOFING & ASPHALT LLC.61 PINE RD, BRENTWOOD NEW HAMPSHIRE 03833 (ROCKINGHAM)",0,C,,110043255330
0384WTRRMN18DRR,-71.09100000000001,42.868,False,33,015,105100,33,33015,33015105100,1400000US33015105100,TORROMEO INDUSTRIES INC,18 DORRE ROAD,KINGSTON,NH,3848,"TORROMEO INDUSTRIES INC.18 DORRE ROAD, KINGSTON NEW HAMPSHIRE 03848 (ROCKINGHAM)",0,C,,110012252196
03894GPLST5WICK,-71.21300000000001,43.605,False,33,003,956100,33,33003,33003956100,1400000US33003956100,PSI MOLDED PLASTICS FORMERLY KNOWN AS GI PLASTEK,5 WICKERS DR,WOLFEBORO,NH,3894,"PSI MOLDED PLASTICS FORMERLY KNOWN AS GI PLASTEK.5 WICKERS DR, WOLFEBORO NEW HAMPSHIRE 03894 (CARROLL)",0,C,,110004117688
03275HTCNT339CM,-71.48100000000001,43.188,False,33,013,003200,33,33013,33013003200,1400000US33013003200,HEAT & CONTROL,339 COMMERCE WAY,PEMBROKE,NH,3275,"HEAT & CONTROL.339 COMMERCE WAY, PEMBROKE NEW HAMPSHIRE 03275 (MERRIMACK)",0,C,,110004092927
03302NRTHR104AI,-71.5,43.201,True,33,013,003200,33,33013,33013003200,1400000US33013003200,"NORTHERN TELECOM INC, NSSD",104 AIRPORT RD,CONCORD,NH,33020649,"NORTHERN TELECOM INC, NSSD 104 AIRPORT RD, CONCORD, NH, 33020649",1,C,,
03755SRMYCUSACR,-72.273,43.725,False,33,009,961602,33,33009,33009961602,1400000US33009961602,U.S. ARMY COLD REGIONS RESEARCH & ENGINEERING LABORATORY,USACRREL 72 LYME RD,HANOVER,NH,3755,"U.S. ARMY COLD REGIONS RESEARCH & ENGINEERING LABORATORY.USACRREL 72 LYME RD, HANOVER NEW HAMPSHIRE 03755 (GRAFTON)",0,F,,110000566780
0388WNSTRCPBX46,-71.273,43.831,False,33,003,955600,33,33003,33003955600,1400000US33003955600,UNISTAR CORPORATION,40 WHITTIER ROAD,TAMWORTH,NH,38860463,"UNISTAR CORPORATION.40 WHITTIER ROAD, TAMWORTH NEW HAMPSHIRE 03886 (CARROLL)",0,C,,110039070313
03818CRRLL166MI,-71.256,43.976,True,33,003,955600,33,33003,33003955600,1400000US33003955600,CARROLL INDUSTRIES INC,166 MILL ST,CONWAY,NH,3818,"CARROLL INDUSTRIES INC 166 MILL ST, CONWAY, NH, 3818",0,C,,
03062BNCHM1INNV,-71.459,42.713,False,33,011,011200,33,33011,33011011200,1400000US33011011200,BENCHMARK ELECTRONICS NH DIV,100 INNOVATIVE WAY,NASHUA,NH,3062,"BENCHMARK ELECTRONICS NH DIV.100 INNOVATIVE WAY, NASHUA NEW HAMPSHIRE 03062 (HILLSBOROUGH)",0,C,,110040107568
0322WNDCKL151SM,-71.782,43.56100000000001,False,33,009,961300,33,33009,33009961300,1400000US33009961300,INDECK ALEXANDRIA ENERGY CENTER,151 SMITH RIVER RD,ALEXANDRIA,NH,3222,"INDECK ALEXANDRIA ENERGY CENTER.151 SMITH RIVER RD, ALEXANDRIA NEW HAMPSHIRE 03222 (GRAFTON)",1,C,,110041999923
0307WWKFLD33BRI,-71.315,42.70399999999999,False,33,011,200300,33,33011,33011200300,1400000US33011200300,WAKEFIELD THERMAL SOLUTIONS INC,33 BRIDGE ST,PELHAM,NH,3076,"WAKEFIELD THERMAL SOLUTIONS INC.33 BRIDGE ST, PELHAM NEW HAMPSHIRE 03076 (HILLSBOROUGH)",0,C,,110006550240
03820GLTYM279LC,-70.876,43.184,False,33,017,081300,33,33017,33017081300,1400000US33017081300,AGILITY MANUFACTURING INC,279 LOCUST ST,DOVER,NH,3820,"AGILITY MANUFACTURING INC.279 LOCUST ST, DOVER NEW HAMPSHIRE 03820 (STRAFFORD)",0,C,,110009721088
0327WPKNDS35IND,-71.523,43.446999999999996,False,33,001,965800,33,33013,33001965800,1400000US33001965800,PIKE INDUSTRIES INC - NORTHFIELD,35 INDUSTRIAL DRIVE,NORTHFIELD,NH,3276,"PIKE INDUSTRIES INC - NORTHFIELD.35 INDUSTRIAL DRIVE, NORTHFIELD NEW HAMPSHIRE 03276 (MERRIMACK)",0,C,,110028225793
03220BDLCTDEARB,-71.484,43.451,True,33,001,965800,33,33001,33001965800,1400000US33001965800,BEEDE ELECTRICAL INSTRUMENT CO INC,DEARBORN RD,BELMONT,NH,3220,"BEEDE ELECTRICAL INSTRUMENT CO INC DEARBORN RD, BELMONT, NH, 3220",0,C,,
0377WWHTMN35BUS,-72.005,44.077,False,33,009,960600,33,33009,33009960600,1400000US33009960600,RENEWABLE FUELS BY PETERSON LLC,35 BUSINESS PARK RD,NORTH HAVERHILL,NH,3774,"RENEWABLE FUELS BY PETERSON LLC.35 BUSINESS PARK RD, NORTH HAVERHILL NEW HAMPSHIRE 03774 (GRAFTON)",0,C,,110056255109
0382WTRBCM67CAL,-70.997,43.206,False,33,017,085000,33,33017,33017085000,1400000US33017085000,TURBOCAM INT,607 CALEF HIGHWAY,BARRINGTON,NH,3825,"TURBOCAM INT.607 CALEF HIGHWAY, BARRINGTON NEW HAMPSHIRE 03825 (STRAFFORD)",0,C,,110033627788
0382WTRBCM38RED,-71.01899999999999,43.216,False,33,017,085000,33,33017,33017085000,1400000US33017085000,TURBOCAM INC,38 REDEMPTION DR,BARRINGTON,NH,3825,"TURBOCAM INC.38 REDEMPTION DR, BARRINGTON NEW HAMPSHIRE 03825 (STRAFFORD)",0,C,,110056323553
0384WTLDYNNELAF,-70.85300000000001,42.924,False,33,015,065008,33,33015,33015065008,1400000US33015065008,TELEDYNE INSTRUMENTS INC. D/B/A TELEDYNE D.G.O'BRIEN,ONE LAFAYETTE RD,HAMPTON,NH,3842,"TELEDYNE INSTRUMENTS INC. D/B/A TELEDYNE D.G.O'BRIEN.ONE LAFAYETTE RD, HAMPTON NEW HAMPSHIRE 03842 (ROCKINGHAM)",1,C,,110055497500
0388WSRMYN19AUS,-71.127,43.271,False,33,017,086000,33,33017,33017086000,1400000US33017086000,US ARMY NATIONAL GUARD STRAFFORD TRAINING SITE RANGE,19 AUSTIN CATE DR,STRAFFORD,NH,3884,"US ARMY NATIONAL GUARD STRAFFORD TRAINING SITE RANGE.19 AUSTIN CATE DR, STRAFFORD NEW HAMPSHIRE 03884 (STRAFFORD)",0,F,,110070234696
03086LMNMCWHITI,-71.775,42.833,True,33,011,019000,33,33011,33011019000,1400000US33011019000,ALUMINUM CASTING INC (DBA GENERAL MACHINE & FOUNDRY),WHITING HILL RD,WILTON,NH,3086,"ALUMINUM CASTING INC (DBA GENERAL MACHINE & FOUNDRY) WHITING HILL RD, WILTON, NH, 3086",0,C,,
03773LTVMCGUILD,-71.167,43.367,True,33,001,966500,33,33019,33001966500,1400000US33001966500,LATVA MACHINE INC,GUILD RD,NEWPORT,NH,3773,"LATVA MACHINE INC GUILD RD, NEWPORT, NH, 3773",0,C,,
