TRIFID,LONGITUDE,LATITUDE,ESTIMATE,STATEFP,COUNTYFP,TRACTCE,STATEGEOID,COUNTYGEOID,TRACTGEOID,AFFGEOID,FACILITY_NAME,STREET,CITY,STUSPS,ZIP_CODE,FACILITY,FAC_CLOSED_IND,ASGN_FEDERAL_IND,BIA_CODE,EPA_REGISTRY_ID
87004SHLLNNORTH,-106.53399999999999,35.319,False,35,043,010503,35,35043,35043010503,1400000US35043010503,SHOLLENBARGER WOOD TREATING INC,318 N HILL RD,BERNALILLO,NM,87004,"SHOLLENBARGER WOOD TREATING INC.318 N HILL RD, BERNALILLO NEW MEXICO 87004 (SANDOVAL)",0,C,,
87022WLLCLCOORS,-106.822,34.916,False,35,001,940700,35,35001,35001940700,1400000US35001940700,WALL COLMONOY CORP ISLETA PLANT,15 TRIBAL RD 64,ISLETA,NM,87022,"WALL COLMONOY CORP ISLETA PLANT.15 TRIBAL RD 64, ISLETA NEW MEXICO 87022 (BERNALILLO)",0,C,,
87102BRDNN333AS,-106.648,35.101,False,35,001,002700,35,35001,35001002700,1400000US35001002700,BORDEN INC,333 ASPEN NW,ALBUQUERQUE,NM,87102,"BORDEN INC.333 ASPEN NW, ALBUQUERQUE NEW MEXICO 87102 (BERNALILLO)",0,C,,
87102CRMLN19112,-106.646,35.103,False,35,001,002700,35,35001,35001002700,1400000US35001002700,DEAN DAIRY HOLDINGS LLC  DBA CREAMLAND DAIRIES LLC,1911 SECOND ST NW,ALBUQUERQUE,NM,87102,"DEAN DAIRY HOLDINGS LLC  DBA CREAMLAND DAIRIES LLC.1911 SECOND ST NW, ALBUQUERQUE NEW MEXICO 87102 (BERNALILLO)",0,C,,110000472337
87102NTNLR650HA,-106.652,35.103,False,35,001,002700,35,35001,35001002700,1400000US35001002700,NATIONAL RESEARCH LABORATORIES INC,650 HAINES AVE NW,ALBUQUERQUE,NM,87102,"NATIONAL RESEARCH LABORATORIES INC.650 HAINES AVE NW, ALBUQUERQUE NEW MEXICO 87102 (BERNALILLO)",0,C,,110004273287
87102PLSCG197TH,-106.65299999999999,35.104,False,35,001,002700,35,35001,35001002700,1400000US35001002700,G&K DEV CO INC DBA PLASCO SALES,1900 7TH ST NW,ALBUQUERQUE,NM,87102,"G&K DEV CO INC DBA PLASCO SALES.1900 7TH ST NW, ALBUQUERQUE NEW MEXICO 87102 (BERNALILLO)",0,C,,110064282084
87102SNDMR14241,-106.646,35.097,False,35,001,002700,35,35001,35001002700,1400000US35001002700,AJ MAES DBA SANDIA MARBLE,1424 1ST ST NW,ALBUQUERQUE,NM,87102,"AJ MAES DBA SANDIA MARBLE.1424 1ST ST NW, ALBUQUERQUE NEW MEXICO 87102 (BERNALILLO)",0,C,,110038861407
87102DXPTR3501S,-106.65700000000001,35.033,False,35,001,004001,35,35001,35001004001,1400000US35001004001,DPC INDUSTRIES INC,3501 2ND ST SW,ALBUQUERQUE,NM,87105,"DPC INDUSTRIES INC.3501 2ND ST SW, ALBUQUERQUE NEW MEXICO 87105 (BERNALILLO)",0,C,,110000472346
87102GRCRF336WO,-106.65,35.049,False,35,001,004001,35,35001,35001004001,1400000US35001004001,GE AVIATION ALBUQUERQUE,336 WOODWARD RD SE,ALBUQUERQUE,NM,87102,"GE AVIATION ALBUQUERQUE.336 WOODWARD RD SE, ALBUQUERQUE NEW MEXICO 87102 (BERNALILLO)",0,C,,110000472355
87102LNCNT20014,-106.654,35.066,False,35,001,004001,35,35001,35001004001,1400000US35001004001,EL ENCANTO INC,2001 4TH ST SW,ALBUQUERQUE,NM,87102,"EL ENCANTO INC.2001 4TH ST SW, ALBUQUERQUE NEW MEXICO 87102 (BERNALILLO)",0,C,,
87102WLLBR215RO,-106.66,35.03,False,35,001,004001,35,35001,35001004001,1400000US35001004001,WELLBORN DE CORP,215 ROSSMOOR RD SW,ALBUQUERQUE,NM,87102,"WELLBORN DE CORP.215 ROSSMOOR RD SW, ALBUQUERQUE NEW MEXICO 87102 (BERNALILLO)",0,C,,
87110LBQRQ6348S,-106.65799999999999,34.991,False,35,001,004001,35,35001,35001004001,1400000US35001004001,ALBUQUERQUE REFINED PRODUCTS T ERMINAL,6348 STATE RD 303,ALBUQUERQUE,NM,87110,"ALBUQUERQUE REFINED PRODUCTS T ERMINAL.6348 STATE RD 303, ALBUQUERQUE NEW MEXICO 87110 (BERNALILLO)",0,C,,110000472417
87105CHVRN3200B,-106.647,35.046,False,35,001,004001,35,35001,35001004001,1400000US35001004001,CHEVRON PRODDS.CO. ALBUQUERQUE TERMINAL,3200 BROADWAY S.E.,ALBUQUERQUE,NM,87105,"CHEVRON PRODDS.CO. ALBUQUERQUE TERMINAL.3200 BROADWAY S.E., ALBUQUERQUE NEW MEXICO 87105 (BERNALILLO)",0,C,,110012700693
87102NVRSX3301E,-106.64,35.046,False,35,001,004001,35,35001,35001004001,1400000US35001004001,UNIVAR USA INC ALBUQUERQUE,3301 EDMUNDS SE,ALBUQUERQUE,NM,871025405,"UNIVAR USA INC ALBUQUERQUE.3301 EDMUNDS SE, ALBUQUERQUE NEW MEXICO 87102 (BERNALILLO)",0,C,,
87106DVNTS56UNI,-106.62200000000001,34.997,False,35,001,004001,35,35001,35001004001,1400000US35001004001,ADVENT SOLAR INC,5600 UNIVERSITY SE,ALBUQUERQUE,NM,871069700,"ADVENT SOLAR INC.5600 UNIVERSITY SE, ALBUQUERQUE NEW MEXICO 87106 (BERNALILLO)",0,C,,110031178080
8710WMTRNM521HA,-106.61,34.996,False,35,001,004001,35,35001,35001004001,1400000US35001004001,MATERION MESA DEL SOL,5201 HAWKING DR SE,ALBUQUERQUE,NM,87106,"MATERION MESA DEL SOL.5201 HAWKING DR SE, ALBUQUERQUE NEW MEXICO 87106 (BERNALILLO)",0,C,,110060280609
8710WLBQRQ6356D,-106.661,34.991,False,35,001,004001,35,35001,35001004001,1400000US35001004001,ALBUQUERQUE PRODUCTS TERMINAL,6356 DESERT RD SE,ALBUQUERQUE,NM,87105,"ALBUQUERQUE PRODUCTS TERMINAL.6356 DESERT RD SE, ALBUQUERQUE NEW MEXICO 87105 (BERNALILLO)",0,C,,110070069407
8710WCHMLL412EL,-106.64399999999999,35.02,False,35,001,004001,35,35001,35001004001,1400000US35001004001,E-CHEM LLC,4102 EL REY RD SE,ALBUQUERQUE,NM,87105,"E-CHEM LLC.4102 EL REY RD SE, ALBUQUERQUE NEW MEXICO 87105 (BERNALILLO)",0,C,,110070557690
8710WRLDYN2222N,-106.65299999999999,35.062,False,35,001,004001,35,35001,35001004001,1400000US35001004001,RELADYNE,2220 2ND ST SW,ALBUQUERQUE,NM,87102,"RELADYNE.2220 2ND ST SW, ALBUQUERQUE NEW MEXICO 87102 (BERNALILLO)",0,C,,110070550491
87102STHST601CO,-106.645,35.089,False,35,001,002100,35,35061,35001002100,1400000US35001002100,SOUTHEASTERN ICE PLANT,601 COMMERCIAL AVE NW,ALBUQUERQUE,NM,87102,"SOUTHEASTERN ICE PLANT.601 COMMERCIAL AVE NW, ALBUQUERQUE NEW MEXICO 87102 (VALENCIA)",0,C,,
87104PNDRS1701B,-106.665,35.101,False,35,001,002500,35,35001,35001002500,1400000US35001002500,PONDEROSA PRODS INC,1701 BELLAMAH NW,ALBUQUERQUE,NM,87104,"PONDEROSA PRODS INC.1701 BELLAMAH NW, ALBUQUERQUE NEW MEXICO 87104 (BERNALILLO)",0,C,,
87104LNDRY15031,-106.65799999999999,35.102,False,35,001,002500,35,35001,35001002500,1400000US35001002500,LAUN-DRY SUPPLY CO INC,1503 12TH ST NW,ALBUQUERQUE,NM,87104,"LAUN-DRY SUPPLY CO INC.1503 12TH ST NW, ALBUQUERQUE NEW MEXICO 87104 (BERNALILLO)",0,C,,110000472373
87109CDMYC6905W,-106.598,35.159,False,35,001,003736,35,35001,35001003736,1400000US35001003736,MATERION CORP REFINERY,6905 WASHINGTON NE,ALBUQUERQUE,NM,87109,"MATERION CORP REFINERY.6905 WASHINGTON NE, ALBUQUERQUE NEW MEXICO 87109 (BERNALILLO)",0,C,,110000472391
87109DGTLQ5600K,-106.59700000000001,35.145,False,35,001,003736,35,35001,35001003736,1400000US35001003736,DIGITAL EQUIPMENT CORP,5600 JEFFERSON ST NE,ALBUQUERQUE,NM,871093402,"DIGITAL EQUIPMENT CORP.5600 JEFFERSON ST NE, ALBUQUERQUE NEW MEXICO 87109 (BERNALILLO)",0,C,,
87109GLTND6600G,-106.598,35.155,False,35,001,003736,35,35001,35001003736,1400000US35001003736,GOODRICH ISR SYSTEMS,6600 GULTON CT NE,ALBUQUERQUE,NM,87109,"GOODRICH ISR SYSTEMS.6600 GULTON CT NE, ALBUQUERQUE NEW MEXICO 87109 (BERNALILLO)",0,C,,110000848361
87109GNRLT6816W,-106.598,35.157,False,35,001,003736,35,35001,35001003736,1400000US35001003736,GENERAL TECHNOLOGY CORP,6816 WASHINGTON NE,ALBUQUERQUE,NM,87109,"GENERAL TECHNOLOGY CORP.6816 WASHINGTON NE, ALBUQUERQUE NEW MEXICO 87109 (BERNALILLO)",0,C,,
87109SPRKL7445P,-106.587,35.162,False,35,001,003736,35,35061,35001003736,1400000US35001003736,SPARKLE ICE PLANT,7445 PAN AMERICAN FREEWAY,ALBUQUERQUE,NM,87109,"SPARKLE ICE PLANT.7445 PAN AMERICAN FREEWAY, ALBUQUERQUE NEW MEXICO 87109 (VALENCIA)",0,C,,
87113HNYWL9201S,-106.587,35.191,False,35,001,003736,35,35001,35001003736,1400000US35001003736,HONEYWELL AEROSPACE-ALBUQUERQUE,9201 SAN MATEO BLVD NE MS-D11,ALBUQUERQUE,NM,87113,"HONEYWELL AEROSPACE-ALBUQUERQUE.9201 SAN MATEO BLVD NE MS-D11, ALBUQUERQUE NEW MEXICO 87113 (BERNALILLO)",0,C,,110000860391
87113MTRLN4800A,-106.59299999999999,35.184,False,35,001,003736,35,35001,35001003736,1400000US35001003736,CTS ELECTRONIC COMPONENTS INC,"4800 ALAMEDA BLVD, NE",ALBUQUERQUE,NM,87113,"CTS ELECTRONIC COMPONENTS INC.4800 ALAMEDA BLVD, NE, ALBUQUERQUE NEW MEXICO 87113 (BERNALILLO)",0,C,,110000472426
87113PCDRB4525P,-106.596,35.175,False,35,001,003736,35,35001,35001003736,1400000US35001003736,PACKAGING CORP OF AMERICA,4511 PASEO DEL NORTE NE,ALBUQUERQUE,NM,87113,"PACKAGING CORP OF AMERICA.4511 PASEO DEL NORTE NE, ALBUQUERQUE NEW MEXICO 87113 (BERNALILLO)",0,C,,
87113SGNTC9201P,-106.581,35.191,False,35,001,003736,35,35001,35001003736,1400000US35001003736,PHILIPS ELECTRONICS NA CORP,9201 PAN AMERICAN FRWY NE,ALBUQUERQUE,NM,87113,"PHILIPS ELECTRONICS NA CORP.9201 PAN AMERICAN FRWY NE, ALBUQUERQUE NEW MEXICO 87113 (BERNALILLO)",0,C,,
87109DLXCH4240B,-106.596,35.148,False,35,001,003736,35,35001,35001003736,1400000US35001003736,DELUXE CHECK PRINTERS INC,4240 BALLOON PARK RD NE,ALBUQUERQUE,NM,87109,"DELUXE CHECK PRINTERS INC.4240 BALLOON PARK RD NE, ALBUQUERQUE NEW MEXICO 87109 (BERNALILLO)",0,C,,
87109SLYNT4800H,-106.59200000000001,35.163000000000004,False,35,001,003736,35,35001,35001003736,1400000US35001003736,THERMO ELECTRON TECOMET,4800 HAWKINS NE,ALBUQUERQUE,NM,87109,"THERMO ELECTRON TECOMET.4800 HAWKINS NE, ALBUQUERQUE NEW MEXICO 87109 (BERNALILLO)",0,C,,
87109SNSFT6815A,-106.602,35.155,False,35,001,003736,35,35001,35001003736,1400000US35001003736,OCULAR SCIENCES INC,6815 ACADEMY PKY W NE,ALBUQUERQUE,NM,87113,"OCULAR SCIENCES INC.6815 ACADEMY PKY W NE, ALBUQUERQUE NEW MEXICO 87113 (BERNALILLO)",0,C,,
87113TRGSN8200W,-106.595,35.177,False,35,001,003736,35,35001,35001003736,1400000US35001003736,TRI-GAS INC,8200 WASHINGTON NE,ALBUQUERQUE,NM,87113,"TRI-GAS INC.8200 WASHINGTON NE, ALBUQUERQUE NEW MEXICO 87113 (BERNALILLO)",0,C,,
87109JZLNL3600O,-106.603,35.154,False,35,001,003736,35,35001,35001003736,1400000US35001003736,JEZLAINE LTD,3600 OSUNA RD NE STE 402,ALBUQUERQUE,NM,87109,"JEZLAINE LTD.3600 OSUNA RD NE STE 402, ALBUQUERQUE NEW MEXICO 87109 (BERNALILLO)",0,C,,
87113SMTCM9401S,-106.587,35.194,False,35,001,003736,35,35001,35001003736,1400000US35001003736,SUMCO PHOENIX-ALBUQUERQUE,9401 SAN MATEO BLVD NE,ALBUQUERQUE,NM,87113,"SUMCO PHOENIX-ALBUQUERQUE.9401 SAN MATEO BLVD NE, ALBUQUERQUE NEW MEXICO 87113 (BERNALILLO)",0,C,,110000472453
87109CDMYP5531M,-106.604,35.141999999999996,False,35,001,003736,35,35001,35001003736,1400000US35001003736,MATERION WEST,5531 MIDWAY PARK PL NE,ALBUQUERQUE,NM,87109,"MATERION WEST.5531 MIDWAY PARK PL NE, ALBUQUERQUE NEW MEXICO 87109 (BERNALILLO)",1,C,,110008061444
87113SLMXN5031S,-106.589,35.194,False,35,001,003736,35,35001,35001003736,1400000US35001003736,SILMAX LLC,5031 SAN DIEGO AVE NE,ALBUQUERQUE,NM,87113,"SILMAX LLC.5031 SAN DIEGO AVE NE, ALBUQUERQUE NEW MEXICO 87113 (BERNALILLO)",0,C,,
87113TRNSC8600J,-106.59200000000001,35.181999999999995,False,35,001,003736,35,35001,35001003736,1400000US35001003736,TRANSCORE,8600 JEFFERSON ST NE,ALBUQUERQUE,NM,87113,"TRANSCORE.8600 JEFFERSON ST NE, ALBUQUERQUE NEW MEXICO 87113 (BERNALILLO)",0,C,,110004279762
87109CDMYP5941M,-106.603,35.149,False,35,001,003736,35,35001,35001003736,1400000US35001003736,MATERION NORTH,5941 MIDWAY PARK BLVD NE,ALBUQUERQUE,NM,87109,"MATERION NORTH.5941 MIDWAY PARK BLVD NE, ALBUQUERQUE NEW MEXICO 87109 (BERNALILLO)",0,C,,110032641336
8711WSTTCH541VE,-106.584,35.196,False,35,001,003736,35,35001,35001003736,1400000US35001003736,STA TECHNOLOGIES INC,5401 VENICE AVE NE,ALBUQUERQUE,NM,87113,"STA TECHNOLOGIES INC.5401 VENICE AVE NE, ALBUQUERQUE NEW MEXICO 87113 (BERNALILLO)",0,C,,110017237667
8711WMRCNG46PAS,-106.59299999999999,35.172,False,35,001,003736,35,35001,35001003736,1400000US35001003736,AMERICAN GYPSUM - WALLBOARD PLANT,4600 PASEO DEL NORTE NE,ALBUQUERQUE,NM,87113,"AMERICAN GYPSUM - WALLBOARD PLANT.4600 PASEO DEL NORTE NE, ALBUQUERQUE NEW MEXICO 87113 (BERNALILLO)",0,C,,
8710WDLTGR4521A,-106.59700000000001,35.156,False,35,001,003736,35,35001,35001003736,1400000US35001003736,DELTA GROUP ELECTRONICS INC,4521A OSUNA ROAD NE,ALBUQUERQUE,NM,87109,"DELTA GROUP ELECTRONICS INC.4521A OSUNA ROAD NE, ALBUQUERQUE NEW MEXICO 87109 (BERNALILLO)",0,C,,110067046413
87114SPRTN9621C,-106.66,35.189,False,35,001,004753,35,35001,35001004753,1400000US35001004753,SPARTON TECHNOLOGY INC,9621 COORS RD NW,ALBUQUERQUE,NM,87114,"SPARTON TECHNOLOGY INC.9621 COORS RD NW, ALBUQUERQUE NEW MEXICO 87114 (BERNALILLO)",0,C,,
87123SMNST1CAMI,-106.461,35.065,False,35,001,003805,35,35001,35001003805,1400000US35001003805,SIEMENS TRANSMISSION SYSTEMS INC,1 CAMINO DE LENKURT,ALBUQUERQUE,NM,87123,"SIEMENS TRANSMISSION SYSTEMS INC.1 CAMINO DE LENKURT, ALBUQUERQUE NEW MEXICO 87123 (BERNALILLO)",0,C,,
87124NTLCR4100S,-106.656,35.231,False,35,043,010716,35,35043,35043010716,1400000US35043010716,INTEL CORP - RIO RANCHO,4100 SARA RD M S RR5-491,RIO RANCHO,NM,87124,"INTEL CORP - RIO RANCHO.4100 SARA RD M S RR5-491, RIO RANCHO NEW MEXICO 87124 (SANDOVAL)",0,C,,110000472471
87174FRMCV506RI,-106.62899999999999,35.265,False,35,043,010703,35,35043,35043010703,1400000US35043010703,FORM-COVE MFG INC,506 RIO RANCHO INDUSTRIAL PARK RD,RIO RANCHO,NM,87124,"FORM-COVE MFG INC.506 RIO RANCHO INDUSTRIAL PARK RD, RIO RANCHO NEW MEXICO 87124 (SANDOVAL)",0,C,,110000472480
87124LFRGC5006I,-106.635,35.259,False,35,043,010703,35,35043,35043010703,1400000US35043010703,LAFARGE RIO RANCHO CONCRETE PLANT,5006 INDUSTRIAL LOOP,RIO RANCHO,NM,87124,"LAFARGE RIO RANCHO CONCRETE PLANT.5006 INDUSTRIAL LOOP, RIO RANCHO NEW MEXICO 87124 (SANDOVAL)",0,C,,110012702067
87124SPRTN4901R,-106.649,35.272,False,35,043,010703,35,35043,35043010703,1400000US35043010703,SPARTON TECHNOLOGY INC,4901 ROCKAWAY BLVD,RIO RANCHO,NM,87124,"SPARTON TECHNOLOGY INC.4901 ROCKAWAY BLVD, RIO RANCHO NEW MEXICO 87124 (SANDOVAL)",0,C,,
8712WDVDHF545VR,-106.631,35.266999999999996,False,35,043,010703,35,35043,35043010703,1400000US35043010703,DAVID H FELL TECHNICAL,545 VORTEX RD NE,RIO RANCHO,NM,87124,"DAVID H FELL TECHNICAL.545 VORTEX RD NE, RIO RANCHO NEW MEXICO 87124 (SANDOVAL)",0,C,,110070508204
87185SDPRTKAFBB,-106.541,35.048,False,35,001,000801,35,35001,35001000801,1400000US35001000801,US DOE ALBUQUERQUE MICROELECTRONICS OPERATION,KAFB BUILDING 870,ALBUQUERQUE,NM,871855146,"US DOE ALBUQUERQUE MICROELECTRONICS OPERATION.KAFB BUILDING 870, ALBUQUERQUE NEW MEXICO 87185 (BERNALILLO)",2,F,,
87185SNDNTPOBOX,-106.53299999999999,35.055,False,35,001,000801,35,35001,35001000801,1400000US35001000801,US DOE SANDIA NATIONAL LABORATORIES NM,1515 EUBANK SE,ALBUQUERQUE,NM,87123,"US DOE SANDIA NATIONAL LABORATORIES NM.1515 EUBANK SE, ALBUQUERQUE NEW MEXICO 87123 (BERNALILLO)",0,G,,110000701296
87185SDSNDPENNS,-106.54,35.034,False,35,001,000801,35,35001,35001000801,1400000US35001000801,US DOE -SANDIA FIELD OFFICE,1515 EUBANK SE,ALBUQUERQUE,NM,87123,"US DOE -SANDIA FIELD OFFICE.1515 EUBANK SE, ALBUQUERQUE NEW MEXICO 87123 (BERNALILLO)",0,F,,110002468384
8712WRYTHN13EUB,-106.53299999999999,35.058,False,35,001,000801,35,35001,35001000801,1400000US35001000801,RAYTHEON MS ALBUQUERQUE,1300 EUBANK BLVD SE,ALBUQUERQUE,NM,87123,"RAYTHEON MS ALBUQUERQUE.1300 EUBANK BLVD SE, ALBUQUERQUE NEW MEXICO 87123 (BERNALILLO)",0,C,,110060258297
87413BLMFLNO50C,-107.975,36.699,False,35,045,000702,35,00000,35045000702,1400000US35045000702,WESTERN REFINING TERMINALS LLC (BLOOMFIELD),50 COUNTY RD 4990,BLOOMFIELD,NM,87413,"WESTERN REFINING TERMINALS LLC (BLOOMFIELD).50 COUNTY RD 4990, BLOOMFIELD NEW MEXICO 87413 (SAN JUAN MUNICIPIO)",0,C,,110000600840
87501CCCLB660WS,-105.959,35.662,False,35,049,001002,35,35049,35049001002,1400000US35049001002,COCA-COLA BOTTLING CO,660 W SAN MATEO RD,SANTA FE,NM,87501,"COCA-COLA BOTTLING CO.660 W SAN MATEO RD, SANTA FE NEW MEXICO 87501 (SANTA FE)",0,C,,
87545LSLMSLOSAL,-106.32,35.874,False,35,028,000400,35,35028,35028000400,1400000US35028000400,TRIAD NATIONAL SECURITY LLC LOS ALAMOS NATIONAL LABORATORY,BIKINI ATOLL RD SM30,LOS ALAMOS,NM,87545,"TRIAD NATIONAL SECURITY LLC LOS ALAMOS NATIONAL LABORATORY.BIKINI ATOLL RD SM30, LOS ALAMOS NEW MEXICO 87545 (LOS ALAMOS)",0,G,,110010571880
87544SDLSL52835,-106.33200000000001,35.875,False,35,028,000400,35,35028,35028000400,1400000US35028000400,US DEPARTMENT OF ENERGY LOS ALAMOS NATIONAL LABORATORY,"3747 WEST JEMEZ ROAD, TA-3, BLDG. 1410, MS-A316",LOS ALAMOS,NM,87544,"US DEPARTMENT OF ENERGY LOS ALAMOS NATIONAL LABORATORY.3747 WEST JEMEZ ROAD, TA-3, BLDG. 1410, MS-A316, LOS ALAMOS NEW MEXICO 87544 (LOS ALAMOS)",0,F,,110064184671
87701MNTNDOLDHW,-105.182,35.65,False,35,047,957500,35,35047,35047957500,1400000US35047957500,MEDITE OF NEW MEXICO,OLD HWY 85 N,LAS VEGAS,NM,877011427,"MEDITE OF NEW MEXICO.OLD HWY 85 N, LAS VEGAS NEW MEXICO 87701 (SAN MIGUEL)",1,C,,
87701NWMXC780AI,-105.15,35.653,False,35,047,957500,35,35047,35047957500,1400000US35047957500,NEW MEXICO ADHESIVES (DB WESTERN INC),780 AIRPORT RD,LAS VEGAS,NM,87701,"NEW MEXICO ADHESIVES (DB WESTERN INC).780 AIRPORT RD, LAS VEGAS NEW MEXICO 87701 (SAN MIGUEL)",0,C,,
87801GLPCHEXIT1,-106.90100000000001,34.1,False,35,053,978200,35,35053,35053978200,1400000US35053978200,EAGLE-PICHER INDUSTRIES INC,EXIT 152 I-25,SOCORRO,NM,87801,"EAGLE-PICHER INDUSTRIES INC.EXIT 152 I-25, SOCORRO NEW MEXICO 87801 (SOCORRO)",0,C,,
88008FMXPR2500A,-106.69,31.861,False,35,013,001701,35,35013,35013001701,1400000US35013001701,FXI,2500 AIRPORT RD,SANTA TERESA,NM,88008,"FXI.2500 AIRPORT RD, SANTA TERESA NEW MEXICO 88008 (DONA ANA)",0,C,,110000472532
88008GRFFT2400A,-106.68799999999999,31.858,False,35,013,001701,35,35013,35013001701,1400000US35013001701,STERIGENICS-SANTA TERESA FACILITY,2400 AIRPORT RD,SANTA TERESA,NM,88008,"STERIGENICS-SANTA TERESA FACILITY.2400 AIRPORT RD, SANTA TERESA NEW MEXICO 88008 (DONA ANA)",0,C,,110000472541
88008PRPRD5701M,-106.64399999999999,31.863000000000003,False,35,013,001701,35,35013,35013001701,1400000US35013001701,TYSON PREPARED FOODS INC,5701 MCNUTT RD,SANTA TERESA,NM,880089604,"TYSON PREPARED FOODS INC.5701 MCNUTT RD, SANTA TERESA NEW MEXICO 88008 (DONA ANA)",0,C,,110000472550
88008THMSN2700A,-106.695,31.866999999999997,False,35,013,001701,35,35013,35013001701,1400000US35013001701,THOMAS ENGINEERING CO,2700 AIRPORT RD SUITE 300,SANTA TERESA,NM,88008,"THOMAS ENGINEERING CO.2700 AIRPORT RD SUITE 300, SANTA TERESA NEW MEXICO 88008 (DONA ANA)",1,C,,110008061435
88008SCSTM15NEW,-106.69200000000001,31.823,False,35,013,001701,35,35013,35013001701,1400000US35013001701,US CBP SANTA TERESA BORDER PATROL STATION #NM0023,1005 NEW MEXICO HWY 9,SANTA TERESA,NM,88008,"US CBP SANTA TERESA BORDER PATROL STATION #NM0023.1005 NEW MEXICO HWY 9, SANTA TERESA NEW MEXICO 88008 (DONA ANA)",0,F,,110020516253
8800WMGWRN12KIT,-106.69200000000001,31.864,False,35,013,001701,35,35013,35013001701,1400000US35013001701,OMEGA WIRE INC-SANTA TERESA,12 KITTY HAWK DR,SANTA TERESA,NM,88008,"OMEGA WIRE INC-SANTA TERESA.12 KITTY HAWK DR, SANTA TERESA NEW MEXICO 88008 (DONA ANA)",0,C,,110004282605
88009PHLPSHIDAL,-108.542,31.761999999999997,False,35,023,970000,35,35023,35023970000,1400000US35023970000,PHELPS DODGE HIDALGO INC,9 MILES S OF HWY 9 ALONG SMELTER RD,PLAYAS,NM,88009,"PHELPS DODGE HIDALGO INC.9 MILES S OF HWY 9 ALONG SMELTER RD, PLAYAS NEW MEXICO 88009 (HIDALGO)",0,C,,
8804WSCBPL26PIP,-108.74600000000001,32.348,False,35,023,970000,35,35023,35023970000,1400000US35023970000,US CBP LORDSBURG BORDER PATROL STATION #NM0153,26 PIPELINE ROAD,LORDSBURG,NM,88045,"US CBP LORDSBURG BORDER PATROL STATION #NM0153.26 PIPELINE ROAD, LORDSBURG NEW MEXICO 88045 (HIDALGO)",0,F,,110060260658
88043CHNMN210CO,-108.06700000000001,32.792,False,35,017,964600,35,35017,35017964600,1400000US35017964600,CHINO MINES CO MINE CONCENTRATOR-SXEW PLANTS,99 SANTA RITA MINE RD,VANADIUM,NM,88023,"CHINO MINES CO MINE CONCENTRATOR-SXEW PLANTS.99 SANTA RITA MINE RD, VANADIUM NEW MEXICO 88023 (GRANT)",0,C,,110028023467
88202TRNSPPOBOX,-104.516,33.311,False,35,005,001101,35,35005,35005001101,1400000US35005001101,TRANSPORTATION MANUFACTURING CORP,BLD 1086 ROSWELL INDUSTRIAL AIR CENTER,ROSWELL,NM,88202,"TRANSPORTATION MANUFACTURING CORP.BLD 1086 ROSWELL INDUSTRIAL AIR CENTER, ROSWELL NEW MEXICO 88202 (CHAVES)",0,C,,
88201CRTVP16EAR,-104.523,33.308,False,35,005,001101,35,35005,35005001101,1400000US35005001101,CREATIVE PULTRUSIONS INC,16 EARL CUMMINGS LOOP E,ROSWELL,NM,88201,"CREATIVE PULTRUSIONS INC.16 EARL CUMMINGS LOOP E, ROSWELL NEW MEXICO 88201 (CHAVES)",0,C,,
88201LPRNFRTE25,-104.48200000000001,33.330999999999996,False,35,005,001101,35,35005,35005001101,1400000US35005001101,LEPRINO FOODS CO,RT 2 5604 OMAHA RD,ROSWELL,NM,88203,"LEPRINO FOODS CO.RT 2 5604 OMAHA RD, ROSWELL NEW MEXICO 88203 (CHAVES)",0,C,,110000472612
88201LNGHR70LEM,-104.5,33.306,False,35,005,001101,35,35005,35005001101,1400000US35005001101,LONGHORN MANUFACTURING CO INC,70 LEMAY DR,ROSWELL,NM,88202,"LONGHORN MANUFACTURING CO INC.70 LEMAY DR, ROSWELL NEW MEXICO 88202 (CHAVES)",0,C,,
88201NVBSN42EAR,-104.523,33.308,False,35,005,001101,35,35005,35005001101,1400000US35005001101,PREVIST CAR US INCNOVA BUS A DIV,42 EARL CUMMINGS LOOP W,ROSWELL,NM,88201,"PREVIST CAR US INCNOVA BUS A DIV.42 EARL CUMMINGS LOOP W, ROSWELL NEW MEXICO 88201 (CHAVES)",0,C,,
8820WWRSTR49EMA,-104.51799999999999,33.315,False,35,005,001101,35,35005,35005001101,1400000US35005001101,ERGON ASPHALT & EMULSIONS INC - ROSWELL,49 E. MARTIN ST.,ROSWELL,NM,88203,"ERGON ASPHALT & EMULSIONS INC - ROSWELL.49 E. MARTIN ST., ROSWELL NEW MEXICO 88203 (CHAVES)",0,C,,110046347761
88210KRLYGNORTH,-104.397,32.848,False,35,015,001000,35,35015,35015001000,1400000US35015001000,KERLEY AG INC,NORTH FREEMAN ST,ARTESIA,NM,88210,"KERLEY AG INC.NORTH FREEMAN ST, ARTESIA NEW MEXICO 88210 (EDDY)",0,C,,
88210NVJRF501EA,-104.39399999999999,32.849000000000004,False,35,015,001000,35,35015,35015001000,1400000US35015001000,HOLLYFRONTIER NAVAJO REFINING LLC - ARTESIA REFINERY,501 E MAIN ST,ARTESIA,NM,88210,"HOLLYFRONTIER NAVAJO REFINING LLC - ARTESIA REFINERY.501 E MAIN ST, ARTESIA NEW MEXICO 88210 (EDDY)",0,C,,110000472630
88210STRSR1300W,-104.413,32.857,False,35,015,001000,35,35015,35015001000,1400000US35015001000,US DHS FEDERAL LAW ENFORCEMENT TRAINING CENTER ARTESIA,1300 W RICHEY BLDG 25,ARTESIA,NM,88210,"US DHS FEDERAL LAW ENFORCEMENT TRAINING CENTER ARTESIA.1300 W RICHEY BLDG 25, ARTESIA NEW MEXICO 88210 (EDDY)",0,F,,110000472649
88210KCHSP2411N,-104.395,32.866,False,35,015,001000,35,35015,35015001000,1400000US35015001000,HOLLYFRONTIER ASPHALT CO LLC  - ARTESIA,2411 N FREEMAN,ARTESIA,NM,88210,"HOLLYFRONTIER ASPHALT CO LLC  - ARTESIA.2411 N FREEMAN, ARTESIA NEW MEXICO 88210 (EDDY)",0,C,,110008061417
88211DDNSW201MA,-104.397,32.842,False,35,015,001000,35,35015,35015001000,1400000US35015001000,UNITED FUEL & ENERGY CORP,201 MAIN,ARTESIA,NM,88211,"UNITED FUEL & ENERGY CORP.201 MAIN, ARTESIA NEW MEXICO 88211 (EDDY)",1,C,,110012702094
88210NTDFL66RIC,-104.404,32.857,False,35,015,001000,35,35015,35015001000,1400000US35015001000,PILOT THOMAS LOGISTICS-ARTESIA,606 W RICHEY AVE,ARTESIA,NM,88210,"PILOT THOMAS LOGISTICS-ARTESIA.606 W RICHEY AVE, ARTESIA NEW MEXICO 88210 (EDDY)",0,C,,110037072217
88240NCHMN707NL,-103.14200000000001,32.707,False,35,025,000100,35,35025,35025000100,1400000US35025000100,BAKER HUGHES INC,707 N LEECH,HOBBS,NM,88240,"BAKER HUGHES INC.707 N LEECH, HOBBS NEW MEXICO 88240 (LEA)",1,C,,110000472667
88240BJNCH607NL,-103.14299999999999,32.707,False,35,025,000100,35,35025,35025000100,1400000US35025000100,BJ SERVICES UNICHEM DIV,607 1/2 N LEECH ST,HOBBS,NM,88240,"BJ SERVICES UNICHEM DIV.607 1/2 N LEECH ST, HOBBS NEW MEXICO 88240 (LEA)",0,C,,
88401GRNPW1600N,-103.72,35.164,False,35,037,958601,35,35037,35037958601,1400000US35037958601,GRAIN POWER OF NEW MEXICO,1600 N ROCK ISLAND,TUCUMCARI,NM,88401,"GRAIN POWER OF NEW MEXICO.1600 N ROCK ISLAND, TUCUMCARI NEW MEXICO 88401 (QUAY)",0,C,,
87002XXVNT1945H,-106.736,34.604,False,35,061,971000,35,35061,35061971000,1400000US35061971000,ARISTECH SURFACES LLC,1945 HWY 304,BELEN,NM,87002,"ARISTECH SURFACES LLC.1945 HWY 304, BELEN NEW MEXICO 87002 (VALENCIA)",0,C,,110000600813
87110GRNCS701MA,-106.59200000000001,35.089,False,35,001,000402,35,35001,35001000402,1400000US35001000402,AGRONICS INC,701 MADISON NE,ALBUQUERQUE,NM,87110,"AGRONICS INC.701 MADISON NE, ALBUQUERQUE NEW MEXICO 87110 (BERNALILLO)",0,C,,
87121LSTML6625B,-106.712,35.086,False,35,001,004741,35,35001,35001004741,1400000US35001004741,ABB INSTALLATION PRODUCTS INC,6625 BLUEWATER RD NW,ALBUQUERQUE,NM,87121,"ABB INSTALLATION PRODUCTS INC.6625 BLUEWATER RD NW, ALBUQUERQUE NEW MEXICO 87121 (BERNALILLO)",0,C,,110000472462
87105HNYWL8500B,-106.727,35.082,False,35,001,004741,35,35001,35001004741,1400000US35001004741,SPARTON TECHNOLOGY INC,8500 BLUEWATER RD,ALBUQUERQUE,NM,87121,"SPARTON TECHNOLOGY INC.8500 BLUEWATER RD, ALBUQUERQUE NEW MEXICO 87121 (BERNALILLO)",0,C,,110002138240
87121TWFBR1255C,-106.709,35.062,False,35,001,004740,35,35001,35001004740,1400000US35001004740,TIW FABRICATION & MACHINING  INC,1255 COORS DR SW,ALBUQUERQUE,NM,87121,"TIW FABRICATION & MACHINING  INC.1255 COORS DR SW, ALBUQUERQUE NEW MEXICO 87121 (BERNALILLO)",0,C,,
87121WYCRM44TWE,-106.705,35.067,False,35,001,004740,35,35001,35001004740,1400000US35001004740,TOWER ROAD,4400 TOWER RD SW,ALBUQUERQUE,NM,87121,"TOWER ROAD.4400 TOWER RD SW, ALBUQUERQUE NEW MEXICO 87121 (BERNALILLO)",0,C,,110001559108
87123SMNSC501MO,-106.524,35.075,False,35,001,000708,35,35001,35001000708,1400000US35001000708,SIEMENS STROMBERG-CARLSON,501 MORRIS NE,ALBUQUERQUE,NM,871232840,"SIEMENS STROMBERG-CARLSON.501 MORRIS NE, ALBUQUERQUE NEW MEXICO 87123 (BERNALILLO)",0,C,,
87301GNTRFROUTE,-108.425,35.49,False,35,031,943600,35,35031,35031943600,1400000US35031943600,WESTERN REFINING SOUTHWEST INC-GALLUP REFINERY,92 GIANT CROSSING ROAD,GALLUP,NM,87301,"WESTERN REFINING SOUTHWEST INC-GALLUP REFINERY.92 GIANT CROSSING ROAD, GALLUP NEW MEXICO 87301 (MCKINLEY)",0,C,,110011031052
88265CLMXCHIGHW,-103.319,32.614000000000004,False,35,025,000702,35,35025,35025000702,1400000US35025000702,CLIMAX CHEMICAL CO,HWY 322 W,MONUMENT,NM,88265,"CLIMAX CHEMICAL CO.HWY 322 W, MONUMENT NEW MEXICO 88265 (LEA)",0,C,,
88265DLDRS8205S,-103.32600000000001,32.614000000000004,False,35,025,000702,35,35025,35025000702,1400000US35025000702,DLD RESOURCES INC,8205 S HWY 322,MONUMENT,NM,88265,"DLD RESOURCES INC.8205 S HWY 322, MONUMENT NEW MEXICO 88265 (LEA)",0,C,,
88240BJSRV5514C,-103.208,32.696999999999996,False,35,025,000702,35,35025,35025000702,1400000US35025000702,BJ CHEMICAL SERVICES,5514 CARLSBAD HWY,HOBBS,NM,88240,"BJ CHEMICAL SERVICES.5514 CARLSBAD HWY, HOBBS NEW MEXICO 88240 (LEA)",0,C,,110020516743
87125THCNN3801U,-106.633,35.025999999999996,False,35,001,001200,35,35001,35001001200,1400000US35001001200,ETHICON ENDO-SURGERY,3801 UNIVERSITY BLVD SE,ALBUQUERQUE,NM,87106,"ETHICON ENDO-SURGERY.3801 UNIVERSITY BLVD SE, ALBUQUERQUE NEW MEXICO 87106 (BERNALILLO)",0,C,,110000805102
8710WHNYWL245AL,-106.617,35.055,False,35,001,001200,35,35001,35001001200,1400000US35001001200,DOE/NNSA KIRTLAND OPERATIONS - CRADDOCK C FACILITY,2450 ALAMO SE,ALBUQUERQUE,NM,87106,"DOE/NNSA KIRTLAND OPERATIONS - CRADDOCK C FACILITY.2450 ALAMO SE, ALBUQUERQUE NEW MEXICO 87106 (BERNALILLO)",0,F,,110004275784
87574SHDNFBISHO,-105.929,35.756,False,35,049,940400,35,35049,35049940400,1400000US35049940400,SHIDONI FOUNDRY INC,1508 BISHOPS LODGE RD,TESUQUE,NM,87574,"SHIDONI FOUNDRY INC.1508 BISHOPS LODGE RD, TESUQUE NEW MEXICO 87574 (SANTA FE)",0,C,,110000607291
88130HGHPL1827S,-103.37,34.17,False,35,041,000401,35,35041,35041000401,1400000US35041000401,ABENGOA BIOENERGY CORP.,1827 S INDUSTRIAL DR,PORTALES,NM,88130,"ABENGOA BIOENERGY CORP..1827 S INDUSTRIAL DR, PORTALES NEW MEXICO 88130 (ROOSEVELT)",0,C,,110000472578
88130MDMRC1820S,-103.37,34.171,False,35,041,000401,35,35041,35041000401,1400000US35041000401,PORTALES DAIRY PRODUCTS LLC,1820 S INDUSTRIAL DR,PORTALES,NM,88130,"PORTALES DAIRY PRODUCTS LLC.1820 S INDUSTRIAL DR, PORTALES NEW MEXICO 88130 (ROOSEVELT)",0,C,,110000472587
88118SRFRC3771S,-103.68299999999999,34.288000000000004,False,35,041,000401,35,35041,35041000401,1400000US35041000401,US DOD USAF CANNON AFB MELROSE RANGE,3771 SUNDALE VALLEY RD,FLOYD,NM,88118,"US DOD USAF CANNON AFB MELROSE RANGE.3771 SUNDALE VALLEY RD, FLOYD NEW MEXICO 88118 (ROOSEVELT)",0,F,,110067536848
87107PLSTC4300A,-106.62100000000001,35.129,False,35,001,003400,35,35001,35001003400,1400000US35001003400,PLASTECH CORP,4300 ALEXANDER BLVD NE,ALBUQUERQUE,NM,87107,"PLASTECH CORP.4300 ALEXANDER BLVD NE, ALBUQUERQUE NEW MEXICO 87107 (BERNALILLO)",0,C,,
87107KCHMT4949E,-106.631,35.13,False,35,001,003400,35,35001,35001003400,1400000US35001003400,HOLLYFRONTIER ASPHALT CO LLC - ALBUQUERQUE NM,4949 EDITH BLVD NE,ALBUQUERQUE,NM,87107,"HOLLYFRONTIER ASPHALT CO LLC - ALBUQUERQUE NM.4949 EDITH BLVD NE, ALBUQUERQUE NEW MEXICO 87107 (BERNALILLO)",0,C,,110017347771
87107SFTYK2720G,-106.61399999999999,35.113,False,35,001,003400,35,35001,35001003400,1400000US35001003400,SAFETY-KLEEN SYSTEMS (700801),2720 GIRARD NE,ALBUQUERQUE,NM,87107,"SAFETY-KLEEN SYSTEMS (700801).2720 GIRARD NE, ALBUQUERQUE NEW MEXICO 87107 (BERNALILLO)",0,C,,
8710WCNYNS8CAND,-106.63,35.116,False,35,001,003400,35,35001,35001003400,1400000US35001003400,WEST DIRECT OIL #55 ABQ,800 CANDELARIA N.E.,ALBUQUERQUE,NM,87107,"WEST DIRECT OIL #55 ABQ.800 CANDELARIA N.E., ALBUQUERQUE NEW MEXICO 87107 (BERNALILLO)",0,C,,110030472316
88220GRGRY1502G,-104.19200000000001,32.431,False,35,015,000700,35,35015,35015000700,1400000US35015000700,WESTINGHOUSE ENGINEERED PRODS DEPARTMENTT,1502 E GREENE ST,CARLSBAD,NM,882202138,"WESTINGHOUSE ENGINEERED PRODS DEPARTMENTT.1502 E GREENE ST, CARLSBAD NEW MEXICO 88220 (EDDY)",0,C,,
88220GRGRY5301S,-104.24799999999999,32.351,False,35,015,000700,35,35015,35015000700,1400000US35015000700,WESTINGHOUSE ENGINEERED PRODS DEPARTMENT,5301 SIERRA VISTA,CARLSBAD,NM,88220,"WESTINGHOUSE ENGINEERED PRODS DEPARTMENT.5301 SIERRA VISTA, CARLSBAD NEW MEXICO 88220 (EDDY)",0,C,,
8822WTSSND4717N,-104.24,32.359,False,35,015,000700,35,35015,35015000700,1400000US35015000700,TESSENDERLO KERLEY SERVICES,4717 NATIONAL PARKS HWY,CARLSBAD,NM,88220,"TESSENDERLO KERLEY SERVICES.4717 NATIONAL PARKS HWY, CARLSBAD NEW MEXICO 88220 (EDDY)",0,C,,110070070488
87413PRMNT5995U,-107.774,36.888000000000005,False,35,045,000706,35,00000,35045000706,1400000US35045000706,PERMIAN TANK & MANUFACTURING INC,5995 US HWY 64,BLOOMFIELD,NM,87413,"PERMIAN TANK & MANUFACTURING INC.5995 US HWY 64, BLOOMFIELD NEW MEXICO 87413 (SAN JUAN MUNICIPIO)",0,C,,
88004NSJHN14MIL,-106.61399999999999,32.484,False,35,013,001900,35,35013,35013001900,1400000US35013001900,NASA JOHNSON SPACE CENTER WHITE SANDS TEST FACILITY,12600 NASA RD,LAS CRUCES,NM,88012,"NASA JOHNSON SPACE CENTER WHITE SANDS TEST FACILITY.12600 NASA RD, LAS CRUCES NEW MEXICO 88012 (DONA ANA)",0,F,,110000602214
88002WHTSNSTEWS,-106.479,32.382,False,35,013,001900,35,35013,35013001900,1400000US35013001900,US ARMY GARRISON WHITE SANDS MISSILE RANGE,100 HEADQUARTERS AVE - IMWS PWE EC,WHITE SANDS MISSILE RANGE,NM,88002,"US ARMY GARRISON WHITE SANDS MISSILE RANGE.100 HEADQUARTERS AVE - IMWS PWE EC, WHITE SANDS MISSILE RANGE NEW MEXICO 88002 (DONA ANA)",0,F,,110001209077
88043SDFRS158AI,-108.15700000000001,32.63,False,35,017,964800,35,35017,35017964800,1400000US35017964800,US FOREST SERVICE SILVER CITY AIRTANKER BASE,158 AIRPORT RD,HURLEY,NM,88043,"US FOREST SERVICE SILVER CITY AIRTANKER BASE.158 AIRPORT RD, HURLEY NEW MEXICO 88043 (GRANT)",0,F,,
88103SRFRC8MILE,-103.329,34.391999999999996,False,35,009,000900,35,35009,35009000900,1400000US35009000900,US DOD USAF CANNON AFB,8 MILES W OF CLOVIS,CANNON AFB,NM,88103,"US DOD USAF CANNON AFB.8 MILES W OF CLOVIS, CANNON AFB NEW MEXICO 88103 (CURRY)",0,F,,110042049262
88201CHRST3911S,-104.523,33.348,False,35,005,000700,35,35005,35005000700,1400000US35005000700,CHRISTMAS BY KREBS INC,3911 S MAIN ST,ROSWELL,NM,88203,"CHRISTMAS BY KREBS INC.3911 S MAIN ST, ROSWELL NEW MEXICO 88203 (CHAVES)",0,C,,110000472596
88260LRFNNSOUTH,-103.303,32.88,False,35,025,001100,35,35025,35025001100,1400000US35025001100,HOLLYFRONTIER NAVAJO REFINING LLC - LEA REFINERY,7406 S MAIN 5 MI S OF LOVINGTON ON HW 18,LOVINGTON,NM,88260,"HOLLYFRONTIER NAVAJO REFINING LLC - LEA REFINERY.7406 S MAIN 5 MI S OF LOVINGTON ON HW 18, LOVINGTON NEW MEXICO 88260 (LEA)",0,C,,110000600886
88260STHWS4400S,-103.33,32.915,False,35,025,001100,35,35025,35025001100,1400000US35025001100,DAIRY FARMERS OF AMERICA INC,4400 S HOBBS HWY,LOVINGTON,NM,88260,"DAIRY FARMERS OF AMERICA INC.4400 S HOBBS HWY, LOVINGTON NEW MEXICO 88260 (LEA)",0,C,,110000472676
88240STHWS13MIL,-103.354,32.713,False,35,025,001100,35,35025,35025001100,1400000US35025001100,SOUTHWESTERN PUBLIC SERVICE CO CUNNINGHAM STATION,13 MILES W OF HOBBS ON US 62/180,HOBBS,NM,88240,"SOUTHWESTERN PUBLIC SERVICE CO CUNNINGHAM STATION.13 MILES W OF HOBBS ON US 62/180, HOBBS NEW MEXICO 88240 (LEA)",0,C,,
88260PRMPR121EG,-103.33200000000001,32.915,False,35,025,001100,35,35025,35025001100,1400000US35025001100,PRIMA PROTEINA LLC,1201 E GILMORE RD,LOVINGTON,NM,88260,"PRIMA PROTEINA LLC.1201 E GILMORE RD, LOVINGTON NEW MEXICO 88260 (LEA)",0,C,,110025332174
88310SCTTM1501L,-105.97399999999999,32.872,False,35,035,000500,35,35035,35035000500,1400000US35035000500,SCOTT MOTOR CO,1501 LA VELLE RD,ALAMOGORDO,NM,88310,"SCOTT MOTOR CO.1501 LA VELLE RD, ALAMOGORDO NEW MEXICO 88310 (OTERO)",0,C,,110000495492
88310PRSTP1301L,-105.975,32.876999999999995,False,35,035,000500,35,35035,35035000500,1400000US35035000500,PRESTO PRODS MFG CO,1301 LA VELLE RD,ALAMOGORDO,NM,88310,"PRESTO PRODS MFG CO.1301 LA VELLE RD, ALAMOGORDO NEW MEXICO 88310 (OTERO)",0,C,,
88005FDRYP355SC,-106.919,32.266999999999996,False,35,013,001500,35,35013,35013001500,1400000US35013001500,SAPUTO CHEESE USA INC,355 S CRAWFORD BLVD,LAS CRUCES,NM,88007,"SAPUTO CHEESE USA INC.355 S CRAWFORD BLVD, LAS CRUCES NEW MEXICO 88007 (DONA ANA)",0,C,,110018936008
88005PRKVW8500M,-106.916,32.271,False,35,013,001500,35,35013,35013001500,1400000US35013001500,PARKVIEW METAL PRODUCTS,8500 MOUNTAIN VISTA PKY,LAS CRUCES,NM,88005,"PARKVIEW METAL PRODUCTS.8500 MOUNTAIN VISTA PKY, LAS CRUCES NEW MEXICO 88005 (DONA ANA)",0,C,,
88005RMGNT301RE,-106.929,32.269,False,35,013,001500,35,35013,35013001500,1400000US35013001500,REA MAGNET WIRE CO INC,301 REA BLVD,LAS CRUCES,NM,88007,"REA MAGNET WIRE CO INC.301 REA BLVD, LAS CRUCES NEW MEXICO 88007 (DONA ANA)",0,C,,110002138393
87045MCKNLCOUNT,-108.088,35.41,False,35,031,946000,35,35031,35031946000,1400000US35031946000,BIO PAPPEL INTERNATIONAL,COUNTY ROAD 19,PREWITT,NM,87045,"BIO PAPPEL INTERNATIONAL.COUNTY ROAD 19, PREWITT NEW MEXICO 87045 (MCKINLEY)",0,C,,110000600822
87045PLNSSCOUNT,-108.024,35.388000000000005,False,35,031,946000,35,35031,35031946000,1400000US35031946000,TRI-STATE GENERATION & TRANSMISSION - ESCALANTE STATION,COUNTY RD 19,PREWITT,NM,87045,"TRI-STATE GENERATION & TRANSMISSION - ESCALANTE STATION.COUNTY RD 19, PREWITT NEW MEXICO 87045 (MCKINLEY)",0,C,,110000758797
88330HLLMNHWY70,-106.083,32.846,False,35,035,000601,35,35035,35035000601,1400000US35035000601,US DOD USAF HOLLOMAN AFB,HWY 70 10 MILES W OF ALAMOGORDO,HOLLOMAN AFB,NM,88330,"US DOD USAF HOLLOMAN AFB.HWY 70 10 MILES W OF ALAMOGORDO, HOLLOMAN AFB NEW MEXICO 88330 (OTERO)",0,F,,110042049253
88330SRFRCHWY70,-106.083,32.846,False,35,035,000601,35,35035,35035000601,1400000US35035000601,US DOD USAF HOLLOMAN AFB RANGE,HWY 70 10 MILES W OF ALAMOGORDO,HOLLOMAN AFB,NM,88330,"US DOD USAF HOLLOMAN AFB RANGE.HWY 70 10 MILES W OF ALAMOGORDO, HOLLOMAN AFB NEW MEXICO 88330 (OTERO)",0,F,,110069727497
8831WWHTSN19955,-106.333,32.766999999999996,False,35,035,000601,35,35035,35035000601,1400000US35035000601,WHITE SANDS NATIONAL MONUMENT,19955 US HWY 70,ALAMOGORDO,NM,88310,"WHITE SANDS NATIONAL MONUMENT.19955 US HWY 70, ALAMOGORDO NEW MEXICO 88310 (OTERO)",0,F,,110064185028
87102CRMLN500BR,-106.64399999999999,35.079,False,35,001,001500,35,35001,35001001500,1400000US35001001500,CREAMLAND DAIRIES INC,500 BROADWAY BLVD SE,ALBUQUERQUE,NM,87102,"CREAMLAND DAIRIES INC.500 BROADWAY BLVD SE, ALBUQUERQUE NEW MEXICO 87102 (BERNALILLO)",0,C,,
87002CVCND80DON,-106.788,34.72,False,35,061,970700,35,35061,35061970700,1400000US35061970700,CAVCO INDUSTRIES LLC  NEW MEXICO,80 DON LUIS TRJILLO BLVD,BELEN,NM,87002,"CAVCO INDUSTRIES LLC  NEW MEXICO.80 DON LUIS TRJILLO BLVD, BELEN NEW MEXICO 87002 (VALENCIA)",0,C,,
87059RGRND11783,-106.39200000000001,35.071,False,35,001,003807,35,35001,35001003807,1400000US35001003807,GCC RIO GRANDE INC,11783 STATE HWY 337 S,TIJERAS,NM,87059,"GCC RIO GRANDE INC.11783 STATE HWY 337 S, TIJERAS NEW MEXICO 87059 (BERNALILLO)",0,C,,110000600831
87117SDNNPBLDG3,-106.449,35.004,False,35,001,003807,35,35001,35001003807,1400000US35001003807,US DOE NATIONAL TRAINING CENTER,BLDG 30132 KAFB,ALBUQUERQUE,NM,87117,"US DOE NATIONAL TRAINING CENTER.BLDG 30132 KAFB, ALBUQUERQUE NEW MEXICO 87117 (BERNALILLO)",0,F,,110013286489
87113LFRGC6211C,-106.60600000000001,35.141,False,35,001,003735,35,35001,35001003735,1400000US35001003735,LAFARGE OSUNA READY MIX,6201 CHAPPELL RD NE,ALBUQUERQUE,NM,87113,"LAFARGE OSUNA READY MIX.6201 CHAPPELL RD NE, ALBUQUERQUE NEW MEXICO 87113 (BERNALILLO)",0,C,,
87107GNRLT1450M,-106.611,35.14,False,35,001,003735,35,35001,35001003735,1400000US35001003735,IEC ELECTRONICS CORP-ALBUQUERQUE,1450 MISSION AVE,ALBUQUERQUE,NM,87107,"IEC ELECTRONICS CORP-ALBUQUERQUE.1450 MISSION AVE, ALBUQUERQUE NEW MEXICO 87107 (BERNALILLO)",0,C,,110004282552
87190VLCNM6001C,-106.61,35.15,False,35,001,003735,35,35001,35001003735,1400000US35001003735,VULCAN MATERIALS CO,6001 CHAPPELL RD NE,ALBUQUERQUE,NM,87113,"VULCAN MATERIALS CO.6001 CHAPPELL RD NE, ALBUQUERQUE NEW MEXICO 87113 (BERNALILLO)",0,C,,110009457701
87113LFRGS621CH,-106.60600000000001,35.141999999999996,False,35,001,003735,35,35001,35001003735,1400000US35001003735,VULCAN OSUNA ASPHALT,6201 CHAPPELL RD NE,ALBUQUERQUE,NM,87113,"VULCAN OSUNA ASPHALT.6201 CHAPPELL RD NE, ALBUQUERQUE NEW MEXICO 87113 (BERNALILLO)",0,C,,110001551829
87113LFRGS6171C,-106.60600000000001,35.14,False,35,001,003735,35,35001,35001003735,1400000US35001003735,LAFARGE OSUNA READY MIX,6171 CHAPPELL RD NE,ALBUQUERQUE,NM,87113,"LAFARGE OSUNA READY MIX.6171 CHAPPELL RD NE, ALBUQUERQUE NEW MEXICO 87113 (BERNALILLO)",0,C,,110039495597
87401CSTLC10COU,-108.15100000000001,36.717,False,35,045,000607,35,00000,35045000607,1400000US35045000607,COASTAL CHEMICAL CO LLC,1130 MADISON LANE,FARMINGTON,NM,87401,"COASTAL CHEMICAL CO LLC.1130 MADISON LANE, FARMINGTON NEW MEXICO 87401 (SAN JUAN MUNICIPIO)",0,C,,110022767148
8740WTRBCR5651H,-108.11200000000001,36.705,False,35,045,000607,35,00000,35045000607,1400000US35045000607,ETHOSENERGY GENERATOR SERVICES-COIL SHOP & FS WAREHOUSE,5651 HWY 64,FARMINGTON,NM,87401,"ETHOSENERGY GENERATOR SERVICES-COIL SHOP & FS WAREHOUSE.5651 HWY 64, FARMINGTON NEW MEXICO 87401 (SAN JUAN MUNICIPIO)",0,C,,110055499982
87401MGPTR2501E,-108.17399999999999,36.74,False,35,045,000205,35,00000,35045000205,1400000US35045000205,AMIGO PETROLEUM CO,2501 E MAIN ST,FARMINGTON,NM,87401,"AMIGO PETROLEUM CO.2501 E MAIN ST, FARMINGTON NEW MEXICO 87401 (SAN JUAN MUNICIPIO)",0,C,,110002138357
87401NCHM01215B,-108.167,36.717,False,35,045,000100,35,00000,35045000100,1400000US35045000100,BJ CHEMICAL SERVICES,1215 BASIN RD,FARMINGTON,NM,87401,"BJ CHEMICAL SERVICES.1215 BASIN RD, FARMINGTON NEW MEXICO 87401 (SAN JUAN MUNICIPIO)",0,C,,110000472505
8740WTHSNR1113C,-108.186,36.719,False,35,045,000100,35,00000,35045000100,1400000US35045000100,ETHOSENERGY GENERATOR SERVICES,1113 CAMINA ENTRADA,FARMINGTON,NM,87401,"ETHOSENERGY GENERATOR SERVICES.1113 CAMINA ENTRADA, FARMINGTON NEW MEXICO 87401 (SAN JUAN MUNICIPIO)",0,C,,110022671633
87416BHPNV16MIL,-108.429,36.732,False,35,045,943000,35,00000,35045943000,1400000US35045943000,BHP NAVAJO COAL COMPANY,"16 MILES SOUTH OF FRUITLAND, CR 6675",FRUITLAND,NM,87416,"BHP NAVAJO COAL COMPANY.16 MILES SOUTH OF FRUITLAND, CR 6675, FRUITLAND NEW MEXICO 87416 (SAN JUAN MUNICIPIO)",0,C,,110000607282
87416FRCRNCOUNT,-108.48,36.689,False,35,045,943000,35,00000,35045943000,1400000US35045943000,FOUR CORNERS STEAM ELECTRIC STATION,COUNTY RD 6675,FRUITLAND,NM,87416,"FOUR CORNERS STEAM ELECTRIC STATION.COUNTY RD 6675, FRUITLAND NEW MEXICO 87416 (SAN JUAN MUNICIPIO)",0,C,780,110042068473
87421SNJNGCOUNT,-108.439,36.802,False,35,045,000504,35,00000,35045000504,1400000US35045000504,SAN JUAN GENERATING STATION,COUNTY ROAD 6800,WATERFLOW,NM,87421,"SAN JUAN GENERATING STATION.COUNTY ROAD 6800, WATERFLOW NEW MEXICO 87421 (SAN JUAN MUNICIPIO)",0,C,,110000600868
87421SNJNMCOUNT,-108.432,36.814,False,35,045,000504,35,00000,35045000504,1400000US35045000504,SAN JUAN COAL CO - SAN JUAN MINE,"16 MILES WEST OF FARMINGTON, CR 6800",WATERFLOW,NM,87421,"SAN JUAN COAL CO - SAN JUAN MINE.16 MILES WEST OF FARMINGTON, CR 6800, WATERFLOW NEW MEXICO 87421 (SAN JUAN MUNICIPIO)",0,C,,110000744035
88031MRCNM2010F,-107.73899999999999,32.275999999999996,False,35,029,000600,35,35029,35029000600,1400000US35029000600,AMERICAN MINERALS INC,2010 4TH ST NE,DEMING,NM,88031,"AMERICAN MINERALS INC.2010 4TH ST NE, DEMING NEW MEXICO 88031 (LUNA)",0,C,,
88065PHLPSHWY90,-108.37200000000001,32.66,False,35,017,964200,35,35017,35017964200,1400000US35017964200,FREEPORT-MCMORAN TYRONE INC,HWY 90 AT TYRONE MINE RD,TYRONE,NM,88065,"FREEPORT-MCMORAN TYRONE INC.HWY 90 AT TYRONE MINE RD, TYRONE NEW MEXICO 88065 (GRANT)",0,C,,110042056333
88203LDRMN905WH,-104.461,33.382,False,35,005,001200,35,35005,35005001200,1400000US35005001200,ALDERMAN-CAVE MILLING & GRAIN CO OF NEW MEXICO,905 WHITE MILL RD,ROSWELL,NM,88203,"ALDERMAN-CAVE MILLING & GRAIN CO OF NEW MEXICO.905 WHITE MILL RD, ROSWELL NEW MEXICO 88203 (CHAVES)",0,C,,
88202LNDLK3306E,-104.473,33.336,False,35,005,001200,35,35005,35005001200,1400000US35005001200,LAND O'LAKES FARMLAND FEED,3306 E GRAND PLAINS RD,ROSWELL,NM,88202,"LAND O'LAKES FARMLAND FEED.3306 E GRAND PLAINS RD, ROSWELL NEW MEXICO 88202 (CHAVES)",0,C,,
88401TCMCRHWY54,-103.656,35.205999999999996,False,35,037,958900,35,35037,35037958900,1400000US35037958900,TUCUMCARI REFINED PRODUCTS TERMINAL,HWY 54 (4 MILES E OF TUCUMCARI),TUCUMCARI,NM,88401,"TUCUMCARI REFINED PRODUCTS TERMINAL.HWY 54 (4 MILES E OF TUCUMCARI), TUCUMCARI NEW MEXICO 88401 (QUAY)",0,C,,
87401GRVSF761SM,-108.20299999999999,36.723,False,35,045,000402,35,00000,35045000402,1400000US35045000402,GRAVES OIL & BUTANE,761 S MILLER,FARMINGTON,NM,87401,"GRAVES OIL & BUTANE.761 S MILLER, FARMINGTON NEW MEXICO 87401 (SAN JUAN MUNICIPIO)",0,C,,
87401WDGRP13AIR,-108.22,36.73,False,35,045,000402,35,00000,35045000402,1400000US35045000402,TURBOCARE GENERATOR SERVICES,130 AIRPORT DRIVE,FARMINGTON,NM,87401,"TURBOCARE GENERATOR SERVICES.130 AIRPORT DRIVE, FARMINGTON NEW MEXICO 87401 (SAN JUAN MUNICIPIO)",1,C,,110039018764
87401SFTYK4200A,-108.264,36.739000000000004,False,35,045,000503,35,00000,35045000503,1400000US35045000503,SAFETY-KLEEN SYSTEMS (700804),4200A HAWKINS RD,FARMINGTON,NM,87401,"SAFETY-KLEEN SYSTEMS (700804).4200A HAWKINS RD, FARMINGTON NEW MEXICO 87401 (SAN JUAN MUNICIPIO)",0,C,,110002138366
87031WLLCL550SA,-106.773,34.823,False,35,061,971400,35,35061,35061971400,1400000US35061971400,WALL COLMONOY CORP,550 SAND SAGE RD,LOS LUNAS,NM,87031,"WALL COLMONOY CORP.550 SAND SAGE RD, LOS LUNAS NEW MEXICO 87031 (VALENCIA)",0,C,,110004282623
88211LNDLK110EM,-104.4,32.872,False,35,015,000900,35,35015,35015000900,1400000US35015000900,LAND O'LAKES PURINA FEED LLC - ARTESIA,110 E MILL RD,ARTESIA,NM,88210,"LAND O'LAKES PURINA FEED LLC - ARTESIA.110 E MILL RD, ARTESIA NEW MEXICO 88210 (EDDY)",0,C,,110008061426
87109DLTGR4801L,-106.59,35.141999999999996,False,35,001,003733,35,35001,35001003733,1400000US35001003733,DELTA GROUP ELECTRONICS INC,4801 LINCOLN RD NE,ALBUQUERQUE,NM,87109,"DELTA GROUP ELECTRONICS INC.4801 LINCOLN RD NE, ALBUQUERQUE NEW MEXICO 87109 (BERNALILLO)",0,C,,110004281535
87505LFRGC30COL,-106.074,35.634,False,35,049,010304,35,35049,35049010304,1400000US35049010304,LAFARGE SANTA FE CONCRETE PLANT,30 COLONY DR,SANTA FE,NM,87507,"LAFARGE SANTA FE CONCRETE PLANT.30 COLONY DR, SANTA FE NEW MEXICO 87507 (SANTA FE)",0,C,,110012245908
87740RTNPB940SS,-104.44200000000001,36.884,False,35,007,950600,35,35007,35007950600,1400000US35007950600,RATON PUBLIC SERVICE CO POWER PLANT,940 S SECOND ST,RATON,NM,87740,"RATON PUBLIC SERVICE CO POWER PLANT.940 S SECOND ST, RATON NEW MEXICO 87740 (COLFAX)",0,C,,110001547210
87740WSTRN181NM,-104.46799999999999,36.86,False,35,007,950600,35,35007,35007950600,1400000US35007950600,WESTERN WOOD PRODUCTS,181 NM  HWY 555,RATON,NM,87740,"WESTERN WOOD PRODUCTS.181 NM  HWY 555, RATON NEW MEXICO 87740 (COLFAX)",0,C,,110031416215
88030SPRTN2400A,-107.73,32.25,False,35,029,000100,35,35029,35029000100,1400000US35029000100,SPARTON ELECTRONICS,2400 ATLANTIC WAY,DEMING,NM,88030,"SPARTON ELECTRONICS.2400 ATLANTIC WAY, DEMING NEW MEXICO 88030 (LUNA)",0,C,,110004273900
88240CHMPN2MILE,-103.12799999999999,32.589,False,35,025,000800,35,35025,35025000800,1400000US35025000800,NALCO COMPANY-HOBBS,4001 S HWY 18,HOBBS,NM,88240,"NALCO COMPANY-HOBBS.4001 S HWY 18, HOBBS NEW MEXICO 88240 (LEA)",0,C,,110007976896
8824WNCPLN136ST,-103.28200000000001,32.514,False,35,025,000800,35,35025,35025000800,1400000US35025000800,EUNICE PLANT,136 STATE HWY 175,OIL CENTER,NM,88240,"EUNICE PLANT.136 STATE HWY 175, OIL CENTER NEW MEXICO 88240 (LEA)",0,C,,110055499991
88240DDNSW1400W,-103.15299999999999,32.701,False,35,025,000200,35,35025,35025000200,1400000US35025000200,UNITED FUEL & ENERGY CORP,1400 W BROADWAY,HOBBS,NM,88240,"UNITED FUEL & ENERGY CORP.1400 W BROADWAY, HOBBS NEW MEXICO 88240 (LEA)",0,C,,110012245659
8824WCSTLC221WE,-103.162,32.696999999999996,False,35,025,000200,35,35025,35025000200,1400000US35025000200,COASTAL CHEMICAL CO LLC,2210 W MARLAND ST,HOBBS,NM,88240,"COASTAL CHEMICAL CO LLC.2210 W MARLAND ST, HOBBS NEW MEXICO 88240 (LEA)",0,C,,110061140091
87117SRFRC2050W,-106.551,35.104,False,35,001,000122,35,35001,35001000122,1400000US35001000122,US DOD USAF KIRTLAND AIR FORCE BASE,2050 WYOMING BLVD SE,KIRTLAND AFB,NM,871170001,"US DOD USAF KIRTLAND AIR FORCE BASE.2050 WYOMING BLVD SE, KIRTLAND AFB NEW MEXICO 87117 (BERNALILLO)",0,F,,110001546444
87123MCRCR10420,-106.531,35.055,False,35,001,000714,35,35001,35001000714,1400000US35001000714,SOLAERO TECHNOLOGIES CORP,10420 RESEARCH RD SE,ALBUQUERQUE,NM,87123,"SOLAERO TECHNOLOGIES CORP.10420 RESEARCH RD SE, ALBUQUERQUE NEW MEXICO 87123 (BERNALILLO)",0,C,,110004282071
87401NVRSXCOUNT,-108.215,36.738,False,35,045,000401,35,00000,35045000401,1400000US35045000401,UNIVAR USA INC FARMINGTON,COUNTY RD 5860 #15,FARMINGTON,NM,87401,"UNIVAR USA INC FARMINGTON.COUNTY RD 5860 #15, FARMINGTON NEW MEXICO 87401 (SAN JUAN MUNICIPIO)",0,C,,
87401RYTHNNMHWY,-108.23,36.66,False,35,045,943201,35,00000,35045943201,1400000US35045943201,RAYTHEON MISSLE SYS NAPI FACILITY,NM HWY 371 7 MILES S,FARMINGTON,NM,87401,"RAYTHEON MISSLE SYS NAPI FACILITY.NM HWY 371 7 MILES S, FARMINGTON NEW MEXICO 87401 (SAN JUAN MUNICIPIO)",0,C,,
87401LDCST21BIS,-108.228,36.718,False,35,045,943201,35,00000,35045943201,1400000US35045943201,OLDCASTLE CLIFFSIDE FACILITY,2100 BISTI HWY,FARMINGTON,NM,87401,"OLDCASTLE CLIFFSIDE FACILITY.2100 BISTI HWY, FARMINGTON NEW MEXICO 87401 (SAN JUAN MUNICIPIO)",1,C,,110037148967
87102LFLND23FIR,-106.64299999999999,35.109,False,35,001,002900,35,35001,35001002900,1400000US35001002900,CMC REBAR ALBUQUERQUE,2300 FIRST ST NW,ALBUQUERQUE,NM,87102,"CMC REBAR ALBUQUERQUE.2300 FIRST ST NW, ALBUQUERQUE NEW MEXICO 87102 (BERNALILLO)",0,C,,110020516244
88220SDWST3MILE,-103.79799999999999,32.371,False,35,015,000800,35,35015,35015000800,1400000US35015000800,US DOE WASTE ISOLATION PILOT PLANT,30 MILES E OF CARLSBAD ON THE JAL HWY,CARLSBAD,NM,88220,"US DOE WASTE ISOLATION PILOT PLANT.30 MILES E OF CARLSBAD ON THE JAL HWY, CARLSBAD NEW MEXICO 88220 (EDDY)",0,F,,110060818735
88101STHWS1141C,-103.22399999999999,34.318000000000005,False,35,009,000603,35,35009,35009000603,1400000US35009000603,SOUTHWEST CHEESE LLC,1141 CURRY COUNTY RD 4,CLOVIS,NM,88101,"SOUTHWEST CHEESE LLC.1141 CURRY COUNTY RD 4, CLOVIS NEW MEXICO 88101 (CURRY)",0,C,,110018920471
87121TMPRP1297T,-106.795,35.078,False,35,001,004744,35,35001,35001004744,1400000US35001004744,TEMPUR PRODUCTION USA LLC,12907 TEMPUR PEDIC PKWY,ALBUQUERQUE,NM,87120,"TEMPUR PRODUCTION USA LLC.12907 TEMPUR PEDIC PKWY, ALBUQUERQUE NEW MEXICO 87120 (BERNALILLO)",0,C,,110024557399
87410CHMPN4CUNT,-108.06299999999999,36.763000000000005,False,35,045,000608,35,00000,35045000608,1400000US35045000608,NALCO COMPANY-AZTEC 0533,40 COUNTY RD 3145,AZTEC,NM,87410,"NALCO COMPANY-AZTEC 0533.40 COUNTY RD 3145, AZTEC NEW MEXICO 87410 (SAN JUAN MUNICIPIO)",0,C,,110037149314
8740WCRCHM23CR3,-108.12299999999999,36.738,False,35,045,000608,35,00000,35045000608,1400000US35045000608,CROUCH MESA READY MIX CONCRETE PLANT,230 CR-390,FARMINGTON,NM,87401,"CROUCH MESA READY MIX CONCRETE PLANT.230 CR-390, FARMINGTON NEW MEXICO 87401 (SAN JUAN MUNICIPIO)",0,C,,110069244268
87122SNDXX121GR,-106.586,35.205999999999996,False,35,001,940500,35,35001,35001940500,1400000US35001940500,SANDIA,121 GRAVEL RD,ALBUQUERQUE,NM,87122,"SANDIA.121 GRAVEL RD, ALBUQUERQUE NEW MEXICO 87122 (BERNALILLO)",0,C,,110039495604
87401CPPLX282IN,-105.991,35.663000000000004,False,35,049,001202,35,35049,35049001202,1400000US35049001202,COPPOLA,2820 INDUSTRIAL RD,SANTA FE,NM,87401,"COPPOLA.2820 INDUSTRIAL RD, SANTA FE NEW MEXICO 87401 (SANTA FE)",0,C,,110001556021
88101HPRFD48SPR,-103.197,34.394,False,35,009,000500,35,35009,35009000500,1400000US35009000500,HI-PRO FEEDS CLOVIS,408 SOUTH PRINCE STREET,CLOVIS,NM,88101,"HI-PRO FEEDS CLOVIS.408 SOUTH PRINCE STREET, CLOVIS NEW MEXICO 88101 (CURRY)",0,C,,110001556147
8741WNLCZT27PEP,-108.00399999999999,36.806999999999995,False,35,045,000609,35,00000,35045000609,1400000US35045000609,NALCO COMPANY-AZTEC,2700 PEPSI WAY,AZTEC,NM,87410,"NALCO COMPANY-AZTEC.2700 PEPSI WAY, AZTEC NEW MEXICO 87410 (SAN JUAN MUNICIPIO)",1,C,,110060261611
8824WTHMSP337WC,-103.169,32.736,False,35,025,000600,35,35025,35025000600,1400000US35025000600,THOMAS PETROLEUM LLC HOBBS,3307 W COUNTY RD,HOBBS,NM,88240,"THOMAS PETROLEUM LLC HOBBS.3307 W COUNTY RD, HOBBS NEW MEXICO 88240 (LEA)",1,C,,110028002006
8755WCHVRNPBX46,-105.49799999999999,36.7,False,35,055,952100,35,35055,35055952100,1400000US35055952100,CHEVRON MINING INC,354 STATE HWY 38,QUESTA,NM,87556,"CHEVRON MINING INC.354 STATE HWY 38, QUESTA NEW MEXICO 87556 (TAOS)",1,C,,110007031602
8750WCTRPL26CAM,-106.029,35.63,False,35,049,001302,35,35049,35049001302,1400000US35049001302,CATERPILLAR EMISSIONS SOLUTIONS INC,2600 CAMINO ENTRADA,SANTA FE,NM,87507,"CATERPILLAR EMISSIONS SOLUTIONS INC.2600 CAMINO ENTRADA, SANTA FE NEW MEXICO 87507 (SANTA FE)",0,C,,110004273054
8800WLMRDT21SVA,-106.77600000000001,32.285,False,35,013,000900,35,35013,35013000900,1400000US35013000900,L&M RADIATOR INC,2100 S VALLEY DR,LAS CRUCES,NM,88005,"L&M RADIATOR INC.2100 S VALLEY DR, LAS CRUCES NEW MEXICO 88005 (DONA ANA)",1,C,,110044943791
8800WLMSPC165WA,-106.79799999999999,32.303000000000004,False,35,013,000201,35,35013,35013000201,1400000US35013000201,OLAM SPICES & VEGETABLE INGREDIENTS,1650 W. AMADOR AVE.,LAS CRUCES,NM,88005,"OLAM SPICES & VEGETABLE INGREDIENTS.1650 W. AMADOR AVE., LAS CRUCES NEW MEXICO 88005 (DONA ANA)",0,C,,110001552150
8800WCMXCN181WE,-106.80799999999999,32.302,False,35,013,000201,35,35013,35013000201,1400000US35013000201,GCC SUN CITY MATERIALS LLC - WESTGATE,181 WESTGATE,LAS CRUCES,NM,88005,"GCC SUN CITY MATERIALS LLC - WESTGATE.181 WESTGATE, LAS CRUCES NEW MEXICO 88005 (DONA ANA)",0,C,,110010591680
8813WJDHSK117EC,-103.338,34.188,False,35,041,000100,35,35041,35041000100,1400000US35041000100,JD HEISKELL & CO,117 E COMMERCIAL DR,PORTALES,NM,88130,"JD HEISKELL & CO.117 E COMMERCIAL DR, PORTALES NEW MEXICO 88130 (ROOSEVELT)",0,C,,110040827898
88252JL3GS115SI,-103.17399999999999,32.174,False,35,025,000900,35,35025,35025000900,1400000US35025000900,JAL 3 GAS PLANT,115 SID RICHARDSON RD,JAL,NM,88252,"JAL 3 GAS PLANT.115 SID RICHARDSON RD, JAL NEW MEXICO 88252 (LEA)",0,C,,110055500006
8833WCMXCN14ALA,-105.964,32.975,False,35,035,000603,35,35035,35035000603,1400000US35035000603,"CEMEX CONSTRUCTION MATERIALS SOUTH, LLC - LA LUZ",140 ALAMO,LA LUZ,NM,88337,"CEMEX CONSTRUCTION MATERIALS SOUTH, LLC - LA LUZ.140 ALAMO, LA LUZ NEW MEXICO 88337 (OTERO)",0,C,,110055500015
8710WCMHMN27KAR,-106.64200000000001,35.054,False,35,001,001300,35,35001,35001001300,1400000US35001001300,CLAYTON ALBUQUERQUE,2700 KARSTEN COURT SE,ALBUQUERQUE,NM,87102,"CLAYTON ALBUQUERQUE.2700 KARSTEN COURT SE, ALBUQUERQUE NEW MEXICO 87102 (BERNALILLO)",0,C,,110060260444
8810WCCCLR231W1,-103.365,34.171,False,35,041,000300,35,35041,35041000300,1400000US35041000300,COCA COLA REFRESHMENTS,2301 W. 18TH ST.,PORTALES,NM,88130,"COCA COLA REFRESHMENTS.2301 W. 18TH ST., PORTALES NEW MEXICO 88130 (ROOSEVELT)",1,C,,110060257788
8741WPLTTH1713N,-107.979,36.735,False,35,045,000707,35,00000,35045000707,1400000US35045000707,PILOT THOMAS LOGISTICS - BLOOMFIELD,1713 N 1ST ST,BLOOMFIELD,NM,87413,"PILOT THOMAS LOGISTICS - BLOOMFIELD.1713 N 1ST ST, BLOOMFIELD NEW MEXICO 87413 (SAN JUAN MUNICIPIO)",0,C,,110070069367
