TRIFID,LONGITUDE,LATITUDE,ESTIMATE,STATEFP,COUNTYFP,TRACTCE,STATEGEOID,COUNTYGEOID,TRACTGEOID,AFFGEOID,FACILITY_NAME,STREET,CITY,STUSPS,ZIP_CODE,FACILITY,FAC_CLOSED_IND,ASGN_FEDERAL_IND,BIA_CODE,EPA_REGISTRY_ID
89015GLDBN1001O,-114.954,36.077,False,32,003,005437,32,32003,32003005437,1400000US32003005437,UNILEVER MANUFACTURING (US) INC,1001 OLSEN ST,HENDERSON,NV,89011,"UNILEVER MANUFACTURING (US) INC.1001 OLSEN ST, HENDERSON NEVADA 89011 (CLARK)",0,C,,110000472694
89015KRRMC8000L,-115.0,36.035,False,32,003,005200,32,32003,32003005200,1400000US32003005200,EMD ACQUISITION LLC,560 W LAKE MEAD PKWY,HENDERSON,NV,89015,"EMD ACQUISITION LLC.560 W LAKE MEAD PKWY, HENDERSON NEVADA 89015 (CLARK)",0,C,,110043808467
89015PCFCN8201G,-115.029,36.058,False,32,003,005105,32,32003,32003005105,1400000US32003005105,PACIFIC ENGINEERING & PRODUCTION CO OF NEVADA,8291 GIBSON RD,HENDERSON,NV,89015,"PACIFIC ENGINEERING & PRODUCTION CO OF NEVADA.8291 GIBSON RD, HENDERSON NEVADA 89015 (CLARK)",0,C,,
89015PNRCH8000L,-115.007,36.041,False,32,003,005105,32,32003,32003005105,1400000US32003005105,PIONEER AMERICAS LLC D/B/A OLIN CHLOR ALKALI PRODUCTS,350 FOURTH ST,HENDERSON,NV,89015,"PIONEER AMERICAS LLC D/B/A OLIN CHLOR ALKALI PRODUCTS.350 FOURTH ST, HENDERSON NEVADA 89015 (CLARK)",0,C,,110042074457
89015TTNMMPOBOX,-114.99600000000001,36.041,False,32,003,005105,32,32003,32003005105,1400000US32003005105,TITANIUM METALS CORP,181 N WATER ST,HENDERSON,NV,89015,"TITANIUM METALS CORP.181 N WATER ST, HENDERSON NEVADA 89015 (CLARK)",0,C,,110046475881
89015THTCH7300L,-115.01799999999999,36.034,False,32,003,005105,32,32003,32003005105,1400000US32003005105,THATCHER CO OF NEVADA,90 BUSINESS CENTER STREET,HENDERSON,NV,89014,"THATCHER CO OF NEVADA.90 BUSINESS CENTER STREET, HENDERSON NEVADA 89014 (CLARK)",0,C,,110000579008
89015MNRLF430EA,-115.02,36.058,False,32,003,005105,32,32003,32003005105,1400000US32003005105,BORAL ROOFING - HENDERSON,430 EASTGATE RD,HENDERSON,NV,89011,"BORAL ROOFING - HENDERSON.430 EASTGATE RD, HENDERSON NEVADA 89011 (CLARK)",0,C,,110001560926
89015LSVGSEASTG,-115.02,36.06,False,32,003,005105,32,32003,32003005105,1400000US32003005105,LAS VEGAS PAVING CORP,EASTGATE RD & CAPE HORN DR,HENDERSON,NV,89015,"LAS VEGAS PAVING CORP.EASTGATE RD & CAPE HORN DR, HENDERSON NEVADA 89015 (CLARK)",0,C,,110025332209
89015SRVCR8354T,-115.006,36.037,False,32,003,005105,32,32003,32003005105,1400000US32003005105,SERVICE ROCK PRODUCTS INC - 4TH STREET,8350 4TH ST,HENDERSON,NV,89015,"SERVICE ROCK PRODUCTS INC - 4TH STREET.8350 4TH ST, HENDERSON NEVADA 89015 (CLARK)",0,C,,110020516752
89015RNKRM75CAP,-115.02600000000001,36.06,False,32,003,005105,32,32003,32003005105,1400000US32003005105,RINKER MATERIALS HENDERSON 1854,750 CAPEHORN,HENDERSON,NV,89015,"RINKER MATERIALS HENDERSON 1854.750 CAPEHORN, HENDERSON NEVADA 89015 (CLARK)",0,C,,
89014SLVRS45EAS,-115.02,36.06,False,32,003,005105,32,32003,32003005105,1400000US32003005105,CALPORTLAND CO HENDERSON PLANT,450 EASTGATE RD,HENDERSON,NV,89014,"CALPORTLAND CO HENDERSON PLANT.450 EASTGATE RD, HENDERSON NEVADA 89014 (CLARK)",0,C,,110004304315
8901WSGRPW435FU,-115.008,36.044000000000004,False,32,003,005105,32,32003,32003005105,1400000US32003005105,SAGUARO POWER COMPANY,435 FOURTH STREET,HENDERSON,NV,89015,"SAGUARO POWER COMPANY.435 FOURTH STREET, HENDERSON NEVADA 89015 (CLARK)",0,C,,110039495613
89030CPTLC3645L,-115.12100000000001,36.226,False,32,003,003626,32,32003,32003003626,1400000US32003003626,CAPITAL CABINET CORP,3645 LOSEE RD,NORTH LAS VEGAS,NV,89030,"CAPITAL CABINET CORP.3645 LOSEE RD, NORTH LAS VEGAS NEVADA 89030 (CLARK)",0,C,,
89030JNSNP3853L,-115.118,36.23,False,32,003,003626,32,32003,32003003626,1400000US32003003626,JENSEN PRECAST,3853 LOSEE RD,NORTH LAS VEGAS,NV,89030,"JENSEN PRECAST.3853 LOSEE RD, NORTH LAS VEGAS NEVADA 89030 (CLARK)",0,C,,110025332227
89030THRMF4ARCA,-115.12100000000001,36.232,False,32,003,003626,32,32003,32003003626,1400000US32003003626,THERMO FLUIDS INC ANTIFREEZE SERVICES,4000 ARCATA WAY,NORTH LAS VEGAS,NV,89030,"THERMO FLUIDS INC ANTIFREEZE SERVICES.4000 ARCATA WAY, NORTH LAS VEGAS NEVADA 89030 (CLARK)",0,C,,
89031MTLSP47ENG,-115.104,36.246,False,32,003,003626,32,32003,32003003626,1400000US32003003626,METL-SPAN A DIV OF NCI GROUP INC,4700 ENGINEERS WAY SUITE 103,NORTH LAS VEGAS,NV,89081,"METL-SPAN A DIV OF NCI GROUP INC.4700 ENGINEERS WAY SUITE 103, NORTH LAS VEGAS NEVADA 89081 (CLARK)",0,C,,110030999739
89031SFTYK4582D,-115.103,36.244,False,32,003,003626,32,32003,32003003626,1400000US32003003626,SAFETY-KLEEN SYSTEMS NORTH LAS VEGAS (LVN),4582 DONOVAN WAY,NORTH LAS VEGAS,NV,89081,"SAFETY-KLEEN SYSTEMS NORTH LAS VEGAS (LVN).4582 DONOVAN WAY, NORTH LAS VEGAS NEVADA 89081 (CLARK)",0,C,,110007980881
8908WCSTMB3115E,-115.105,36.247,False,32,003,003626,32,32003,32003003626,1400000US32003003626,CUSTOM BUILDING PRODUCTS,3115 E. LONE MOUNTAIN RD. SUITE 1000,NORTH LAS VEGAS,NV,89081,"CUSTOM BUILDING PRODUCTS.3115 E. LONE MOUNTAIN RD. SUITE 1000, NORTH LAS VEGAS NEVADA 89081 (CLARK)",0,C,,110027842397
8903WJNSNP384NB,-115.125,36.229,False,32,003,003626,32,32003,32003003626,1400000US32003003626,JENSEN PRECAST,3840 N BRUCE ST,NORTH LAS VEGAS,NV,89030,"JENSEN PRECAST.3840 N BRUCE ST, NORTH LAS VEGAS NEVADA 89030 (CLARK)",0,C,,110069255861
89047FTMNRHWY26,-117.656,37.74,False,32,009,950100,32,32009,32009950100,1400000US32009950100,ALBEMARLE US INC,HWY 265,SILVERPEAK,NV,89047,"ALBEMARLE US INC.HWY 265, SILVERPEAK NEVADA 89047 (ESMERALDA)",0,C,,110007978876
89047MNRLR200MI,-117.70700000000001,37.813,False,32,009,950100,32,32009,32009950100,1400000US32009950100,MINERAL RIDGE MINE,1 COYOTE RD,SILVERPEAK,NV,89047,"MINERAL RIDGE MINE.1 COYOTE RD, SILVERPEAK NEVADA 89047 (ESMERALDA)",0,C,,110044943728
89102SPRKL3140P,-115.186,36.132,False,32,003,002201,32,32003,32003002201,1400000US32003002201,SPARKLETTS WATER SYSTEMS AQUA VEND,3140 POLARIS #10,LAS VEGAS,NV,89102,"SPARKLETTS WATER SYSTEMS AQUA VEND.3140 POLARIS #10, LAS VEGAS NEVADA 89102 (CLARK)",0,C,,
89109SPRTN2441W,-115.176,36.13,False,32,003,002201,32,32003,32003002201,1400000US32003002201,SPARTAN OF NEVADA INC,2441 W DESERT INN RD,LAS VEGAS,NV,89109,"SPARTAN OF NEVADA INC.2441 W DESERT INN RD, LAS VEGAS NEVADA 89109 (CLARK)",1,C,,
89102SPRKL4225W,-115.197,36.13,False,32,003,002206,32,32003,32003002206,1400000US32003002206,SPARKLETTS DRINKING WATER CORP,4225 W DESERT INN RD,LAS VEGAS,NV,89102,"SPARKLETTS DRINKING WATER CORP.4225 W DESERT INN RD, LAS VEGAS NEVADA 89102 (CLARK)",0,C,,
89301PTRSRSTARR,-115.619,38.622,False,32,023,960100,32,32023,32023960100,1400000US32023960100,"PETRO SOURCE REFINING PARTNERS, EAGLE SPRINGS REFINERY",67 MILES SW OF ELY ON HWY 6,ELY,NV,89301,"PETRO SOURCE REFINING PARTNERS, EAGLE SPRINGS REFINERY.67 MILES SW OF ELY ON HWY 6, ELY NEVADA 89301 (NYE)",2,C,,
89045SMKYV1SMOK,-117.094,38.721,False,32,023,960100,32,32023,32023960100,1400000US32023960100,SMOKY VALLEY COMMON OPERATION,#1 SMOKY VALLEY MINE RD 45 MI N OF TONOPAH ON SR,ROUND MOUNTAIN,NV,89045,"SMOKY VALLEY COMMON OPERATION.#1 SMOKY VALLEY MINE RD 45 MI N OF TONOPAH ON SR, ROUND MOUNTAIN NEVADA 89045 (NYE)",0,C,,110009460733
89301FRLNDHC34B,-115.619,38.622,False,32,023,960100,32,32023,32023960100,1400000US32023960100,FORELAND REFINING CORP EAGLE SPRINGS REFINERY,HC 34 BOX 34830 65 MI SW OF ELY ON HYW 6,ELY,NV,89301,"FORELAND REFINING CORP EAGLE SPRINGS REFINERY.HC 34 BOX 34830 65 MI SW OF ELY ON HYW 6, ELY NEVADA 89301 (NYE)",0,C,,110020516529
89406NVDRF11MIL,-118.78299999999999,39.479,False,32,001,950302,32,32001,32001950302,1400000US32001950302,KENNAMETAL INC (REFINERY),11 MILES N OF FALLON ON HWY 95,FALLON,NV,89406,"KENNAMETAL INC (REFINERY).11 MILES N OF FALLON ON HWY 95, FALLON NEVADA 89406 (CHURCHILL)",0,C,,110024422864
89406NVDRF347NT,-118.78200000000001,39.479,False,32,001,950302,32,32001,32001950302,1400000US32001950302,KENNAMETAL INC (TOWN),347 N TAYLOR ST,FALLON,NV,89406,"KENNAMETAL INC (TOWN).347 N TAYLOR ST, FALLON NEVADA 89406 (CHURCHILL)",0,C,,110021084066
8949WSNVLRNRTHU,-118.77799999999999,39.475,False,32,001,950302,32,32001,32001950302,1400000US32001950302,US NAVAL AIR STATION FALLON BRAVO 20,NORTH US HWY 95,FALLON,NV,89496,"US NAVAL AIR STATION FALLON BRAVO 20.NORTH US HWY 95, FALLON NEVADA 89496 (CHURCHILL)",0,F,,110067126032
8949WSNVLRUSHWY,-118.77799999999999,39.475,False,32,001,950302,32,32001,32001950302,1400000US32001950302,US NAVAL AIR STATION FALLON BRAVO 19,US HWY 95,FALLON,NV,89496,"US NAVAL AIR STATION FALLON BRAVO 19.US HWY 95, FALLON NEVADA 89496 (CHURCHILL)",0,F,,110067128441
89408RMXNC210LY,-119.206,39.606,False,32,019,960103,32,32019,32019960103,1400000US32019960103,RMAX OPERATING LLC,210 LYON DRIVE,FERNLEY,NV,89408,"RMAX OPERATING LLC.210 LYON DRIVE, FERNLEY NEVADA 89408 (LYON)",0,C,,110000472854
89408CNTRY2095N,-119.20299999999999,39.61,False,32,019,960103,32,32019,32019960103,1400000US32019960103,21ST CENTURY ENVIRONMENTAL MANAGEMENT OF NEVADA LLC,2095 NEWLANDS DR E,FERNLEY,NV,89408,"21ST CENTURY ENVIRONMENTAL MANAGEMENT OF NEVADA LLC.2095 NEWLANDS DR E, FERNLEY NEVADA 89408 (LYON)",0,C,,110020509831
89408NVDCMHWYI8,-119.262,39.62,False,32,019,960103,32,32019,32019960103,1400000US32019960103,NEVADA CEMENT CO,"INTERSTATE 80, EXIT 46",FERNLEY,NV,89408,"NEVADA CEMENT CO.INTERSTATE 80, EXIT 46, FERNLEY NEVADA 89408 (LYON)",0,C,,110000918179
89408SSNTL15SAL,-119.204,39.605,False,32,019,960103,32,32019,32019960103,1400000US32019960103,ESSENTIAL WEST,15 SALVADORE DR,FERNLEY,NV,89408,"ESSENTIAL WEST.15 SALVADORE DR, FERNLEY NEVADA 89408 (LYON)",0,C,,
89408QBCRP2000E,-119.2,39.613,False,32,019,960103,32,32019,32019960103,1400000US32019960103,QG PRINTING II LLC,2200 EAST NEWLANDS DRIVE,FERNLEY,NV,89408,"QG PRINTING II LLC.2200 EAST NEWLANDS DRIVE, FERNLEY NEVADA 89408 (LYON)",0,C,,110000472845
89408VLLYJ255LO,-119.259,39.614000000000004,False,32,019,960103,32,32019,32019960103,1400000US32019960103,VALLEY JOIST LLC,255 LOGAN RD,FERNLEY,NV,89408,"VALLEY JOIST LLC.255 LOGAN RD, FERNLEY NEVADA 89408 (LYON)",0,C,,110012263718
89408RNCFR19RES,-119.2,39.606,False,32,019,960103,32,32019,32019960103,1400000US32019960103,A.R.E. ACCESSORIES LLC -  FERNLEY,190 RESOURCE DR,FERNLEY,NV,89408,"A.R.E. ACCESSORIES LLC -  FERNLEY.190 RESOURCE DR, FERNLEY NEVADA 89408 (LYON)",0,C,,110021084547
89408JHNSM325IN,-119.20299999999999,39.604,False,32,019,960103,32,32019,32019960103,1400000US32019960103,JOHNS MANVILLE,325 INDUSTRIAL DR,FERNLEY,NV,89408,"JOHNS MANVILLE.325 INDUSTRIAL DR, FERNLEY NEVADA 89408 (LYON)",0,C,,110001561943
89408SHRWN1891D,-119.208,39.617,False,32,019,960103,32,32019,32019960103,1400000US32019960103,SHERWIN-WILLIAMS CO,1891 DUFFY RD,FERNLEY,NV,89408,"SHERWIN-WILLIAMS CO.1891 DUFFY RD, FERNLEY NEVADA 89408 (LYON)",0,C,,110030999757
89408FLDMR375IN,-119.20100000000001,39.603,False,32,019,960103,32,32019,32019960103,1400000US32019960103,FELDMEIER EQUIPMENT INC,375 IND US TRIAL DR,FERNLEY,NV,89408,"FELDMEIER EQUIPMENT INC.375 IND US TRIAL DR, FERNLEY NEVADA 89408 (LYON)",0,C,,110046371733
89408PRMNT425SL,-119.24799999999999,39.613,False,32,019,960103,32,32019,32019960103,1400000US32019960103,PNAC LLC (FERNLEY),425 S LOGAN LN,FERNLEY,NV,89408,"PNAC LLC (FERNLEY).425 S LOGAN LN, FERNLEY NEVADA 89408 (LYON)",0,C,,110027851448
89408TRXCN18ENE,-119.20700000000001,39.611,False,32,019,960103,32,32019,32019960103,1400000US32019960103,TREX - NEVADA MANUFACTURING OPERATIONS,1800 E NEWLANDS DR,FERNLEY,NV,89408,"TREX - NEVADA MANUFACTURING OPERATIONS.1800 E NEWLANDS DR, FERNLEY NEVADA 89408 (LYON)",0,C,,110037515659
8940WPLYGL15LYN,-119.20700000000001,39.604,False,32,019,960103,32,32019,32019960103,1400000US32019960103,POLYGLASS USA INC,150 LYON DR,FERNLEY,NV,89408,"POLYGLASS USA INC.150 LYON DR, FERNLEY NEVADA 89408 (LYON)",0,C,,110001560560
89410RVPCF1198S,-119.7,38.926,False,32,005,002300,32,32005,32005002300,1400000US32005002300,AERVOE INDUSTRIES INC,1191 MARK CIRCLE,GARDNERVILLE,NV,89410,"AERVOE INDUSTRIES INC.1191 MARK CIRCLE, GARDNERVILLE NEVADA 89410 (DOUGLAS)",0,C,,110011395551
89423BNTLYORCHA,-119.72399999999999,38.963,False,32,005,002300,32,32005,32005002300,1400000US32005002300,BENTLY NEVADA CORP PWB FACILITY,1711 ORBIT WAY,MINDEN,NV,89423,"BENTLY NEVADA CORP PWB FACILITY.1711 ORBIT WAY, MINDEN NEVADA 89423 (DOUGLAS)",0,C,,
89423BNTLY1631B,-119.726,38.957,False,32,005,002300,32,32005,32005002300,1400000US32005002300,OS OPERATIONS LLC,1631 BENTLY PKWY S,MINDEN,NV,89423,"OS OPERATIONS LLC.1631 BENTLY PKWY S, MINDEN NEVADA 89423 (DOUGLAS)",0,C,,110021331094
89415HWTHRPOBOX,-118.633,38.563,False,32,021,970700,32,32021,32021970700,1400000US32021970700,HAWTHORNE ARMY AMMUNITION PLANT,US RTE 95 N,HAWTHORNE,NV,894155000,"HAWTHORNE ARMY AMMUNITION PLANT.US RTE 95 N, HAWTHORNE NEVADA 89415 (MINERAL)",2,G,,
89415SRMYHUSRTE,-118.633,38.563,False,32,021,970700,32,32021,32021970700,1400000US32021970700,US ARMY HAWTHORNE ARMY DEPOT MAIN BASE,1 S MAINE AVE,HAWTHORNE,NV,89415,"US ARMY HAWTHORNE ARMY DEPOT MAIN BASE.1 S MAINE AVE, HAWTHORNE NEVADA 89415 (MINERAL)",0,F,,110042074545
89415HWTHRSEQTR,-118.633,38.563,False,32,021,970700,32,32021,32021970700,1400000US32021970700,US ARMY HAWTHORNE ARMY DEPOT NEW BOMB,HAWTHORNE ARMY DEPOT SE QTR SEC 33 T5N R3O,HAWTHORNE,NV,89415,"US ARMY HAWTHORNE ARMY DEPOT NEW BOMB.HAWTHORNE ARMY DEPOT SE QTR SEC 33 T5N R3O, HAWTHORNE NEVADA 89415 (MINERAL)",0,F,,110042074545
89415SRMYHSEC30,-118.633,38.563,False,32,021,970700,32,32021,32021970700,1400000US32021970700,US ARMY HAWTHORNE ARMY DEPOT OLD BOMB,HWAD T7N R30E SEC 30 1 S MAINE AVE,HAWTHORNE,NV,89415,"US ARMY HAWTHORNE ARMY DEPOT OLD BOMB.HWAD T7N R30E SEC 30 1 S MAINE AVE, HAWTHORNE NEVADA 89415 (MINERAL)",0,F,,110042074545
89419SBRXT27MIL,-118.46700000000001,40.189,False,32,027,960100,32,32027,32027960100,1400000US32027960100,US BORAX & CHEMICAL CORP TRINITY SILVER MINE,27 MILES NW OF LOVELOCK,LOVELOCK,NV,89419,"US BORAX & CHEMICAL CORP TRINITY SILVER MINE.27 MILES NW OF LOVELOCK, LOVELOCK NEVADA 89419 (PERSHING)",1,C,,
89418FLRDCEXIT1,-118.245,40.584,False,32,027,960100,32,32027,32027960100,1400000US32027960100,FLORIDA CANYON & STANDARD MINES,EXIT 138 I-80,IMLAY,NV,89418,"FLORIDA CANYON & STANDARD MINES.EXIT 138 I-80, IMLAY NEVADA 89418 (PERSHING)",0,C,,110007978581
89419CRRCH180EX,-118.141,40.288000000000004,False,32,027,960100,32,32027,32027960100,1400000US32027960100,COEUR ROCHESTER INC,HWY I-80 EXT 119 23 MILES NE OF LOVELOCK,LOVELOCK,NV,89419,"COEUR ROCHESTER INC.HWY I-80 EXT 119 23 MILES NE OF LOVELOCK, LOVELOCK NEVADA 89419 (PERSHING)",0,C,,110000472890
89423BNTLY1617W,-119.764,38.955,False,32,005,001400,32,32005,32005001400,1400000US32005001400,BENTLY NEVADA CORP,1617 WATER ST,MINDEN,NV,89423,"BENTLY NEVADA CORP.1617 WATER ST, MINDEN NEVADA 89423 (DOUGLAS)",0,C,,
89431GRNGP909EG,-119.728,39.527,False,32,031,003101,32,32031,32031003101,1400000US32031003101,COLORITE PLASTICS CO,909 E GLENDALE AVE,SPARKS,NV,89431,"COLORITE PLASTICS CO.909 E GLENDALE AVE, SPARKS NEVADA 89431 (WASHOE)",0,C,,110000499087
89431RLSTN1055E,-119.727,39.521,False,32,031,003101,32,32031,32031003101,1400000US32031003101,RALSTON PURINA CO,1055 E GREG ST,SPARKS,NV,89431,"RALSTON PURINA CO.1055 E GREG ST, SPARKS NEVADA 89431 (WASHOE)",0,C,,
89431SRRCHKEANC,-119.7,39.523,False,32,031,003101,32,32031,32031003101,1400000US32031003101,SIERRA CHEMICAL CO KEAN CANYON,KEAN CANYON,SPARKS,NV,89431,"SIERRA CHEMICAL CO KEAN CANYON.KEAN CANYON, SPARKS NEVADA 89431 (WASHOE)",1,C,,
89431MRCNL760SP,-119.73200000000001,39.513000000000005,False,32,031,003101,32,32031,32031003101,1400000US32031003101,THOMAS & BETTS CORP SPARKS FACILITY,760 SPICE ISLAND DR,SPARKS,NV,89431,"THOMAS & BETTS CORP SPARKS FACILITY.760 SPICE ISLAND DR, SPARKS NEVADA 89431 (WASHOE)",1,C,,
89431FLDCX245CO,-119.74600000000001,39.519,False,32,031,003101,32,32031,32031003101,1400000US32031003101,FLOOD CO,245 CONEY ISLAND DR,SPARKS,NV,89431,"FLOOD CO.245 CONEY ISLAND DR, SPARKS NEVADA 89431 (WASHOE)",0,C,,
89431SRRCH2302L,-119.697,39.524,False,32,031,003101,32,32031,32031003101,1400000US32031003101,THATCHER CO OF NEVADA,2302 LARKIN CIR,SPARKS,NV,89431,"THATCHER CO OF NEVADA.2302 LARKIN CIR, SPARKS NEVADA 89431 (WASHOE)",0,C,,110000875321
89431FRNKC685EA,-119.735,39.527,False,32,031,003101,32,32031,32031003101,1400000US32031003101,FRANKE CONTRACT GROUP SP,685 E GLENDALE AVE,SPARKS,NV,89431,"FRANKE CONTRACT GROUP SP.685 E GLENDALE AVE, SPARKS NEVADA 89431 (WASHOE)",0,C,,
89431NDSTR1225E,-119.72399999999999,39.521,False,32,031,003101,32,32031,32031003101,1400000US32031003101,INDUSTRIAL STERILIZATION OF NEVADA,1225 E GREG ST SUITE 101,SPARKS,NV,89431,"INDUSTRIAL STERILIZATION OF NEVADA.1225 E GREG ST SUITE 101, SPARKS NEVADA 89431 (WASHOE)",0,C,,
89431PRFCT1498K,-119.71799999999999,39.525,False,32,031,003101,32,32031,32031003101,1400000US32031003101,WEGMANN AUTOMOTIVE USA INC,1498 KLEPPE LN,SPARKS,NV,89431,"WEGMANN AUTOMOTIVE USA INC.1498 KLEPPE LN, SPARKS NEVADA 89431 (WASHOE)",0,C,,110009460555
89434DSNCX2080B,-119.704,39.528,False,32,031,003101,32,32031,32031003101,1400000US32031003101,DIS INC,2080 BRIERLY WAY 101,SPARKS,NV,89434,"DIS INC.2080 BRIERLY WAY 101, SPARKS NEVADA 89434 (WASHOE)",0,C,,
89431MSTRB1475L,-119.74799999999999,39.523,False,32,031,003101,32,32031,32031003101,1400000US32031003101,MASTER-BILT ENGINEERED STRUCTURES,1475 LINDA WAY,SPARKS,NV,89431,"MASTER-BILT ENGINEERED STRUCTURES.1475 LINDA WAY, SPARKS NEVADA 89431 (WASHOE)",0,C,,
89431TYCVL650SP,-119.734,39.516,False,32,031,003101,32,32031,32031003101,1400000US32031003101,TYCO VALVES & CONTROLS,650 SPICE ISLAND DR,SPARKS,NV,89431,"TYCO VALVES & CONTROLS.650 SPICE ISLAND DR, SPARKS NEVADA 89431 (WASHOE)",1,C,,
89431KLPKR905SO,-119.751,39.524,False,32,031,003101,32,32031,32031003101,1400000US32031003101,KOLPAK REFRIGERATION SPARKS DIV,905 SOUTHERN WAY,SPARKS,NV,89431,"KOLPAK REFRIGERATION SPARKS DIV.905 SOUTHERN WAY, SPARKS NEVADA 89431 (WASHOE)",0,C,,
89431LTSPC1225G,-119.723,39.521,False,32,031,003101,32,32031,32031003101,1400000US32031003101,ELITE SPICE INC,1225 E GREG ST,SPARKS,NV,89431,"ELITE SPICE INC.1225 E GREG ST, SPARKS NEVADA 89431 (WASHOE)",0,C,,110000472925
89436NTCHC200VI,-119.70299999999999,39.53,False,32,031,003101,32,32031,32031003101,1400000US32031003101,ANTIOCH CO,200 VISTA BLVD #105,SPARKS,NV,894346697,"ANTIOCH CO.200 VISTA BLVD #105, SPARKS NEVADA 89434 (WASHOE)",0,C,,
89431JNSNP625BE,-119.738,39.529,False,32,031,003101,32,32031,32031003101,1400000US32031003101,JENSEN PRECAST,625 BERGIN WAY,SPARKS,NV,894315883,"JENSEN PRECAST.625 BERGIN WAY, SPARKS NEVADA 89431 (WASHOE)",0,C,,110004300550
89431MFGRT855EG,-119.73100000000001,39.521,False,32,031,003101,32,32031,32031003101,1400000US32031003101,MFG GALILEO COMPOSITES,855 E GREG ST SUITE 103,SPARKS,NV,89431,"MFG GALILEO COMPOSITES.855 E GREG ST SUITE 103, SPARKS NEVADA 89431 (WASHOE)",0,C,,110004285906
89431CMMSC1285S,-119.751,39.522,False,32,031,003101,32,32031,32031003101,1400000US32031003101,COMMSCOPE SPARKS NEVADA DISTRIBUTION CENTER,1285 SOUTHERN WAY,SPARKS,NV,89431,"COMMSCOPE SPARKS NEVADA DISTRIBUTION CENTER.1285 SOUTHERN WAY, SPARKS NEVADA 89431 (WASHOE)",1,C,,110022524339
89431PRTTY75SPI,-119.73200000000001,39.513000000000005,False,32,031,003101,32,32031,32031003101,1400000US32031003101,PROTOTYPE CONCEPTS INC,750 SPICE ISLAND DR,SPARKS,NV,89431,"PROTOTYPE CONCEPTS INC.750 SPICE ISLAND DR, SPARKS NEVADA 89431 (WASHOE)",0,C,,110020744649
89512RNSPR333GA,-119.78,39.534,False,32,031,003101,32,32031,32031003101,1400000US32031003101,CEMEX CONSTRUCTION MATERIALS LP - RENO RM PLANT,333 GALLETTI WAY,RENO,NV,89512,"CEMEX CONSTRUCTION MATERIALS LP - RENO RM PLANT.333 GALLETTI WAY, RENO NEVADA 89512 (WASHOE)",0,C,,110021330852
8943WSPKSS995SM,-119.74,39.524,False,32,031,003101,32,32031,32031003101,1400000US32031003101,89431SPKS995S,995 S. MCCARRAN,SPARKS,NV,89431,"89431SPKS995S.995 S. MCCARRAN, SPARKS NEVADA 89431 (WASHOE)",0,C,,110042003202
8943WDRLNX1284E,-119.72399999999999,39.528,False,32,031,003101,32,32031,32031003101,1400000US32031003101,DURA-LINE,1284 E GLENDALE AVE,SPARKS,NV,89431,"DURA-LINE.1284 E GLENDALE AVE, SPARKS NEVADA 89431 (WASHOE)",0,C,,110066845855
8943WMRCNR1475E,-119.71700000000001,39.521,False,32,031,003101,32,32031,32031003101,1400000US32031003101,AMERICAN READY MIX SPARKS PLANT,1475 E GREG ST,SPARKS,NV,89431,"AMERICAN READY MIX SPARKS PLANT.1475 E GREG ST, SPARKS NEVADA 89431 (WASHOE)",0,C,,110031342296
8943WSTHWN128SU,-119.751,39.523,False,32,031,003101,32,32031,32031003101,1400000US32031003101,SOUTHWIN LTD NEVADA,1280 SOUTHERN WAY,SPARKS,NV,89431,"SOUTHWIN LTD NEVADA.1280 SOUTHERN WAY, SPARKS NEVADA 89431 (WASHOE)",0,C,,110060259198
8943WLCKWDINTER,-119.76899999999999,39.528,False,32,031,003101,32,32031,32031003101,1400000US32031003101,LOCKWOOD - GRANITE MATERIALS,INTERSTATE 80 EXIT 21/22 - LOCKWOOD,LOCKWOOD,NV,89431,"LOCKWOOD - GRANITE MATERIALS.INTERSTATE 80 EXIT 21/22 - LOCKWOOD, LOCKWOOD NEVADA 89431 (WASHOE)",0,C,,110059850120
89439QNXVK1ERIC,-119.979,39.522,False,32,031,002302,32,32031,32031002302,1400000US32031002302,SCHLOSSER FORGE CO,1 ERIK CIRCLE,VERDI,NV,89439,"SCHLOSSER FORGE CO.1 ERIK CIRCLE, VERDI NEVADA 89439 (WASHOE)",0,C,,110000472970
89439WLLSM2ERIK,-119.979,39.522,False,32,031,002302,32,32031,32031002302,1400000US32031002302,WELLS MANUFACTURING CO.,2 ERIK CIR,VERDI,NV,89439,"WELLS MANUFACTURING CO..2 ERIK CIR, VERDI NEVADA 89439 (WASHOE)",0,C,,110000472989
89447SLLVN270NO,-119.165,38.994,False,32,019,960900,32,32019,32019960900,1400000US32019960900,POLYONE ENGINEERED FILMS GROUP YERINGTON PLANT,270 N HWY 95A,YERINGTON,NV,89447,"POLYONE ENGINEERED FILMS GROUP YERINGTON PLANT.270 N HWY 95A, YERINGTON NEVADA 89447 (LYON)",0,C,,
89447FRTCH1000S,-119.133,39.126999999999995,False,32,019,960900,32,32019,32019960900,1400000US32019960900,FORT CHURCHILL POWER STATION,1000 SIERRA WAY,YERINGTON,NV,894478764,"FORT CHURCHILL POWER STATION.1000 SIERRA WAY, YERINGTON NEVADA 89447 (LYON)",0,C,,110000473014
89502SRRCH1490E,-119.79299999999999,39.527,False,32,031,000700,32,32031,32031000700,1400000US32031000700,SIERRA CHEMICAL CO,1490 E SECOND ST,RENO,NV,89502,"SIERRA CHEMICAL CO.1490 E SECOND ST, RENO NEVADA 89502 (WASHOE)",0,C,,
89502MDLDR500GO,-119.792,39.524,False,32,031,000700,32,32031,32031000700,1400000US32031000700,MODEL DAIRY,500 GOULD ST,RENO,NV,89502,"MODEL DAIRY.500 GOULD ST, RENO NEVADA 89502 (WASHOE)",0,C,,110004286282
89506GNRLP7970S,-119.835,39.595,False,32,031,002619,32,32031,32031002619,1400000US32031002619,SUN CHEMICAL CORP,7970 SECURITY CIR,RENO,NV,89506,"SUN CHEMICAL CORP.7970 SECURITY CIR, RENO NEVADA 89506 (WASHOE)",0,C,,110000473041
89506PRCSN14255,-119.883,39.659,False,32,031,980100,32,32031,32031980100,1400000US32031980100,VDM METALS USA LLC,14255 MOUNT BISMARK ST,RENO,NV,89506,"VDM METALS USA LLC.14255 MOUNT BISMARK ST, RENO NEVADA 89506 (WASHOE)",0,C,,110000473087
89506RRDNN14100,-119.884,39.646,False,32,031,980100,32,32031,32031980100,1400000US32031980100,LSC COMMUNICATIONS / RENO N,14100 LEAR BLVD,RENO,NV,89506,"LSC COMMUNICATIONS / RENO N.14100 LEAR BLVD, RENO NEVADA 89506 (WASHOE)",0,C,,110000473096
89506HDDNV12150,-119.897,39.647,False,32,031,980100,32,32031,32031980100,1400000US32031980100,HV MANUFACTURING CO,12150 MOYA BLVD,RENO,NV,89506,"HV MANUFACTURING CO.12150 MOYA BLVD, RENO NEVADA 89506 (WASHOE)",0,C,,
89506MSTRH14331,-119.89299999999999,39.643,False,32,031,980100,32,32031,32031980100,1400000US32031980100,MASTER-HALCO INC,14331 LEAR BLVD,RENO,NV,89506,"MASTER-HALCO INC.14331 LEAR BLVD, RENO NEVADA 89506 (WASHOE)",0,C,,110000473078
89506SBHSW14291,-119.889,39.643,False,32,031,980100,32,32031,32031980100,1400000US32031980100,AMERICAN WATER HEATER CO,14291 LEAR BLVD,RENO,NV,89506,"AMERICAN WATER HEATER CO.14291 LEAR BLVD, RENO NEVADA 89506 (WASHOE)",1,C,,
89506MCHLN14551,-119.89299999999999,39.657,False,32,031,980100,32,32031,32031980100,1400000US32031980100,MICHELIN NORTH AMERICA INC,14551 INDUSTRY CIRCLE SUITE B,RENO,NV,89506,"MICHELIN NORTH AMERICA INC.14551 INDUSTRY CIRCLE SUITE B, RENO NEVADA 89506 (WASHOE)",0,C,,
89506CHVRN14381,-119.89200000000001,39.643,False,32,031,980100,32,32031,32031980100,1400000US32031980100,CHEVRON PHILLIPS CHEMICAL CO PERFORMANCE PIPE DIV,14381 LEAR BLVD,RENO,NV,89506,"CHEVRON PHILLIPS CHEMICAL CO PERFORMANCE PIPE DIV.14381 LEAR BLVD, RENO NEVADA 89506 (WASHOE)",0,C,,110004292774
89506TRNCS14305,-119.885,39.659,False,32,031,980100,32,32031,32031980100,1400000US32031980100,ITRONICS METALLURGICAL INC.,14305 MT. MCCLELLAN ST,RENO,NV,89506,"ITRONICS METALLURGICAL INC..14305 MT. MCCLELLAN ST, RENO NEVADA 89506 (WASHOE)",0,C,,110004305591
89506CLDCH664EC,-119.899,39.655,False,32,031,980100,32,32031,32031980100,1400000US32031980100,COLD CHAIN TECHNOLOGIES,6640 ECHO AVE SUITE E,RENO,NV,89506,"COLD CHAIN TECHNOLOGIES.6640 ECHO AVE SUITE E, RENO NEVADA 89506 (WASHOE)",0,C,,110039204857
89512CRMRN145CA,-119.822,39.57,False,32,031,002617,32,32031,32031002617,1400000US32031002617,CRUMRINE MANUFACTURING,145 CATRON DR,RENO,NV,895121093,"CRUMRINE MANUFACTURING.145 CATRON DR, RENO NEVADA 89512 (WASHOE)",0,C,,
89512PRLNP365PA,-119.814,39.571999999999996,False,32,031,002617,32,32031,32031002617,1400000US32031002617,LSC COMMUNICATIONS / RENO S,365 PARR CIRCLE,RENO,NV,89512,"LSC COMMUNICATIONS / RENO S.365 PARR CIRCLE, RENO NEVADA 89512 (WASHOE)",0,C,,110020577614
89701MRCNB2401C,-119.741,39.205,False,32,510,000400,32,32510,32510000400,1400000US32510000400,AMERICAN BUILDINGS CO CARSON CITY,2401 CONESTOGA DR,CARSON CITY,NV,89706,"AMERICAN BUILDINGS CO CARSON CITY.2401 CONESTOGA DR, CARSON CITY NEVADA 89706 (CARSON CITY)",1,C,,110059853680
89706CRSNT1301H,-119.75399999999999,39.192,False,32,510,000400,32,32510,32510000400,1400000US32510000400,CARSONITE INTERNATIONAL CORP,1301 HOT SPRINGS RD,CARSON CITY,NV,89706,"CARSONITE INTERNATIONAL CORP.1301 HOT SPRINGS RD, CARSON CITY NEVADA 89706 (CARSON CITY)",0,C,,
89706NTDNG4909G,-119.74700000000001,39.204,False,32,510,000400,32,32510,32510000400,1400000US32510000400,UNITED ENGINE & MACHINE CO,4909 GONI RD,CARSON CITY,NV,89703,"UNITED ENGINE & MACHINE CO.4909 GONI RD, CARSON CITY NEVADA 89703 (CARSON CITY)",0,C,,
89706PRLXN3000C,-119.734,39.204,False,32,510,000400,32,32510,32510000400,1400000US32510000400,PARLEX NEVADA INC,3000 CONESTOGA DR,CARSON CITY,NV,89706,"PARLEX NEVADA INC.3000 CONESTOGA DR, CARSON CITY NEVADA 89706 (CARSON CITY)",1,C,,
89706DRBND3200A,-119.73200000000001,39.202,False,32,510,000400,32,32510,32510000400,1400000US32510000400,DURA BOND BEARING CO,3200 ARROWHEAD DR,CARSON CITY,NV,89706,"DURA BOND BEARING CO.3200 ARROWHEAD DR, CARSON CITY NEVADA 89706 (CARSON CITY)",0,C,,110000473149
8970WBSLTX26BEI,-119.73899999999999,39.202,False,32,510,000400,32,32510,32510000400,1400000US32510000400,BASALITE,2600 BOEING WAY,CARSON CITY,NV,89706,"BASALITE.2600 BOEING WAY, CARSON CITY NEVADA 89706 (CARSON CITY)",0,C,,110004293014
89706CHMLN2801L,-119.736,39.2,False,32,510,000900,32,32510,32510000900,1400000US32510000900,CHEMLINE INDUSTRIES INC,2801 LOCKHEED WAY,CARSON CITY,NV,89706,"CHEMLINE INDUSTRIES INC.2801 LOCKHEED WAY, CARSON CITY NEVADA 89706 (CARSON CITY)",1,C,,
89706SRRCS2727L,-119.73899999999999,39.198,False,32,510,000900,32,32510,32510000900,1400000US32510000900,PCC STRUCTURALS CARSON CITY,2727 LOCKHEED WAY,CARSON CITY,NV,89706,"PCC STRUCTURALS CARSON CITY.2727 LOCKHEED WAY, CARSON CITY NEVADA 89706 (CARSON CITY)",0,C,,110009459790
89706PRKRH2801A,-119.736,39.201,False,32,510,000900,32,32510,32510000900,1400000US32510000900,PARKER HANNIFIN CORP VERIFLO DIV,2801 ARROWHEAD DR,CARSON CITY,NV,89706,"PARKER HANNIFIN CORP VERIFLO DIV.2801 ARROWHEAD DR, CARSON CITY NEVADA 89706 (CARSON CITY)",0,C,,
89820MDRLLWESTO,-116.87299999999999,40.268,False,32,015,000300,32,32015,32015000300,1400000US32015000300,M-I DRILLING FLUIDS CO BATTLE MOUNTAIN,W OF BATTLE MOUNTAIN ON HWY 40,BATTLE MOUNTAIN,NV,89820,"M-I DRILLING FLUIDS CO BATTLE MOUNTAIN.W OF BATTLE MOUNTAIN ON HWY 40, BATTLE MOUNTAIN NEVADA 89820 (LANDER)",0,C,,
89820SRRCH530FR,-116.928,40.635999999999996,False,32,015,000300,32,32015,32015000300,1400000US32015000300,"SIERRA CHEMICAL CO, BATTLE MOUNTAIN",530 FRONT ST,BATTLE MOUNTAIN,NV,89820,"SIERRA CHEMICAL CO, BATTLE MOUNTAIN.530 FRONT ST, BATTLE MOUNTAIN NEVADA 89820 (LANDER)",0,C,,
89820SRRCHRENNO,-116.89,40.619,False,32,015,000300,32,32015,32015000300,1400000US32015000300,SIERRA CHEMICAL CO,RENNOX FAC,BATTLE MOUNTAIN,NV,89820,"SIERRA CHEMICAL CO.RENNOX FAC, BATTLE MOUNTAIN NEVADA 89820 (LANDER)",0,C,,
89820CSTLC6MILE,-116.868,40.69,False,32,015,000300,32,32015,32015000300,1400000US32015000300,DYNO NOBEL INC,6 MILES N 2 MILES E,BATTLE MOUNTAIN,NV,898201628,"DYNO NOBEL INC.6 MILES N 2 MILES E, BATTLE MOUNTAIN NEVADA 89820 (LANDER)",0,C,,110000601091
89438NWMNTBEACO,-116.686,40.594,False,32,015,000300,32,32015,32015000300,1400000US32015000300,NEWMONT MINING CORP MULE CANYON MINE,22 MILES E OF BATTLE MTN BEACON LIGHT RD,BATTLE MOUNTAIN,NV,89820,"NEWMONT MINING CORP MULE CANYON MINE.22 MILES E OF BATTLE MTN BEACON LIGHT RD, BATTLE MOUNTAIN NEVADA 89820 (LANDER)",0,C,,110000608307
89820BTTLMCOPPE,-117.10600000000001,40.501,False,32,015,000300,32,32015,32015000300,1400000US32015000300,NEWMONT GOLDCORP COPPER CANYON FACILITY,12 MI SE OF BATTLE MOUNTAIN COPPER CANYON FACILITY,BATTLE MOUNTAIN,NV,89820,"NEWMONT GOLDCORP COPPER CANYON FACILITY.12 MI SE OF BATTLE MOUNTAIN COPPER CANYON FACILITY, BATTLE MOUNTAIN NEVADA 89820 (LANDER)",0,C,,110000607362
89820CHBYM1MCCO,-117.178,40.329,False,32,015,000300,32,32015,32015000300,1400000US32015000300,NEWMONT MINING CORP MCCOY/COVE MINE,1 MCCOY RD,BATTLE MOUNTAIN,NV,89820,"NEWMONT MINING CORP MCCOY/COVE MINE.1 MCCOY RD, BATTLE MOUNTAIN NEVADA 89820 (LANDER)",0,C,,
89820FMCCR6MILE,-116.887,40.704,False,32,015,000300,32,32015,32015000300,1400000US32015000300,FMC CORP,6 MILES N OF BATTLE MOUNTAIN,BATTLE MOUNTAIN,NV,89820,"FMC CORP.6 MILES N OF BATTLE MOUNTAIN, BATTLE MOUNTAIN NEVADA 89820 (LANDER)",0,C,,
89821CRTZGSTARA,-116.666,40.222,False,32,015,000300,32,32011,32015000300,1400000US32015000300,"BARRICK CORTEZ, INC",I-80 E,CRESCENT VALLEY,NV,89821,"BARRICK CORTEZ, INC.I-80 E, CRESCENT VALLEY NEVADA 89821 (EUREKA)",0,C,,110041618666
89820SBRFLAIRPO,-116.956,40.64,False,32,015,000300,32,32015,32015000300,1400000US32015000300,US BLM BATTLE MOUNTAIN AIRTANKER BASE,AIRPORT RD BATTLE MOUNTAIN AIRPORT,BATTLE MOUNTAIN,NV,89820,"US BLM BATTLE MOUNTAIN AIRTANKER BASE.AIRPORT RD BATTLE MOUNTAIN AIRPORT, BATTLE MOUNTAIN NEVADA 89820 (LANDER)",0,F,,
8982WFRCRK3MILE,-116.65299999999999,40.467,False,32,015,000300,32,32015,32015000300,1400000US32015000300,FIRE CREEK MINE,3 MILES WEST  ON FIRE CREEK ROAD,BATTLE MOUNTAIN,NV,89820,"FIRE CREEK MINE.3 MILES WEST  ON FIRE CREEK ROAD, BATTLE MOUNTAIN NEVADA 89820 (LANDER)",0,C,,110069265271
89822BCKHR55MIL,-116.116,40.714,False,32,007,951600,32,32011,32007951600,1400000US32007951600,COMINCO LTD BUCKHORN OPERATIONS,55 MI S OF CARLIN,CARLIN,NV,89822,"COMINCO LTD BUCKHORN OPERATIONS.55 MI S OF CARLIN, CARLIN NEVADA 89822 (EUREKA)",1,C,,
89822NWMNT15MIL,-115.986,40.602,False,32,007,951600,32,32011,32007951600,1400000US32007951600,NEWMONT GOLDCORP - EMIGRANT MINE,15 MILES SE OF CARLIN,CARLIN,NV,89822,"NEWMONT GOLDCORP - EMIGRANT MINE.15 MILES SE OF CARLIN, CARLIN NEVADA 89822 (EUREKA)",0,C,,110059836450
8982WCRLNC923CA,-116.12,40.734,False,32,007,951600,32,32007,32007951600,1400000US32007951600,THOMAS PETROLEUM LLC CARLIN,923 CARLIN TREND DRIVE,CARLIN,NV,89822,"THOMAS PETROLEUM LLC CARLIN.923 CARLIN TREND DRIVE, CARLIN NEVADA 89822 (ELKO)",0,C,,110042003220
8982WBRRCK3MILE,-116.10799999999999,40.727,False,32,007,951600,32,32007,32007951600,1400000US32007951600,BARRICK-DEE MINING VENTURE,30 MILES N OF CARLIN NEVADA,CARLIN,NV,89822,"BARRICK-DEE MINING VENTURE.30 MILES N OF CARLIN NEVADA, CARLIN NEVADA 89822 (ELKO)",0,C,,110067661863
89403BRCND101EV,-119.56299999999999,39.233000000000004,False,32,019,960303,32,32019,32019960303,1400000US32019960303,BRUCE INDUSTRIES INC,101 EVANS AVE,DAYTON,NV,89403,"BRUCE INDUSTRIES INC.101 EVANS AVE, DAYTON NEVADA 89403 (LYON)",0,C,,
89403LYNXN95LAK,-119.561,39.234,False,32,019,960303,32,32019,32019960303,1400000US32019960303,LYNX INVESTMENT CASTING FACILITY,95 LAKES BLVD,DAYTON,NV,89403,"LYNX INVESTMENT CASTING FACILITY.95 LAKES BLVD, DAYTON NEVADA 89403 (LYON)",1,C,,
89403SMTHR10AIR,-119.55799999999999,39.234,False,32,019,960303,32,32019,32019960303,1400000US32019960303,PETERSON PRODUCTS,10 AIRPARK VISTA BLVD,DAYTON,NV,89403,"PETERSON PRODUCTS.10 AIRPARK VISTA BLVD, DAYTON NEVADA 89403 (LYON)",0,C,,110000861005
89403RTPCX23AIR,-119.559,39.231,False,32,019,960303,32,32019,32019960303,1400000US32019960303,RTP CO,23 AIRPARK VISTA BLVD,DAYTON,NV,894038308,"RTP CO.23 AIRPARK VISTA BLVD, DAYTON NEVADA 89403 (LYON)",0,C,,
89403MDLLC80AIF,-119.55799999999999,39.232,False,32,019,960303,32,32019,32019960303,1400000US32019960303,MEDALLIC ART CO LTD,80 E AIRPARK VISTA BLVD,DAYTON,NV,89403,"MEDALLIC ART CO LTD.80 E AIRPARK VISTA BLVD, DAYTON NEVADA 89403 (LYON)",1,C,,110022516204
8940WCRBLN95AIR,-119.54899999999999,39.234,False,32,019,960303,32,32019,32019960303,1400000US32019960303,CARBOLINE CO DAYTON,95 AIRPARK VISTA BLVD,DAYTON,NV,89403,"CARBOLINE CO DAYTON.95 AIRPARK VISTA BLVD, DAYTON NEVADA 89403 (LYON)",0,C,,110045554146
89408GTHRMEXIT6,-119.24,39.446999999999996,False,32,019,960201,32,32019,32019960201,1400000US32019960201,GEOTHERMAL FOOD PROCESSORS,EXIT 65 I-80 E 17 MILES E OF FERNLEY NV,FERNLEY,NV,894080769,"GEOTHERMAL FOOD PROCESSORS.EXIT 65 I-80 E 17 MILES E OF FERNLEY NV, FERNLEY NEVADA 89408 (LYON)",0,C,,
89512MRTNR530E4,-119.807,39.531,False,32,031,000102,32,32031,32031000102,1400000US32031000102,MARTIN IRON WORKS INC,530 E 4TH ST,RENO,NV,89512,"MARTIN IRON WORKS INC.530 E 4TH ST, RENO NEVADA 89512 (WASHOE)",0,C,,
89701MLLRY550MA,-119.762,39.150999999999996,False,32,510,000600,32,32510,32510000600,1400000US32510000600,MR GASKET,550 MALLORY WAY,CARSON CITY,NV,89701,"MR GASKET.550 MALLORY WAY, CARSON CITY NEVADA 89701 (CARSON CITY)",0,C,,110001132863
89701MNCNC961FA,-119.758,39.15,False,32,510,000600,32,32510,32510000600,1400000US32510000600,THIOKOL-OMNECO INC,961 FAIRVIEW DR,CARSON CITY,NV,89701,"THIOKOL-OMNECO INC.961 FAIRVIEW DR, CARSON CITY NEVADA 89701 (CARSON CITY)",0,C,,
89030GRGPC11401,-114.919,36.345,False,32,003,005902,32,32003,32003005902,1400000US32003005902,GEORGIA-PACIFIC GYPSUM LLC,11401 US HWY 91,NORTH LAS VEGAS,NV,89036,"GEORGIA-PACIFIC GYPSUM LLC.11401 US HWY 91, NORTH LAS VEGAS NEVADA 89036 (CLARK)",0,C,,110017401649
89025LSCBT201NM,-114.62100000000001,36.688,False,32,003,005902,32,32003,32003005902,1400000US32003005902,AQUATIC CO,201 N MEADOW VALLEY RD,MOAPA,NV,89025,"AQUATIC CO.201 N MEADOW VALLEY RD, MOAPA NEVADA 89025 (CLARK)",0,C,,110043090650
89025RDGRD1WALL,-114.633,36.657,False,32,003,005902,32,32003,32003005902,1400000US32003005902,REID GARDNER GENERATING STATION,501 WALLY KAY WAY,MOAPA,NV,89025,"REID GARDNER GENERATING STATION.501 WALLY KAY WAY, MOAPA NEVADA 89025 (CLARK)",1,C,,110000497882
89124WSTRN13555,-114.914,36.361999999999995,False,32,003,005902,32,32003,32003005902,1400000US32003005902,WESTERN MINING & MINERALS APEX PLANT,13555 HWY 93 N,LAS VEGAS,NV,89165,"WESTERN MINING & MINERALS APEX PLANT.13555 HWY 93 N, LAS VEGAS NEVADA 89165 (CLARK)",0,C,,110027827582
8912WLSVGSPARCE,-114.934,36.843,False,32,003,005902,32,32003,32003005902,1400000US32003005902,LAS VEGAS PAVING CORP,PARCEL # 009-04-610-001,COYOTE SPRINGS,NV,89037,"LAS VEGAS PAVING CORP.PARCEL # 009-04-610-001, COYOTE SPRINGS NEVADA 89037 (CLARK)",0,C,,110046371724
89445CYNCX9000W,-117.86200000000001,40.941,False,32,013,010500,32,32013,32013010500,1400000US32013010500,CYANCO CO LLC,5505 CYANCO DR.,WINNEMUCCA,NV,89445,"CYANCO CO LLC.5505 CYANCO DR., WINNEMUCCA NEVADA 89445 (HUMBOLDT)",0,C,,110000473005
89404RDDWN1ALDE,-118.699,41.82899999999999,False,32,013,010500,32,32013,32013010500,1400000US32013010500,ASHDOWN PROJECTLLC,1 ALDER CREEK RD,DENIO,NV,89404,"ASHDOWN PROJECTLLC.1 ALDER CREEK RD, DENIO NEVADA 89404 (HUMBOLDT)",0,C,,110037149378
89445CRRYN53WES,-117.79899999999999,40.908,False,32,013,010500,32,32013,32013010500,1400000US32013010500,CARRY-ON TRAILER CORP,5300 WESTMORELAND ROAD,WINNEMUCCA,NV,89445,"CARRY-ON TRAILER CORP.5300 WESTMORELAND ROAD, WINNEMUCCA NEVADA 89445 (HUMBOLDT)",0,C,,110037150196
89447MRTHN130HW,-119.18700000000001,38.969,False,32,019,960800,32,32019,32019960800,1400000US32019960800,MARATHON EQUIPMENT CO DELAWARE,130 HWY 339,YERINGTON,NV,89447,"MARATHON EQUIPMENT CO DELAWARE.130 HWY 339, YERINGTON NEVADA 89447 (LYON)",1,C,,110007980024
89447RMTCN102BU,-119.20700000000001,38.988,False,32,019,960800,32,32019,32019960800,1400000US32019960800,ARIMETCO INC YERINGTON MINE,102 BURCH DR,YERINGTON,NV,89447,"ARIMETCO INC YERINGTON MINE.102 BURCH DR, YERINGTON NEVADA 89447 (LYON)",0,C,,
89822BGTHRBARRI,-116.189,40.695,False,32,011,000100,32,32007,32011000100,1400000US32011000100,BTI CARLIN AIR SEPARATION PLANT,BARRICK GOLDSTRIKE MINES PLANTS,CARLIN,NV,89822,"BTI CARLIN AIR SEPARATION PLANT.BARRICK GOLDSTRIKE MINES PLANTS, CARLIN NEVADA 89822 (ELKO)",0,C,,
89822PRXRN6MILE,-116.191,40.760999999999996,False,32,011,000100,32,32007,32011000100,1400000US32011000100,PRAXAIR INC,6 MILES N OF CARLIN AT NEWMONT GOLD,CARLIN,NV,89822,"PRAXAIR INC.6 MILES N OF CARLIN AT NEWMONT GOLD, CARLIN NEVADA 89822 (ELKO)",0,C,,
89316RBYHLINTER,-115.988,39.459,False,32,011,000100,32,32011,32011000100,1400000US32011000100,RUBY HILL MINING CO LLC,INTRSCTION OF HWY 50 & SR278,EUREKA,NV,89316,"RUBY HILL MINING CO LLC.INTRSCTION OF HWY 50 & SR278, EUREKA NEVADA 89316 (EUREKA)",0,C,,110015844176
89803BRRCK27MIL,-116.35,40.974,False,32,011,000100,32,32007,32011000100,1400000US32011000100,BARRICK GOLDSTRIKE MINES INC,27 MILES N OF CARLIN NEVADA,CARLIN,NV,89822,"BARRICK GOLDSTRIKE MINES INC.27 MILES N OF CARLIN NEVADA, CARLIN NEVADA 89822 (ELKO)",0,C,,110043802178
89821CRTZGSTARR,-116.476,40.59,False,32,011,000100,32,32015,32011000100,1400000US32011000100,CORTEZ GOLD MINES PROCESSING PLANT MILL # 1,STARR RT HC66-50,BEOWAWE,NV,89821,"CORTEZ GOLD MINES PROCESSING PLANT MILL # 1.STARR RT HC66-50, BEOWAWE NEVADA 89821 (LANDER)",2,C,,
89822NWMNT25MIL,-116.382,40.997,False,32,011,000100,32,32011,32011000100,1400000US32011000100,NEWMONT GOLDCORP - CARLIN NORTH AREA,25 MILES N OF CARLIN,CARLIN,NV,89822,"NEWMONT GOLDCORP - CARLIN NORTH AREA.25 MILES N OF CARLIN, CARLIN NEVADA 89822 (EUREKA)",0,C,,110000608334
89822NWMNT6MAIL,-116.186,40.781,False,32,011,000100,32,32011,32011000100,1400000US32011000100,NEWMONT GOLDCORP - CARLIN SOUTH AREA,6 MILES N OF CARLIN,CARLIN,NV,89822,"NEWMONT GOLDCORP - CARLIN SOUTH AREA.6 MILES N OF CARLIN, CARLIN NEVADA 89822 (EUREKA)",0,C,,110001091425
8982WNWMNT91DUN,-116.53,40.747,False,32,011,000100,32,32011,32011000100,1400000US32011000100,NEWMONT NEVADA ENERGY INVESTMENT LLC,450 TS POWER PLANT ROAD,BEOWAWE,NV,89821,"NEWMONT NEVADA ENERGY INVESTMENT LLC.450 TS POWER PLANT ROAD, BEOWAWE NEVADA 89821 (EUREKA)",0,C,,110039075675
89006LDRDCBOULD,-114.819,35.919000000000004,False,32,003,005703,32,32003,32003005703,1400000US32003005703,ELDORADO CARTRIDGE CORP,12801 US HWY 95 SOUTH,BOULDER CITY,NV,890062508,"ELDORADO CARTRIDGE CORP.12801 US HWY 95 SOUTH, BOULDER CITY NEVADA 89006 (CLARK)",0,C,,110000600939
89429NVDWD1680S,-119.21799999999999,39.39,False,32,019,960202,32,32019,32019960202,1400000US32019960202,MCFARLAND CASCADE HOLDINGS INC,1680 SPRUCE AVE,SILVER SPRINGS,NV,89429,"MCFARLAND CASCADE HOLDINGS INC.1680 SPRUCE AVE, SILVER SPRINGS NEVADA 89429 (LYON)",0,C,,110000472907
89005FBRGL16450,-114.859,35.971,False,32,003,005501,32,32003,32003005501,1400000US32003005501,FIBERGLASS SPECIALTIES INC,1650 FOOTHILL DR UNIT 602,BOULDER CITY,NV,89005,"FIBERGLASS SPECIALTIES INC.1650 FOOTHILL DR UNIT 602, BOULDER CITY NEVADA 89005 (CLARK)",0,C,,110000472685
89005MRTYR151IN,-114.855,35.975,False,32,003,005501,32,32003,32003005501,1400000US32003005501,AMERITYRE CORP,1501 INDUSTRIAL RD,BOULDER CITY,NV,89005,"AMERITYRE CORP.1501 INDUSTRIAL RD, BOULDER CITY NEVADA 89005 (CLARK)",0,C,,110039018773
8900WLSVGSVETER,-114.84700000000001,35.949,False,32,003,005501,32,32003,32003005501,1400000US32003005501,LAS VEGAS PAVING CORP,VETERANS MEMORIAL HWY,BOULDER CITY,NV,89005,"LAS VEGAS PAVING CORP.VETERANS MEMORIAL HWY, BOULDER CITY NEVADA 89005 (CLARK)",0,C,,110070244640
89119NPLX01151G,-115.14,36.069,False,32,003,002847,32,32003,32003002847,1400000US32003002847,MCC-UNIFLEX LLC,1151 GRIER DR,LAS VEGAS,NV,891193711,"MCC-UNIFLEX LLC.1151 GRIER DR, LAS VEGAS NEVADA 89119 (CLARK)",0,C,,
89119SGMTR751PI,-115.146,36.064,False,32,003,002847,32,32003,32003002847,1400000US32003002847,GRAND PRODUCTS NEVADA INC,751 PILOT RD SUITE A,LAS VEGAS,NV,891194440,"GRAND PRODUCTS NEVADA INC.751 PILOT RD SUITE A, LAS VEGAS NEVADA 89119 (CLARK)",0,C,,110013286229
89119GTXXX6811S,-115.12799999999999,36.066,False,32,003,002847,32,32003,32003002847,1400000US32003002847,IGT,6811 SPENCER ST,LAS VEGAS,NV,89119,"IGT.6811 SPENCER ST, LAS VEGAS NEVADA 89119 (CLARK)",0,C,,
89023SDNVDUSHWY,-115.96700000000001,36.8,False,32,023,980500,32,32023,32023980500,1400000US32023980500,US DOE NNSA/NFO NEVADA NATIONAL SECURITY SITE,N OF US HWY 95 AT MERCURY INTERCHANGE,MERCURY,NV,89023,"US DOE NNSA/NFO NEVADA NATIONAL SECURITY SITE.N OF US HWY 95 AT MERCURY INTERCHANGE, MERCURY NEVADA 89023 (NYE)",0,F,,110001136716
89023SDYCCFIELD,-115.999,36.66,False,32,023,980500,32,32023,32023980500,1400000US32023980500,U.S. DOE YUCCA MOUNTAIN PROJECT SITE,FIELD OPERATIONS CENTER AREA 25 NEVADA TEST SITE,MERCURY,NV,89023,"U.S. DOE YUCCA MOUNTAIN PROJECT SITE.FIELD OPERATIONS CENTER AREA 25 NEVADA TEST SITE, MERCURY NEVADA 89023 (NYE)",0,F,,110025332218
89030NVRSL4201E,-115.08200000000001,36.247,False,32,003,006001,32,32003,32003006001,1400000US32003006001,UNIVERSAL URETHANE INC.,4201 E LONE MOUNTAIN RD,NORTH LAS VEGAS,NV,89081,"UNIVERSAL URETHANE INC..4201 E LONE MOUNTAIN RD, NORTH LAS VEGAS NEVADA 89081 (CLARK)",0,C,,110000472747
89115MYMNF472NL,-115.08,36.246,False,32,003,006001,32,32003,32003006001,1400000US32003006001,MAY MANUFACTURING LLC (DBA ARTESIAN SPAS),4720 N LAMB BLVD,LAS VEGAS,NV,89115,"MAY MANUFACTURING LLC (DBA ARTESIAN SPAS).4720 N LAMB BLVD, LAS VEGAS NEVADA 89115 (CLARK)",0,C,,110022475935
89115SLVRSRANGE,-115.059,36.268,False,32,003,006001,32,32003,32003006001,1400000US32003006001,CALPORTLAND CO RANGE PLANT,5910 RANGE RD,LAS VEGAS,NV,89115,"CALPORTLAND CO RANGE PLANT.5910 RANGE RD, LAS VEGAS NEVADA 89115 (CLARK)",0,C,,110025332478
89081CNYNS4581E,-115.081,36.244,False,32,003,006001,32,32003,32003006001,1400000US32003006001,WEST DIRECT OIL #75 LAS,4581 EAKER ST.,NORTH LAS VEGAS,NV,89081,"WEST DIRECT OIL #75 LAS.4581 EAKER ST., NORTH LAS VEGAS NEVADA 89081 (CLARK)",0,C,,110030999748
8911WGTRNS546EA,-115.057,36.266,False,32,003,006001,32,32003,32003006001,1400000US32003006001,WABTEC US RAIL INC,5406 EAST EL CAMPO GRANDE AVE,NORTH LAS VEGAS,NV,89115,"WABTEC US RAIL INC.5406 EAST EL CAMPO GRANDE AVE, NORTH LAS VEGAS NEVADA 89115 (CLARK)",0,C,,110041298636
8911WCMXBL53NLA,-115.08,36.251999999999995,False,32,003,006001,32,32003,32003006001,1400000US32003006001,CEMEX - BLOCK PLANT,5030 N LAMB BLVD,LAS VEGAS,NV,89115,"CEMEX - BLOCK PLANT.5030 N LAMB BLVD, LAS VEGAS NEVADA 89115 (CLARK)",0,C,,110059824506
8908WSRRNR415SM,-115.081,36.255,False,32,003,006001,32,32003,32003006001,1400000US32003006001,SIERRA NORTH BATCH PLANT,4150 SMILEY RD,NORTH LAS VEGAS,NV,89081,"SIERRA NORTH BATCH PLANT.4150 SMILEY RD, NORTH LAS VEGAS NEVADA 89081 (CLARK)",0,C,,110070247450
89101NDRSN801SE,-115.132,36.185,False,32,003,000402,32,32003,32003000402,1400000US32003000402,ANDERSON DAIRY,801 SEARLES AVE,LAS VEGAS,NV,89101,"ANDERSON DAIRY.801 SEARLES AVE, LAS VEGAS NEVADA 89101 (CLARK)",0,C,,110000472774
89104CNSPR1301A,-115.04299999999999,36.042,False,32,003,005109,32,32003,32003005109,1400000US32003005109,OCEAN SPRAY CRANBERRIES INC,1301 AMERICAN PACIFIC DR,HENDERSON,NV,890148806,"OCEAN SPRAY CRANBERRIES INC.1301 AMERICAN PACIFIC DR, HENDERSON NEVADA 89014 (CLARK)",0,C,,
89191NLLSF4551D,-115.053,36.239000000000004,False,32,003,007800,32,32003,32003007800,1400000US32003007800,US DOD USAF NELLIS AFB,99 CES CEI 6020 BEALE AVE,NELLIS AFB,NV,89191,"US DOD USAF NELLIS AFB.99 CES CEI 6020 BEALE AVE, NELLIS AFB NEVADA 89191 (CLARK)",0,F,,110022861704
89191SRFRC99CES,-115.025,36.251999999999995,False,32,003,007800,32,32003,32003007800,1400000US32003007800,US DOD USAF NELLIS AFB TEST & TRAINGING RANGE,99 CES/CEI 6020 BEALE AVE,NELLIS AFB,NV,89191,"US DOD USAF NELLIS AFB TEST & TRAINGING RANGE.99 CES/CEI 6020 BEALE AVE, NELLIS AFB NEVADA 89191 (CLARK)",0,F,,110022861704
89115LSVGS6875S,-115.01899999999999,36.279,False,32,003,007800,32,32003,32003007800,1400000US32003007800,LAS VEGAS CULTURED MARBLE INC,6875 SPEEDWAY BLVD BUILDING U-102,LAS VEGAS,NV,89115,"LAS VEGAS CULTURED MARBLE INC.6875 SPEEDWAY BLVD BUILDING U-102, LAS VEGAS NEVADA 89115 (CLARK)",0,C,,110025332352
8903WPBCGYPBX36,-114.89,36.222,False,32,003,007800,32,32003,32003007800,1400000US32003007800,PABCO GYPSUM,4001 STATE HWY147,NORTH LAS VEGAS,NV,89115,"PABCO GYPSUM.4001 STATE HWY147, NORTH LAS VEGAS NEVADA 89115 (CLARK)",0,C,,110039498843
89502BTSGR4855L,-119.762,39.483000000000004,False,32,031,980000,32,32031,32031980000,1400000US32031980000,BTS GROUP,4855 LONGLEY LN,RENO,NV,89502,"BTS GROUP.4855 LONGLEY LN, RENO NEVADA 89502 (WASHOE)",0,C,,
8950WRNXXX4655A,-119.762,39.491,False,32,031,980000,32,32031,32031980000,1400000US32031980000,RENO A&E,4655 AIRCENTER CIR,RENO,NV,89502,"RENO A&E.4655 AIRCENTER CIR, RENO NEVADA 89502 (WASHOE)",0,C,,110004286442
8950WPRTTY492AM,-119.757,39.51,False,32,031,980000,32,32031,32031980000,1400000US32031980000,PROTOTYPE CONCEPTS INC,4902 AMPERE DR -,RENO,NV,89502,"PROTOTYPE CONCEPTS INC.4902 AMPERE DR -, RENO NEVADA 89502 (WASHOE)",0,C,,110069233074
89511GTXXX9295P,-119.76,39.451,False,32,031,002205,32,32031,32031002205,1400000US32031002205,IGT - RENO,9295 PROTOTYPE DR,RENO,NV,89521,"IGT - RENO.9295 PROTOTYPE DR, RENO NEVADA 89521 (WASHOE)",0,C,,110000473112
89701TYMRC2675A,-119.697,39.184,False,32,510,001002,32,32510,32510001002,1400000US32510001002,TAIYO AMERICA INC,2675 ANTLER DR,CARSON CITY,NV,89701,"TAIYO AMERICA INC.2675 ANTLER DR, CARSON CITY NEVADA 89701 (CARSON CITY)",0,C,,110001562611
89701CPTLC2505A,-119.704,39.184,False,32,510,001002,32,32510,32510001002,1400000US32510001002,3D CONCRETE,5520 SHEEP DR,CARSON CITY,NV,89701,"3D CONCRETE.5520 SHEEP DR, CARSON CITY NEVADA 89701 (CARSON CITY)",0,C,,110064225066
89706PLYMR22CAS,-119.65700000000001,39.224000000000004,False,32,019,960301,32,32031,32019960301,1400000US32019960301,POLYMER MANUFACTURING CORP,22 CASH DR,CARSON CITY,NV,89706,"POLYMER MANUFACTURING CORP.22 CASH DR, CARSON CITY NEVADA 89706 (WASHOE)",0,C,,
89706PLYMR45STO,-119.66,39.227,False,32,019,960301,32,32019,32019960301,1400000US32019960301,POLYMER MANUFACTURING CORP,45 STOKES DR,MOUND HOUSE,NV,89706,"POLYMER MANUFACTURING CORP.45 STOKES DR, MOUND HOUSE NEVADA 89706 (LYON)",0,C,,
89706WSTCS25STO,-119.65799999999999,39.228,False,32,019,960301,32,32019,32019960301,1400000US32019960301,X-TREME BULLETS INC,25 STOKES DR,MOUND HOUSE,NV,89706,"X-TREME BULLETS INC.25 STOKES DR, MOUND HOUSE NEVADA 89706 (LYON)",0,C,,110009461279
89706FRHNR2INDU,-119.666,39.25,False,32,019,960301,32,32019,32019960301,1400000US32019960301,FCC (DBA BARDON MATERIALS) MOUND HOUSE ASPHALT,200 INDUSTRIAL PKWY,MOUND HOUSE,NV,89706,"FCC (DBA BARDON MATERIALS) MOUND HOUSE ASPHALT.200 INDUSTRIAL PKWY, MOUND HOUSE NEVADA 89706 (LYON)",0,C,,110020516565
89706CMXCN95BIN,-119.665,39.236,False,32,019,960301,32,32019,32019960301,1400000US32019960301,CEMEX CONSTRUCTION MATERIALS LP MOUNDHOUSE PLANT,95B INDUSTRIAL PKWY,MOUND HOUSE,NV,89706,"CEMEX CONSTRUCTION MATERIALS LP MOUNDHOUSE PLANT.95B INDUSTRIAL PKWY, MOUND HOUSE NEVADA 89706 (LYON)",0,C,,110025332575
89706NTNNC16BRU,-119.654,39.232,False,32,019,960301,32,32019,32019960301,1400000US32019960301,KEMET BLUE POWDER CORP,16 BRUCE WAY,MOUND HOUSE,NV,89706,"KEMET BLUE POWDER CORP.16 BRUCE WAY, MOUND HOUSE NEVADA 89706 (LYON)",0,C,,110021084645
89403DVNCD28ENT,-119.56200000000001,39.28,False,32,019,960302,32,32019,32019960302,1400000US32019960302,ADVANCED SPECIALTY GASES INC,28 ENTERPRISE WAY,DAYTON,NV,894037305,"ADVANCED SPECIALTY GASES INC.28 ENTERPRISE WAY, DAYTON NEVADA 89403 (LYON)",0,C,,
89403NTDGL20ENT,-119.561,39.279,False,32,019,960302,32,32019,32019960302,1400000US32019960302,UNITED GILSONITE LABORATORIES,20 ENTERPRISE WAY,DAYTON,NV,89403,"UNITED GILSONITE LABORATORIES.20 ENTERPRISE WAY, DAYTON NEVADA 89403 (LYON)",0,C,,110000472792
89406SMJST2121T,-118.91799999999999,39.507,False,32,001,950600,32,32001,32001950600,1400000US32001950600,NEW MILLENNIUM BUILDING SYSTEMS LLC,8200 WOOLERY WAY,FALLON,NV,89406,"NEW MILLENNIUM BUILDING SYSTEMS LLC.8200 WOOLERY WAY, FALLON NEVADA 89406 (CHURCHILL)",0,C,,110002083520
89406GMNFL8767R,-118.926,39.508,False,32,001,950600,32,32001,32001950600,1400000US32001950600,GEMINI - FALLON,8767 RENO HWY,FALLON,NV,89406,"GEMINI - FALLON.8767 RENO HWY, FALLON NEVADA 89406 (CHURCHILL)",0,C,,110021143859
89434KLKNF500WA,-119.553,39.554,False,32,029,970200,32,32029,32029970200,1400000US32029970200,MARS PETCARE US INC,500 WALTHAM WAY,SPARKS,NV,89434,"MARS PETCARE US INC.500 WALTHAM WAY, SPARKS NEVADA 89434 (STOREY)",0,C,,110000857154
89434TRCYG191WU,-119.522,39.561,False,32,029,970200,32,32029,32029970200,1400000US32029970200,TRACY GENERATING STATION,1799 WALTHAM WAY,SPARKS,NV,89434,"TRACY GENERATING STATION.1799 WALTHAM WAY, SPARKS NEVADA 89434 (STOREY)",0,C,,110063916062
89440PLMMN12AME,-119.669,39.274,False,32,029,970200,32,32029,32029970200,1400000US32029970200,LUCERNE PROJECT,1200 AMERICAN FLAT RD,VIRGINIA CITY,NV,89440,"LUCERNE PROJECT.1200 AMERICAN FLAT RD, VIRGINIA CITY NEVADA 89440 (STOREY)",0,C,,110041028134
89434DSNCX885DE,-119.47,39.544000000000004,False,32,029,970200,32,32031,32029970200,1400000US32029970200,DYNAMIC ISOLATION SYSTEMS INC,885 DENMARK DR SUITE 101,MCCARRAN,NV,89434,"DYNAMIC ISOLATION SYSTEMS INC.885 DENMARK DR SUITE 101, MCCARRAN NEVADA 89434 (WASHOE)",0,C,,110041524981
89434JHBPR3WALT,-119.5,39.555,False,32,029,970200,32,32029,32029970200,1400000US32029970200,JAMES HARDIE BUILDING PRODUCTS RENO,3000 WALTHAM WAY,SPARKS,NV,89434,"JAMES HARDIE BUILDING PRODUCTS RENO.3000 WALTHAM WAY, SPARKS NEVADA 89434 (STOREY)",0,C,,110041072219
8943WPPGND5PITT,-119.488,39.546,False,32,029,970200,32,32029,32029970200,1400000US32029970200,PPG INDUSTRIES INC,500 PITTSBURGH AVE,MCCARRAN,NV,89434,"PPG INDUSTRIES INC.500 PITTSBURGH AVE, MCCARRAN NEVADA 89434 (STOREY)",0,C,,110033156741
89434CMMSC775WA,-119.542,39.55,False,32,029,970200,32,32029,32029970200,1400000US32029970200,COMMSCOPE SPARKS NEVADA DISTRIBUTION CENTER,775 WALTHAM WAY SUITE 101,SPARKS,NV,89434,"COMMSCOPE SPARKS NEVADA DISTRIBUTION CENTER.775 WALTHAM WAY SUITE 101, SPARKS NEVADA 89434 (STOREY)",1,C,,110041626559
8942WSCGLR885DE,-119.47,39.544000000000004,False,32,029,970200,32,32029,32029970200,1400000US32029970200,SCOUGAL RUBBER CO,885 DENMARK DR,MCCARRAN,NV,89434,"SCOUGAL RUBBER CO.885 DENMARK DR, MCCARRAN NEVADA 89434 (STOREY)",0,C,,110046371742
8943WRDGHM9WALT,-119.54299999999999,39.55,False,32,029,970200,32,32031,32029970200,1400000US32029970200,ARDAGH METAL PACKAGING USA INC,900 WALTHAM WAY,SPARKS,NV,89434,"ARDAGH METAL PACKAGING USA INC.900 WALTHAM WAY, SPARKS NEVADA 89434 (WASHOE)",0,C,,110055932264
8943WZZGLV15MIL,-119.449,39.549,False,32,029,970200,32,32029,32029970200,1400000US32029970200,AZZ GALVANIZING  RENO,1500 MILAN DR,MCCARRAN,NV,89434,"AZZ GALVANIZING  RENO.1500 MILAN DR, MCCARRAN NEVADA 89434 (STOREY)",0,C,,110067046459
89003BRRCKHWY37,-116.81700000000001,36.887,False,32,023,960300,32,32023,32023960300,1400000US32023960300,BARRICK BULLFROG INC,HWY 374 W,BEATTY,NV,89003,"BARRICK BULLFROG INC.HWY 374 W, BEATTY NEVADA 89003 (NYE)",0,C,,
89003GLMSD5MILE,-116.66,36.903,False,32,023,960300,32,32023,32023960300,1400000US32023960300,GLAMIS DAISY MINING CO,5 MILES SE OF BEATTY,BEATTY,NV,89003,"GLAMIS DAISY MINING CO.5 MILES SE OF BEATTY, BEATTY NEVADA 89003 (NYE)",0,C,,
89003SCLGYHWY95,-116.693,36.768,False,32,023,960300,32,32023,32023960300,1400000US32023960300,US ECOLOGY NEVADA INC,12 MILES S OF BEATTY ON HWY 95,BEATTY,NV,89003,"US ECOLOGY NEVADA INC.12 MILES S OF BEATTY ON HWY 95, BEATTY NEVADA 89003 (NYE)",0,C,,110000600920
8900WCRSTR1CUNT,-116.616,36.823,False,32,023,960300,32,32023,32023960300,1400000US32023960300,COEUR STERLING MINE,#1 COUNTY ROAD 295,BEATTY,NV,89003,"COEUR STERLING MINE.#1 COUNTY ROAD 295, BEATTY NEVADA 89003 (NYE)",0,C,,110070557695
89029MHVGN2600E,-114.585,35.16,False,32,003,005705,32,32003,32003005705,1400000US32003005705,MOHAVE GENERATING STATION,655 BRUCE WOODBURY DR,LAUGHLIN,NV,89029,"MOHAVE GENERATING STATION.655 BRUCE WOODBURY DR, LAUGHLIN NEVADA 89029 (CLARK)",1,C,,110000497891
89049FRLNDHWY66,-117.09700000000001,38.058,False,32,023,960200,32,32023,32023960200,1400000US32023960200,FORELAND REFINING CORP TONOPAH TERMINAL,AIRPORT RD HWY 6,TONOPAH,NV,89049,"FORELAND REFINING CORP TONOPAH TERMINAL.AIRPORT RD HWY 6, TONOPAH NEVADA 89049 (NYE)",0,C,,
89049QTRLTGABBS,-117.3,38.325,False,32,023,960200,32,32023,32023960200,1400000US32023960200,EQUATORIAL TONOPAH INC,GABBS POLE LINE RD 19 MI N OF US 95,TONOPAH,NV,89049,"EQUATORIAL TONOPAH INC.GABBS POLE LINE RD 19 MI N OF US 95, TONOPAH NEVADA 89049 (NYE)",0,C,,
89049SDSND1TONO,-116.935,38.019,False,32,023,960200,32,32023,32023960200,1400000US32023960200,U.S. DOE SANDIA NATIONAL LABORATORIES / TTR,1 TONOPAH TEST RANGE,TONOPAH,NV,89049,"U.S. DOE SANDIA NATIONAL LABORATORIES / TTR.1 TONOPAH TEST RANGE, TONOPAH NEVADA 89049 (NYE)",0,F,,110012700648
89049TNPHTTNPAH,-116.935,38.019,False,32,023,960200,32,32023,32023960200,1400000US32023960200,TONOPAH TEST RANGE OPERATIONS OFFICE,TONOPAH TEST RANGE,TONOPAH,NV,89049,"TONOPAH TEST RANGE OPERATIONS OFFICE.TONOPAH TEST RANGE, TONOPAH NEVADA 89049 (NYE)",0,F,,110013794180
89301LTGLDELLIS,-115.38799999999999,39.055,False,32,033,970200,32,32033,32033970200,1400000US32033970200,ALTA GOLD CO GRIFFON MINE PROJECT,ELLISON CREEK RD,ELY,NV,89301,"ALTA GOLD CO GRIFFON MINE PROJECT.ELLISON CREEK RD, ELY NEVADA 89301 (WHITE PINE)",0,C,,
89319BHPCP7MILE,-115.01299999999999,39.271,False,32,033,970200,32,32033,32033970200,1400000US32033970200,ROBINSON NEVADA MINING CO,4232 W WHITE PINE CO RD 44,RUTH,NV,89319,"ROBINSON NEVADA MINING CO.4232 W WHITE PINE CO RD 44, RUTH NEVADA 89319 (WHITE PINE)",0,C,,110042080832
8931WGRPPN8989W,-115.757,39.306999999999995,False,32,033,970200,32,32033,32033970200,1400000US32033970200,FIORE GOLD PAN MINE,8989 WEST HIGHWAY 50,ELY,NV,89315,"FIORE GOLD PAN MINE.8989 WEST HIGHWAY 50, ELY NEVADA 89315 (WHITE PINE)",0,C,,110070070626
89301LTGLDKINSL,-114.32600000000001,40.15,False,32,007,951500,32,32007,32007951500,1400000US32007951500,ALTA GOLD CO KINSLEY MINE PROJECT,KINSLEY MOUNTAIN RD,CURRIE,NV,89301,"ALTA GOLD CO KINSLEY MINE PROJECT.KINSLEY MOUNTAIN RD, CURRIE NEVADA 89301 (ELKO)",0,C,,
89883GRYMN15MIL,-114.25,40.821,False,32,007,951500,32,32007,32007951500,1400000US32007951500,GRAYMONT WESTERN US INC PILOT PEAK LIME PRODUCTION,15 MILES NW OF WENDOVER NV,WEST WENDOVER,NV,89883,"GRAYMONT WESTERN US INC PILOT PEAK LIME PRODUCTION.15 MILES NW OF WENDOVER NV, WEST WENDOVER NEVADA 89883 (ELKO)",0,C,,110008061765
8983WNWMNT688JH,-114.48299999999999,41.035,False,32,007,951500,32,32007,32007951500,1400000US32007951500,NEWMONT LONG CANYON MINE,688 JOHNSON RANCH ROAD,OASIS,NV,89835,"NEWMONT LONG CANYON MINE.688 JOHNSON RANCH ROAD, OASIS NEVADA 89835 (ELKO)",0,C,,110070004364
89406KNNCT55MIL,-118.38600000000001,39.001,False,32,021,970800,32,32021,32021970800,1400000US32021970800,RAWHIDE MINE,58 MILES SE OF FALLON,FALLON,NV,89406,"RAWHIDE MINE.58 MILES SE OF FALLON, FALLON NEVADA 89406 (MINERAL)",0,C,,110000600993
89415KNRSS57MIL,-118.125,38.125,False,32,021,970800,32,32021,32021970800,1400000US32021970800,KINROSS CANDELARIA MINE,57 MILES SE OF HAWTHORNE OFF HWY 95,HAWTHORNE,NV,89415,"KINROSS CANDELARIA MINE.57 MILES SE OF HAWTHORNE OFF HWY 95, HAWTHORNE NEVADA 89415 (MINERAL)",1,C,,
89415SMRLD28LUC,-118.89399999999999,38.303000000000004,False,32,021,970800,32,32021,32021970800,1400000US32021970800,AURORA MINE,2800 LUCKY BOY PASS RD,HAWTHORNE,NV,89415,"AURORA MINE.2800 LUCKY BOY PASS RD, HAWTHORNE NEVADA 89415 (MINERAL)",0,C,,110021023667
89703BRLSM611NN,-118.76100000000001,38.388000000000005,False,32,021,970800,32,32021,32021970800,1400000US32021970800,BOREALIS MINING CO LLC,12 MILES SW OF HAWTHORNE NEVADA LUCKY BOY PASS RD,HAWTHORNE,NV,89415,"BOREALIS MINING CO LLC.12 MILES SW OF HAWTHORNE NEVADA LUCKY BOY PASS RD, HAWTHORNE NEVADA 89415 (MINERAL)",0,C,,110046424712
89414GTCHL28MIN,-117.212,41.216,False,32,013,010600,32,32013,32013010600,1400000US32013010600,BARRICK TURQUOISE RIDGE INC,28 MILES NE OF GOLCONDA,GOLCONDA,NV,89414,"BARRICK TURQUOISE RIDGE INC.28 MILES NE OF GOLCONDA, GOLCONDA NEVADA 89414 (HUMBOLDT)",0,C,,110002048025
89414NWMNT35MIL,-117.16799999999999,41.253,False,32,013,010600,32,32013,32013010600,1400000US32013010600,NEWMONT GOLDCORP TWIN CREEKS MINE,35 MILES NE OF GOLCONDA,GOLCONDA,NV,89414,"NEWMONT GOLDCORP TWIN CREEKS MINE.35 MILES NE OF GOLCONDA, GOLCONDA NEVADA 89414 (HUMBOLDT)",0,C,,110000601028
89414PNSNM22MIL,-117.243,41.13399999999999,False,32,013,010600,32,32013,32013010600,1400000US32013010600,PINSON MINE,20 MILES NE GOLCONDA EXIT 194,GOLCONDA,NV,89414,"PINSON MINE.20 MILES NE GOLCONDA EXIT 194, GOLCONDA NEVADA 89414 (HUMBOLDT)",0,C,,110007978983
89438GLMSM3MILE,-117.141,40.753,False,32,013,010600,32,32013,32013010600,1400000US32013010600,MARIGOLD MINING CO,3 MILES S OF VALMY,VALMY,NV,89438,"MARIGOLD MINING CO.3 MILES S OF VALMY, VALMY NEVADA 89438 (HUMBOLDT)",0,C,,110007979982
89438NRTHVI80EX,-117.152,40.882,False,32,013,010600,32,32013,32013010600,1400000US32013010600,SIERRA PACIFIC POWER CO NORTH VALMY STATION,23755 TREATY HILL RD,VALMY,NV,89438,"SIERRA PACIFIC POWER CO NORTH VALMY STATION.23755 TREATY HILL RD, VALMY NEVADA 89438 (HUMBOLDT)",0,C,,110000495508
89438NWMNTEIGHT,-117.22399999999999,40.653,False,32,013,010600,32,32013,32013010600,1400000US32013010600,NEWMONT MINING CORP TRENTON CANYON MINE,"EIGHT MILES SSW OF VALMY SECTION 15, T32N, R42E",VALMY,NV,894380388,"NEWMONT MINING CORP TRENTON CANYON MINE.EIGHT MILES SSW OF VALMY SECTION 15, T32N, R42E, VALMY NEVADA 89438 (HUMBOLDT)",0,C,,
89438NWMNTSTONE,-117.23700000000001,40.821999999999996,False,32,013,010600,32,32013,32013010600,1400000US32013010600,NEWMONT GOLDCORP LONE TREE MINE,STONEHO US E EXIT 212,VALMY,NV,89438,"NEWMONT GOLDCORP LONE TREE MINE.STONEHO US E EXIT 212, VALMY NEVADA 89438 (HUMBOLDT)",0,C,,110007980435
89414KNSNY60MIL,-116.765,41.236000000000004,False,32,007,951700,32,32007,32007951700,1400000US32007951700,MIDAS PROJECT,1001 GOLD ST,MIDAS,NV,89414,"MIDAS PROJECT.1001 GOLD ST, MIDAS NEVADA 89414 (ELKO)",0,C,,110007980765
89438GLMSD33MIL,-116.43,41.028,False,32,007,951700,32,32007,32007951700,1400000US32007951700,GLAMIS DEE GOLD MINE,33 MILES NW OF CARLIN,ELKO,NV,89801,"GLAMIS DEE GOLD MINE.33 MILES NW OF CARLIN, ELKO NEVADA 89801 (ELKO)",0,C,,
89801JRRTT50MIL,-115.904,41.409,False,32,007,951700,32,32007,32007951700,1400000US32007951700,JERRITT CANYON MINE,50 MILES N ELKO NV STATE RT 225,ELKO,NV,89801,"JERRITT CANYON MINE.50 MILES N ELKO NV STATE RT 225, ELKO NEVADA 89801 (ELKO)",0,C,,110043970398
8980WBRRCKPBX29,-116.427,41.037,False,32,007,951700,32,32007,32007951700,1400000US32007951700,BARRICK STORM INC.,P.O. BOX 29,ELKO,NV,89803,"BARRICK STORM INC..P.O. BOX 29, ELKO NEVADA 89803 (ELKO)",1,C,,110055500042
89446HLLSTTWNSH,-116.56299999999999,41.108000000000004,False,32,007,951700,32,32007,32007951700,1400000US32007951700,HOLLISTER MINE,TOWNSHIP 37 N RANGE 48 E SW 1/4 SECTION 4,WINNEMUCCA,NV,89446,"HOLLISTER MINE.TOWNSHIP 37 N RANGE 48 E SW 1/4 SECTION 4, WINNEMUCCA NEVADA 89446 (ELKO)",0,C,,110039495622
89442LTGLD6000S,-119.417,39.667,False,32,031,003501,32,32031,32031003501,1400000US32031003501,ALTA GOLD CO OLINGHOUSE PROJECT,6000 ST RTE 447,WADSWORTH,NV,89442,"ALTA GOLD CO OLINGHOUSE PROJECT.6000 ST RTE 447, WADSWORTH NEVADA 89442 (WASHOE)",0,C,,
89405NTDSTHWY44,-119.339,40.578,False,32,031,003501,32,32031,32031003501,1400000US32031003501,UNITED STATES GYPSUM CO.,P.O. BOX 130 HWY 447 N,EMPIRE,NV,89405,"UNITED STATES GYPSUM CO..P.O. BOX 130 HWY 447 N, EMPIRE NEVADA 89405 (WASHOE)",0,C,,110027812366
89434TRWNC1TRWW,-119.649,39.51,False,32,031,003501,32,32029,32031003501,1400000US32031003501,TRW INC,1 TRW WAY,SPARKS,NV,89434,"TRW INC.1 TRW WAY, SPARKS NEVADA 89434 (STOREY)",0,C,,
89434FRHNR12I8E,-119.62899999999999,39.541,False,32,031,003501,32,32031,32031003501,1400000US32031003501,MUSTANG ASPHALT PLANT - FCC DBA BARDON MATERIALS,1200 I80 E,SPARKS,NV,89434,"MUSTANG ASPHALT PLANT - FCC DBA BARDON MATERIALS.1200 I80 E, SPARKS NEVADA 89434 (WASHOE)",0,C,,110020516556
89446HYCRF52MIL,-117.735,40.973,False,32,013,010701,32,32013,32013010701,1400000US32013010701,HYCROFT MINE,54980 JUNGO ROAD,WINNEMUCCA,NV,89445,"HYCROFT MINE.54980 JUNGO ROAD, WINNEMUCCA NEVADA 89445 (HUMBOLDT)",0,C,,110007980453
89803BLDMN70MIL,-115.62299999999999,39.946999999999996,False,32,033,970100,32,32033,32033970100,1400000US32033970100,BALD MOUNTAIN MINE,70 MILES S OF ELKO,ELKO,NV,89803,"BALD MOUNTAIN MINE.70 MILES S OF ELKO, ELKO NEVADA 89803 (WHITE PINE)",0,C,,110000608441
89803LLGTR90MIL,-115.52,39.758,False,32,033,970100,32,32033,32033970100,1400000US32033970100,ALLIGATOR RIDGE MINE,90 MILES S OF ELKO,ELKO,NV,89803,"ALLIGATOR RIDGE MINE.90 MILES S OF ELKO, ELKO NEVADA 89803 (WHITE PINE)",0,C,,
89803YNKMN95MIL,-115.525,39.677,False,32,033,970100,32,32033,32033970100,1400000US32033970100,YANKEE MINE,95 MILES S OF ELKO,ELKO,NV,89803,"YANKEE MINE.95 MILES S OF ELKO, ELKO NEVADA 89803 (WHITE PINE)",0,C,,
89506CPRBL13755,-119.882,39.641,False,32,031,002610,32,32031,32031002610,1400000US32031002610,EATON'S B-LINE BUSINESS,13755 STEAD BLVD,RENO,NV,89506,"EATON'S B-LINE BUSINESS.13755 STEAD BLVD, RENO NEVADA 89506 (WASHOE)",0,C,,110004284916
89506TYCVL9025M,-119.916,39.632,False,32,031,002610,32,32031,32031002610,1400000US32031002610,EMERSON AUTOMATION SOLUTIONS FINAL CONTROL US LP,9025 MOYA BLVD,RENO,NV,89506,"EMERSON AUTOMATION SOLUTIONS FINAL CONTROL US LP.9025 MOYA BLVD, RENO NEVADA 89506 (WASHOE)",0,C,,110008061774
89506DPNTR11535,-119.89200000000001,39.641,False,32,031,002610,32,32031,32031002610,1400000US32031002610,DUPONT RENO WESTERN DISTRIBUTI ON CENTER,11535 PRODUCTION DR,RENO,NV,89506,"DUPONT RENO WESTERN DISTRIBUTI ON CENTER.11535 PRODUCTION DR, RENO NEVADA 89506 (WASHOE)",0,C,,110000805479
89506VKWST14250,-119.887,39.641999999999996,False,32,031,002610,32,32031,32031002610,1400000US32031002610,VEKA WEST INC,14250 LEAR BOULEVARD,RENO,NV,89506,"VEKA WEST INC.14250 LEAR BOULEVARD, RENO NEVADA 89506 (WASHOE)",0,C,,110004302610
89036CHMCLOLDSA,-115.13,36.204,False,32,003,004402,32,32003,32003004402,1400000US32003004402,LHOIST NA OF ARIZONA-APEX PLANT (PART),12101 N LAS VEGAS BLVD,LAS VEGAS,NV,89165,"LHOIST NA OF ARIZONA-APEX PLANT (PART).12101 N LAS VEGAS BLVD, LAS VEGAS NEVADA 89165 (CLARK)",0,C,,110004288299
89115LGHTH4601E,-115.073,36.218,False,32,003,004712,32,32003,32003004712,1400000US32003004712,LIGHTHOUSE VIP PRODUCTS,4601 E CHEYENNE AVE,LAS VEGAS,NV,89115,"LIGHTHOUSE VIP PRODUCTS.4601 E CHEYENNE AVE, LAS VEGAS NEVADA 89115 (CLARK)",0,C,,
8911WCMCRB4485E,-115.07600000000001,36.222,False,32,003,004712,32,32003,32003004712,1400000US32003004712,CMC REBAR LAS VEGAS,4485 E COLTON AVE,LAS VEGAS,NV,89115,"CMC REBAR LAS VEGAS.4485 E COLTON AVE, LAS VEGAS NEVADA 89115 (CLARK)",0,C,,110067666065
89115RBLLC5054N,-115.04299999999999,36.251999999999995,False,32,003,003628,32,32003,32003003628,1400000US32003003628,REBEL OIL CO INC,5054 NO SLOAN LN,LAS VEGAS,NV,891151900,"REBEL OIL CO INC.5054 NO SLOAN LN, LAS VEGAS NEVADA 89115 (CLARK)",0,C,,110008061391
89115MDWGL635EC,-115.03299999999999,36.277,False,32,003,003628,32,32003,32003003628,1400000US32003003628,MEADOW GOLD DAIRIES,6350 E CENTENNIAL PKWY,NORTH LAS VEGAS,NV,89115,"MEADOW GOLD DAIRIES.6350 E CENTENNIAL PKWY, NORTH LAS VEGAS NEVADA 89115 (CLARK)",0,C,,110022447486
89115CSNRD5355N,-115.039,36.257,False,32,003,003628,32,32003,32003003628,1400000US32003003628,CASINO READY MIX,5355 N BEESLEY DR,LAS VEGAS,NV,89115,"CASINO READY MIX.5355 N BEESLEY DR, LAS VEGAS NEVADA 89115 (CLARK)",0,C,,110025332290
89115LSVGS66SPE,-115.027,36.283,False,32,003,003628,32,32003,32003003628,1400000US32003003628,LAS VEGAS PAVING,6600 SPEEDWAY BLVD,LAS VEGAS,NV,89115,"LAS VEGAS PAVING.6600 SPEEDWAY BLVD, LAS VEGAS NEVADA 89115 (CLARK)",0,C,,110025332334
8911WHPCLV4825N,-115.04299999999999,36.248000000000005,False,32,003,003628,32,32003,32003003628,1400000US32003003628,THOMAS PETROLEUM LLC SLOAN,4825 N SLOAN LN,LAS VEGAS,NV,89115,"THOMAS PETROLEUM LLC SLOAN.4825 N SLOAN LN, LAS VEGAS NEVADA 89115 (CLARK)",0,C,,110037515301
8911WPRPTR4985N,-115.04299999999999,36.25,False,32,003,003628,32,32003,32003003628,1400000US32003003628,PRO PETROLEUM INC,4985 N SLOAN LN,LAS VEGAS,NV,89115,"PRO PETROLEUM INC.4985 N SLOAN LN, LAS VEGAS NEVADA 89115 (CLARK)",0,C,,110043238957
89118KCHPR3901W,-115.193,36.080999999999996,False,32,003,002962,32,32003,32003002962,1400000US32003002962,ERGON ASPHALT & EMULSIONS INC - LAS VEGAS,3901 W PONDEROSA WAY,LAS VEGAS,NV,89118,"ERGON ASPHALT & EMULSIONS INC - LAS VEGAS.3901 W PONDEROSA WAY, LAS VEGAS NEVADA 89118 (CLARK)",0,C,,110009460145
89109NVDRD4301W,-115.197,36.094,False,32,003,002962,32,32003,32003002962,1400000US32003002962,NEVADA READY MIX ARVILLE,4301 W HACIENDA,LAS VEGAS,NV,89109,"NEVADA READY MIX ARVILLE.4301 W HACIENDA, LAS VEGAS NEVADA 89109 (CLARK)",0,C,,110013285685
89118YNGLC5119S,-115.204,36.096,False,32,003,002962,32,32003,32003002962,1400000US32003002962,YOUNG ELECTRIC SIGN CO.,5119 S CAMERON ST,LAS VEGAS,NV,89118,"YOUNG ELECTRIC SIGN CO..5119 S CAMERON ST, LAS VEGAS NEVADA 89118 (CLARK)",0,C,,110000837603
89119KLCLG6355S,-115.177,36.074,False,32,003,006800,32,32003,32003006800,1400000US32003006800,KALCO LIGHTING LLC,6355 S WINDY ST SUITE 3,LAS VEGAS,NV,89119,"KALCO LIGHTING LLC.6355 S WINDY ST SUITE 3, LAS VEGAS NEVADA 89119 (CLARK)",0,C,,110000837596
89005SDNPS601NE,-114.839,35.976,False,32,003,005503,32,32003,32003005503,1400000US32003005503,US NATL PARK SERVICE LAKE MEAD NRA (LAKE),601 NEVADA HWY,BOULDER CITY,NV,89005,"US NATL PARK SERVICE LAKE MEAD NRA (LAKE).601 NEVADA HWY, BOULDER CITY NEVADA 89005 (CLARK)",0,F,,110013285676
89102SRVCR800FE,-115.14399999999999,35.996,False,32,003,002843,32,32003,32003002843,1400000US32003002843,SERVICE ROCK PRODUCTS INC LAS VEGAS,800 FEET S OF INTERSECTION OF CACTUS RD & POLLUCK,LAS VEGAS,NV,89102,"SERVICE ROCK PRODUCTS INC LAS VEGAS.800 FEET S OF INTERSECTION OF CACTUS RD & POLLUCK, LAS VEGAS NEVADA 89102 (CLARK)",0,C,,
89106NVDRD601WB,-115.15,36.177,False,32,003,000301,32,32003,32003000301,1400000US32003000301,NEVADA READY MIX BONANZA,601 W BONANZA RD,LAS VEGAS,NV,89106,"NEVADA READY MIX BONANZA.601 W BONANZA RD, LAS VEGAS NEVADA 89106 (CLARK)",0,C,,110006825329
8910WHPCLV715WE,-115.15100000000001,36.177,False,32,003,000301,32,32003,32003000301,1400000US32003000301,THOMAS PETROLEUM-LAS VEGAS BONANZA,715 WEST BONANZA ROAD,LAS VEGAS,NV,89106,"THOMAS PETROLEUM-LAS VEGAS BONANZA.715 WEST BONANZA ROAD, LAS VEGAS NEVADA 89106 (CLARK)",0,C,,110042003159
89423PLYPH2225P,-119.764,38.999,False,32,005,002200,32,32005,32005002200,1400000US32005002200,POLYPHASER CORP,2225 PARK PL,MINDEN,NV,89423,"POLYPHASER CORP.2225 PARK PL, MINDEN NEVADA 89423 (DOUGLAS)",0,C,,110015679292
89423MRCNV2155M,-119.764,38.996,False,32,005,002200,32,32005,32005002200,1400000US32005002200,AMERICAN AVK CO,2155 MERIDIAN BLVD,MINDEN,NV,89423,"AMERICAN AVK CO.2155 MERIDIAN BLVD, MINDEN NEVADA 89423 (DOUGLAS)",0,C,,110031398734
89502PRDSM4098S,-119.76799999999999,39.477,False,32,031,002204,32,32031,32031002204,1400000US32031002204,"PARADISE MFG, INC","4098 SO. MCCARRAN  BLVD, SUITE C",RENO,NV,895027527,"PARADISE MFG, INC.4098 SO. MCCARRAN  BLVD, SUITE C, RENO NEVADA 89502 (WASHOE)",1,C,,110015679309
89511DGRPH5355L,-119.76899999999999,39.473,False,32,031,002204,32,32031,32031002204,1400000US32031002204,ADGRAPHICS WEST,5355 LOUIE LANE,RENO,NV,89511,"ADGRAPHICS WEST.5355 LOUIE LANE, RENO NEVADA 89511 (WASHOE)",1,C,,
89032STHRN413EG,-115.13799999999999,36.225,False,32,003,003642,32,32003,32003003642,1400000US32003003642,AGGREGATE INDUSTRIES SWR GOWAN ASPHALT,413 E GOWAN RD,NORTH LAS VEGAS,NV,89030,"AGGREGATE INDUSTRIES SWR GOWAN ASPHALT.413 E GOWAN RD, NORTH LAS VEGAS NEVADA 89030 (CLARK)",0,C,,110004299456
89030LSVGS34N5T,-115.134,36.221,False,32,003,003642,32,32003,32003003642,1400000US32003003642,LAS VEGAS PAVING CORP,3400 N 5TH ST,NORTH LAS VEGAS,NV,89030,"LAS VEGAS PAVING CORP.3400 N 5TH ST, NORTH LAS VEGAS NEVADA 89030 (CLARK)",0,C,,110025332263
89030SLVRS143WG,-115.14200000000001,36.225,False,32,003,003642,32,32003,32003003642,1400000US32003003642,CALPORTLAND COMPANY GOWAN PLANT,143 W GOWAN RD,NORTH LAS VEGAS,NV,89032,"CALPORTLAND COMPANY GOWAN PLANT.143 W GOWAN RD, NORTH LAS VEGAS NEVADA 89032 (CLARK)",0,C,,110025332272
89030RNKRM29WGW,-115.139,36.224000000000004,False,32,003,003642,32,32003,32003003642,1400000US32003003642,CEMEX GOWAN PLANT #1860,29 W GOWAN,NORTH LAS VEGAS,NV,89030,"CEMEX GOWAN PLANT #1860.29 W GOWAN, NORTH LAS VEGAS NEVADA 89030 (CLARK)",0,C,,110031018422
89101LSVGS3261B,-115.103,36.161,False,32,003,000518,32,32003,32003000518,1400000US32003000518,"ACCURATE METAL SOLUTIONS,LAS VEGAS LLC",3261 BUILDERS AVE,LAS VEGAS,NV,89101,"ACCURATE METAL SOLUTIONS,LAS VEGAS LLC.3261 BUILDERS AVE, LAS VEGAS NEVADA 89101 (CLARK)",0,C,,110001564101
89145STHRNWESTE,-115.339,36.156,False,32,003,005841,32,32003,32003005841,1400000US32003005841,SOUTHERN NEVADA PAVING SUMMERLIN ASPHALT PLANT,SUMMELRIN PKWY & I-215,LAS VEGAS,NV,89145,"SOUTHERN NEVADA PAVING SUMMERLIN ASPHALT PLANT.SUMMELRIN PKWY & I-215, LAS VEGAS NEVADA 89145 (CLARK)",0,C,,110015679283
89521TCHNL9455D,-119.76,39.446999999999996,False,32,031,002206,32,32031,32031002206,1400000US32031002206,EE TECHNOLOGIES INC,9455 DOUBLE R BLVD,RENO,NV,89521,"EE TECHNOLOGIES INC.9455 DOUBLE R BLVD, RENO NEVADA 89521 (WASHOE)",0,C,,110030999766
89048LSVGSWHEEL,-115.949,36.216,False,32,023,960401,32,32023,32023960401,1400000US32023960401,LAS VEGAS PAVING,WHEELER PASS RD,PAHRUMP,NV,89048,"LAS VEGAS PAVING.WHEELER PASS RD, PAHRUMP NEVADA 89048 (NYE)",0,C,,
89041SRVCR291CH,-115.976,36.222,False,32,023,960401,32,32023,32023960401,1400000US32023960401,SERVICE ROCK PRODUCTS-PAHRUMP PLANT,2091 E CHRISTINE WAY,PAHRUMP,NV,89060,"SERVICE ROCK PRODUCTS-PAHRUMP PLANT.2091 E CHRISTINE WAY, PAHRUMP NEVADA 89060 (NYE)",0,C,,110022524302
8904WCLPRT621PW,-115.969,36.21,False,32,023,960401,32,32023,32023960401,1400000US32023960401,CALPORTLAND COMPANY NYE PLANT,621 POWERLINE RD,PAHRUMP,NV,89048,"CALPORTLAND COMPANY NYE PLANT.621 POWERLINE RD, PAHRUMP NEVADA 89048 (NYE)",0,C,,110039204848
89109NVDRDSANDS,-115.169,36.126,False,32,003,002302,32,32003,32003002302,1400000US32003002302,NEVADA READY MIX LE REVE,SANDS & LAS VEGAS BLVD S,LAS VEGAS,NV,89109,"NEVADA READY MIX LE REVE.SANDS & LAS VEGAS BLVD S, LAS VEGAS NEVADA 89109 (CLARK)",0,C,,
89109NVDRD292SI,-115.169,36.137,False,32,003,002302,32,32003,32003002302,1400000US32003002302,NEVADA READY MIX  ECHELON,2920 S INDUSTRIAL RD,LAS VEGAS,NV,89109,"NEVADA READY MIX  ECHELON.2920 S INDUSTRIAL RD, LAS VEGAS NEVADA 89109 (CLARK)",0,C,,110037149190
89115LSVGS15MIL,-115.07799999999999,36.23,False,32,003,004703,32,32003,32003004703,1400000US32003004703,LAS VEGAS PAVING CORP,1.5 MILES N OF HOLLYWOOD & LAS VEGAS BLVD,LAS VEGAS,NV,89115,"LAS VEGAS PAVING CORP.1.5 MILES N OF HOLLYWOOD & LAS VEGAS BLVD, LAS VEGAS NEVADA 89115 (CLARK)",0,C,,110025332316
89115LSVGS75MIL,-114.875,36.371,False,32,003,005613,32,32003,32003005613,1400000US32003005613,LAS VEGAS PAVING,075 MILES W 0F I-15 & 15 SW OF US 95,LAS VEGAS,NV,89115,"LAS VEGAS PAVING.075 MILES W 0F I-15 & 15 SW OF US 95, LAS VEGAS NEVADA 89115 (CLARK)",0,C,,
8900WHVRDMSR172,-114.758,36.016,False,32,003,005613,32,32003,32003005613,1400000US32003005613,HOOVER DAM WAREHOUSE,HOOVER DAM CENTRAL WAREHOUSE - S 93 HIGHWAY SR 172,BOULDER CITY,NV,89005,"HOOVER DAM WAREHOUSE.HOOVER DAM CENTRAL WAREHOUSE - S 93 HIGHWAY SR 172, BOULDER CITY NEVADA 89005 (CLARK)",0,F,,110059849099
89118RGNSP64WRI,-115.234,36.016999999999996,False,32,003,005831,32,32003,32003005831,1400000US32003005831,ERGON ASPHALT & EMULSIONS INC LAS VEGAS,6400 W RICHMAR AVE,LAS VEGAS,NV,89139,"ERGON ASPHALT & EMULSIONS INC LAS VEGAS.6400 W RICHMAR AVE, LAS VEGAS NEVADA 89139 (CLARK)",0,C,,110015843293
8913WCLPRT651WR,-115.23700000000001,36.016999999999996,False,32,003,005831,32,32003,32003005831,1400000US32003005831,CALPORTLAND CO GARY PLANT,6501 W RICHMAR AVE,LAS VEGAS,NV,89139,"CALPORTLAND CO GARY PLANT.6501 W RICHMAR AVE, LAS VEGAS NEVADA 89139 (CLARK)",0,C,,110069237864
89119LSVGS9325S,-115.226,36.016999999999996,False,32,003,005833,32,32003,32003005833,1400000US32003005833,LAS VEGAS PAVING CORP,9325 S JONES BLVD,LAS VEGAS,NV,89139,"LAS VEGAS PAVING CORP.9325 S JONES BLVD, LAS VEGAS NEVADA 89139 (CLARK)",0,C,,110025332487
89139RNKRM9275S,-115.226,36.021,False,32,003,005833,32,32003,32003005833,1400000US32003005833,RINKER MATERIALS BLUE DIAMOND PLANT 1855,9275 S JONES BLVD,LAS VEGAS,NV,89139,"RINKER MATERIALS BLUE DIAMOND PLANT 1855.9275 S JONES BLVD, LAS VEGAS NEVADA 89139 (CLARK)",0,C,,110022904972
89119CMXBL9325S,-115.226,36.016999999999996,False,32,003,005833,32,32003,32003005833,1400000US32003005833,CEMEX BLUE DIAMOND PLANT 1855,9325 S JONES BLVD,LAS VEGAS,NV,89119,"CEMEX BLUE DIAMOND PLANT 1855.9325 S JONES BLVD, LAS VEGAS NEVADA 89119 (CLARK)",0,C,,110037149207
89124STHRNSLANR,-115.21700000000001,35.943000000000005,False,32,003,005839,32,32003,32003005839,1400000US32003005839,"AGGREGATE INDUSTRIES SLOAN FACILITY (QUARRY HMA,RMX)",5300 SLOAN RD,SLOAN,NV,89054,"AGGREGATE INDUSTRIES SLOAN FACILITY (QUARRY HMA,RMX).5300 SLOAN RD, SLOAN NEVADA 89054 (CLARK)",0,C,,110037837188
89124SRVCR14575,-115.199,35.931,False,32,003,005839,32,32003,32003005839,1400000US32003005839,SERVICE ROCK PRODUCTS INC SLOAN,14575 ARVILLE ST,LAS VEGAS,NV,89124,"SERVICE ROCK PRODUCTS INC SLOAN.14575 ARVILLE ST, LAS VEGAS NEVADA 89124 (CLARK)",0,C,,110022524311
89124SLVRSSLANR,-115.21700000000001,35.943000000000005,False,32,003,005839,32,32003,32003005839,1400000US32003005839,CALPORTLAND CO SLOAN PLANT,5300 SLOAN RD,SLOAN,NV,89124,"CALPORTLAND CO SLOAN PLANT.5300 SLOAN RD, SLOAN NEVADA 89124 (CLARK)",0,C,,110067040776
8905WSRRSTDECAT,-115.20700000000001,35.936,False,32,003,005839,32,32003,32003005839,1400000US32003005839,SIERRA SOUTH BATCH PLANT,DECATUR BLVD,SLOAN,NV,89054,"SIERRA SOUTH BATCH PLANT.DECATUR BLVD, SLOAN NEVADA 89054 (CLARK)",0,C,,110070247451
89129LSVGSWLNEM,-115.13799999999999,36.141999999999996,False,32,003,002000,32,32003,32003002000,1400000US32003002000,LAS VEGAS PAVING CORP,W LONE MOUNTAIN RD,LAS VEGAS,NV,89129,"LAS VEGAS PAVING CORP.W LONE MOUNTAIN RD, LAS VEGAS NEVADA 89129 (CLARK)",0,C,,110025332502
89129WSHNG461NG,-115.306,36.245,False,32,003,003240,32,32003,32003003240,1400000US32003003240,WASHINGTON GROUP INTERNATIONAL,4610 N GRAND CANYON DR,LAS VEGAS,NV,89129,"WASHINGTON GROUP INTERNATIONAL.4610 N GRAND CANYON DR, LAS VEGAS NEVADA 89129 (CLARK)",0,C,,
8940WNVLRSSHEEL,-118.71,39.422,False,32,001,950400,32,32001,32001950400,1400000US32001950400,US NAVAL AIR STATION FALLON BRAVO 17,3998 SCHEELITE MINE RD,FALLON,NV,89406,"US NAVAL AIR STATION FALLON BRAVO 17.3998 SCHEELITE MINE RD, FALLON NEVADA 89406 (CHURCHILL)",0,F,,110067124686
89496SNVYNLNETR,-118.725,39.42,False,32,001,950400,32,32001,32001950400,1400000US32001950400,U.S. NAVY NAVAL AIR STATION  FALLON BRAVO 20,U.S. HWY 95,FALLON,NV,89496,"U.S. NAVY NAVAL AIR STATION  FALLON BRAVO 20.U.S. HWY 95, FALLON NEVADA 89496 (CHURCHILL)",0,F,,110000848389
89706WYKLR2222E,-119.743,39.19,False,32,510,000501,32,32510,32510000501,1400000US32510000501,WYKLE RESEARCH INC,2222 E COLLEGE PKWY,CARSON CITY,NV,89706,"WYKLE RESEARCH INC.2222 E COLLEGE PKWY, CARSON CITY NEVADA 89706 (CARSON CITY)",0,C,,
89021LSVGSI15EX,-114.51799999999999,36.672,False,32,003,007600,32,32003,32003007600,1400000US32003007600,LAS VEGAS PAVING,I-15 (EXIT 84),LOGANDALE,NV,89021,"LAS VEGAS PAVING.I-15 (EXIT 84), LOGANDALE NEVADA 89021 (CLARK)",0,C,,
89030RNKRM41LSE,-115.117,36.233000000000004,False,32,003,003615,32,32003,32003003615,1400000US32003003615,CEMEX NORTH LAS VEGAS PLANT # 1853,4001 N LOSEE,NORTH LAS VEGAS,NV,89030,"CEMEX NORTH LAS VEGAS PLANT # 1853.4001 N LOSEE, NORTH LAS VEGAS NEVADA 89030 (CLARK)",0,C,,110022812027
8903WCMXLS41LSE,-115.117,36.233000000000004,False,32,003,003615,32,32003,32003003615,1400000US32003003615,CEMEX - LOSEE PLANT,4001 LOSEE RD,NORTH LAS VEGAS,NV,89030,"CEMEX - LOSEE PLANT.4001 LOSEE RD, NORTH LAS VEGAS NEVADA 89030 (CLARK)",0,C,,110070070028
89123NVDRD9777S,-115.281,36.07,False,32,003,005854,32,32003,32003005854,1400000US32003005854,NEVADA READY MIX  PLANT 9,8755 W SUNSET,LAS VEGAS,NV,89123,"NEVADA READY MIX  PLANT 9.8755 W SUNSET, LAS VEGAS NEVADA 89123 (CLARK)",0,C,,110022812036
89147RNKRM4511S,-115.21600000000001,36.115,False,32,003,002966,32,32003,32003002966,1400000US32003002966,RINKER MATERIALS BUFFALO MAIN 1850,4511 SO BUFFALO RD,LAS VEGAS,NV,89147,"RINKER MATERIALS BUFFALO MAIN 1850.4511 SO BUFFALO RD, LAS VEGAS NEVADA 89147 (CLARK)",0,C,,110022904981
89149SRVCR1815W,-115.323,36.255,False,32,003,003231,32,32003,32003003231,1400000US32003003231,SERVICE ROCK PRODUCTS INC-LONE MOUNTAIN NV FACILITY,10815 W WASHBURN,LAS VEGAS,NV,89149,"SERVICE ROCK PRODUCTS INC-LONE MOUNTAIN NV FACILITY.10815 W WASHBURN, LAS VEGAS NEVADA 89149 (CLARK)",0,C,,110022524320
8912WNVDRD1811W,-115.324,36.255,False,32,003,003231,32,32003,32003003231,1400000US32003003231,NEVADA READY MIX LONE MOUNTAIN,10811 W WASHBURN AVE,LAS VEGAS,NV,89129,"NEVADA READY MIX LONE MOUNTAIN.10811 W WASHBURN AVE, LAS VEGAS NEVADA 89129 (CLARK)",0,C,,110060258607
89030WHTCP24371,-115.137,36.205,False,32,003,003700,32,32003,32003003700,1400000US32003003700,HD SUPPLY CONSTRUCTION SUPPLY LTD (NV011-6158),2437 1/2 LOSEE RD,NORTH LAS VEGAS,NV,89030,"HD SUPPLY CONSTRUCTION SUPPLY LTD (NV011-6158).2437 1/2 LOSEE RD, NORTH LAS VEGAS NEVADA 89030 (CLARK)",0,C,,110025332281
8903WNTRXN21EMA,-115.137,36.211999999999996,False,32,003,003700,32,32003,32003003700,1400000US32003003700,NITREX INC,201 E MAYFLOWER AVE,NORTH LAS VEGAS,NV,89030,"NITREX INC.201 E MAYFLOWER AVE, NORTH LAS VEGAS NEVADA 89030 (CLARK)",0,C,,110041274983
89109RNKRM2777P,-115.155,36.138000000000005,False,32,003,002303,32,32003,32003002303,1400000US32003002303,CEMEX TURNBERRY PLANT #1859,2777 PARADISE RD,LAS VEGAS,NV,89109,"CEMEX TURNBERRY PLANT #1859.2777 PARADISE RD, LAS VEGAS NEVADA 89109 (CLARK)",0,C,,110024887363
89408CMXCN2MULL,-119.24700000000001,39.59,False,32,019,960101,32,32019,32019960101,1400000US32019960101,CEMEX CONSTRUCTION MATERIALS LP FERNLEY RM PLANT,200 MULL LN,FERNLEY,NV,89408,"CEMEX CONSTRUCTION MATERIALS LP FERNLEY RM PLANT.200 MULL LN, FERNLEY NEVADA 89408 (LYON)",0,C,,110020744701
89005RNKRM12345,-114.915,35.964,False,32,003,005711,32,32003,32003005711,1400000US32003005711,RINKER MATERIALS ELDORADO PLANT # 1857,123455 S OLD HWY 95,LAS VEGAS,NV,89005,"RINKER MATERIALS ELDORADO PLANT # 1857.123455 S OLD HWY 95, LAS VEGAS NEVADA 89005 (CLARK)",0,C,,110031020277
8904WSTHWSBLMPI,-115.242,35.846,False,32,003,005711,32,32003,32003005711,1400000US32003005711,"SOUTHWEST IRON WORKS, LLC",BLM PIT NEAR JEAN,LAS VEGAS,NV,89044,"SOUTHWEST IRON WORKS, LLC.BLM PIT NEAR JEAN, LAS VEGAS NEVADA 89044 (CLARK)",0,C,,110039498059
89044RNKRM243DE,-115.09200000000001,35.928000000000004,False,32,003,005713,32,32003,32003005713,1400000US32003005713,CEMEX ANTHEM PLANT #1856,2403 DEMOCRACY WAY,HENDERSON,NV,89044,"CEMEX ANTHEM PLANT #1856.2403 DEMOCRACY WAY, HENDERSON NEVADA 89044 (CLARK)",0,C,,110031018440
89143RNKRM2645M,-115.316,36.335,False,32,003,003316,32,32003,32003003316,1400000US32003003316,CEMEX KYLE CANYON PLANT #1866,2645 MOCCASIN RD,LAS VEGAS,NV,89143,"CEMEX KYLE CANYON PLANT #1866.2645 MOCCASIN RD, LAS VEGAS NEVADA 89143 (CLARK)",0,C,,110059823491
89406GMNFL12FRU,-118.755,39.464,False,32,001,950100,32,32001,32001950100,1400000US32001950100,GEMINI-FALLON,102 FRUTH WAY,FALLON,NV,89406,"GEMINI-FALLON.102 FRUTH WAY, FALLON NEVADA 89406 (CHURCHILL)",0,C,,110041215379
8940WQLHLL14NEW,-118.755,39.464,False,32,001,950100,32,32001,32001950100,1400000US32001950100,QUAIL HOLLOW LLC,1400 NEW RIVER PKWY,FALLON,NV,89406,"QUAIL HOLLOW LLC.1400 NEW RIVER PKWY, FALLON NEVADA 89406 (CHURCHILL)",0,C,,110059816980
89801PHMNP5244E,-115.85,40.793,False,32,007,951202,32,32007,32007951202,1400000US32007951202,JOY GLOBAL ELKO,4450 P&H DR,ELKO,NV,89801,"JOY GLOBAL ELKO.4450 P&H DR, ELKO NEVADA 89801 (ELKO)",0,C,,110064221391
8980WKNNMT1355W,-115.78200000000001,40.825,False,32,007,950900,32,32007,32007950900,1400000US32007950900,KENNAMETAL - TRICON,1355 WEST IDAHO STREET,ELKO,NV,898014706,"KENNAMETAL - TRICON.1355 WEST IDAHO STREET, ELKO NEVADA 89801 (ELKO)",0,C,,110041626577
89109CMXMG379LA,-115.17299999999999,36.103,False,32,003,006700,32,32003,32003006700,1400000US32003006700,CEMEX MGM CITY CENTER,3790 LAS VEGAS BLVD SO,LAS VEGAS,NV,89109,"CEMEX MGM CITY CENTER.3790 LAS VEGAS BLVD SO, LAS VEGAS NEVADA 89109 (CLARK)",0,C,,110037149181
89123KNSFD8925K,-115.22200000000001,36.028,False,32,003,002983,32,32003,32003002983,1400000US32003002983,KEN'S FOODS INC LAS VEGAS,8925 KEN'S CT,LAS VEGAS,NV,89123,"KEN'S FOODS INC LAS VEGAS.8925 KEN'S CT, LAS VEGAS NEVADA 89123 (CLARK)",0,C,,110014450913
89124CMXSL14998,-115.19,35.931999999999995,False,32,003,005712,32,32003,32003005712,1400000US32003005712,CEMEX - SLOAN PLANT,14998 S LAS VEGAS BLVD,LAS VEGAS,NV,89124,"CEMEX - SLOAN PLANT.14998 S LAS VEGAS BLVD, LAS VEGAS NEVADA 89124 (CLARK)",0,C,,110037149369
8904WNVDRD22BWE,-115.163,35.966,False,32,003,005712,32,32003,32003005712,1400000US32003005712,NEVADA READY MIX,2200 BOWES STREET,HENDERSON,NV,89044,"NEVADA READY MIX.2200 BOWES STREET, HENDERSON NEVADA 89044 (CLARK)",0,C,,110039075354
89801PHMNP519EI,-115.723,40.874,False,32,007,951401,32,32007,32007951401,1400000US32007951401,P&H MINE PRO,5190 E IDAHO ST,ELKO,NV,89801,"P&H MINE PRO.5190 E IDAHO ST, ELKO NEVADA 89801 (ELKO)",0,C,,110037150203
89002PLYWS251CN,-114.943,35.996,False,32,003,005360,32,32003,32003005360,1400000US32003005360,POLY-WEST,251 CONESTOGA WAY,HENDERSON,NV,89002,"POLY-WEST.251 CONESTOGA WAY, HENDERSON NEVADA 89002 (CLARK)",0,C,,110027833272
89103CMCCN4265W,-115.197,36.105,False,32,003,002956,32,32003,32003002956,1400000US32003002956,CMC ECONOMY STEEL,4265 W TOMPKINS AVE,LAS VEGAS,NV,89103,"CMC ECONOMY STEEL.4265 W TOMPKINS AVE, LAS VEGAS NEVADA 89103 (CLARK)",0,C,,110032644921
8912WCRTNTHCCR8,-115.385,36.049,False,32,003,005840,32,32003,32003005840,1400000US32003005840,CERTAIN TEED GYPSUM LAS VEGAS PLANT,13500 BLUE DIAMOND RD,LAS VEGAS,NV,89161,"CERTAIN TEED GYPSUM LAS VEGAS PLANT.13500 BLUE DIAMOND RD, LAS VEGAS NEVADA 89161 (CLARK)",0,C,,110037898460
8901WMRSCH1SUNS,-115.07,36.071999999999996,False,32,003,005101,32,32003,32003005101,1400000US32003005101,MARS CHOCOLATE NA,1 SUNSET WAY,HENDERSON,NV,89014,"MARS CHOCOLATE NA.1 SUNSET WAY, HENDERSON NEVADA 89014 (CLARK)",0,C,,110046306485
8940WBNGRF22221,-119.04,39.499,False,32,001,950700,32,32001,32001950700,1400000US32001950700,SAFETY-KLEEN SYSTEMS INC,22211 BANGO RD,FALLON,NV,89406,"SAFETY-KLEEN SYSTEMS INC.22211 BANGO RD, FALLON NEVADA 89406 (CHURCHILL)",0,C,,110023119962
8949WSNVLRLNETR,-118.81299999999999,39.400999999999996,False,32,001,950700,32,32001,32001950700,1400000US32001950700,US NAVAL AIR STATION FALLON BRAVO 16,2584 LONE TREE RD,FALLON,NV,89406,"US NAVAL AIR STATION FALLON BRAVO 16.2584 LONE TREE RD, FALLON NEVADA 89406 (CHURCHILL)",0,F,,110067128655
8901WLSVGSPARCE,-115.391,35.618,False,32,003,005827,32,32003,32003005827,1400000US32003005827,LAS VEGAS PAVING CORP,PARCEL # 237-08-101-002,PRIMM,NV,89019,"LAS VEGAS PAVING CORP.PARCEL # 237-08-101-002, PRIMM NEVADA 89019 (CLARK)",0,C,,110046371715
8903WCRTNT3838C,-115.11399999999999,36.23,False,32,003,004601,32,32003,32003004601,1400000US32003004601,CERTAINTEED GYPSUM - LAS VEGAS FINISHING PLANT,3838 CIVIC CENTER DR,NORTH LAS VEGAS,NV,89030,"CERTAINTEED GYPSUM - LAS VEGAS FINISHING PLANT.3838 CIVIC CENTER DR, NORTH LAS VEGAS NEVADA 89030 (CLARK)",0,C,,110069256469
8903WFRMFR384CI,-115.11399999999999,36.229,False,32,003,004601,32,32003,32003004601,1400000US32003004601,FARM FRESH FOODS,3840 CIVIC CENTER DR,NORTH LAS VEGAS,NV,89030,"FARM FRESH FOODS.3840 CIVIC CENTER DR, NORTH LAS VEGAS NEVADA 89030 (CLARK)",0,C,,110067196493
8903WCPCRD122TR,-115.15899999999999,36.216,False,32,003,003617,32,32003,32003003617,1400000US32003003617,CPI CARD GROUP - NV,1220 TRADE DR.,NORTH LAS VEGAS,NV,89030,"CPI CARD GROUP - NV.1220 TRADE DR., NORTH LAS VEGAS NEVADA 89030 (CLARK)",0,C,,110060261096
8911WJNSNP275MA,-115.071,36.21,False,32,003,007100,32,32003,32003007100,1400000US32003007100,JENSEN PRECAST,2750 MARION DR,LAS VEGAS,NV,89115,"JENSEN PRECAST.2750 MARION DR, LAS VEGAS NEVADA 89115 (CLARK)",0,C,,110069256067
8916WLSVGS1475G,-115.334,36.138000000000005,False,32,003,005844,32,32003,32003005844,1400000US32003005844,LAS VEGAS PAVING - KAPEX,14075 GRAND VALLEY PKWY,LAS VEGAS,NV,89165,"LAS VEGAS PAVING - KAPEX.14075 GRAND VALLEY PKWY, LAS VEGAS NEVADA 89165 (CLARK)",0,C,,110070557760
