TRIFID,LONGITUDE,LATITUDE,ESTIMATE,STATEFP,COUNTYFP,TRACTCE,STATEGEOID,COUNTYGEOID,TRACTGEOID,AFFGEOID,FACILITY_NAME,STREET,CITY,STUSPS,ZIP_CODE,FACILITY,FAC_CLOSED_IND,ASGN_FEDERAL_IND,BIA_CODE,EPA_REGISTRY_ID
97005DLXCH10550,-122.785,45.483999999999995,False,41,067,030401,41,41067,41067030401,1400000US41067030401,DELUXE CHECK PRINTERS INC,10550 SW 5TH ST,BEAVERTON,OR,97005,"DELUXE CHECK PRINTERS INC.10550 SW 5TH ST, BEAVERTON OREGON 97005 (WASHINGTON)",0,C,,
97005WLLMT5550S,-122.78299999999999,45.48,False,41,067,030401,41,41067,41067030401,1400000US41067030401,INTERNATIONAL PAPER CO.  SPECIALTY PR ODUCTS DIV,5570 SW WESTERN AVE,BEAVERTON,OR,97005,"INTERNATIONAL PAPER CO.  SPECIALTY PR ODUCTS DIV.5570 SW WESTERN AVE, BEAVERTON OREGON 97005 (WASHINGTON)",0,C,,110000894550
97075RCRPN10975,-122.789,45.48,False,41,067,030401,41,41067,41067030401,1400000US41067030401,CARPENTER CO,10975 SW 11TH,BEAVERTON,OR,97075,"CARPENTER CO.10975 SW 11TH, BEAVERTON OREGON 97075 (WASHINGTON)",0,C,,
97005VSYST9825S,-122.77799999999999,45.477,False,41,067,030401,41,41067,41067030401,1400000US41067030401,VANGUARD EMS INC,9825 SW SUNSHINE COURT,BEAVERTON,OR,97005,"VANGUARD EMS INC.9825 SW SUNSHINE COURT, BEAVERTON OREGON 97005 (WASHINGTON)",0,C,,110004793643
97005MRCRN10740,-122.788,45.467,False,41,067,031005,41,41067,41067031005,1400000US41067031005,MERCER INDUSTRIES INC,10740 SW DENNEY RD,BEAVERTON,OR,97005,"MERCER INDUSTRIES INC.10740 SW DENNEY RD, BEAVERTON OREGON 97005 (WASHINGTON)",0,C,,
97005RSCNT1270N,-122.84899999999999,45.528999999999996,False,41,067,031611,41,41067,41067031611,1400000US41067031611,YAMAMOTO MFG USA INC,1270 NW 167TH PL,BEAVERTON,OR,970064826,"YAMAMOTO MFG USA INC.1270 NW 167TH PL, BEAVERTON OREGON 97006 (WASHINGTON)",0,C,,
97005TKTRN18850,-122.87,45.527,False,41,067,031609,41,41067,41067031609,1400000US41067031609,TEKTRONIX INC,18850 SW WALKER RD,BEAVERTON,OR,97005,"TEKTRONIX INC.18850 SW WALKER RD, BEAVERTON OREGON 97005 (WASHINGTON)",0,C,,
97006PLNRS1400N,-122.882,45.531000000000006,False,41,067,031609,41,41067,41067031609,1400000US41067031609,PLANAR SYSTEMS INC,1400 NW COMPTON DR,BEAVERTON,OR,970061992,"PLANAR SYSTEMS INC.1400 NW COMPTON DR, BEAVERTON OREGON 97006 (WASHINGTON)",0,C,,
97006BFLRN1050N,-122.882,45.527,False,41,067,031609,41,41067,41067031609,1400000US41067031609,BIPOLAR INTEGRATED TECHNOLOGIES INC,1050 NW COMPTON DR,BEAVERTON,OR,97006,"BIPOLAR INTEGRATED TECHNOLOGIES INC.1050 NW COMPTON DR, BEAVERTON OREGON 97006 (WASHINGTON)",1,C,,
97123GLCRN21480,-122.898,45.538000000000004,False,41,067,031609,41,41067,41067031609,1400000US41067031609,GLACIER NORTHWEST INC HILLSBORO READY-MIX PLANT,21480 NW AMBERWOOD DR,HILLSBORO,OR,97124,"GLACIER NORTHWEST INC HILLSBORO READY-MIX PLANT.21480 NW AMBERWOOD DR, HILLSBORO OREGON 97124 (WASHINGTON)",0,C,,110004817994
97124QLTYP21420,-122.897,45.532,False,41,067,031609,41,41067,41067031609,1400000US41067031609,FUSION EMS AKA QUALITY PRODUCTION LTD,21420 NW NICHOLAS CT SUITE G,HILLSBORO,OR,97124,"FUSION EMS AKA QUALITY PRODUCTION LTD.21420 NW NICHOLAS CT SUITE G, HILLSBORO OREGON 97124 (WASHINGTON)",0,C,,110004813603
97006MBTCH14924,-122.87899999999999,45.531000000000006,False,41,067,031609,41,41067,41067031609,1400000US41067031609,AXIOM ELECTRONICS LLC,14924 NW GREENBRIER PKWY,BEAVERTON,OR,97006,"AXIOM ELECTRONICS LLC.14924 NW GREENBRIER PKWY, BEAVERTON OREGON 97006 (WASHINGTON)",0,C,,110018499588
97006HRLSY16NWC,-122.881,45.532,False,41,067,031609,41,41067,41067031609,1400000US41067031609,HIREL SYSTEMS OREGON SITE,1600 NW COMPTON DR SUITE 140,HILLSBORO,OR,97006,"HIREL SYSTEMS OREGON SITE.1600 NW COMPTON DR SUITE 140, HILLSBORO OREGON 97006 (WASHINGTON)",0,C,,
9700WXMLCT19545,-122.87899999999999,45.531000000000006,False,41,067,031609,41,41067,41067031609,1400000US41067031609,AXIOM ELECTRONICS LLC,9845 NE ECKERT DR SUITE 200,HILLSBORO,OR,97006,"AXIOM ELECTRONICS LLC.9845 NE ECKERT DR SUITE 200, HILLSBORO OREGON 97006 (WASHINGTON)",0,C,,110018499588
97005TNCRP13725,-122.818,45.492,False,41,067,031402,41,41067,41067031402,1400000US41067031402,EATON CORP,13725 SW MILLIKAN WAY,BEAVERTON,OR,97005,"EATON CORP.13725 SW MILLIKAN WAY, BEAVERTON OREGON 97005 (WASHINGTON)",1,C,,
97077TKTRN13700,-122.823,45.5,False,41,067,031402,41,41067,41067031402,1400000US41067031402,TEKTRONIX INC,14150 SW KARL BRAUN DR,BEAVERTON,OR,97005,"TEKTRONIX INC.14150 SW KARL BRAUN DR, BEAVERTON OREGON 97005 (WASHINGTON)",0,C,,110000617985
97005MXMNT14320,-122.825,45.501999999999995,False,41,067,031402,41,41067,41067031402,1400000US41067031402,MAXIM FAB NORTH,14320 SW JENKINS RD,BEAVERTON,OR,97005,"MAXIM FAB NORTH.14320 SW JENKINS RD, BEAVERTON OREGON 97005 (WASHINGTON)",0,C,,110022521706
97005BNCHM3725S,-122.815,45.493,False,41,067,031402,41,41067,41067031402,1400000US41067031402,VANGUARD EMS INC,3725 SW HOCKEN AVE,BEAVERTON,OR,97005,"VANGUARD EMS INC.3725 SW HOCKEN AVE, BEAVERTON OREGON 97005 (WASHINGTON)",0,C,,110004799479
97005MXTKC2905S,-122.815,45.498999999999995,False,41,067,031402,41,41067,41067031402,1400000US41067031402,MAXTEK COMPONENTS CORP,2905 SW HOCKEN AVE,BEAVERTON,OR,97005,"MAXTEK COMPONENTS CORP.2905 SW HOCKEN AVE, BEAVERTON OREGON 97005 (WASHINGTON)",0,C,,110004809716
97006MBTCH3003S,-122.834,45.498999999999995,False,41,067,031402,41,41067,41067031402,1400000US41067031402,AMBITECH INC AXIOM OPERATIONS,3003 SW 153RD DR SUITE 219,BEAVERTON,OR,97006,"AMBITECH INC AXIOM OPERATIONS.3003 SW 153RD DR SUITE 219, BEAVERTON OREGON 97006 (WASHINGTON)",0,C,,
9700WGRTBT13955,-122.819,45.493,False,41,067,031402,41,41067,41067031402,1400000US41067031402,ELECTROCHEM,13955 SW MILLIKAN WAY,BEAVERTON,OR,97005,"ELECTROCHEM.13955 SW MILLIKAN WAY, BEAVERTON OREGON 97005 (WASHINGTON)",0,C,,110059252017
97006LPLDS600NW,-122.823,45.523999999999994,False,41,067,031403,41,41067,41067031403,1400000US41067031403,LEUPOLD & STEVENS INC,14400 NW GREENBRIER PKWY,BEAVERTON,OR,97006,"LEUPOLD & STEVENS INC.14400 NW GREENBRIER PKWY, BEAVERTON OREGON 97006 (WASHINGTON)",0,C,,110000841064
97007NTLCR3585S,-122.885,45.493,False,41,067,031703,41,41067,41067031703,1400000US41067031703,INTEL CORP-ALOHA CAMPUS,3585 SW 198TH AVE,ALOHA,OR,97007,"INTEL CORP-ALOHA CAMPUS.3585 SW 198TH AVE, ALOHA OREGON 97007 (WASHINGTON)",0,C,,110000486527
97009WSCTT19701,-122.46,45.417,False,41,005,023202,41,41005,41005023202,1400000US41005023202,WESCOTTS AUTO RESTYLING,19701 SE HWY 212,BORING,OR,97009,"WESCOTTS AUTO RESTYLING.19701 SE HWY 212, BORING OREGON 97009 (CLACKAMAS)",0,C,,
97013JHNSN800NW,-122.706,45.263000000000005,False,41,005,022904,41,41005,41005022904,1400000US41005022904,JOHNSON CONTROLS BATTERY GROUP LLC,800 NW THIRD AVE,CANBY,OR,97013,"JOHNSON CONTROLS BATTERY GROUP LLC.800 NW THIRD AVE, CANBY OREGON 97013 (CLACKAMAS)",0,C,,110000486554
97013PTTRS35NBA,-122.706,45.261,False,41,005,022904,41,41005,41005022904,1400000US41005022904,POTTERS INDUSTRIES LLC,350 N BAKER DR,CANBY,OR,97013,"POTTERS INDUSTRIES LLC.350 N BAKER DR, CANBY OREGON 97013 (CLACKAMAS)",0,C,,110031001742
9701WCMXCN515SB,-122.705,45.257,False,41,005,022904,41,41005,41005022904,1400000US41005022904,CEMEX - CANBY RM,515 S BERG PARKWAY,CANBY,OR,97013,"CEMEX - CANBY RM.515 S BERG PARKWAY, CANBY OREGON 97013 (CLACKAMAS)",1,C,,110043965457
9701WMLWKL114NW,-122.70700000000001,45.26,False,41,005,022904,41,41005,41005022904,1400000US41005022904,MILWAUKEE ELECTRONICS - CANBY,1140 NW 3RD AVE,CANBY,OR,97013,"MILWAUKEE ELECTRONICS - CANBY.1140 NW 3RD AVE, CANBY OREGON 97013 (CLACKAMAS)",0,C,,110070244644
97013SRSMT1017S,-122.705,45.255,False,41,005,022906,41,41005,41005022906,1400000US41005022906,SR SMITH LLC,1017 SW BERG PKWY,CANBY,OR,97013,"SR SMITH LLC.1017 SW BERG PKWY, CANBY OREGON 97013 (CLACKAMAS)",0,C,,110000486563
97013BCNRT1076S,-122.704,45.254,False,41,005,022906,41,41005,41005022906,1400000US41005022906,OBC NORTHWEST INC,1076 SW BERG PKWY,CANBY,OR,970130759,"OBC NORTHWEST INC.1076 SW BERG PKWY, CANBY OREGON 97013 (CLACKAMAS)",0,C,,
97015CNSLD10448,-122.556,45.406000000000006,False,41,005,022108,41,41005,41005022108,1400000US41005022108,CONSOLIDATED METCO INC,10448 HWY 212,CLACKAMAS,OR,97015,"CONSOLIDATED METCO INC.10448 HWY 212, CLACKAMAS OREGON 97015 (CLACKAMAS)",0,C,,110002339817
97015NCHMN14242,-122.572,45.42,False,41,005,022108,41,41005,41005022108,1400000US41005022108,ENOCH PRECISION MACHINING,9085 SE ENOCH CT,CLACKAMAS,OR,97015,"ENOCH PRECISION MACHINING.9085 SE ENOCH CT, CLACKAMAS OREGON 97015 (CLACKAMAS)",0,C,,110000904914
97015GMTPM8811S,-122.573,45.417,False,41,005,022108,41,41005,41005022108,1400000US41005022108,SNF INC  GEM TOP MANUFACTURING,8811 SE HERBERT CT,CLACKAMAS,OR,97015,"SNF INC  GEM TOP MANUFACTURING.8811 SE HERBERT CT, CLACKAMAS OREGON 97015 (CLACKAMAS)",0,C,,110000486572
97015WRNND12900,-122.53200000000001,45.398,False,41,005,022108,41,41005,41005022108,1400000US41005022108,WARN INDUSTRIES INC,12900 SE CAPPS RD,CLACKAMAS,OR,97015,"WARN INDUSTRIES INC.12900 SE CAPPS RD, CLACKAMAS OREGON 97015 (CLACKAMAS)",0,C,,110000486607
97015SFTYK16540,-122.53,45.403,False,41,005,022108,41,41005,41005022108,1400000US41005022108,SAFETY-KLEEN SYSTEMS CLACKAMAS (CLA),16540 SE 130TH AVE,CLACKAMAS,OR,97015,"SAFETY-KLEEN SYSTEMS CLACKAMAS (CLA).16540 SE 130TH AVE, CLACKAMAS OREGON 97015 (CLACKAMAS)",0,C,,110000486581
97015GLCRN1134S,-122.54700000000001,45.402,False,41,005,022108,41,41005,41005022108,1400000US41005022108,GLACIER NORTHWEST INC CLACKAMAS READY MIX,11340 SE JENNIFER ST,CLACKAMAS,OR,97015,"GLACIER NORTHWEST INC CLACKAMAS READY MIX.11340 SE JENNIFER ST, CLACKAMAS OREGON 97015 (CLACKAMAS)",0,C,,110031001751
9701WTHRML12533,-122.535,45.402,False,41,005,022108,41,41005,41005022108,1400000US41005022108,THERMAL FLUIDS INC - CLACKAMAS,12533 SE CARPENTER DR,CLACKAMAS,OR,97015,"THERMAL FLUIDS INC - CLACKAMAS.12533 SE CARPENTER DR, CLACKAMAS OREGON 97015 (CLACKAMAS)",0,C,,110070557813
97015SMLLS13340,-122.571,45.426,False,41,005,022107,41,41005,41005022107,1400000US41005022107,PCC STRUCTURALS INC SMALL STRUCTURALS BUSINESS OPERATION,13340 SE 84TH AVE,CLACKAMAS,OR,97015,"PCC STRUCTURALS INC SMALL STRUCTURALS BUSINESS OPERATION.13340 SE 84TH AVE, CLACKAMAS OREGON 97015 (CLACKAMAS)",0,C,,110000486590
97015TMCNC10240,-122.55799999999999,45.416000000000004,False,41,005,022107,41,41005,41005022107,1400000US41005022107,TEMCO INC,10240 SE MATHER RD,CLACKAMAS,OR,97015,"TEMCO INC.10240 SE MATHER RD, CLACKAMAS OREGON 97015 (CLACKAMAS)",0,C,,
97015BRDMC9180S,-122.564,45.416000000000004,False,41,005,022107,41,41005,41005022107,1400000US41005022107,"YORK INTL, PACE DIV",9180 SE LAWNFIELD RD,CLACKAMAS,OR,97015,"YORK INTL, PACE DIV.9180 SE LAWNFIELD RD, CLACKAMAS OREGON 97015 (CLACKAMAS)",0,C,,
97016JMSRVWAUNA,-123.40799999999999,46.157,False,41,007,951200,41,41007,41007951200,1400000US41007951200,GEORGIA-PACIFIC CONSUMER OPERATIONS LLC,92326 TAYLORVILLE RD,CLATSKANIE,OR,97016,"GEORGIA-PACIFIC CONSUMER OPERATIONS LLC.92326 TAYLORVILLE RD, CLATSKANIE OREGON 97016 (CLATSOP)",0,C,,110028051159
97022GLFND23123,-122.354,45.355,False,41,005,023500,41,41005,41005023500,1400000US41005023500,EAGLE FOUNDRY CO,23123 SE EAGLE CREEK RD,EAGLE CREEK,OR,97022,"EAGLE FOUNDRY CO.23123 SE EAGLE CREEK RD, EAGLE CREEK OREGON 97022 (CLACKAMAS)",0,C,,110000486625
97023GLCRN294SE,-122.35799999999999,45.303000000000004,False,41,005,023500,41,41005,41005023500,1400000US41005023500,GLACIER NORTHWEST INC ESTACADA READY MIX,29400 SE RIVERMILL RD,ESTACADA,OR,97023,"GLACIER NORTHWEST INC ESTACADA READY MIX.29400 SE RIVERMILL RD, ESTACADA OREGON 97023 (CLACKAMAS)",1,C,,110031001760
97026FBRFB12657,-122.89200000000001,45.103,False,41,047,010303,41,41047,41047010303,1400000US41047010303,FIBER-FAB LLC,12657 PORTLAND RD NE,GERVAIS,OR,97026,"FIBER-FAB LLC.12657 PORTLAND RD NE, GERVAIS OREGON 97026 (MARION)",0,C,,110000486634
97071WDBRN101SB,-122.84299999999999,45.13399999999999,False,41,047,010303,41,41047,41047010303,1400000US41047010303,PF ACQUISITION II (DBA AGRIFROZEN FOODS INC) PLANT NO 3,101 S BIRDSEYE AVE,WOODBURN,OR,970715234,"PF ACQUISITION II (DBA AGRIFROZEN FOODS INC) PLANT NO 3.101 S BIRDSEYE AVE, WOODBURN OREGON 97071 (MARION)",0,C,,
97071THJMS1440S,-122.839,45.135,False,41,047,010303,41,41047,41047010303,1400000US41047010303,J M SMUCKER CO,1440 SILVERTON RD,WOODBURN,OR,97071,"J M SMUCKER CO.1440 SILVERTON RD, WOODBURN OREGON 97071 (MARION)",0,C,,
97030FJTSM21015,-122.447,45.521,False,41,051,010100,41,41051,41051010100,1400000US41051010100,MICROCHIP TECHNOLOGY INC,21015 SE STARK ST,GRESHAM,OR,97030,"MICROCHIP TECHNOLOGY INC.21015 SE STARK ST, GRESHAM OREGON 97030 (MULTNOMAH)",0,C,,110000486652
97031KRNYW900PO,-121.521,45.715,False,41,027,950300,41,41027,41027950300,1400000US41027950300,COOPER/WESTERN POWER PRODS,900 PORTWAY AVE,HOOD RIVER,OR,97031,"COOPER/WESTERN POWER PRODS.900 PORTWAY AVE, HOOD RIVER OREGON 97031 (HOOD RIVER)",1,C,,
97031LHRJN400PO,-121.515,45.715,False,41,027,950300,41,41027,41027950300,1400000US41027950300,LUHR JENSEN & SONS,400 PORTWAY AVE,HOOD RIVER,OR,97031,"LUHR JENSEN & SONS.400 PORTWAY AVE, HOOD RIVER OREGON 97031 (HOOD RIVER)",0,C,,
97035HRZNT17750,-122.741,45.397,False,41,005,020401,41,41005,41005020401,1400000US41005020401,HORIZON TECH INC,17750 SW 63RD ST,LAKE OSWEGO,OR,97035,"HORIZON TECH INC.17750 SW 63RD ST, LAKE OSWEGO OREGON 97035 (CLACKAMAS)",1,C,,
97042LCTRN13626,-122.586,45.229,False,41,005,023700,41,41005,41005023700,1400000US41005023700,SUNSTONE CIRCUITS,13626 S FREEMAN RD,MULINO,OR,97042,"SUNSTONE CIRCUITS.13626 S FREEMAN RD, MULINO OREGON 97042 (CLACKAMAS)",0,C,,110000486698
97045MLSFB1516M,-122.6,45.363,False,41,005,022400,41,41005,41005022400,1400000US41005022400,MILES FIBERGLASS & PLASTICS INC,1516 MAIN ST,OREGON CITY,OR,97045,"MILES FIBERGLASS & PLASTICS INC.1516 MAIN ST, OREGON CITY OREGON 97045 (CLACKAMAS)",0,C,,110000486705
97045SMRFT419MA,-122.61200000000001,45.355,False,41,005,022400,41,41005,41005022400,1400000US41005022400,BLUE HERON PAPER CO,419 MAIN ST,OREGON CITY,OR,97045,"BLUE HERON PAPER CO.419 MAIN ST, OREGON CITY OREGON 97045 (CLACKAMAS)",0,C,,110000486723
97051BSCSC1300K,-122.803,45.848,False,41,009,970700,41,41009,41009970700,1400000US41009970700,BOISE WHITE PAPER LLC,1300 KASTER RD,SAINT HELENS,OR,97051,"BOISE WHITE PAPER LLC.1300 KASTER RD, SAINT HELENS OREGON 97051 (COLUMBIA)",0,C,,110011639110
97051RMSTR1645R,-122.819,45.84,False,41,009,970700,41,41009,41009970700,1400000US41009970700,ARMSTRONG WORLD INDUSTRIES INC,1645 RAILROAD AVE,SAINT HELENS,OR,97051,"ARMSTRONG WORLD INDUSTRIES INC.1645 RAILROAD AVE, SAINT HELENS OREGON 97051 (COLUMBIA)",0,C,,110000486750
97051CHVRN63149,-122.829,45.912,False,41,009,970500,41,41009,41009970500,1400000US41009970500,DYNO NOBEL- STHELENS PLANT,63149 COLUMBIA RIVER HWY,DEER ISLAND,OR,97054,"DYNO NOBEL- STHELENS PLANT.63149 COLUMBIA RIVER HWY, DEER ISLAND OREGON 97054 (COLUMBIA)",0,C,,110041415885
97058KRRMCTIEPL,-121.165,45.599,False,41,065,970100,41,41065,41065970100,1400000US41065970100,AMERITIES WEST LLC,100 TIE PLANT RD,THE DALLES,OR,97058,"AMERITIES WEST LLC.100 TIE PLANT RD, THE DALLES OREGON 97058 (WASCO)",0,C,,110000486769
97058NRTHW3313W,-121.206,45.623999999999995,False,41,065,970500,41,41065,41065970500,1400000US41065970500,NORTHWEST ALUMINUM CO,3313 W SECOND ST,THE DALLES,OR,97058,"NORTHWEST ALUMINUM CO.3313 W SECOND ST, THE DALLES OREGON 97058 (WASCO)",1,C,,110000486778
9705WNRTHW2929W,-121.206,45.621,False,41,065,970500,41,41065,41065970500,1400000US41065970500,HYDRO EXTRUSION USA LLC,2929 W 2ND ST,THE DALLES,OR,97058,"HYDRO EXTRUSION USA LLC.2929 W 2ND ST, THE DALLES OREGON 97058 (WASCO)",0,C,,110063630977
97058RGNCHFIRST,-121.177,45.601000000000006,False,41,065,970200,41,41065,41065970200,1400000US41065970200,OREGON CHERRY GROWERS INC,FIRST & MADISON,THE DALLES,OR,97058,"OREGON CHERRY GROWERS INC.FIRST & MADISON, THE DALLES OREGON 97058 (WASCO)",0,C,,
97060CSCDC2201N,-122.458,45.538999999999994,False,41,051,009603,41,41051,41051009603,1400000US41051009603,CASCADE CORP,2201 NE 201ST AVE.,FAIRVIEW,OR,97024,"CASCADE CORP.2201 NE 201ST AVE., FAIRVIEW OREGON 97024 (MULTNOMAH)",0,C,,110000486787
97203MCCRM6900N,-122.464,45.537,False,41,051,009603,41,41051,41051009603,1400000US41051009603,CRAIN INDUSTRIES,19333 NE SAN RAFAEL,PORTLAND,OR,97230,"CRAIN INDUSTRIES.19333 NE SAN RAFAEL, PORTLAND OREGON 97230 (MULTNOMAH)",0,C,,
97060RYNLDSUNDI,-122.399,45.556999999999995,False,41,051,010200,41,41051,41051010200,1400000US41051010200,REYNOLDS METALS CO TROUTDALE REDUCTION PLANT,5100 NE SUNDIAL RD,TROUTDALE,OR,970609499,"REYNOLDS METALS CO TROUTDALE REDUCTION PLANT.5100 NE SUNDIAL RD, TROUTDALE OREGON 97060 (MULTNOMAH)",0,C,,
97220BNGFP19000,-122.46700000000001,45.544,False,41,051,010200,41,41051,41051010200,1400000US41051010200,BOEING CO OF PORTLAND,19000 NE SANDY BLVD,PORTLAND,OR,97230,"BOEING CO OF PORTLAND.19000 NE SANDY BLVD, PORTLAND OREGON 97230 (MULTNOMAH)",0,C,,110000487633
97230HCKRY3900N,-122.5,45.551,False,41,051,010200,41,41051,41051010200,1400000US41051010200,FXI INC,3900 N E 158TH AVE,PORTLAND,OR,97230,"FXI INC.3900 N E 158TH AVE, PORTLAND OREGON 97230 (MULTNOMAH)",0,C,,110000487795
97230WGNRM4424N,-122.49799999999999,45.555,False,41,051,010200,41,41051,41051010200,1400000US41051010200,"WAGNER MINING & CONSTRUCTION, EQUIPMENT CO",4424 NE 158TH AVE,PORTLAND,OR,972304999,"WAGNER MINING & CONSTRUCTION, EQUIPMENT CO.4424 NE 158TH AVE, PORTLAND OREGON 97230 (MULTNOMAH)",0,C,,
97060GLCRN2176C,-122.41,45.547,False,41,051,010200,41,41051,41051010200,1400000US41051010200,GLACIER NORTHWEST INC TROUTDALE READY MIX PLANT,2172 NW MARINE DR,TROUTDALE,OR,97060,"GLACIER NORTHWEST INC TROUTDALE READY MIX PLANT.2172 NW MARINE DR, TROUTDALE OREGON 97060 (MULTNOMAH)",0,C,,110012175760
97060MDRSR57NES,-122.40899999999999,45.563,False,41,051,010200,41,41051,41051010200,1400000US41051010200,MDU RESOURCES KNIFE RIVER SUNDIAL ASPHALT,5700 NE SUNDIAL RD,TROUTDALE,OR,97060,"MDU RESOURCES KNIFE RIVER SUNDIAL ASPHALT.5700 NE SUNDIAL RD, TROUTDALE OREGON 97060 (MULTNOMAH)",0,C,,110037149163
9723WMRGNT4436N,-122.5,45.556000000000004,False,41,051,010200,41,41051,41051010200,1400000US41051010200,MORGAN TRUCK BODY LLC MOR,4436 NE 158TH AVENUE,PORTLAND,OR,97230,"MORGAN TRUCK BODY LLC MOR.4436 NE 158TH AVENUE, PORTLAND OREGON 97230 (MULTNOMAH)",0,C,,110060260747
97062DLTNG19500,-122.78200000000001,45.379,False,41,067,032003,41,41067,41067032003,1400000US41067032003,DELTA ENGINEERING & MANUFACTURING CO,19500 SW TETON,TUALATIN,OR,97062,"DELTA ENGINEERING & MANUFACTURING CO.19500 SW TETON, TUALATIN OREGON 97062 (WASHINGTON)",0,C,,
97062DRMTL9560S,-122.77600000000001,45.386,False,41,067,032003,41,41067,41067032003,1400000US41067032003,DURAMETAL CORP,9560 SW HERMAN RD,TUALATIN,OR,97062,"DURAMETAL CORP.9560 SW HERMAN RD, TUALATIN OREGON 97062 (WASHINGTON)",0,C,,
97062PLSTF9665T,-122.777,45.381,False,41,067,032003,41,41067,41067032003,1400000US41067032003,PLASTI-FAB INC,9665 SW TUALATIN SHERWOOD RD,TUALATIN,OR,97062,"PLASTI-FAB INC.9665 SW TUALATIN SHERWOOD RD, TUALATIN OREGON 97062 (WASHINGTON)",0,C,,110000486858
97062RGNSN10000,-122.78,45.38399999999999,False,41,067,032003,41,41067,41067032003,1400000US41067032003,OREGON SANDBLASTING & COATING INC,10000 SW HERMAN RD,TUALATIN,OR,97062,"OREGON SANDBLASTING & COATING INC.10000 SW HERMAN RD, TUALATIN OREGON 97062 (WASHINGTON)",0,C,,
97062SRPWR10189,-122.781,45.372,False,41,067,032003,41,41067,41067032003,1400000US41067032003,SURE POWER INDUSTRIES INC,10189 SW AVERY ST,TUALATIN,OR,97062,"SURE POWER INDUSTRIES INC.10189 SW AVERY ST, TUALATIN OREGON 97062 (WASHINGTON)",0,C,,110002148907
97062BNRPL19705,-122.78299999999999,45.376999999999995,False,41,067,032003,41,41067,41067032003,1400000US41067032003,BONAR PLASTICS INCORPORATED,19705 SW TETON AVENUE,TUALATIN,OR,97062,"BONAR PLASTICS INCORPORATED.19705 SW TETON AVENUE, TUALATIN OREGON 97062 (WASHINGTON)",0,C,,
97062PCKGN12555,-122.80799999999999,45.37,False,41,067,032003,41,41067,41067032003,1400000US41067032003,PACKAGING RESOURCES CO,"12555 SW TUALATIN-SHERWOOD, RD",TUALATIN,OR,97062,"PACKAGING RESOURCES CO.12555 SW TUALATIN-SHERWOOD, RD, TUALATIN OREGON 97062 (WASHINGTON)",0,C,,
97062GRFFT10500,-122.786,45.379,False,41,067,032003,41,41067,41067032003,1400000US41067032003,GRIFFITH POLYMERS INC,10500 SW MANHASSET DR,TUALATIN,OR,97062,"GRIFFITH POLYMERS INC.10500 SW MANHASSET DR, TUALATIN OREGON 97062 (WASHINGTON)",0,C,,110004817333
97062PCFCS9700S,-122.77799999999999,45.38399999999999,False,41,067,032003,41,41067,41067032003,1400000US41067032003,VALMONT COATINGS - PACIFIC STATES GALVANIZING,9700 SW HERMAN RD,TUALATIN,OR,97062,"VALMONT COATINGS - PACIFIC STATES GALVANIZING.9700 SW HERMAN RD, TUALATIN OREGON 97062 (WASHINGTON)",0,C,,110000486849
97062GLCRN19585,-122.79899999999999,45.378,False,41,067,032003,41,41067,41067032003,1400000US41067032003,GLACIER NORTHWEST INC TUALATIN READY-MIX PLANT,19585 SW 118TH,TUALATIN,OR,97062,"GLACIER NORTHWEST INC TUALATIN READY-MIX PLANT.19585 SW 118TH, TUALATIN OREGON 97062 (WASHINGTON)",1,C,,110013286158
97062LVTNM2497S,-122.78299999999999,45.372,False,41,067,032003,41,41067,41067032003,1400000US41067032003,LEVITON MANUFACTURING (LES DIVISION),20497 SW TETON AVE,TUALATIN,OR,97062,"LEVITON MANUFACTURING (LES DIVISION).20497 SW TETON AVE, TUALATIN OREGON 97062 (WASHINGTON)",0,C,,110012276893
97062TLTNP19585,-122.79899999999999,45.378,False,41,067,032003,41,41067,41067032003,1400000US41067032003,HANSON PIPE & PRODUCTS INC TUALATIN,19585 SW 118TH AVE,TUALATIN,OR,97062,"HANSON PIPE & PRODUCTS INC TUALATIN.19585 SW 118TH AVE, TUALATIN OREGON 97062 (WASHINGTON)",0,C,,
9706WCRGNN123SW,-122.78,45.382,False,41,067,032003,41,41067,41067032003,1400000US41067032003,CREGANNA MEDICAL,10230 SW SPOKANE CT,TUALATIN,OR,97062,"CREGANNA MEDICAL.10230 SW SPOKANE CT, TUALATIN OREGON 97062 (WASHINGTON)",0,C,,110070049774
9706WSRPWR1955S,-122.791,45.372,False,41,067,032003,41,41067,41067032003,1400000US41067032003,SURE POWER INC,10955 SW AVERY ST,TUALATIN,OR,97062,"SURE POWER INC.10955 SW AVERY ST, TUALATIN OREGON 97062 (WASHINGTON)",0,C,,110070239057
97062SBRBN12365,-122.804,45.381,False,41,067,032001,41,41067,41067032001,1400000US41067032001,SUBURBAN DOOR CO INC,12365 SW HERMAN RD,TUALATIN,OR,970620205,"SUBURBAN DOOR CO INC.12365 SW HERMAN RD, TUALATIN OREGON 97062 (WASHINGTON)",0,C,,
97228JHNHH18600,-122.78299999999999,45.386,False,41,067,032001,41,41067,41067032001,1400000US41067032001,JOHN H HARLAND CO PLANT #38,18600 SW TETON RD,TUALATIN,OR,97062,"JOHN H HARLAND CO PLANT #38.18600 SW TETON RD, TUALATIN OREGON 97062 (WASHINGTON)",0,C,,
97062CRYST11971,-122.801,45.38,False,41,067,032001,41,41067,41067032001,1400000US41067032001,CRYSTAL LITE MANUFACTURING CO,11971 SW HERMAN RD,TUALATIN,OR,97062,"CRYSTAL LITE MANUFACTURING CO.11971 SW HERMAN RD, TUALATIN OREGON 97062 (WASHINGTON)",0,C,,
97062JRGNN11555,-122.79799999999999,45.388000000000005,False,41,067,032001,41,41067,41067032001,1400000US41067032001,JAE OREGON INC,11555 SW LEVETON DR,TUALATIN,OR,97062,"JAE OREGON INC.11555 SW LEVETON DR, TUALATIN OREGON 97062 (WASHINGTON)",0,C,,110067244075
97223PRLSS18205,-122.76,45.388000000000005,False,41,067,032001,41,41067,41067032001,1400000US41067032001,PEERLESS MFG CORP,18205 SW BOONES FERRY RD,TIGARD,OR,97223,"PEERLESS MFG CORP.18205 SW BOONES FERRY RD, TIGARD OREGON 97223 (WASHINGTON)",0,C,,
97062HLSRN10750,-122.787,45.39,False,41,067,032001,41,41067,41067032001,1400000US41067032001,HELSER INDUSTRIES,10750 SW TUALATIN RD,TUALATIN,OR,97062,"HELSER INDUSTRIES.10750 SW TUALATIN RD, TUALATIN OREGON 97062 (WASHINGTON)",0,C,,110000486830
97062CRYST18500,-122.786,45.387,False,41,067,032001,41,41067,41067032001,1400000US41067032001,CRYSTAL LITE MANUFACTURING CO,18500 SW 108TH AVE,TUALATIN,OR,97062,"CRYSTAL LITE MANUFACTURING CO.18500 SW 108TH AVE, TUALATIN OREGON 97062 (WASHINGTON)",0,C,,
97062SPRRM18240,-122.779,45.388999999999996,False,41,067,032001,41,41067,41067032001,1400000US41067032001,SUPERIOR METAL FINISHING,18240 SW 100TH CT,TUALATIN,OR,97062,"SUPERIOR METAL FINISHING.18240 SW 100TH CT, TUALATIN OREGON 97062 (WASHINGTON)",0,C,,
97062PRCPC18201,-122.759,45.388000000000005,False,41,067,032001,41,41067,41067032001,1400000US41067032001,PIERCE PACIFIC MANUFACTURING INC,18201 SW BOONES FERRY RD,TUALATIN,OR,97062,"PIERCE PACIFIC MANUFACTURING INC.18201 SW BOONES FERRY RD, TUALATIN OREGON 97062 (WASHINGTON)",0,C,,
97062NRTHW18500,-122.78299999999999,45.387,False,41,067,032001,41,41067,41067032001,1400000US41067032001,NORTHWEST FOURSLIDE INC,18500 SW TETON AVE,TUALATIN,OR,97062,"NORTHWEST FOURSLIDE INC.18500 SW TETON AVE, TUALATIN OREGON 97062 (WASHINGTON)",0,C,,
97062FJMMR11200,-122.792,45.386,False,41,067,032001,41,41067,41067032001,1400000US41067032001,FUJIMI CORP,11200 SW LEVETON DR,TUALATIN,OR,97062,"FUJIMI CORP.11200 SW LEVETON DR, TUALATIN OREGON 97062 (WASHINGTON)",0,C,,110000486803
97062JDCCH19005,-122.80799999999999,45.382,False,41,067,032001,41,41067,41067032001,1400000US41067032001,PIONEER METAL FINISHING,19005 SW 125TH CT,TUALATIN,OR,97062,"PIONEER METAL FINISHING.19005 SW 125TH CT, TUALATIN OREGON 97062 (WASHINGTON)",0,C,,110031431804
97062GNTRL12345,-122.802,45.387,False,41,067,032001,41,41067,41067032001,1400000US41067032001,VERIS INDUSTRIES LLC,12345 SW LEVETON DR,TUALATIN,OR,970626001,"VERIS INDUSTRIES LLC.12345 SW LEVETON DR, TUALATIN OREGON 97062 (WASHINGTON)",0,C,,110004773932
97068JMSRV4800M,-122.615,45.356,False,41,005,020600,41,41005,41005020600,1400000US41005020600,WEST LINN PAPER CO,4800 MILL ST,WEST LINN,OR,97068,"WEST LINN PAPER CO.4800 MILL ST, WEST LINN OREGON 97068 (CLACKAMAS)",0,C,,110001654193
97070CCCLB9750S,-122.777,45.308,False,41,005,022707,41,41005,41005022707,1400000US41005022707,COCA-COLA BOTTLING CO OF OREGON,9750 S W BARBER ST,WILSONVILLE,OR,970709292,"COCA-COLA BOTTLING CO OF OREGON.9750 S W BARBER ST, WILSONVILLE OREGON 97070 (CLACKAMAS)",0,C,,
97070TYCLC125SW,-122.78200000000001,45.326,False,41,005,022707,41,41005,41005022707,1400000US41005022707,TE CONNECTIVITY,10025 SW FREEMAN DR,WILSONVILLE,OR,97070,"TE CONNECTIVITY.10025 SW FREEMAN DR, WILSONVILLE OREGON 97070 (CLACKAMAS)",0,C,,110022524632
97070TLTYV28455,-122.777,45.313,False,41,005,022707,41,41005,41005022707,1400000US41005022707,OLDCASTLE PRECAST INC,28499 SW BOBERG RD,WILSONVILLE,OR,97070,"OLDCASTLE PRECAST INC.28499 SW BOBERG RD, WILSONVILLE OREGON 97070 (CLACKAMAS)",0,C,,110004818537
97070TNLCT2685S,-122.77799999999999,45.325,False,41,005,022707,41,41005,41005022707,1400000US41005022707,EATON ELECTRICAL INC,26850 SW KINSMAN RD,WILSONVILLE,OR,97070,"EATON ELECTRICAL INC.26850 SW KINSMAN RD, WILSONVILLE OREGON 97070 (CLACKAMAS)",0,C,,110039018933
9707WCHMST261SW,-122.773,45.33,False,41,005,022707,41,41005,41005022707,1400000US41005022707,CHEMSTATION OF OREGON,26100 SW 95TH AVE,WILSONVILLE,OR,97070,"CHEMSTATION OF OREGON.26100 SW 95TH AVE, WILSONVILLE OREGON 97070 (CLACKAMAS)",0,C,,110038285619
9707WCRMSN978SW,-122.777,45.325,False,41,005,022707,41,41005,41005022707,1400000US41005022707,CRIMSON TRACE CORP,9780 SW FREEMAN DR,WILSONVILLE,OR,97070,"CRIMSON TRACE CORP.9780 SW FREEMAN DR, WILSONVILLE OREGON 97070 (CLACKAMAS)",0,C,,110070122554
97071FLTWD2655P,-122.834,45.157,False,41,047,010305,41,41047,41047010305,1400000US41047010305,FLEETWOOD HOMES OF OREGON INC 48,2655 PROGRESS WAY,WOODBURN,OR,97071,"FLEETWOOD HOMES OF OREGON INC 48.2655 PROGRESS WAY, WOODBURN OREGON 97071 (MARION)",0,C,,110000486876
97071SPCLT2475P,-122.838,45.156000000000006,False,41,047,010305,41,41047,41047010305,1400000US41047010305,SPECIALTY POLYMERS INC,2475 PROGRESS WAY,WOODBURN,OR,97071,"SPECIALTY POLYMERS INC.2475 PROGRESS WAY, WOODBURN OREGON 97071 (MARION)",0,C,,110000486894
97071TRSST2100N,-122.829,45.152,False,41,047,010305,41,41047,41047010305,1400000US41047010305,TRUSS-T STRUCTURES INC,2100 N PACIFIC HWY,WOODBURN,OR,97071,"TRUSS-T STRUCTURES INC.2100 N PACIFIC HWY, WOODBURN OREGON 97071 (MARION)",0,C,,
97071PTRCK1375I,-122.831,45.158,False,41,047,010305,41,41047,41047010305,1400000US41047010305,MOBILCRAFT WOOD PRODS,1375 INDL WAY,WOODBURN,OR,97071,"MOBILCRAFT WOOD PRODS.1375 INDL WAY, WOODBURN OREGON 97071 (MARION)",0,C,,
97071FLTWD2855N,-122.829,45.157,False,41,047,010305,41,41047,41047010305,1400000US41047010305,FLEETWOOD HOMES OF OREGON INC #48-3,2855 NATIONAL WAY,WOODBURN,OR,97071,"FLEETWOOD HOMES OF OREGON INC #48-3.2855 NATIONAL WAY, WOODBURN OREGON 97071 (MARION)",0,C,,
97071PTRCK3099N,-122.824,45.16,False,41,047,010305,41,41047,41047010305,1400000US41047010305,PATRICK INDUSTRIES,3099 N PACIFIC HWY,WOODBURN,OR,97071,"PATRICK INDUSTRIES.3099 N PACIFIC HWY, WOODBURN OREGON 97071 (MARION)",0,C,,
97071WLLMT2550P,-122.834,45.156000000000006,False,41,047,010305,41,41047,41047010305,1400000US41047010305,WEYERHAEUSER CO WOODBURN,2550 PROGRESS WAY,WOODBURN,OR,97071,"WEYERHAEUSER CO WOODBURN.2550 PROGRESS WAY, WOODBURN OREGON 97071 (MARION)",0,C,,
97103STRPL40923,-123.816,46.18899999999999,False,41,007,950300,41,41007,41007950300,1400000US41007950300,ASTORIA PLYWOOD CORP,409 23RD ST,ASTORIA,OR,97103,"ASTORIA PLYWOOD CORP.409 23RD ST, ASTORIA OREGON 97103 (CLATSOP)",0,C,,
97116TKTRN1521P,-123.081,45.513000000000005,False,41,067,032902,41,41067,41067032902,1400000US41067032902,TTM TECHNOLOGIES NA LLC,1521 POPLAR LN,FOREST GROVE,OR,97116,"TTM TECHNOLOGIES NA LLC.1521 POPLAR LN, FOREST GROVE OREGON 97116 (WASHINGTON)",0,C,,110000486947
97116MTSSH4114H,-123.07600000000001,45.513999999999996,False,41,067,032902,41,41067,41067032902,1400000US41067032902,MATSUSHITA ELECTRONIC MATERIALS INC.,4114 HEATHER ST,FOREST GROVE,OR,97116,"MATSUSHITA ELECTRONIC MATERIALS INC..4114 HEATHER ST, FOREST GROVE OREGON 97116 (WASHINGTON)",0,C,,110000486938
97116WDFRD18111,-123.115,45.518,False,41,067,033101,41,41067,41067033101,1400000US41067033101,WOODFOLD-MARCO MANUFACTURING INC,"1811 18TH AVE, PO BOX 346",FOREST GROVE,OR,971160346,"WOODFOLD-MARCO MANUFACTURING INC.1811 18TH AVE, PO BOX 346, FOREST GROVE OREGON 97116 (WASHINGTON)",0,C,,
97116WSTKF39412,-123.07700000000001,45.526,False,41,067,033200,41,41067,41067033200,1400000US41067033200,WESTAK OF OREGON,3941 24TH AVE,FOREST GROVE,OR,97116,"WESTAK OF OREGON.3941 24TH AVE, FOREST GROVE OREGON 97116 (WASHINGTON)",0,C,,110000486956
97116GRYCM23312,-123.10600000000001,45.523999999999994,False,41,067,033200,41,41067,41067033200,1400000US41067033200,GRAY & CO,2331 23RD AVE,FOREST GROVE,OR,97116,"GRAY & CO.2331 23RD AVE, FOREST GROVE OREGON 97116 (WASHINGTON)",0,C,,
97116MRXCR37002,-123.083,45.525,False,41,067,033200,41,41067,41067033200,1400000US41067033200,MERIX CORP,3700 24TH AVE,FOREST GROVE,OR,97116,"MERIX CORP.3700 24TH AVE, FOREST GROVE OREGON 97116 (WASHINGTON)",0,C,,
97119FRSTX49800,-123.18799999999999,45.465,False,41,067,033600,41,41067,41067033600,1400000US41067033600,STIMSON LUMBER CO - GASTON,49800 SW SCOGGINS VALLEY RD,GASTON,OR,97119,"STIMSON LUMBER CO - GASTON.49800 SW SCOGGINS VALLEY RD, GASTON OREGON 97119 (WASHINGTON)",0,C,,110014187799
97123DMNDC600SW,-122.99799999999999,45.516000000000005,False,41,067,032501,41,41067,41067032501,1400000US41067032501,MASTERBRAND CABINETS INC. - HI LLSBORO OPERATIONS,600 SW WALNUT ST,HILLSBORO,OR,97123,"MASTERBRAND CABINETS INC. - HI LLSBORO OPERATIONS.600 SW WALNUT ST, HILLSBORO OREGON 97123 (WASHINGTON)",0,C,,110000486965
97123HLLSB699WD,-122.99799999999999,45.513000000000005,False,41,067,032501,41,41067,41067032501,1400000US41067032501,HILLSBORO CONCRETE,699 WOOD ST,HILLSBORO,OR,97123,"HILLSBORO CONCRETE.699 WOOD ST, HILLSBORO OREGON 97123 (WASHINGTON)",0,C,,110037149617
97123GRFFT1930S,-122.961,45.505,False,41,067,032503,41,41067,41067032503,1400000US41067032503,GRIFFITH POLYMERS INC,1930 SE MINTER BRIDGE RD,HILLSBORO,OR,971230626,"GRIFFITH POLYMERS INC.1930 SE MINTER BRIDGE RD, HILLSBORO OREGON 97123 (WASHINGTON)",0,C,,
97123PRMPS25600,-122.941,45.5,False,41,067,032300,41,41067,41067032300,1400000US41067032300,PERMAPOST PRODUCTS INC,4205 SE WITCH HAZEL RD,HILLSBORO,OR,97123,"PERMAPOST PRODUCTS INC.4205 SE WITCH HAZEL RD, HILLSBORO OREGON 97123 (WASHINGTON)",0,C,,110000486974
97123WLBNK555NO,-122.929,45.526,False,41,067,032408,41,41067,41067032408,1400000US41067032408,WILBANKS INTERNATIONAL INC,555 N EAST 53RD ST,HILLSBORO,OR,97123,"WILBANKS INTERNATIONAL INC.555 N EAST 53RD ST, HILLSBORO OREGON 97123 (WASHINGTON)",0,C,,
97124SLFLX570NE,-122.928,45.527,False,41,067,032408,41,41067,41067032408,1400000US41067032408,SOLOFLEX INC,570 NE 53RD ST,HILLSBORO,OR,97124,"SOLOFLEX INC.570 NE 53RD ST, HILLSBORO OREGON 97124 (WASHINGTON)",0,C,,
97124FJTSC7300N,-122.905,45.545,False,41,067,032607,41,41067,41067032607,1400000US41067032607,FUJITSU COMPUTER PRODS OF AMERICA INC,7300 NE EVERGREEN PKY,HILLSBORO,OR,971245897,"FUJITSU COMPUTER PRODS OF AMERICA INC.7300 NE EVERGREEN PKY, HILLSBORO OREGON 97124 (WASHINGTON)",0,C,,
97124NCMRC3100N,-122.917,45.543,False,41,067,032607,41,41067,41067032607,1400000US41067032607,SOLECTRON OREGON CORP,3100 NE SHUTE RD,HILLSBORO,OR,97124,"SOLECTRON OREGON CORP.3100 NE SHUTE RD, HILLSBORO OREGON 97124 (WASHINGTON)",0,C,,
97124NTLCR2501N,-122.917,45.543,False,41,067,032607,41,41067,41067032607,1400000US41067032607,INTEL CORP-RONLER ACRES CAMPUS,2501 NE CENTURY BLVD,HILLSBORO,OR,97124,"INTEL CORP-RONLER ACRES CAMPUS.2501 NE CENTURY BLVD, HILLSBORO OREGON 97124 (WASHINGTON)",0,C,,110000487018
97124HKMRC4600N,-122.925,45.553000000000004,False,41,067,032607,41,41067,41067032607,1400000US41067032607,TOKYO OHKA KOGYO AMERICA INC,4600 NW BROOKWOOD PKWY,HILLSBORO,OR,97124,"TOKYO OHKA KOGYO AMERICA INC.4600 NW BROOKWOOD PKWY, HILLSBORO OREGON 97124 (WASHINGTON)",0,C,,110000486992
9712WMRCNP248NW,-122.90899999999999,45.545,False,41,067,032607,41,41067,41067032607,1400000US41067032607,AMERICAN PRECISION INDUSTRIES,2480 NE CENTURY BLVD,HILLSBORO,OR,97124,"AMERICAN PRECISION INDUSTRIES.2480 NE CENTURY BLVD, HILLSBORO OREGON 97124 (WASHINGTON)",0,C,,110039018942
9712WCSCDS23176,-122.915,45.553999999999995,False,41,067,032607,41,41067,41067032607,1400000US41067032607,CASCADE SYSTEMS TECHNOLOGY LLC,6330 NE BENNETT ST,HILLSBORO,OR,97124,"CASCADE SYSTEMS TECHNOLOGY LLC.6330 NE BENNETT ST, HILLSBORO OREGON 97124 (WASHINGTON)",0,C,,110069492472
97124GRNTR1600N,-122.95700000000001,45.537,False,41,067,032608,41,41067,41067032608,1400000US41067032608,SPM/PORTLAND,1600 NE 25TH AVE,HILLSBORO,OR,971230585,"SPM/PORTLAND.1600 NE 25TH AVE, HILLSBORO OREGON 97123 (WASHINGTON)",0,C,,
97124NTLCR5200N,-122.932,45.53,False,41,067,032608,41,41067,41067032608,1400000US41067032608,INTEL CORP HAWTHORN FARM,5200 NE ELAM YOUNG PKWY,HILLSBORO,OR,97124,"INTEL CORP HAWTHORN FARM.5200 NE ELAM YOUNG PKWY, HILLSBORO OREGON 97124 (WASHINGTON)",0,C,,110004787384
97124NTRGR3131N,-122.931,45.548,False,41,067,032608,41,41067,41067032608,1400000US41067032608,JIREH SEMICONDUCTOR INC,3131 NE BROOKWOOD PKWY,HILLSBORO,OR,97124,"JIREH SEMICONDUCTOR INC.3131 NE BROOKWOOD PKWY, HILLSBORO OREGON 97124 (WASHINGTON)",0,C,,110000487027
97124DYNCS4750N,-122.934,45.547,False,41,067,032608,41,41067,41067032608,1400000US41067032608,DYNIC USA,4750 NE DAWSON CREEK DR,HILLSBORO,OR,97124,"DYNIC USA.4750 NE DAWSON CREEK DR, HILLSBORO OREGON 97124 (WASHINGTON)",0,C,,110000486983
97124KMTSS25300,-122.93799999999999,45.549,False,41,067,032608,41,41067,41067032608,1400000US41067032608,SUNPOWER MANUFACTURING OREGON LLC,4050 NE EVERGREEN RD,HILLSBORO,OR,97124,"SUNPOWER MANUFACTURING OREGON LLC.4050 NE EVERGREEN RD, HILLSBORO OREGON 97124 (WASHINGTON)",0,C,,110000487009
97124RDSYS5445N,-122.929,45.545,False,41,067,032608,41,41067,41067032608,1400000US41067032608,RADISYS CORP,5445 NE DAWSON CREEK DR,HILLSBORO,OR,97124,"RADISYS CORP.5445 NE DAWSON CREEK DR, HILLSBORO OREGON 97124 (WASHINGTON)",0,C,,110004820276
97124SRDNF385NE,-122.935,45.545,False,41,067,032608,41,41067,41067032608,1400000US41067032608,"SAUER-DANFOSS, INC.",3085 NE BROOKWOOD PKWY,HILLSBORO,OR,971245302,"SAUER-DANFOSS, INC..3085 NE BROOKWOOD PKWY, HILLSBORO OREGON 97124 (WASHINGTON)",1,C,,110004775752
9712WTRQNT23NEB,-122.936,45.54,False,41,067,032608,41,41067,41067032608,1400000US41067032608,QORVO US INC,2300 NE BROOKWOOD PARKWAY,HILLSBORO,OR,97124,"QORVO US INC.2300 NE BROOKWOOD PARKWAY, HILLSBORO OREGON 97124 (WASHINGTON)",0,C,,110000895014
97128CSCDS3200N,-123.163,45.229,False,41,071,030601,41,41071,41071030601,1400000US41071030601,CASCADE STEEL ROLLING MILLS INC,3200 N HWY 99W,MCMINNVILLE,OR,97128,"CASCADE STEEL ROLLING MILLS INC.3200 N HWY 99W, MCMINNVILLE OREGON 97128 (YAMHILL)",0,C,,110040961947
97128RYLPC4035R,-123.155,45.23,False,41,071,030601,41,41071,41071030601,1400000US41071030601,ROYAL PACIFIC INDUSTRIES INC,4035 NE RIVERSIDE DR,MC MINNVILLE,OR,97128,"ROYAL PACIFIC INDUSTRIES INC.4035 NE RIVERSIDE DR, MC MINNVILLE OREGON 97128 (YAMHILL)",0,C,,
97128DNSFD2046N,-123.167,45.222,False,41,071,030601,41,41071,41071030601,1400000US41071030601,DIANE'S FOODS,3101 ORCHARD AVE,MC MINNVILLE,OR,97128,"DIANE'S FOODS.3101 ORCHARD AVE, MC MINNVILLE OREGON 97128 (YAMHILL)",0,C,,
97128HZLWD2803O,-123.17,45.223,False,41,071,030601,41,41071,41071030601,1400000US41071030601,PILLSBURY CO,2803 ORCHARD AVE,MC MINNVILLE,OR,97128,"PILLSBURY CO.2803 ORCHARD AVE, MC MINNVILLE OREGON 97128 (YAMHILL)",0,C,,
97128XCLTC2919N,-123.16799999999999,45.22,False,41,071,030601,41,41071,41071030601,1400000US41071030601,EXCELTECH INC,2919 NE RIVERGATE ST SUITE 401D,MCMINNVILLE,OR,97128,"EXCELTECH INC.2919 NE RIVERGATE ST SUITE 401D, MCMINNVILLE OREGON 97128 (YAMHILL)",0,C,,110012257912
97128MSDVT32NHW,-123.15799999999999,45.228,False,41,071,030601,41,41071,41071030601,1400000US41071030601,TMS INTERNATIONAL LLC,3200 N HWY 99W,MCMINNVILLE,OR,97128,"TMS INTERNATIONAL LLC.3200 N HWY 99W, MCMINNVILLE OREGON 97128 (YAMHILL)",0,C,,110067448293
9712WGLCRN2245N,-123.17299999999999,45.202,False,41,071,030601,41,41071,41071030601,1400000US41071030601,GLACIER NORTHWEST INC - MCMINNVILLE READY MIX,2245 NE CUMULUS AVENUE,MCMINNVILLE,OR,97128,"GLACIER NORTHWEST INC - MCMINNVILLE READY MIX.2245 NE CUMULUS AVENUE, MCMINNVILLE OREGON 97128 (YAMHILL)",0,C,,110043671381
97128HWLTT1700S,-123.20700000000001,45.196000000000005,False,41,071,030802,41,41071,41071030802,1400000US41071030802,HEWLETT-PACKARD CO,1700 SOUTH BAKER ST,MC MINNVILLE,OR,97128,"HEWLETT-PACKARD CO.1700 SOUTH BAKER ST, MC MINNVILLE OREGON 97128 (YAMHILL)",0,C,,
97128HMTTM550BO,-123.20299999999999,45.192,False,41,071,030802,41,41071,41071030802,1400000US41071030802,SKYLINE HOMES,550 BOOTH BEND RD,MC MINNVILLE,OR,97128,"SKYLINE HOMES.550 BOOTH BEND RD, MC MINNVILLE OREGON 97128 (YAMHILL)",0,C,,110000487045
97128PRNML102BO,-123.2,45.192,False,41,071,030802,41,41071,41071030802,1400000US41071030802,PURINA MILLS LLC - MCMINNVILLE,102 BOOTH BEND RD,MC MINNVILLE,OR,97128,"PURINA MILLS LLC - MCMINNVILLE.102 BOOTH BEND RD, MC MINNVILLE OREGON 97128 (YAMHILL)",1,C,,110002148998
97128ZMNMN15BTH,-123.196,45.192,False,41,071,030802,41,41071,41071030802,1400000US41071030802,ZIEMAN MANUFACTURING-MCMINNVILLE PLANT 107,150 BOOTH BEND RD,MCMINNVILLE,OR,97128,"ZIEMAN MANUFACTURING-MCMINNVILLE PLANT 107.150 BOOTH BEND RD, MCMINNVILLE OREGON 97128 (YAMHILL)",0,C,,110006430638
97132LLNFR500EI,-122.975,45.305,False,41,071,030201,41,41071,41071030201,1400000US41071030201,PPM TECHNOLOGIES HOLDINGS LLC,500 E ILLINOIS ST,NEWBERG,OR,97132,"PPM TECHNOLOGIES HOLDINGS LLC.500 E ILLINOIS ST, NEWBERG OREGON 97132 (YAMHILL)",0,C,,110002149014
9713WDCNCX261CR,-122.954,45.316,False,41,071,030201,41,41071,41071030201,1400000US41071030201,A-DEC INC,2601 CRESTVIEW DRIVE,NEWBERG,OR,97132,"A-DEC INC.2601 CRESTVIEW DRIVE, NEWBERG OREGON 97132 (YAMHILL)",0,C,,110004789916
97132SMRFTWYNOO,-122.96,45.288000000000004,False,41,071,030202,41,41071,41071030202,1400000US41071030202,WESTROCK NORTHWEST LLC NEWBERG MILL,1301 WYNOOSKI ST,NEWBERG,OR,97132,"WESTROCK NORTHWEST LLC NEWBERG MILL.1301 WYNOOSKI ST, NEWBERG OREGON 97132 (YAMHILL)",0,C,,110000487072
9713WDPLST271E2,-122.95200000000001,45.299,False,41,071,030202,41,41071,41071030202,1400000US41071030202,3D PLASTICS INC,2701 E 2ND ST,NEWBERG,OR,97132,"3D PLASTICS INC.2701 E 2ND ST, NEWBERG OREGON 97132 (YAMHILL)",0,C,,110069493293
9713WGLCRN288NE,-122.95,45.286,False,41,071,030202,41,41071,41071030202,1400000US41071030202,GLACIER NORTHWEST INC - NEWBERG READY MIX,2808 NE WYNOOSKI RD,NEWBERG,OR,97132,"GLACIER NORTHWEST INC - NEWBERG READY MIX.2808 NE WYNOOSKI RD, NEWBERG OREGON 97132 (YAMHILL)",0,C,,110070068186
97140FRNTR1210E,-122.829,45.361999999999995,False,41,067,032104,41,41067,41067032104,1400000US41067032104,FRONTIER LEATHER CO,1210 NE OREGON ST,SHERWOOD,OR,97140,"FRONTIER LEATHER CO.1210 NE OREGON ST, SHERWOOD OREGON 97140 (WASHINGTON)",0,C,,
97140CSLDC14200,-122.824,45.36600000000001,False,41,067,032104,41,41067,41067032104,1400000US41067032104,CASCADE COLUMBIA DISTRIBUTION,14200 SW TUALATIN-SHERWOOD RD,SHERWOOD,OR,97140,"CASCADE COLUMBIA DISTRIBUTION.14200 SW TUALATIN-SHERWOOD RD, SHERWOOD OREGON 97140 (WASHINGTON)",0,C,,110056966877
97140NRTHS14200,-122.824,45.365,False,41,067,032104,41,41067,41067032104,1400000US41067032104,NORTHSTAR CHEMICAL,14200 SW TUALATIN SHERWOOD RD,SHERWOOD,OR,97140,"NORTHSTAR CHEMICAL.14200 SW TUALATIN SHERWOOD RD, SHERWOOD OREGON 97140 (WASHINGTON)",0,C,,110067535661
97140WLLNS14440,-122.825,45.367,False,41,067,032103,41,41067,41067032103,1400000US41067032103,WELLONS INC,14440 SW EDY RD,SHERWOOD,OR,97140,"WELLONS INC.14440 SW EDY RD, SHERWOOD OREGON 97140 (WASHINGTON)",0,C,,
97202LTRCH4849S,-122.64,45.488,False,41,051,000301,41,41051,41051000301,1400000US41051000301,ELECTRO-CHEM METAL FINISHING INC,4849 SE 26TH AVE,PORTLAND,OR,972024601,"ELECTRO-CHEM METAL FINISHING INC.4849 SE 26TH AVE, PORTLAND OREGON 97202 (MULTNOMAH)",0,C,,
97202NDZNG8222S,-122.66,45.463,False,41,051,000100,41,41051,41051000100,1400000US41051000100,"SAPA, INC. - PARTS PLANT",8222 SE 6TH AVE,PORTLAND,OR,97202,"SAPA, INC. - PARTS PLANT.8222 SE 6TH AVE, PORTLAND OREGON 97202 (MULTNOMAH)",0,C,,110000487116
97202PCFCC8400S,-122.63600000000001,45.461999999999996,False,41,051,000302,41,41051,41051000302,1400000US41051000302,EAST SIDE PLATING INC PLANTS  1-3,8400 SE 26TH PL,PORTLAND,OR,97202,"EAST SIDE PLATING INC PLANTS  1-3.8400 SE 26TH PL, PORTLAND OREGON 97202 (MULTNOMAH)",0,C,,110000487125
97214STSDP8310S,-122.63600000000001,45.461999999999996,False,41,051,000302,41,41051,41051000302,1400000US41051000302,EAST SIDE PLATING INC PLANT II,8310 SE 26TH PL,PORTLAND,OR,97202,"EAST SIDE PLATING INC PLANT II.8310 SE 26TH PL, PORTLAND OREGON 97202 (MULTNOMAH)",1,C,,
97222SSCTD4401S,-122.619,45.461999999999996,False,41,051,000302,41,41051,41051000302,1400000US41051000302,ASSOCIATED CHEMISTS INC,4401 SE JOHNSON CREEK BLVD,PORTLAND,OR,97222,"ASSOCIATED CHEMISTS INC.4401 SE JOHNSON CREEK BLVD, PORTLAND OREGON 97222 (MULTNOMAH)",0,C,,
9720WSMNDS27SET,-122.63600000000001,45.465,False,41,051,000302,41,41051,41051000302,1400000US41051000302,SIMONDS INTERNATIONAL,2700 SE TACOMA ST,PORTLAND,OR,97202,"SIMONDS INTERNATIONAL.2700 SE TACOMA ST, PORTLAND OREGON 97202 (MULTNOMAH)",0,C,,110064852075
97202PCNCX4707S,-122.648,45.488,False,41,051,000200,41,41051,41051000200,1400000US41051000200,ASTRONICS PECO GROUP,4784 SE 17TH AVE,PORTLAND,OR,972024714,"ASTRONICS PECO GROUP.4784 SE 17TH AVE, PORTLAND OREGON 97202 (MULTNOMAH)",0,C,,110000487134
97202RSSLN627SE,-122.65899999999999,45.505,False,41,051,001102,41,41051,41051001102,1400000US41051001102,"RUSS LEININGER POLISHING &, PLATING",627 SE DIVISION PL,PORTLAND,OR,97202,"RUSS LEININGER POLISHING &, PLATING.627 SE DIVISION PL, PORTLAND OREGON 97202 (MULTNOMAH)",0,C,,
97214STSDP310SE,-122.662,45.50899999999999,False,41,051,001102,41,41051,41051001102,1400000US41051001102,EAST SIDE PLATING INC PLANT 4,310 SE STEPHENS ST,PORTLAND,OR,97214,"EAST SIDE PLATING INC PLANT 4.310 SE STEPHENS ST, PORTLAND OREGON 97214 (MULTNOMAH)",0,C,,110000744286
97242LNDLK2609S,-122.65799999999999,45.505,False,41,051,001102,41,41051,41051001102,1400000US41051001102,LAND O'LAKES PURINA FEED LLC ROSS ISLAND,2609 SE 8TH AVE,PORTLAND,OR,97202,"LAND O'LAKES PURINA FEED LLC ROSS ISLAND.2609 SE 8TH AVE, PORTLAND OREGON 97202 (MULTNOMAH)",0,C,,110000487839
97203CLMBS10425,-122.73,45.6,False,41,051,004101,41,41051,41051004101,1400000US41051004101,COLUMBIA STEEL CASTING CO INC,10425 N BLOSS AVE,PORTLAND,OR,97203,"COLUMBIA STEEL CASTING CO INC.10425 N BLOSS AVE, PORTLAND OREGON 97203 (MULTNOMAH)",0,C,,110000487152
97203CNTNN1200N,-122.76299999999999,45.6,False,41,051,004101,41,41051,41051004101,1400000US41051004101,CROWN FOOD PACKAGING,10200 NORTH LOMBARD STREET,PORTLAND,OR,97203,"CROWN FOOD PACKAGING.10200 NORTH LOMBARD STREET, PORTLAND OREGON 97203 (MULTNOMAH)",0,C,,110000487170
97203NRTHW12005,-122.773,45.608000000000004,False,41,051,004101,41,41051,41051004101,1400000US41051004101,NORTHWEST PIPE CO,12005 N. BURGARD,PORTLAND,OR,97203,"NORTHWEST PIPE CO.12005 N. BURGARD, PORTLAND OREGON 97203 (MULTNOMAH)",0,C,,110000487214
97283BRDNN10915,-122.765,45.606,False,41,051,004101,41,41051,41051004101,1400000US41051004101,BORDEN CHEMICAL INC,10915 N LOMBARD,PORTLAND,OR,972033127,"BORDEN CHEMICAL INC.10915 N LOMBARD, PORTLAND OREGON 97203 (MULTNOMAH)",0,C,,
97203PLMCN12005,-122.78299999999999,45.613,False,41,051,004101,41,41051,41051004101,1400000US41051004101,PREMIER EDIBLE OILS CORP,10400 N BURGARD WAY,PORTLAND,OR,97203,"PREMIER EDIBLE OILS CORP.10400 N BURGARD WAY, PORTLAND OREGON 97203 (MULTNOMAH)",0,C,,
97203FLNTN10653,-122.764,45.604,False,41,051,004101,41,41051,41051004101,1400000US41051004101,FLINT GROUP NORTH AMERICA PORTLAND NEWSINK,10653 N LOMBARD ST,PORTLAND,OR,97203,"FLINT GROUP NORTH AMERICA PORTLAND NEWSINK.10653 N LOMBARD ST, PORTLAND OREGON 97203 (MULTNOMAH)",0,C,,110014225490
97203BYDST9002N,-122.77,45.611000000000004,False,41,051,004101,41,41051,41051004101,1400000US41051004101,BOYDSTUN METAL WORKS INC,9002 N SEVER CT,PORTLAND,OR,97203,"BOYDSTUN METAL WORKS INC.9002 N SEVER CT, PORTLAND OREGON 97203 (MULTNOMAH)",0,C,,
97203CHMCN10821,-122.766,45.605,False,41,051,004101,41,41051,41051004101,1400000US41051004101,UNIVAR USA INC.(FORMERLY CHEMCENTRAL),10821 N LOMBARD ST,PORTLAND,OR,972036351,"UNIVAR USA INC.(FORMERLY CHEMCENTRAL).10821 N LOMBARD ST, PORTLAND OREGON 97203 (MULTNOMAH)",0,C,,110000487143
97203BYDST9125N,-122.77,45.61600000000001,False,41,051,004101,41,41051,41051004101,1400000US41051004101,BOYDSTUN METAL WORKS INC.,9125 N TIME OIL RD,PORTLAND,OR,97203,"BOYDSTUN METAL WORKS INC..9125 N TIME OIL RD, PORTLAND OREGON 97203 (MULTNOMAH)",0,C,,110004820221
97203VRZRG14NSW,-122.74600000000001,45.604,False,41,051,004101,41,41051,41051004101,1400000US41051004101,EVRAZ HEAT TREAT PORTLAND,10400 N SWIFT CT,PORTLAND,OR,97203,"EVRAZ HEAT TREAT PORTLAND.10400 N SWIFT CT, PORTLAND OREGON 97203 (MULTNOMAH)",0,C,,110016643541
97203CNSLD13940,-122.78,45.623000000000005,False,41,051,007202,41,41051,41051007202,1400000US41051007202,CONSOLIDATED METCO INC,13940 N RIVERGATE BLVD,PORTLAND,OR,97203,"CONSOLIDATED METCO INC.13940 N RIVERGATE BLVD, PORTLAND OREGON 97203 (MULTNOMAH)",0,C,,
97203HBFLL14025,-122.781,45.625,False,41,051,007202,41,41051,41051007202,1400000US41051007202,H B FULLER CO,14025 N RIVERGATE BLVD,PORTLAND,OR,97203,"H B FULLER CO.14025 N RIVERGATE BLVD, PORTLAND OREGON 97203 (MULTNOMAH)",0,C,,
97203RDDPN6123N,-122.735,45.626000000000005,False,41,051,007202,41,41051,41051007202,1400000US41051007202,RODDA PAINT CO,6123 N MARINE DR,PORTLAND,OR,97203,"RODDA PAINT CO.6123 N MARINE DR, PORTLAND OREGON 97203 (MULTNOMAH)",0,C,,110000487223
97203RGNST14400,-122.781,45.628,False,41,051,007202,41,41051,41051007202,1400000US41051007202,EVRAZ PORTLAND,14400 N RIVERGATE BLVD,PORTLAND,OR,97203,"EVRAZ PORTLAND.14400 N RIVERGATE BLVD, PORTLAND OREGON 97203 (MULTNOMAH)",0,C,,110027376284
97203STNFL10001,-122.779,45.62,False,41,051,007202,41,41051,41051007202,1400000US41051007202,STEINFELD'S PRODS CO,10001 N RIVERGATE BLVD,PORTLAND,OR,972036596,"STEINFELD'S PRODS CO.10001 N RIVERGATE BLVD, PORTLAND OREGON 97203 (MULTNOMAH)",0,C,,
97211NDZNG7933N,-122.645,45.581,False,41,051,007202,41,41051,41051007202,1400000US41051007202,HYDRO EXTRUSION PORTLAND INC - MAIN PLANT,7933 NE 21ST AVE BOX 11263,PORTLAND,OR,97211,"HYDRO EXTRUSION PORTLAND INC - MAIN PLANT.7933 NE 21ST AVE BOX 11263, PORTLAND OREGON 97211 (MULTNOMAH)",0,C,,110000774877
97211SPDWY8000N,-122.65,45.58,False,41,051,007202,41,41051,41051007202,1400000US41051007202,SPE-DE-WAY PRODS INC,8000 NE 14TH PL,PORTLAND,OR,97211,"SPE-DE-WAY PRODS INC.8000 NE 14TH PL, PORTLAND OREGON 97211 (MULTNOMAH)",0,C,,
97217CZNKS2985N,-122.698,45.611000000000004,False,41,051,007202,41,41051,41051007202,1400000US41051007202,FLINT GROUP  PORTLAND PACKAGING FACILITY,2985 N MARINE DR,PORTLAND,OR,97217,"FLINT GROUP  PORTLAND PACKAGING FACILITY.2985 N MARINE DR, PORTLAND OREGON 97217 (MULTNOMAH)",0,C,,110000894621
97217JMSRV3400N,-122.70100000000001,45.611999999999995,False,41,051,007202,41,41051,41051007202,1400000US41051007202,JAMES RIVER II INC COATED PRODUCTS DIV,3400 N MARINE DR,PORTLAND,OR,97217,"JAMES RIVER II INC COATED PRODUCTS DIV.3400 N MARINE DR, PORTLAND OREGON 97217 (MULTNOMAH)",0,C,,110000901347
97217MCDML1255N,-122.681,45.585,False,41,051,007202,41,41051,41051007202,1400000US41051007202,MACADAM ALUMINUM & BRONZE CO,1255 N COLUMBIA BLVD,PORTLAND,OR,97217,"MACADAM ALUMINUM & BRONZE CO.1255 N COLUMBIA BLVD, PORTLAND OREGON 97217 (MULTNOMAH)",0,C,,
97217MRRSN3747N,-122.706,45.614,False,41,051,007202,41,41051,41051007202,1400000US41051007202,MORRISON OIL CO INC,3747 N SUTTLE RD,PORTLAND,OR,97217,"MORRISON OIL CO INC.3747 N SUTTLE RD, PORTLAND OREGON 97217 (MULTNOMAH)",0,C,,
97217RGNVR2301N,-122.691,45.589,False,41,051,007202,41,41051,41051007202,1400000US41051007202,ARCLIN SURFACES LLC,2301 N COLUMBIA BLVD,PORTLAND,OR,97217,"ARCLIN SURFACES LLC.2301 N COLUMBIA BLVD, PORTLAND OREGON 97217 (MULTNOMAH)",0,C,,110000487599
97217RVNGN1945N,-122.686,45.586999999999996,False,41,051,007202,41,41051,41051007202,1400000US41051007202,"TECHNAFLOW INC, ROVALVE DIV",1945 N COLUMBIA BLVD,PORTLAND,OR,97217,"TECHNAFLOW INC, ROVALVE DIV.1945 N COLUMBIA BLVD, PORTLAND OREGON 97217 (MULTNOMAH)",1,C,,
97217STFFR4429N,-122.714,45.61600000000001,False,41,051,007202,41,41051,41051007202,1400000US41051007202,"RHONE-POULENC BASIC CHEMICALS, CO",4429 N SUTTLE RD,PORTLAND,OR,97217,"RHONE-POULENC BASIC CHEMICALS, CO.4429 N SUTTLE RD, PORTLAND OREGON 97217 (MULTNOMAH)",0,C,,
97217DRLNGFOOTO,-122.709,45.593999999999994,False,41,051,007202,41,41051,41051007202,1400000US41051007202,DARLING-DELAWARE CO INC,FOOT OF N HURST AVE,PORTLAND,OR,97217,"DARLING-DELAWARE CO INC.FOOT OF N HURST AVE, PORTLAND OREGON 97217 (MULTNOMAH)",0,C,,
97217VNRCH866NC,-122.676,45.583999999999996,False,41,051,007202,41,41051,41051007202,1400000US41051007202,VARICAST INC VAN RICH CASTING,866 N COLUMBIA BLVD,PORTLAND,OR,97217,"VARICAST INC VAN RICH CASTING.866 N COLUMBIA BLVD, PORTLAND OREGON 97217 (MULTNOMAH)",0,C,,
97203LNDLK15840,-122.76700000000001,45.638000000000005,False,41,051,007202,41,41051,41051007202,1400000US41051007202,LAND O'LAKES PURINA FEED LLC - RIVERGATE,15840 N SIMMONS ROAD,PORTLAND,OR,97203,"LAND O'LAKES PURINA FEED LLC - RIVERGATE.15840 N SIMMONS ROAD, PORTLAND OREGON 97203 (MULTNOMAH)",0,C,,110000487198
97203STCSB15540,-122.773,45.638999999999996,False,41,051,007202,41,41051,41051007202,1400000US41051007202,STC SUBMARINE SYS INC,15540 N LOMBARD,PORTLAND,OR,97203,"STC SUBMARINE SYS INC.15540 N LOMBARD, PORTLAND OREGON 97203 (MULTNOMAH)",0,C,,
97217GRPHC12238,-122.70200000000001,45.611000000000004,False,41,051,007202,41,41051,41051007202,1400000US41051007202,REXAM IMAGE PRODS,12238 N PORTLAND RD,PORTLAND,OR,97217,"REXAM IMAGE PRODS.12238 N PORTLAND RD, PORTLAND OREGON 97217 (MULTNOMAH)",0,C,,
97283NTRNT14400,-122.781,45.628,False,41,051,007202,41,41051,41051007202,1400000US41051007202,INTERNATIONAL MILL SERVICE,14400 N RIVERGATE BLVD,PORTLAND,OR,97283,"INTERNATIONAL MILL SERVICE.14400 N RIVERGATE BLVD, PORTLAND OREGON 97283 (MULTNOMAH)",1,C,,
97203KNTCR13424,-122.766,45.62,False,41,051,007202,41,41051,41051007202,1400000US41051007202,KANTO CORP,13424 N  WOODRUSH WAY,PORTLAND,OR,97203,"KANTO CORP.13424 N  WOODRUSH WAY, PORTLAND OREGON 97203 (MULTNOMAH)",0,C,,110000487189
97203NCLGR14003,-122.785,45.625,False,41,051,007202,41,41051,41051007202,1400000US41051007202,JR SIMPLOT CO RIVERGATE TERMINAL,14003 N RIVERGATE BLVD,PORTLAND,OR,97203,"JR SIMPLOT CO RIVERGATE TERMINAL.14003 N RIVERGATE BLVD, PORTLAND OREGON 97203 (MULTNOMAH)",0,C,,110000751641
97203WLDDT8735N,-122.766,45.622,False,41,051,007202,41,41051,41051007202,1400000US41051007202,MARUICHI OREGON STEEL TUBE LLC,8735 N HARBORGATE ST,PORTLAND,OR,97203,"MARUICHI OREGON STEEL TUBE LLC.8735 N HARBORGATE ST, PORTLAND OREGON 97203 (MULTNOMAH)",0,C,,110001658395
97217LCMSL3625N,-122.705,45.613,False,41,051,007202,41,41051,41051007202,1400000US41051007202,LACAMAS LABORATORIES INC,3625 N SUTTLE RD,PORTLAND,OR,97217,"LACAMAS LABORATORIES INC.3625 N SUTTLE RD, PORTLAND OREGON 97217 (MULTNOMAH)",0,C,,110000901392
97203SHGRV13939,-122.781,45.623000000000005,False,41,051,007202,41,41051,41051007202,1400000US41051007202,ASH GROVE CEMENT CO,13939 N RIVERGATE BLVD,PORTLAND,OR,97203,"ASH GROVE CEMENT CO.13939 N RIVERGATE BLVD, PORTLAND OREGON 97203 (MULTNOMAH)",0,C,,110001653666
97217RGCNR3591N,-122.70299999999999,45.592,False,41,051,007202,41,41051,41051007202,1400000US41051007202,AIRGAS NORPAC,3591 N COLUMBIA BLVD,PORTLAND,OR,97217,"AIRGAS NORPAC.3591 N COLUMBIA BLVD, PORTLAND OREGON 97217 (MULTNOMAH)",0,C,,
97211PRTLN755NE,-122.65700000000001,45.582,False,41,051,007202,41,41051,41051007202,1400000US41051007202,HANSON PIPE & PRECAST LLC - PORTLAND PLANT,755 NE COLUMBIA BLVD,PORTLAND,OR,97211,"HANSON PIPE & PRECAST LLC - PORTLAND PLANT.755 NE COLUMBIA BLVD, PORTLAND OREGON 97211 (MULTNOMAH)",0,C,,110014192462
97203PRKRH1398N,-122.77,45.623000000000005,False,41,051,007202,41,41051,41051007202,1400000US41051007202,PARKER HANNIFIN CORP CYLINDER DIV,13908 N LOMBARD,PORTLAND,OR,97203,"PARKER HANNIFIN CORP CYLINDER DIV.13908 N LOMBARD, PORTLAND OREGON 97203 (MULTNOMAH)",0,C,,110004804052
97203TCMRC9211N,-122.772,45.621,False,41,051,007202,41,41051,41051007202,1400000US41051007202,TCI AMERICA,9222 NORTH HARBORGATE ST,PORTLAND,OR,972036305,"TCI AMERICA.9222 NORTH HARBORGATE ST, PORTLAND OREGON 97203 (MULTNOMAH)",0,C,,110004789033
97217BLKTR11619,-122.693,45.607,False,41,051,007202,41,41051,41051007202,1400000US41051007202,BULK TRANSPORTATION PORTLAND TERMINAL,11619 N FORCE AVE,PORTLAND,OR,97217,"BULK TRANSPORTATION PORTLAND TERMINAL.11619 N FORCE AVE, PORTLAND OREGON 97217 (MULTNOMAH)",0,C,,110022524641
9720WMTHDS14546,-122.771,45.631,False,41,051,007202,41,41051,41051007202,1400000US41051007202,MT HOOD SOLUTIONS,14546 N LOMBARD ST,PORTLAND,OR,97203,"MT HOOD SOLUTIONS.14546 N LOMBARD ST, PORTLAND OREGON 97203 (MULTNOMAH)",0,C,,110038228290
9720WTCMRC13135,-122.76799999999999,45.618,False,41,051,007202,41,41051,41051007202,1400000US41051007202,TCI AMERICA,13135 N. WOODRUSH WAY,PORTLAND,OR,97203,"TCI AMERICA.13135 N. WOODRUSH WAY, PORTLAND OREGON 97203 (MULTNOMAH)",0,C,,110032744127
9721WHRBRT3131N,-122.70100000000001,45.591,False,41,051,007202,41,41051,41051007202,1400000US41051007202,HERBERT MALARKEY ROOFING CO,3131 N COLUMBIA BLVD,PORTLAND,OR,97217,"HERBERT MALARKEY ROOFING CO.3131 N COLUMBIA BLVD, PORTLAND OREGON 97217 (MULTNOMAH)",0,C,,110001653675
9721WWSTCH791HU,-122.67299999999999,45.586000000000006,False,41,051,007202,41,41051,41051007202,1400000US41051007202,WASTECH,791 HUNT STREET,PORTLAND,OR,97217,"WASTECH.791 HUNT STREET, PORTLAND OREGON 97217 (MULTNOMAH)",1,C,,110004787124
97203MPRLM1001N,-122.464,45.54,False,41,051,009604,41,41051,41051009604,1400000US41051009604,IMPERIAL MFG,10001 N POLK AVE,PORTLAND,OR,97203,"IMPERIAL MFG.10001 N POLK AVE, PORTLAND OREGON 97203 (MULTNOMAH)",1,C,,
97230MPRLM2271N,-122.464,45.54,False,41,051,009604,41,41051,41051009604,1400000US41051009604,IMPERIAL MANUFACTURING CO INC,2271 NE 194TH,PORTLAND,OR,97230,"IMPERIAL MANUFACTURING CO INC.2271 NE 194TH, PORTLAND OREGON 97230 (MULTNOMAH)",1,C,,
97203PCKGN4715N,-122.71700000000001,45.593999999999994,False,41,051,004001,41,41051,41051004001,1400000US41051004001,PACKAGING RESOURCES CO,4715 N COLUMBIA BLVD,PORTLAND,OR,97203,"PACKAGING RESOURCES CO.4715 N COLUMBIA BLVD, PORTLAND OREGON 97203 (MULTNOMAH)",0,C,,
97206LRGST4600S,-122.61200000000001,45.461000000000006,False,41,005,021000,41,41051,41005021000,1400000US41005021000,PCC STRUCTURALS INC LARGE PARTS CAMPUS,4600 SE HARNEY DR,PORTLAND,OR,97206,"PCC STRUCTURALS INC LARGE PARTS CAMPUS.4600 SE HARNEY DR, PORTLAND OREGON 97206 (MULTNOMAH)",0,C,,110000487241
97206MCCLR9051S,-122.609,45.458,False,41,005,021000,41,41005,41005021000,1400000US41005021000,MCCLURE INDUSTRIES INC,9051 SE 55TH AVENUE,PORTLAND,OR,97206,"MCCLURE INDUSTRIES INC.9051 SE 55TH AVENUE, PORTLAND OREGON 97206 (CLACKAMAS)",0,C,,110037770203
97222TTNMB5001S,-122.61200000000001,45.461000000000006,False,41,005,021000,41,41005,41005021000,1400000US41005021000,TITANIUM BUSINESS OPS,5001 SE JOHNSON CREEK BLVD,MILWAUKIE,OR,972224123,"TITANIUM BUSINESS OPS.5001 SE JOHNSON CREEK BLVD, MILWAUKIE OREGON 97222 (CLACKAMAS)",0,C,,
97208PNNWL6400N,-122.744,45.57,False,41,051,004300,41,41051,41051004300,1400000US41051004300,ATOFINA CHEMICALS INC,6400 NW FRONT AVE,PORTLAND,OR,97210,"ATOFINA CHEMICALS INC.6400 NW FRONT AVE, PORTLAND OREGON 97210 (MULTNOMAH)",0,C,,
97210CLMBM3003N,-122.72,45.544,False,41,051,004300,41,41051,41051004300,1400000US41051004300,COLUMBIA AMERICAN PLATING CO,3003 NW 35TH AVE,PORTLAND,OR,97210,"COLUMBIA AMERICAN PLATING CO.3003 NW 35TH AVE, PORTLAND OREGON 97210 (MULTNOMAH)",0,C,,
97210GLVNZ2406N,-122.712,45.54,False,41,051,004300,41,41051,41051004300,1400000US41051004300,GALVANIZERS CO,2406 NW 30TH AVE,PORTLAND,OR,97210,"GALVANIZERS CO.2406 NW 30TH AVE, PORTLAND OREGON 97210 (MULTNOMAH)",0,C,,110000487312
97210GNDRS4350N,-122.719,45.555,False,41,051,004300,41,41051,41051004300,1400000US41051004300,GUNDERSON LLC,4350 NW FRONT AVE,PORTLAND,OR,97210,"GUNDERSON LLC.4350 NW FRONT AVE, PORTLAND OREGON 97210 (MULTNOMAH)",0,C,,110000487321
97210HRCLS3366N,-122.709,45.547,False,41,051,004300,41,41051,41051004300,1400000US41051004300,SOLENIS LLC,3366 NW YEON AVE,PORTLAND,OR,97210,"SOLENIS LLC.3366 NW YEON AVE, PORTLAND OREGON 97210 (MULTNOMAH)",0,C,,110069500463
97210MPRLP2526N,-122.699,45.541000000000004,False,41,051,004300,41,41051,41051004300,1400000US41051004300,IMPERIAL PAINT CO INC,2526 NW YEON AVE,PORTLAND,OR,97210,"IMPERIAL PAINT CO INC.2526 NW YEON AVE, PORTLAND OREGON 97210 (MULTNOMAH)",0,C,,110000487367
97210MTHDC4444N,-122.73,45.555,False,41,051,004300,41,41051,41051004300,1400000US41051004300,MT. HOOD CHEMICAL CORP,4444 N W YEON AVE,PORTLAND,OR,97210,"MT. HOOD CHEMICAL CORP.4444 N W YEON AVE, PORTLAND OREGON 97210 (MULTNOMAH)",0,C,,110000487376
97210PRFRM3319N,-122.709,45.545,False,41,051,004300,41,41051,41051004300,1400000US41051004300,KNEEDSPEED INC,3319 NW YEON AVE,PORTLAND,OR,972101525,"KNEEDSPEED INC.3319 NW YEON AVE, PORTLAND OREGON 97210 (MULTNOMAH)",0,C,,
97210RHNPL6200N,-122.749,45.567,False,41,051,004300,41,41051,41051004300,1400000US41051004300,RHONE-POULENC AG CO,6200 NW ST HELENS RD,PORTLAND,OR,972100224,"RHONE-POULENC AG CO.6200 NW ST HELENS RD, PORTLAND OREGON 97210 (MULTNOMAH)",0,C,,
97210SCCRP2211N,-122.7,45.543,False,41,051,004300,41,41051,41051004300,1400000US41051004300,ESCO GROUP,2211 NW BREWER ST,PORTLAND,OR,97210,"ESCO GROUP.2211 NW BREWER ST, PORTLAND OREGON 97210 (MULTNOMAH)",0,C,,110024423836
97210SLZRB2800N,-122.696,45.545,False,41,051,004300,41,41051,41051004300,1400000US41051004300,SULZER PUMPS (US) INC,2800 NW FRONT AVE,PORTLAND,OR,97210,"SULZER PUMPS (US) INC.2800 NW FRONT AVE, PORTLAND OREGON 97210 (MULTNOMAH)",0,C,,110000487410
97210THMCC4155N,-122.725,45.551,False,41,051,004300,41,41051,41051004300,1400000US41051004300,EASTMAN CHEMICAL CO,4155 NW YEON AVE,PORTLAND,OR,97210,"EASTMAN CHEMICAL CO.4155 NW YEON AVE, PORTLAND OREGON 97210 (MULTNOMAH)",1,C,,
97210WCKRS7200N,-122.756,45.577,False,41,051,004300,41,41051,41051004300,1400000US41051004300,SILTRONIC CORP,7200 NW FRONT AVE.,PORTLAND,OR,97210,"SILTRONIC CORP.7200 NW FRONT AVE., PORTLAND OREGON 97210 (MULTNOMAH)",0,C,,110000487456
97210WLLBR5501N,-122.736,45.56100000000001,False,41,051,004300,41,41051,41051004300,1400000US41051004300,PARAMOUNT OF OREGON LLC WILLBRIDGE ASPHALT PLANT,5501 NW FRONT AVE,PORTLAND,OR,972101115,"PARAMOUNT OF OREGON LLC WILLBRIDGE ASPHALT PLANT.5501 NW FRONT AVE, PORTLAND OREGON 97210 (MULTNOMAH)",0,C,,110012479683
97231LNNTN10504,-122.78399999999999,45.599,False,41,051,004300,41,41051,41051004300,1400000US41051004300,LINNTON PLYWOOD ASSOC,10504 NW ST HELENS RD,PORTLAND,OR,97231,"LINNTON PLYWOOD ASSOC.10504 NW ST HELENS RD, PORTLAND OREGON 97231 (MULTNOMAH)",0,C,,
97210CSRFN6350N,-122.742,45.568000000000005,False,41,051,004300,41,41051,41051004300,1400000US41051004300,CERTAINTEED CORP,6350 NW FRONT AVE,PORTLAND,OR,97210,"CERTAINTEED CORP.6350 NW FRONT AVE, PORTLAND OREGON 97210 (MULTNOMAH)",0,C,,110002149112
97210BLTSR3055N,-122.704,45.544,False,41,051,004300,41,41051,41051004300,1400000US41051004300,BELTSERVICE/FABRICON CORP,3055 NW YEON AVE,PORTLAND,OR,97210,"BELTSERVICE/FABRICON CORP.3055 NW YEON AVE, PORTLAND OREGON 97210 (MULTNOMAH)",0,C,,
97210DRNDS4466N,-122.73,45.555,False,41,051,004300,41,41051,41051004300,1400000US41051004300,DURA INDUSTRIES INC,4466 NW  YEON,PORTLAND,OR,97210,"DURA INDUSTRIES INC.4466 NW  YEON, PORTLAND OREGON 97210 (MULTNOMAH)",0,C,,
97231MBLPR9420N,-122.779,45.592,False,41,051,004300,41,41051,41051004300,1400000US41051004300,EXXONMOBIL PORTLAND LUBE PLANT,9420 NW ST HELENS RD,PORTLAND,OR,97231,"EXXONMOBIL PORTLAND LUBE PLANT.9420 NW ST HELENS RD, PORTLAND OREGON 97231 (MULTNOMAH)",0,C,,110050569917
97217CHRST3747N,-122.728,45.549,False,41,051,004300,41,41051,41051004300,1400000US41051004300,CHRISTENSON OIL,3865 NW ST HELENS RD,PORTLAND,OR,97210,"CHRISTENSON OIL.3865 NW ST HELENS RD, PORTLAND OREGON 97210 (MULTNOMAH)",0,C,,
97210KPPRS7540N,-122.759,45.577,False,41,051,004300,41,41051,41051004300,1400000US41051004300,KOPPERS INDUSTRIES INC PORTLAND TAR PLANT,7540 NW ST HELENS RD,PORTLAND,OR,972103663,"KOPPERS INDUSTRIES INC PORTLAND TAR PLANT.7540 NW ST HELENS RD, PORTLAND OREGON 97210 (MULTNOMAH)",0,C,,
97208CHVRN5531N,-122.743,45.56399999999999,False,41,051,004300,41,41051,41051004300,1400000US41051004300,CHEVRON WILLBRIDGE TERMINAL,5531 NW DOANE AVE,PORTLAND,OR,97210,"CHEVRON WILLBRIDGE TERMINAL.5531 NW DOANE AVE, PORTLAND OREGON 97210 (MULTNOMAH)",0,C,,110000487250
97210GRTWS5700N,-122.736,45.56399999999999,False,41,051,004300,41,41051,41051004300,1400000US41051004300,BRENNTAG PACIFIC INC,5700 NW FRONT ST,PORTLAND,OR,97210,"BRENNTAG PACIFIC INC.5700 NW FRONT ST, PORTLAND OREGON 97210 (MULTNOMAH)",0,C,,110000487330
97210QLNPR3800N,-122.728,45.55,False,41,051,004300,41,41051,41051004300,1400000US41051004300,SHELL PORTLAND DISTRIBUTION TERMINAL,3800 NW SAINT HELENS RD,PORTLAND,OR,97210,"SHELL PORTLAND DISTRIBUTION TERMINAL.3800 NW SAINT HELENS RD, PORTLAND OREGON 97210 (MULTNOMAH)",0,C,,110000487385
97210SHLND3322N,-122.71799999999999,45.54600000000001,False,41,051,004300,41,41051,41051004300,1400000US41051004300,ASHLAND DISTRIBUTION CO,3322 NW 35TH AVE,PORTLAND,OR,97210,"ASHLAND DISTRIBUTION CO.3322 NW 35TH AVE, PORTLAND OREGON 97210 (MULTNOMAH)",0,C,,110000487401
97210TSCPR5528N,-122.73899999999999,45.56399999999999,False,41,051,004300,41,41051,41051004300,1400000US41051004300,PHILLIPS 66 PORTLAND TERMINAL,5528 NW DOANE AVE,PORTLAND,OR,97210,"PHILLIPS 66 PORTLAND TERMINAL.5528 NW DOANE AVE, PORTLAND OREGON 97210 (MULTNOMAH)",0,C,,110000487438
97210VNWTR3950N,-122.723,45.549,False,41,051,004300,41,41051,41051004300,1400000US41051004300,UNIVAR USA INC,3950 NW YEON AVE,PORTLAND,OR,97210,"UNIVAR USA INC.3950 NW YEON AVE, PORTLAND OREGON 97210 (MULTNOMAH)",0,C,,110000487447
97231MBLLP9420N,-122.744,45.566,False,41,051,004300,41,41051,41051004300,1400000US41051004300,EXXONMOBIL OIL CORP PORTLAND TERMINAL,9420 NW ST HELENS RD,PORTLAND,OR,97231,"EXXONMOBIL OIL CORP PORTLAND TERMINAL.9420 NW ST HELENS RD, PORTLAND OREGON 97231 (MULTNOMAH)",1,C,,
97231RCPRD9930N,-122.78,45.593999999999994,False,41,051,004300,41,41051,41051004300,1400000US41051004300,BP WEST COAST PRODUCTS CO-PORTLAND TERMINAL,9930 NW ST HELENS RD,PORTLAND,OR,97231,"BP WEST COAST PRODUCTS CO-PORTLAND TERMINAL.9930 NW ST HELENS RD, PORTLAND OREGON 97231 (MULTNOMAH)",0,C,,110014261850
97208TRMBL11910,-122.791,45.608000000000004,False,41,051,004300,41,41051,41051004300,1400000US41051004300,OWENS CORNING ROOFING & ASPHALT LLC,11910 NW ST HELENS RD,PORTLAND,OR,97231,"OWENS CORNING ROOFING & ASPHALT LLC.11910 NW ST HELENS RD, PORTLAND OREGON 97231 (MULTNOMAH)",0,C,,110008062210
97210GLCRN5034F,-122.73299999999999,45.562,False,41,051,004300,41,41051,41051004300,1400000US41051004300,GLACIER NORTHWEST INC FRONT AVE READY-MIX PLANT,5034 NW FRONT AVE,PORTLAND,OR,97210,"GLACIER NORTHWEST INC FRONT AVE READY-MIX PLANT.5034 NW FRONT AVE, PORTLAND OREGON 97210 (MULTNOMAH)",0,C,,110001657369
97210WNSCR3750N,-122.72,45.548,False,41,051,004300,41,41051,41051004300,1400000US41051004300,OWENS CORNING,3750 NW YEON AVE,PORTLAND,OR,97210,"OWENS CORNING.3750 NW YEON AVE, PORTLAND OREGON 97210 (MULTNOMAH)",0,C,,110001653746
9723WLNNTN12222,-122.79299999999999,45.611000000000004,False,41,051,004300,41,41051,41051004300,1400000US41051004300,LINNTON,12222 NW MARINA WAY,PORTLAND,OR,97231,"LINNTON.12222 NW MARINA WAY, PORTLAND OREGON 97231 (MULTNOMAH)",0,C,,110004777288
97209GHLMN1133W,-122.68299999999999,45.523,False,41,051,005100,41,41051,41051005100,1400000US41051005100,STROH BREWERY CO BLITZ-WEINHARD BREWERY,1133 W BURNSIDE ST,PORTLAND,OR,972092989,"STROH BREWERY CO BLITZ-WEINHARD BREWERY.1133 W BURNSIDE ST, PORTLAND OREGON 97209 (MULTNOMAH)",0,C,,
97209DMMLL1362N,-122.68,45.533,False,41,051,005100,41,41051,41051005100,1400000US41051005100,ADM MILLING CO,1362 NW FRONT ST,PORTLAND,OR,97209,"ADM MILLING CO.1362 NW FRONT ST, PORTLAND OREGON 97209 (MULTNOMAH)",0,C,,
97209PCFCS820NW,-122.686,45.528999999999996,False,41,051,005000,41,41051,41051005000,1400000US41051005000,"PACIFIC STATES GALVANIZING, INC",820 NW 15TH AVE,PORTLAND,OR,972092707,"PACIFIC STATES GALVANIZING, INC.820 NW 15TH AVE, PORTLAND OREGON 97209 (MULTNOMAH)",0,C,,
97210SCCRP2141N,-122.70200000000001,45.538000000000004,False,41,051,004500,41,41051,41051004500,1400000US41051004500,ESCO CORP,2141 NW 25TH AVE,PORTLAND,OR,97210,"ESCO CORP.2141 NW 25TH AVE, PORTLAND OREGON 97210 (MULTNOMAH)",0,C,,110000487394
97210GRFFT2439N,-122.698,45.541000000000004,False,41,051,004500,41,41051,41051004500,1400000US41051004500,GRIFFITH RUBBER MILLS,2439 NW 22ND,PORTLAND,OR,97210,"GRIFFITH RUBBER MILLS.2439 NW 22ND, PORTLAND OREGON 97210 (MULTNOMAH)",0,C,,
97210MRTNP2100N,-122.697,45.538000000000004,False,41,051,004500,41,41051,41051004500,1400000US41051004500,ICI PAINTS AMERITONE,2100 NW 22ND AVE,PORTLAND,OR,97210,"ICI PAINTS AMERITONE.2100 NW 22ND AVE, PORTLAND OREGON 97210 (MULTNOMAH)",0,C,,
97209GRPHC2000N,-122.694,45.538000000000004,False,41,051,004500,41,41051,41051004500,1400000US41051004500,CENVEO GRAPHIC ARTS CENTER,2000 NW WILSON ST,PORTLAND,OR,97209,"CENVEO GRAPHIC ARTS CENTER.2000 NW WILSON ST, PORTLAND OREGON 97209 (MULTNOMAH)",0,C,,
97211GLSNT2946N,-122.635,45.574,False,41,051,003602,41,41051,41051003602,1400000US41051003602,TARR ACQUISITION LLC,2946 NE COLUMBIA BLVD,PORTLAND,OR,97211,"TARR ACQUISITION LLC.2946 NE COLUMBIA BLVD, PORTLAND OREGON 97211 (MULTNOMAH)",0,C,,110043973484
9721WBSLTX174NE,-122.648,45.577,False,41,051,003602,41,41051,41051003602,1400000US41051003602,BASALITE,1740 NE LOMBARD PLACE,PORTLAND,OR,972111656,"BASALITE.1740 NE LOMBARD PLACE, PORTLAND OREGON 97211 (MULTNOMAH)",0,C,,110014162164
97211SCHLR2515N,-122.639,45.581,False,41,051,007300,41,41051,41051007300,1400000US41051007300,"SCHULER CORP, PLANT III",2515 NE RIVERSIDE WAY,PORTLAND,OR,97211,"SCHULER CORP, PLANT III.2515 NE RIVERSIDE WAY, PORTLAND OREGON 97211 (MULTNOMAH)",1,C,,
97218KLTMF7320N,-122.605,45.575,False,41,051,007300,41,41051,41051007300,1400000US41051007300,HYDRO EXTRUSION PORTLAND INC - FABRICATED COMPONENTS PLANT,7320 NE 55TH AVE,PORTLAND,OR,97218,"HYDRO EXTRUSION PORTLAND INC - FABRICATED COMPONENTS PLANT.7320 NE 55TH AVE, PORTLAND OREGON 97218 (MULTNOMAH)",0,C,,110000771068
97218PRTLN6800N,-122.6,45.571999999999996,False,41,051,007300,41,41051,41051007300,1400000US41051007300,CARDINAL ALUMINUM OREGON LLC (DBA PORTLAND WILLAMETTE),6800 NE 59TH PL,PORTLAND,OR,97218,"CARDINAL ALUMINUM OREGON LLC (DBA PORTLAND WILLAMETTE).6800 NE 59TH PL, PORTLAND OREGON 97218 (MULTNOMAH)",0,C,,
97218SLZRS4901N,-122.61200000000001,45.571000000000005,False,41,051,007300,41,41051,41051007300,1400000US41051007300,SULZER ESCHER WYSS SERVICE CENTER,4901 NE COLUMBIA BLVD,PORTLAND,OR,97218,"SULZER ESCHER WYSS SERVICE CENTER.4901 NE COLUMBIA BLVD, PORTLAND OREGON 97218 (MULTNOMAH)",0,C,,
97220CNTNN11555,-122.544,45.562,False,41,051,007300,41,41051,41051007300,1400000US41051007300,CONTINENTAL BRASS CO,11555 NE SUMNER ST,PORTLAND,OR,97220,"CONTINENTAL BRASS CO.11555 NE SUMNER ST, PORTLAND OREGON 97220 (MULTNOMAH)",0,C,,110000487642
97220TBSPC5131N,-122.51100000000001,45.56,False,41,051,007300,41,41051,41051007300,1400000US41051007300,TUBE SPECIALTIES CO,5131 NE 148TH AVE,PORTLAND,OR,97220,"TUBE SPECIALTIES CO.5131 NE 148TH AVE, PORTLAND OREGON 97220 (MULTNOMAH)",0,C,,
97220WNSBR5850N,-122.565,45.563,False,41,051,007300,41,41051,41051007300,1400000US41051007300,OWENS-BROCKWAY GLASS CONTAINER INC PLANT 21,9710 NE GLASS PLANT RD,PORTLAND,OR,97220,"OWENS-BROCKWAY GLASS CONTAINER INC PLANT 21.9710 NE GLASS PLANT RD, PORTLAND OREGON 97220 (MULTNOMAH)",0,C,,110000487660
97230CNRNW4600N,-122.51899999999999,45.558,False,41,051,007300,41,41051,41051007300,1400000US41051007300,CANRON CONSTRUCTION CORP WESTERN DIV,4600 NE 138TH AVE,PORTLAND,OR,97230,"CANRON CONSTRUCTION CORP WESTERN DIV.4600 NE 138TH AVE, PORTLAND OREGON 97230 (MULTNOMAH)",0,C,,
97230MLLRP12730,-122.531,45.56,False,41,051,007300,41,41051,41051007300,1400000US41051007300,MILLER PAINT CO INC,12730 NE WHITAKER WAY,PORTLAND,OR,97230,"MILLER PAINT CO INC.12730 NE WHITAKER WAY, PORTLAND OREGON 97230 (MULTNOMAH)",0,C,,110000771086
97218NDZNG5325N,-122.609,45.576,False,41,051,007300,41,41051,41051007300,1400000US41051007300,HYDRO EXTRUSION PORTLAND INC - COATINGS DIV,5325 NE SKYPORT WAY,PORTLAND,OR,97218,"HYDRO EXTRUSION PORTLAND INC - COATINGS DIV.5325 NE SKYPORT WAY, PORTLAND OREGON 97218 (MULTNOMAH)",0,C,,110000487606
97220BRDNN9000N,-122.571,45.567,False,41,051,007300,41,41051,41051007300,1400000US41051007300,BORDEN INC GROCERY & SPECIALTY PRODUCTS,9000 NE MARK DR,PORTLAND,OR,97220,"BORDEN INC GROCERY & SPECIALTY PRODUCTS.9000 NE MARK DR, PORTLAND OREGON 97220 (MULTNOMAH)",0,C,,
97220TRSRC6031N,-122.569,45.567,False,41,051,007300,41,41051,41051007300,1400000US41051007300,TREASURE CHEST ADVERTISING,6031 NE 92ND AVE BLDG #3,PORTLAND,OR,97220,"TREASURE CHEST ADVERTISING.6031 NE 92ND AVE BLDG #3, PORTLAND OREGON 97220 (MULTNOMAH)",0,C,,
97211CLMBS2665N,-122.63799999999999,45.582,False,41,051,007300,41,41051,41051007300,1400000US41051007300,COLUMBIA STEEL SHELVING CO,2665 NE RIVERSIDE WAY,PORTLAND,OR,97211,"COLUMBIA STEEL SHELVING CO.2665 NE RIVERSIDE WAY, PORTLAND OREGON 97211 (MULTNOMAH)",0,C,,
97211GRPHC2669N,-122.63799999999999,45.581,False,41,051,007300,41,41051,41051007300,1400000US41051007300,GRAPHIC SCIENCES INC,2669 NE RIVERSIDE WAY,PORTLAND,OR,972111184,"GRAPHIC SCIENCES INC.2669 NE RIVERSIDE WAY, PORTLAND OREGON 97211 (MULTNOMAH)",0,C,,
97230DNNRS12722,-122.531,45.56399999999999,False,41,051,007300,41,41051,41051007300,1400000US41051007300,DANNER SHOE MANUFACTURING CO,12722 NE AIRPORT WAY,PORTLAND,OR,972300127,"DANNER SHOE MANUFACTURING CO.12722 NE AIRPORT WAY, PORTLAND OREGON 97230 (MULTNOMAH)",0,C,,
97218VTNXT4635N,-122.61399999999999,45.57899999999999,False,41,051,007300,41,41051,41051007300,1400000US41051007300,THE BOEING COMPANY-PDX,4635 NE CORNFOOT RD,PORTLAND,OR,97218,"THE BOEING COMPANY-PDX.4635 NE CORNFOOT RD, PORTLAND OREGON 97218 (MULTNOMAH)",0,C,,110000487624
97230MLLRP12812,-122.531,45.56,False,41,051,007300,41,41051,41051007300,1400000US41051007300,MILLER PAINT CO INC,12812 NE WHITAKER WAY,PORTLAND,OR,97230,"MILLER PAINT CO INC.12812 NE WHITAKER WAY, PORTLAND OREGON 97230 (MULTNOMAH)",2,C,,
97218SRFRC681NE,-122.595,45.57899999999999,False,41,051,007300,41,41051,41051007300,1400000US41051007300,US DOD USAF PORTLAND ANG AFB OREGON,6801 NE CORNFOOT RD,PORTLAND,OR,972182797,"US DOD USAF PORTLAND ANG AFB OREGON.6801 NE CORNFOOT RD, PORTLAND OREGON 97218 (MULTNOMAH)",0,F,,110020517591
9721WSPPRF221NE,-122.64200000000001,45.582,False,41,051,007300,41,41051,41051007300,1400000US41051007300,HYDRO EXTRUSION PORTLAND INC - RIVERSIDE PLANT,2210 NE RIVERSIDE WAY,PORTLAND,OR,97211,"HYDRO EXTRUSION PORTLAND INC - RIVERSIDE PLANT.2210 NE RIVERSIDE WAY, PORTLAND OREGON 97211 (MULTNOMAH)",0,C,,110014161209
97220PNTGN583NE,-122.546,45.565,False,41,051,007300,41,41051,41051007300,1400000US41051007300,PENTAGON TECHNOLOGIES,5830 NE 112TH AVE,PORTLAND,OR,97220,"PENTAGON TECHNOLOGIES.5830 NE 112TH AVE, PORTLAND OREGON 97220 (MULTNOMAH)",0,C,,110012258314
9723WHGHPR14157,-122.51700000000001,45.56399999999999,False,41,051,007300,41,41051,41051007300,1400000US41051007300,HIGH PURITY PRODUCTS,14157 NE AIRPORT WAY,PORTLAND,OR,97230,"HIGH PURITY PRODUCTS.14157 NE AIRPORT WAY, PORTLAND OREGON 97230 (MULTNOMAH)",0,C,,110070244639
9721WPXNDZ715NE,-122.59,45.568999999999996,False,41,051,007300,41,41051,41051007300,1400000US41051007300,APEX ANODIZING,7015 NE COLUMBIA BLVD,PORTLAND,OR,97218,"APEX ANODIZING.7015 NE COLUMBIA BLVD, PORTLAND OREGON 97218 (MULTNOMAH)",0,C,,
97211SPCLT8205N,-122.678,45.583,False,41,051,003801,41,41051,41051003801,1400000US41051003801,"SPECIALTY ENAMELING SERVICE, INC",8205 N MISSISSIPPI,PORTLAND,OR,97211,"SPECIALTY ENAMELING SERVICE, INC.8205 N MISSISSIPPI, PORTLAND OREGON 97211 (MULTNOMAH)",0,C,,
97214RGNBR1127S,-122.656,45.515,False,41,051,001101,41,41051,41051001101,1400000US41051001101,OREGON BRASS WORKS,1127 SE 10TH AVE,PORTLAND,OR,972143469,"OREGON BRASS WORKS.1127 SE 10TH AVE, PORTLAND OREGON 97214 (MULTNOMAH)",0,C,,
97214STSDP1300S,-122.664,45.513000000000005,False,41,051,001101,41,41051,41051001101,1400000US41051001101,EAST SIDE PLATING INC PLANT 5,1300 S E 2ND AVE,PORTLAND,OR,97214,"EAST SIDE PLATING INC PLANT 5.1300 S E 2ND AVE, PORTLAND OREGON 97214 (MULTNOMAH)",0,C,,110000487517
9721WPRTTN121SE,-122.663,45.513999999999996,False,41,051,001101,41,41051,41051001101,1400000US41051001101,PRATT & LARSON CERAMICS,1201 SE 3RD AVE,PORTLAND,OR,97214,"PRATT & LARSON CERAMICS.1201 SE 3RD AVE, PORTLAND OREGON 97214 (MULTNOMAH)",0,C,,110004813293
97217CSCDG5555N,-122.72200000000001,45.565,False,41,051,980000,41,41051,41051980000,1400000US41051980000,VIGOR INDUSTRIAL,5555 N CHANNEL AVE,PORTLAND,OR,97217,"VIGOR INDUSTRIAL.5555 N CHANNEL AVE, PORTLAND OREGON 97217 (MULTNOMAH)",0,C,,110057205803
97217FRGHT6936N,-122.715,45.573,False,41,051,980000,41,41051,41051980000,1400000US41051980000,DAIMLER TRUCKS NA LLC,6936 N FATHOM ST,PORTLAND,OR,97217,"DAIMLER TRUCKS NA LLC.6936 N FATHOM ST, PORTLAND OREGON 97217 (MULTNOMAH)",0,C,,110000487553
97217NRTHW5555N,-122.72200000000001,45.565,False,41,051,980000,41,41051,41051980000,1400000US41051980000,NORTHWEST MARINE IRON WORKS,"5555 N CHANNEL AVE, BLDG 2",PORTLAND,OR,97217,"NORTHWEST MARINE IRON WORKS.5555 N CHANNEL AVE, BLDG 2, PORTLAND OREGON 97217 (MULTNOMAH)",0,C,,
97217FRGHT5400N,-122.704,45.562,False,41,051,980000,41,41051,41051980000,1400000US41051980000,COMMERCIAL VEHICLE GROUP,5400 N BASIN AVE,PORTLAND,OR,97217,"COMMERCIAL VEHICLE GROUP.5400 N BASIN AVE, PORTLAND OREGON 97217 (MULTNOMAH)",0,C,,110064008069
97217LNDLK6147N,-122.71,45.568000000000005,False,41,051,980000,41,41051,41051980000,1400000US41051980000,"LAND O'LAKES INC, FEED PLANT",6147 N BASIN,PORTLAND,OR,97217,"LAND O'LAKES INC, FEED PLANT.6147 N BASIN, PORTLAND OREGON 97217 (MULTNOMAH)",1,C,,
97208WSTST5555N,-122.72200000000001,45.565,False,41,051,980000,41,41051,41051980000,1400000US41051980000,WEST STATE INC,5555 N CHANNEL BLD #72,PORTLAND,OR,97208,"WEST STATE INC.5555 N CHANNEL BLD #72, PORTLAND OREGON 97208 (MULTNOMAH)",0,C,,
97217LYNDN6135N,-122.71,45.568000000000005,False,41,051,980000,41,41051,41051980000,1400000US41051980000,LYNDEN FARMS,6135 N BASIN AVE,PORTLAND,OR,97217,"LYNDEN FARMS.6135 N BASIN AVE, PORTLAND OREGON 97217 (MULTNOMAH)",0,C,,
97217CMCMF6840N,-122.715,45.571999999999996,False,41,051,980000,41,41051,41051980000,1400000US41051980000,CAMCO MANUFACTURING INC,6840 N FATHOM ST BLDGS F&G,PORTLAND,OR,972173962,"CAMCO MANUFACTURING INC.6840 N FATHOM ST BLDGS F&G, PORTLAND OREGON 97217 (MULTNOMAH)",1,C,,110015779807
97227SKRTP1402N,-122.68299999999999,45.541000000000004,False,41,051,980000,41,41051,41051980000,1400000US41051980000,CENTRAL PREMIX CONCRETE PRODUCTS CO,1402 N RIVER ST,PORTLAND,OR,97227,"CENTRAL PREMIX CONCRETE PRODUCTS CO.1402 N RIVER ST, PORTLAND OREGON 97227 (MULTNOMAH)",0,C,,110001657387
97217KRGRC495NB,-122.698,45.559,False,41,051,980000,41,41051,41051980000,1400000US41051980000,KROGER CO SWAN ISLAND DAIRY,4950 N BASIN AVE,PORTLAND,OR,97217,"KROGER CO SWAN ISLAND DAIRY.4950 N BASIN AVE, PORTLAND OREGON 97217 (MULTNOMAH)",0,C,,110004789104
9721WCMXPR5225N,-122.714,45.56,False,41,051,980000,41,41051,41051980000,1400000US41051980000,CADMAN - PORT OF PORTLAND RM,5225 N CHANNEL AVE,PORTLAND,OR,97217,"CADMAN - PORT OF PORTLAND RM.5225 N CHANNEL AVE, PORTLAND OREGON 97217 (MULTNOMAH)",0,C,,110043965466
9721WSTCKM5938N,-122.70700000000001,45.567,False,41,051,980000,41,41051,41051980000,1400000US41051980000,STACK METALLURGICAL SERVICES,5938 N BASIN AVE,PORTLAND,OR,97217,"STACK METALLURGICAL SERVICES.5938 N BASIN AVE, PORTLAND OREGON 97217 (MULTNOMAH)",0,C,,110023028061
97217PNNZL440NC,-122.67,45.582,False,41,051,003701,41,41051,41051003701,1400000US41051003701,PENNZOIL-QUAKER STATE CO DBA SOPUS PRODUCTS-PORTLAND,440 N COLUMBIA BLVD,PORTLAND,OR,97217,"PENNZOIL-QUAKER STATE CO DBA SOPUS PRODUCTS-PORTLAND.440 N COLUMBIA BLVD, PORTLAND OREGON 97217 (MULTNOMAH)",0,C,,110000487580
97211NBSCB100NE,-122.666,45.582,False,41,051,003701,41,41051,41051003701,1400000US41051003701,MONDELEZ GLOBAL LLC,100 NE COLUMBIA BLVD,PORTLAND,OR,97211,"MONDELEZ GLOBAL LLC.100 NE COLUMBIA BLVD, PORTLAND OREGON 97211 (MULTNOMAH)",0,C,,110000487483
97218THCHS7737N,-122.583,45.563,False,41,051,007600,41,41051,41051007600,1400000US41051007600,CHAS H LILLY CO,7737 NE KILLINGSWORTH,PORTLAND,OR,97218,"CHAS H LILLY CO.7737 NE KILLINGSWORTH, PORTLAND OREGON 97218 (MULTNOMAH)",1,C,,
97222CCRPR4607S,-122.616,45.43600000000001,False,41,005,021500,41,41005,41005021500,1400000US41005021500,C&D TECHNOLOGIES INC,4607 SE INTERNATIONAL WAY,MILWAUKIE,OR,972224619,"C&D TECHNOLOGIES INC.4607 SE INTERNATIONAL WAY, MILWAUKIE OREGON 97222 (CLACKAMAS)",0,C,,110006858800
97222MRKND4909S,-122.61200000000001,45.435,False,41,005,021500,41,41005,41005021500,1400000US41005021500,BLOUNT INC,4909 SE INTERNATIONAL WAY,MILWAUKIE,OR,97222,"BLOUNT INC.4909 SE INTERNATIONAL WAY, MILWAUKIE OREGON 97222 (CLACKAMAS)",0,C,,110000487688
97222WRNND13270,-122.589,45.427,False,41,005,021500,41,41005,41005021500,1400000US41005021500,WARN AUTOMOTIVE LLC,13270 PHEASANT CT,MILWAUKIE,OR,97222,"WARN AUTOMOTIVE LLC.13270 PHEASANT CT, MILWAUKIE OREGON 97222 (CLACKAMAS)",0,C,,110000487704
97222PCCDR13350,-122.581,45.425,False,41,005,021500,41,41005,41005021500,1400000US41005021500,PCC STRUCTURALS INC DEER CREEK ANNEX,13350 SE JOHNSON RD,MILWAUKIE,OR,97222,"PCC STRUCTURALS INC DEER CREEK ANNEX.13350 SE JOHNSON RD, MILWAUKIE OREGON 97222 (CLACKAMAS)",0,C,,110000487697
97222CLLC04607S,-122.616,45.43600000000001,False,41,005,021500,41,41005,41005021500,1400000US41005021500,OECO LLC,4607 SE INTERNATIONAL WAY,MILWAUKIE,OR,97222,"OECO LLC.4607 SE INTERNATIONAL WAY, MILWAUKIE OREGON 97222 (CLACKAMAS)",0,C,,110004791832
97222NFDWS6433S,-122.594,45.428000000000004,False,41,005,021500,41,41005,41005021500,1400000US41005021500,UNIFIED WESTERN GROCERS INC,6433 SE LAKE RD,MILWAUKIE,OR,97222,"UNIFIED WESTERN GROCERS INC.6433 SE LAKE RD, MILWAUKIE OREGON 97222 (CLACKAMAS)",0,C,,
9722WMSSLK4287S,-122.619,45.438,False,41,005,021500,41,41005,41005021500,1400000US41005021500,MOSES LAKE INDUSTRIES,4287 SE INTERNATIONAL WAY STE,MILWAUKIE,OR,97222,"MOSES LAKE INDUSTRIES.4287 SE INTERNATIONAL WAY STE, MILWAUKIE OREGON 97222 (CLACKAMAS)",0,C,,110070122541
97222HNNCR2000S,-122.641,45.45,False,41,005,020800,41,41005,41005020800,1400000US41005020800,HANNA CAR WASH INTERNATIONAL,2000 HANNA HARVESTER DR,MILWAUKIE,OR,97222,"HANNA CAR WASH INTERNATIONAL.2000 HANNA HARVESTER DR, MILWAUKIE OREGON 97222 (CLACKAMAS)",0,C,,
97222YRKNT9800S,-122.64399999999999,45.452,False,41,005,020800,41,41051,41005020800,1400000US41005020800,YORK INTL PACE DIV,9800 SE MCBROD AVE,PORTLAND,OR,97222,"YORK INTL PACE DIV.9800 SE MCBROD AVE, PORTLAND OREGON 97222 (MULTNOMAH)",0,C,,
97222HRDRM2323S,-122.637,45.451,False,41,005,020800,41,41005,41005020800,1400000US41005020800,HARDER MECHANICAL FABRICATION PIPE SHOP,2323 SE HANNA HARVESTER DR,MILWAUKIE,OR,97222,"HARDER MECHANICAL FABRICATION PIPE SHOP.2323 SE HANNA HARVESTER DR, MILWAUKIE OREGON 97222 (CLACKAMAS)",0,C,,
97223NRTHW16358,-122.74700000000001,45.403,False,41,067,032005,41,41051,41067032005,1400000US41067032005,NORTHWEST DOOR & SUPPLY INC,16358 SW 72ND,PORTLAND,OR,97223,"NORTHWEST DOOR & SUPPLY INC.16358 SW 72ND, PORTLAND OREGON 97223 (MULTNOMAH)",0,C,,
9722WVRSND1664S,-122.749,45.401,False,41,067,032005,41,41067,41067032005,1400000US41067032005,VERIS INDUSTRIES LLC,16640 SW 72ND AVE,PORTLAND,OR,97224,"VERIS INDUSTRIES LLC.16640 SW 72ND AVE, PORTLAND OREGON 97224 (WASHINGTON)",0,C,,110004794278
97224FGHTC14255,-122.751,45.417,False,41,067,030700,41,41067,41067030700,1400000US41067030700,FOUGHT & CO INC,14255 SW 72ND AVE,TIGARD,OR,97224,"FOUGHT & CO INC.14255 SW 72ND AVE, TIGARD OREGON 97224 (WASHINGTON)",0,C,,110000487722
97224GRBRL14200,-122.74600000000001,45.418,False,41,067,030700,41,41067,41067030700,1400000US41067030700,FISKARS BRANDS GERBER LEGENDARY BLADES DIV,14200 SW 72ND AVE,PORTLAND,OR,97224,"FISKARS BRANDS GERBER LEGENDARY BLADES DIV.14200 SW 72ND AVE, PORTLAND OREGON 97224 (WASHINGTON)",0,C,,110000487731
97224QLCTN12670,-122.765,45.428000000000004,False,41,067,030700,41,41067,41067030700,1400000US41067030700,BOWDEN ENTERPRISES INC,12670 SW HALL BLVD BUILDING # 1,TIGARD,OR,97224,"BOWDEN ENTERPRISES INC.12670 SW HALL BLVD BUILDING # 1, TIGARD OREGON 97224 (WASHINGTON)",0,C,,
97224TVTDC7330S,-122.75,45.419,False,41,067,030700,41,41067,41067030700,1400000US41067030700,TVT DIE CASTING,7330 SW LANDMARK LN,PORTLAND,OR,97224,"TVT DIE CASTING.7330 SW LANDMARK LN, PORTLAND OREGON 97224 (WASHINGTON)",0,C,,110000487759
97223WLLMT7895S,-122.757,45.428999999999995,False,41,067,030700,41,41067,41067030700,1400000US41067030700,WILLAMETTE IND INC TIGARD PREPRINT PLANT,7895 SW HUNZIKER ST,TIGARD,OR,97223,"WILLAMETTE IND INC TIGARD PREPRINT PLANT.7895 SW HUNZIKER ST, TIGARD OREGON 97223 (WASHINGTON)",0,C,,
97224WLLMS14100,-122.749,45.418,False,41,067,030700,41,41067,41067030700,1400000US41067030700,WILLIAMS CONTROLS,14100 SW 72ND AVE,PORTLAND,OR,97224,"WILLIAMS CONTROLS.14100 SW 72ND AVE, PORTLAND OREGON 97224 (WASHINGTON)",0,C,,
97223CPRBL7298S,-122.75200000000001,45.419,False,41,067,030700,41,41067,41067030700,1400000US41067030700,COOPER B-LINE PORTLAND,7298 SW TECH CENTER DR,PORTLAND,OR,97223,"COOPER B-LINE PORTLAND.7298 SW TECH CENTER DR, PORTLAND OREGON 97223 (WASHINGTON)",0,C,,
97223CMMRC85SWH,-122.758,45.428999999999995,False,41,067,030700,41,41067,41067030700,1400000US41067030700,COMMERCIAL VEHICLE GROUP,8005 SW HUNZIKER ST,TIGARD,OR,972238231,"COMMERCIAL VEHICLE GROUP.8005 SW HUNZIKER ST, TIGARD OREGON 97223 (WASHINGTON)",1,C,,110004813168
9722WGLYXT794SW,-122.76100000000001,45.424,False,41,067,030700,41,41067,41067030700,1400000US41067030700,AGILYX,13240 SW WALL STREET,TIGARD,OR,97223,"AGILYX.13240 SW WALL STREET, TIGARD OREGON 97223 (WASHINGTON)",0,C,,110045561441
97224QLCTN16285,-122.766,45.402,False,41,067,030805,41,41067,41067030805,1400000US41067030805,QUALI-COTE INC,16285 SW 85TH #403,TIGARD,OR,97224,"QUALI-COTE INC.16285 SW 85TH #403, TIGARD OREGON 97224 (WASHINGTON)",0,C,,
97232CCCLS2710N,-122.63799999999999,45.523999999999994,False,41,051,002000,41,41051,41051002000,1400000US41051002000,COCA-COLA USA,2710 NE DAVIS ST,PORTLAND,OR,97232,"COCA-COLA USA.2710 NE DAVIS ST, PORTLAND OREGON 97232 (MULTNOMAH)",0,C,,
97232LPCPP2627N,-122.639,45.528999999999996,False,41,051,002000,41,41051,41051002000,1400000US41051002000,PEPSI-COLA BOTTLING BOTTLING GROUP LLC,2627 NE SANDY BLVD,PORTLAND,OR,97232,"PEPSI-COLA BOTTLING BOTTLING GROUP LLC.2627 NE SANDY BLVD, PORTLAND OREGON 97232 (MULTNOMAH)",0,C,,
97242DRGLD2720S,-122.65899999999999,45.503,False,41,051,001000,41,41051,41051001000,1400000US41051001000,DARIGOLD - PORTLAND,2720 SE 6TH,PORTLAND,OR,97202,"DARIGOLD - PORTLAND.2720 SE 6TH, PORTLAND OREGON 97202 (MULTNOMAH)",0,C,,110001656556
97202MRCNB2505S,-122.641,45.494,False,41,051,001000,41,41051,41051001000,1400000US41051001000,AMERICAN BRONZE INC,2505 SE GLADSTONE ST,PORTLAND,OR,97202,"AMERICAN BRONZE INC.2505 SE GLADSTONE ST, PORTLAND OREGON 97202 (MULTNOMAH)",0,C,,
97202BLLSY3722S,-122.64399999999999,45.496,False,41,051,001000,41,41051,41051001000,1400000US41051001000,BULLSEYE GLASS CO INC,3722 SE 21ST AVE,PORTLAND,OR,97202,"BULLSEYE GLASS CO INC.3722 SE 21ST AVE, PORTLAND OREGON 97202 (MULTNOMAH)",0,C,,110000487107
97267DRFLM3800S,-122.624,45.4,False,41,005,021700,41,41005,41005021700,1400000US41005021700,NEWELL DORFILE CO,3800 SE NAEF RD,MILWAUKIE,OR,97267,"NEWELL DORFILE CO.3800 SE NAEF RD, MILWAUKIE OREGON 97267 (CLACKAMAS)",0,C,,
97267STNLY3810S,-122.624,45.4,False,41,005,021700,41,41005,41005021700,1400000US41005021700,STANLEY HYDRAULIC TOOLS,3810 SE NAEF RD,MILWAUKIE,OR,97267,"STANLEY HYDRAULIC TOOLS.3810 SE NAEF RD, MILWAUKIE OREGON 97267 (CLACKAMAS)",0,C,,
97268CRLTN3901S,-122.62299999999999,45.402,False,41,005,021700,41,41005,41005021700,1400000US41005021700,CARLTON SAWCHAIN,3901 SE NAEF RD,MILWAUKIE,OR,97268,"CARLTON SAWCHAIN.3901 SE NAEF RD, MILWAUKIE OREGON 97268 (CLACKAMAS)",1,C,,110042043204
97302KLKST3220P,-123.021,44.909,False,41,047,001000,41,41047,41047001000,1400000US41047001000,KAL KUSTOM ENTERPRISES,3220 PRINGLE RD SE,SALEM,OR,973021544,"KAL KUSTOM ENTERPRISES.3220 PRINGLE RD SE, SALEM OREGON 97302 (MARION)",1,C,,110000487875
97302RLNCN1660C,-123.024,44.925,False,41,047,001000,41,41047,41047001000,1400000US41047001000,AKZO NOBEL COATINGS INC,1660 CROSS ST SE,SALEM,OR,97302,"AKZO NOBEL COATINGS INC.1660 CROSS ST SE, SALEM OREGON 97302 (MARION)",0,C,,110000487893
97302SLMPL2325M,-123.014,44.91,False,41,047,001000,41,41047,41047001000,1400000US41047001000,NORPAC FOODS INC PLANT #7,2325 MADRONA AVE SE,SALEM,OR,97302,"NORPAC FOODS INC PLANT #7.2325 MADRONA AVE SE, SALEM OREGON 97302 (MARION)",0,C,,
97309SCHLR2109S,-123.016,44.901,False,41,047,001000,41,41047,41047001000,1400000US41047001000,SCHULER CORP PLANT II,2109 STRONG RD,SALEM,OR,97309,"SCHULER CORP PLANT II.2109 STRONG RD, SALEM OREGON 97309 (MARION)",0,C,,
97302MRRWS2600P,-123.02799999999999,44.916000000000004,False,41,047,001000,41,41047,41047001000,1400000US41047001000,MORROW SNOWBOARDS INC,2600 PRINGLE RD SE,SALEM,OR,97302,"MORROW SNOWBOARDS INC.2600 PRINGLE RD SE, SALEM OREGON 97302 (MARION)",0,C,,
97302MTSBS3990F,-123.01100000000001,44.9,False,41,047,001000,41,41047,41047001000,1400000US41047001000,SUMCO OREGON CORP,3990 FAIRVIEW INDUSTRIAL DR SE,SALEM,OR,97302,"SUMCO OREGON CORP.3990 FAIRVIEW INDUSTRIAL DR SE, SALEM OREGON 97302 (MARION)",0,C,,
97302GRMNT2345T,-122.993,44.908,False,41,047,001000,41,41047,41047001000,1400000US41047001000,GARMIN AT INC,2345 TURNER RD SE,SALEM,OR,97302,"GARMIN AT INC.2345 TURNER RD SE, SALEM OREGON 97302 (MARION)",0,C,,110020517617
97303KRRCN2340H,-123.0,44.98,False,41,047,000400,41,41047,41047000400,1400000US41047000400,KERR CONCENTRATES INC,2340 HYACINTH ST NE,SALEM,OR,97303,"KERR CONCENTRATES INC.2340 HYACINTH ST NE, SALEM OREGON 97303 (MARION)",0,C,,
97303SLTCS1351T,-123.015,44.974,False,41,047,000400,41,41047,41047000400,1400000US41047000400,SUMCO OREGON CORP,1351 TANDEM AVE NE,SALEM,OR,97303,"SUMCO OREGON CORP.1351 TANDEM AVE NE, SALEM OREGON 97303 (MARION)",0,C,,
97303BRKMN3530B,-123.007,44.973,False,41,047,000400,41,41047,41047000400,1400000US41047000400,BROOKMAN CAST INDUSTRIES INC,3530 BRADY CT  NE,SALEM,OR,97303,"BROOKMAN CAST INDUSTRIES INC.3530 BRADY CT  NE, SALEM OREGON 97303 (MARION)",0,C,,
97303SLTCP1430T,-123.01299999999999,44.975,False,41,047,000400,41,41047,41047000400,1400000US41047000400,SUMCO OREGON CORP,1430 TANDEM AVE NE,SALEM,OR,97303,"SUMCO OREGON CORP.1430 TANDEM AVE NE, SALEM OREGON 97303 (MARION)",0,C,,
97303NSLLP1400T,-123.01299999999999,44.974,False,41,047,000400,41,41047,41047000400,1400000US41047000400,ANSELL PACIFIC INC,1400 TANDEM AVE NE,SALEM,OR,97303,"ANSELL PACIFIC INC.1400 TANDEM AVE NE, SALEM OREGON 97303 (MARION)",0,C,,
97303PRDCT3049I,-123.01299999999999,44.967,False,41,047,000400,41,41047,41047000400,1400000US41047000400,20/10 PRODUCTS INC,3049 INDUSTRIAL WAY NE,SALEM,OR,97303,"20/10 PRODUCTS INC.3049 INDUSTRIAL WAY NE, SALEM OREGON 97303 (MARION)",0,C,,110000487919
97303NRRSP1675C,-123.03399999999999,44.956,False,41,047,000300,41,41047,41047000300,1400000US41047000300,ENNIS-FLINT SALEM,1675 COMMERCIAL ST NE,SALEM,OR,97301,"ENNIS-FLINT SALEM.1675 COMMERCIAL ST NE, SALEM OREGON 97301 (MARION)",0,C,,110000487900
97303RGNCH1520W,-123.014,44.958,False,41,047,000501,41,41047,41047000501,1400000US41047000501,OREGON CHERRY GROWERS INC,1520 WOODROW ST NE,SALEM,OR,97303,"OREGON CHERRY GROWERS INC.1520 WOODROW ST NE, SALEM OREGON 97303 (MARION)",0,C,,
97303RNSWT1460S,-123.014,44.956,False,41,047,000501,41,41047,41047000501,1400000US41047000501,RAINSWEET INC.,1460 SUNNYVIEW RD NE,SALEM,OR,97303,"RAINSWEET INC..1460 SUNNYVIEW RD NE, SALEM OREGON 97303 (MARION)",0,C,,110000556274
97304GNBNC576PA,-123.055,44.946000000000005,False,41,053,005100,41,41053,41053005100,1400000US41053005100,GNB INC,576 PATTERSON AVE NW,SALEM,OR,97304,"GNB INC.576 PATTERSON AVE NW, SALEM OREGON 97304 (POLK)",0,C,,
97304GRPCP845BA,-123.053,44.946000000000005,False,41,053,005100,41,41053,41053005100,1400000US41053005100,AGRIPAC INC PLANT NO 1,845 BASSETT ST NW,SALEM,OR,973043854,"AGRIPAC INC PLANT NO 1.845 BASSETT ST NW, SALEM OREGON 97304 (POLK)",0,C,,
97305BRKSP4755B,-122.963,45.056999999999995,False,41,047,002502,41,41047,41047002502,1400000US41047002502,NORPAC FOODS INC BROOKS PLANT #5,4755 BROOKLAKE RD NE,SALEM,OR,973059744,"NORPAC FOODS INC BROOKS PLANT #5.4755 BROOKLAKE RD NE, SALEM OREGON 97305 (MARION)",0,C,,
97303SLMSP971WH,-123.005,45.062,False,41,047,002502,41,41047,41047002502,1400000US41047002502,SALEM ASPHALT,9710 WHEATLAND RD N,SALEM,OR,97303,"SALEM ASPHALT.9710 WHEATLAND RD N, SALEM OREGON 97303 (MARION)",0,C,,110037149911
97308TRTTB1105F,-123.036,44.952,False,41,047,000200,41,41047,41047000200,1400000US41047000200,TRUITT BROS INC,1105 FRONT ST NE,SALEM,OR,97308,"TRUITT BROS INC.1105 FRONT ST NE, SALEM OREGON 97308 (MARION)",0,C,,
97309SCHLR56021,-123.01799999999999,44.93,False,41,047,000900,41,41047,41047000900,1400000US41047000900,MEDALLION CABINETRY INC,560 21ST ST SE,SALEM,OR,97309,"MEDALLION CABINETRY INC.560 21ST ST SE, SALEM OREGON 97309 (MARION)",0,C,,
97321FLKBR255LD,-123.066,44.662,False,41,043,020100,41,41043,41043020100,1400000US41043020100,ARAUCO NA INC - DURAFLAKE PARTICLEBOARD,2550 OLD SALEM RD NE,ALBANY,OR,97321,"ARAUCO NA INC - DURAFLAKE PARTICLEBOARD.2550 OLD SALEM RD NE, ALBANY OREGON 97321 (LINN)",0,C,,110000488044
97321GRGPC2190O,-123.065,44.66,False,41,043,020100,41,41043,41043020100,1400000US41043020100,GEORGIA-PACIFIC CHEMICALS LLC,2190 OLD SALEM RD NE,ALBANY,OR,97321,"GEORGIA-PACIFIC CHEMICALS LLC.2190 OLD SALEM RD NE, ALBANY OREGON 97321 (LINN)",0,C,,110000487964
97321TLDYN1600O,-123.06299999999999,44.66,False,41,043,020100,41,41043,41043020100,1400000US41043020100,TDY INDUSTRIES INC DBA WAH CHANG,1600 OLD SALEM RD NE,ALBANY,OR,97321,"TDY INDUSTRIES INC DBA WAH CHANG.1600 OLD SALEM RD NE, ALBANY OREGON 97321 (LINN)",0,C,,110000488035
97321WLLMT3251O,-123.07,44.669,False,41,043,020100,41,41043,41043020100,1400000US41043020100,WEYERHAEUSER ALBANY CONTAINER BOARD,3251 OLD SALEM RD NE,ALBANY,OR,97321,"WEYERHAEUSER ALBANY CONTAINER BOARD.3251 OLD SALEM RD NE, ALBANY OREGON 97321 (LINN)",0,C,,110066943874
97321SLMTN33992,-123.059,44.568999999999996,False,41,043,020100,41,41043,41043020100,1400000US41043020100,SELMET INC,33992 SEVEN MILE LN SE.,ALBANY,OR,97322,"SELMET INC.33992 SEVEN MILE LN SE., ALBANY OREGON 97322 (LINN)",0,C,,110007170113
97321PLMHR3737P,-123.057,44.684,False,41,043,020100,41,41043,41043020100,1400000US41043020100,PALM HARBOR HOMES INC,3737 PALM HARBOR DR,ALBANY,OR,97321,"PALM HARBOR HOMES INC.3737 PALM HARBOR DR, ALBANY OREGON 97321 (LINN)",0,C,,110000488008
9732WNTRNT3251L,-123.06,44.67100000000001,False,41,043,020100,41,41043,41043020100,1400000US41043020100,INTERNATIONAL PAPER ALBANY PAPER MILL,3251 OLD SALEM ROAD NE,ALBANY,OR,97321,"INTERNATIONAL PAPER ALBANY PAPER MILL.3251 OLD SALEM ROAD NE, ALBANY OREGON 97321 (LINN)",0,C,,110000488053
9732WCMCMN375AR,-123.064,44.672,False,41,043,020100,41,41043,41043020100,1400000US41043020100,CAMCO MANUFACTURING INC,3075 ARNOLD RD NE,ALBANY,OR,97321,"CAMCO MANUFACTURING INC.3075 ARNOLD RD NE, ALBANY OREGON 97321 (LINN)",0,C,,110004795516
97321NTNLF745SW,-123.111,44.614,False,41,043,020802,41,41043,41043020802,1400000US41043020802,NATIONAL FROZEN FOODS,745 30TH AVE S.W.,ALBANY,OR,97322,"NATIONAL FROZEN FOODS.745 30TH AVE S.W., ALBANY OREGON 97322 (LINN)",0,C,,110016651639
97321RGNFR52525,-123.10700000000001,44.618,False,41,043,020802,41,41043,41043020802,1400000US41043020802,OREGON FREEZE DRY INC,525 25TH AVE SW,ALBANY,OR,97321,"OREGON FREEZE DRY INC.525 25TH AVE SW, ALBANY OREGON 97321 (LINN)",0,C,,
97321RGNFR770W2,-123.111,44.614,False,41,043,020802,41,41043,41043020802,1400000US41043020802,OREGON FREEZE DRY PLANT 1,770 W 29TH AVE,ALBANY,OR,97321,"OREGON FREEZE DRY PLANT 1.770 W 29TH AVE, ALBANY OREGON 97321 (LINN)",0,C,,
97321STNFR2703S,-123.111,44.618,False,41,043,020802,41,41043,41043020802,1400000US41043020802,STONE FOREST IND INC,2703 SW PACIFIC BLVD,ALBANY,OR,97321,"STONE FOREST IND INC.2703 SW PACIFIC BLVD, ALBANY OREGON 97321 (LINN)",0,C,,
97321HPTNT140SW,-123.102,44.622,False,41,043,020802,41,41043,41043020802,1400000US41043020802,ABSORBENT TECHNOLOGIES INC QUEEN STREET,140 QUEEN AVE SW,ALBANY,OR,973223306,"ABSORBENT TECHNOLOGIES INC QUEEN STREET.140 QUEEN AVE SW, ALBANY OREGON 97322 (LINN)",0,C,,110000487973
97321DMTRD3030C,-123.10600000000001,44.613,False,41,043,020802,41,41043,41043020802,1400000US41043020802,PANOLAM INDUSTRIES INC,3030 CALAPOOIA ST SW,ALBANY,OR,97321,"PANOLAM INDUSTRIES INC.3030 CALAPOOIA ST SW, ALBANY OREGON 97321 (LINN)",0,C,,
97321MTTNM150QU,-123.103,44.622,False,41,043,020802,41,41043,41043020802,1400000US41043020802,PACIFIC CAST TECHNOLOGIES INC D/B/A ATI CAST PRODUCTS,150 QUEEN AVE SW,ALBANY,OR,97322,"PACIFIC CAST TECHNOLOGIES INC D/B/A ATI CAST PRODUCTS.150 QUEEN AVE SW, ALBANY OREGON 97322 (LINN)",0,C,,110000487982
97321GLDNW2445S,-123.111,44.619,False,41,043,020802,41,41043,41043020802,1400000US41043020802,CLAYTON ALBANY,"2445  PACIFIC BLVD., SW",ALBANY,OR,97321,"CLAYTON ALBANY.2445  PACIFIC BLVD., SW, ALBANY OREGON 97321 (LINN)",0,C,,110000487955
97322PRDCT283FE,-123.103,44.61600000000001,False,41,043,020802,41,41043,41043020802,1400000US41043020802,PRODUCT DEVELOPMENT CENTER,2830 FERRY AVE SW,ALBANY,OR,97322,"PRODUCT DEVELOPMENT CENTER.2830 FERRY AVE SW, ALBANY OREGON 97322 (LINN)",0,C,,110031098005
97321RGNMT530W3,-123.105,44.607,False,41,043,020700,41,41043,41043020700,1400000US41043020700,ATI ALBANY OPERATIONS FACILITY,530 34TH AVE SW,ALBANY,OR,97322,"ATI ALBANY OPERATIONS FACILITY.530 34TH AVE SW, ALBANY OREGON 97322 (LINN)",0,C,,110000488017
97321WLLMT3750M,-123.09899999999999,44.607,False,41,043,020700,41,41043,41043020700,1400000US41043020700,"WILLAMETTE IND INC, CUSTOM PRODS DIV",3750 MARION ST SE,ALBANY,OR,97321,"WILLAMETTE IND INC, CUSTOM PRODS DIV.3750 MARION ST SE, ALBANY OREGON 97321 (LINN)",1,C,,
97321SMPSN875NW,-123.074,44.644,False,41,043,020400,41,41043,41043020400,1400000US41043020400,ALBANY PLYWOOD,875 N WAVERLY DR,ALBANY,OR,97321,"ALBANY PLYWOOD.875 N WAVERLY DR, ALBANY OREGON 97321 (LINN)",1,C,,
97325KTRNN9610M,-122.865,44.84,False,41,047,010702,41,41047,41047010702,1400000US41047010702,EKTRON INDUSTRIES,9610 MILL CREEK RD,AUMSVILLE,OR,97325,"EKTRON INDUSTRIES.9610 MILL CREEK RD, AUMSVILLE OREGON 97325 (MARION)",0,C,,110000488062
97330HWLTT1000N,-123.243,44.585,False,41,003,000600,41,41003,41003000600,1400000US41003000600,HP INC,1070 NE CIR BLVD,CORVALLIS,OR,97330,"HP INC.1070 NE CIR BLVD, CORVALLIS OREGON 97330 (BENTON)",0,C,,110000488071
97333VNTFB1030S,-123.26299999999999,44.553999999999995,False,41,003,000100,41,41003,41003000100,1400000US41003000100,EVANITE FIBER CORP BATTERY SEPARATOR DIV,1030 SE CRYSTAL LAKE DR,CORVALLIS,OR,97333,"EVANITE FIBER CORP BATTERY SEPARATOR DIV.1030 SE CRYSTAL LAKE DR, CORVALLIS OREGON 97333 (BENTON)",0,C,,
97333VNTFB1120S,-123.262,44.555,False,41,003,000100,41,41003,41003000100,1400000US41003000100,EVANITE FIBER CORP,1120 SE CRYSTAL LAKE DR,CORVALLIS,OR,97333,"EVANITE FIBER CORP.1120 SE CRYSTAL LAKE DR, CORVALLIS OREGON 97333 (BENTON)",0,C,,
97333VNTFB1185S,-123.26,44.553999999999995,False,41,003,000100,41,41003,41003000100,1400000US41003000100,EVANITE FIBER CORP  HARDBOARD DIV,1185 SE CRYSTAL LAKE DR,CORVALLIS,OR,973332737,"EVANITE FIBER CORP  HARDBOARD DIV.1185 SE CRYSTAL LAKE DR, CORVALLIS OREGON 97333 (BENTON)",0,C,,
97333VNTGL1551S,-123.257,44.551,False,41,003,000100,41,41003,41003000100,1400000US41003000100,HOLLINGSWORTH & VOSE FIBER CO,1551 SE CRYSTAL LAKE DR,CORVALLIS,OR,97333,"HOLLINGSWORTH & VOSE FIBER CO.1551 SE CRYSTAL LAKE DR, CORVALLIS OREGON 97333 (BENTON)",0,C,,110000488106
97339GNTRL728SW,-123.275,44.538000000000004,False,41,003,000100,41,41003,41003000100,1400000US41003000100,GE INTERLOGIX INC,728 SW WAKE ROBIN AVE,CORVALLIS,OR,97333,"GE INTERLOGIX INC.728 SW WAKE ROBIN AVE, CORVALLIS OREGON 97333 (BENTON)",0,C,,
97333WSTRN5025S,-123.27600000000001,44.51,False,41,003,010400,41,41003,41003010400,1400000US41003010400,WESTERN PULP PRODS CO,5025 SW HOUT ST,CORVALLIS,OR,97333,"WESTERN PULP PRODS CO.5025 SW HOUT ST, CORVALLIS OREGON 97333 (BENTON)",0,C,,
97333RGNRB1985S,-123.285,44.508,False,41,003,010400,41,41003,41003010400,1400000US41003010400,OREGON RUBBER MILLS CO,1985 SW AIRPORT AVE,CORVALLIS,OR,97333,"OREGON RUBBER MILLS CO.1985 SW AIRPORT AVE, CORVALLIS OREGON 97333 (BENTON)",0,C,,110000488080
9933WGRNWH2854P,-123.259,44.486999999999995,False,41,003,010400,41,41003,41003010400,1400000US41003010400,GREEN & WHITE,28054 PAYNE RD,CORVALLIS,OR,97333,"GREEN & WHITE.28054 PAYNE RD, CORVALLIS OREGON 97333 (BENTON)",0,C,,110001654031
97338PRGTZ1270M,-123.29799999999999,44.91,False,41,053,020204,41,41053,41053020204,1400000US41053020204,TTM PRINTED CIRCUIT GROUP DALLAS DIV,1270 SE MONMOUTH CUTOFF RD,DALLAS,OR,97338,"TTM PRINTED CIRCUIT GROUP DALLAS DIV.1270 SE MONMOUTH CUTOFF RD, DALLAS OREGON 97338 (POLK)",0,C,,110041491953
97338WLLMT1551S,-123.315,44.913999999999994,False,41,053,020204,41,41053,41053020204,1400000US41053020204,WILLAMETTE INDUSTRIES INC DALLAS PLYWOOD,1551 SE LYLE ST,DALLAS,OR,97338,"WILLAMETTE INDUSTRIES INC DALLAS PLYWOOD.1551 SE LYLE ST, DALLAS OREGON 97338 (POLK)",0,C,,
97348PPTLB30480,-123.16,44.382,False,41,043,030600,41,41043,41043030600,1400000US41043030600,CASCADE PACIFIC PULP  HALSEY PULP MILL,30480 AMERICAN DR,HALSEY,OR,97348,"CASCADE PACIFIC PULP  HALSEY PULP MILL.30480 AMERICAN DR, HALSEY OREGON 97348 (LINN)",0,C,,110000488142
97348JMSRV30470,-123.15799999999999,44.385,False,41,043,030600,41,41043,41043030600,1400000US41043030600,GEORGIA-PACIFIC CONSUMER OPERATIONS LLC,30470 AMERICAN DR,HALSEY,OR,97348,"GEORGIA-PACIFIC CONSUMER OPERATIONS LLC.30470 AMERICAN DR, HALSEY OREGON 97348 (LINN)",0,C,,110000488133
97446SKYLN495TE,-123.169,44.275,False,41,043,030600,41,41043,41043030600,1400000US41043030600,SKYLINE PRODUCTS INC.,495 TERRITORIAL RD,HARRISBURG,OR,97446,"SKYLINE PRODUCTS INC..495 TERRITORIAL RD, HARRISBURG OREGON 97446 (LINN)",0,C,,110002149531
97446SFRMT30725,-123.147,44.284,False,41,043,030600,41,41043,41043030600,1400000US41043030600,SAFARI MOTOR COACHES,30725 DIAMOND HILL RD,HARRISBURG,OR,97446,"SAFARI MOTOR COACHES.30725 DIAMOND HILL RD, HARRISBURG OREGON 97446 (LINN)",0,C,,
97446SFRMT425NO,-123.171,44.275,False,41,043,030600,41,41043,41043030600,1400000US41043030600,MONACO RV LLC DIAMOND HILL,30725 DIAMOND HILL ROAD,HARRISBURG,OR,97446,"MONACO RV LLC DIAMOND HILL.30725 DIAMOND HILL ROAD, HARRISBURG OREGON 97446 (LINN)",0,C,,110004810161
97446HRRSB2355P,-123.17200000000001,44.28,False,41,043,030600,41,41043,41043030600,1400000US41043030600,HARRISBURG PS,23505 PEORIA RD,HARRISBURG,OR,97446,"HARRISBURG PS.23505 PEORIA RD, HARRISBURG OREGON 97446 (LINN)",0,C,,110037150007
9744WCHSHR815S2,-123.171,44.265,False,41,043,030600,41,41043,41043030600,1400000US41043030600,CHS HARRISBURG FEED,815 S 2ND ST,HARRISBURG,OR,97446,"CHS HARRISBURG FEED.815 S 2ND ST, HARRISBURG OREGON 97446 (LINN)",0,C,,110069293268
97351MRQSC596HO,-123.19200000000001,44.861000000000004,False,41,053,020302,41,41053,41053020302,1400000US41053020302,MARQUIS CORP,596 HOFFMAN RD,INDEPENDENCE,OR,97351,"MARQUIS CORP.596 HOFFMAN RD, INDEPENDENCE OREGON 97351 (POLK)",0,C,,110000488151
97351MDLLN625HO,-123.195,44.86,False,41,053,020302,41,41053,41053020302,1400000US41053020302,ELKAY WOOD PRODUCTS CO,625 HOFFMAN RD,INDEPENDENCE,OR,97351,"ELKAY WOOD PRODUCTS CO.625 HOFFMAN RD, INDEPENDENCE OREGON 97351 (POLK)",0,C,,110012256986
97351VLLYC15CST,-123.18299999999999,44.852,False,41,053,020302,41,41053,41053020302,1400000US41053020302,VALLEY CONCRETE INDEPENDENCE,15 C ST,INDEPENDENCE,OR,97351,"VALLEY CONCRETE INDEPENDENCE.15 C ST, INDEPENDENCE OREGON 97351 (POLK)",0,C,,110016655895
97355GRGPC37680,-122.89399999999999,44.519,False,41,043,030904,41,41043,41043030904,1400000US41043030904,OREGON PANEL PRODUCTS LLC,37680 RIVER RD,LEBANON,OR,97355,"OREGON PANEL PRODUCTS LLC.37680 RIVER RD, LEBANON OREGON 97355 (LINN)",0,C,,
97355WLLMTEASTM,-122.89399999999999,44.532,False,41,043,030904,41,41043,41043030904,1400000US41043030904,WILLAMETTE INDUSTRIES INC PLYWOOD,EAST MILTON ST,LEBANON,OR,97355,"WILLAMETTE INDUSTRIES INC PLYWOOD.EAST MILTON ST, LEBANON OREGON 97355 (LINN)",0,C,,
97355MRKNC250NO,-122.92,44.548,False,41,043,030800,41,41043,41043030800,1400000US41043030800,ENTEK INTERNATIONAL LLC,250 N HANSARD AVE,LEBANON,OR,97355,"ENTEK INTERNATIONAL LLC.250 N HANSARD AVE, LEBANON OREGON 97355 (LINN)",0,C,,110000488179
97355RSRCH315WS,-122.911,44.54,False,41,043,030800,41,41043,41043030800,1400000US41043030800,RESEARCH MANNIKINS INC,315 W SHERMAN ST,LEBANON,OR,97355,"RESEARCH MANNIKINS INC.315 W SHERMAN ST, LEBANON OREGON 97355 (LINN)",0,C,,110000488188
9735WLTCRT1ENTE,-122.92399999999999,44.548,False,41,043,030800,41,41043,41043030800,1400000US41043030800,LATICRETE INTERNATIONAL INC LEBANON,100 ENTEK WAY,LEBANON,OR,97355,"LATICRETE INTERNATIONAL INC LEBANON.100 ENTEK WAY, LEBANON OREGON 97355 (LINN)",0,C,,110063383707
97370SMRFT351N1,-123.365,44.545,False,41,003,010800,41,41003,41003010800,1400000US41003010800,SMURFIT NEWSPRINT CORP,351 N 15TH ST,PHILOMATH,OR,97370,"SMURFIT NEWSPRINT CORP.351 N 15TH ST, PHILOMATH OREGON 97370 (BENTON)",0,C,,
97370GRGPC24808,-123.384,44.54,False,41,003,010800,41,41003,41003010800,1400000US41003010800,GEORGIA-PACIFIC SAWMILL,24808 ALSEA HWY,PHILOMATH,OR,97370,"GEORGIA-PACIFIC SAWMILL.24808 ALSEA HWY, PHILOMATH OREGON 97370 (BENTON)",0,C,,110001654111
97378TYLRLROCKC,-123.427,45.097,False,41,071,030502,41,41071,41071030502,1400000US41071030502,MCFARLAND CASCADE HOLDINGS INC,22125 ROCK CREEK RD,SHERIDAN,OR,97378,"MCFARLAND CASCADE HOLDINGS INC.22125 ROCK CREEK RD, SHERIDAN OREGON 97378 (YAMHILL)",0,C,,110000488197
97396WLLMNHWY18,-123.464,45.086000000000006,False,41,071,030502,41,41061,41071030502,1400000US41071030502,BOISE CASCADE CORP WILLAMINA,HWY 18-B,WILLAMINA,OR,97396,"BOISE CASCADE CORP WILLAMINA.HWY 18-B, WILLAMINA OREGON 97396 (UNION)",0,C,,
97396WLLMN1000W,-123.49600000000001,45.083,False,41,071,030502,41,41071,41071030502,1400000US41071030502,WILLAMINA LUMBER CO,1000 WILLAMINA CREEK RD,WILLAMINA,OR,97396,"WILLAMINA LUMBER CO.1000 WILLAMINA CREEK RD, WILLAMINA OREGON 97396 (YAMHILL)",0,C,,110001657190
97383STYTN930WA,-122.803,44.8,False,41,047,010701,41,41047,41047010701,1400000US41047010701,NORPAC FOODS INC STAYTON PLANT 1,930 W WASHINGTON ST,STAYTON,OR,973830458,"NORPAC FOODS INC STAYTON PLANT 1.930 W WASHINGTON ST, STAYTON OREGON 97383 (MARION)",0,C,,
97383TRSJS2345W,-122.818,44.801,False,41,047,010701,41,41047,41047010701,1400000US41047010701,VENEER TECHNOLOGIES - STAYTON OR,2345 W DESCHUTES DR,STAYTON,OR,973839575,"VENEER TECHNOLOGIES - STAYTON OR.2345 W DESCHUTES DR, STAYTON OREGON 97383 (MARION)",0,C,,110000488204
97383PHLPS162WI,-122.815,44.806999999999995,False,41,047,010701,41,41047,41047010701,1400000US41047010701,PHILIPS PRODUCTS,1620 WILCO RD,STAYTON,OR,97383,"PHILIPS PRODUCTS.1620 WILCO RD, STAYTON OREGON 97383 (MARION)",0,C,,110004775137
97386WLLMTHWY20,-122.663,44.406000000000006,False,41,043,030402,41,41043,41043030402,1400000US41043030402,WEYERHAEUSER VENEER TECHNOLOGIES FOSTER OR,6011 HWY 20 E,SWEET HOME,OR,97386,"WEYERHAEUSER VENEER TECHNOLOGIES FOSTER OR.6011 HWY 20 E, SWEET HOME OREGON 97386 (LINN)",0,C,,110002339835
97386WLLMTTSTRE,-122.719,44.403,False,41,043,030401,41,41043,41043030401,1400000US41043030401,WILLAMETTE INDUSTRIES INC SWEET HOME PLYWOOD,T ST,SWEET HOME,OR,97386,"WILLAMETTE INDUSTRIES INC SWEET HOME PLYWOOD.T ST, SWEET HOME OREGON 97386 (LINN)",0,C,,
97386SMRFT14001,-122.72399999999999,44.398999999999994,False,41,043,030401,41,41043,41043030401,1400000US41043030401,"ANKMAR, LLC",1744 MAIN ST,SWEET HOME,OR,97386,"ANKMAR, LLC.1744 MAIN ST, SWEET HOME OREGON 97386 (LINN)",0,C,,110001656057
97391GRGPCBUTLE,-123.93700000000001,44.614,False,41,041,951300,41,41041,41041951300,1400000US41041951300,GEORGIA-PACIFIC TOLEDO LLC,1400 SE BUTLER BRIDGE RD,TOLEDO,OR,97391,"GEORGIA-PACIFIC TOLEDO LLC.1400 SE BUTLER BRIDGE RD, TOLEDO OREGON 97391 (LINCOLN)",0,C,,110014206117
97401GHNRR12438,-123.101,44.075,False,41,039,003000,41,41039,41039003000,1400000US41039003000,GHEEN IRRIGATION WORKS INC,1248 WILLAGILLESPIE RD,EUGENE,OR,97401,"GHEEN IRRIGATION WORKS INC.1248 WILLAGILLESPIE RD, EUGENE OREGON 97401 (LANE)",0,C,,110000488222
97402BHMPR50NDA,-123.179,44.06100000000001,False,41,039,002504,41,41039,41039002504,1400000US41039002504,FLAKEBOARD AMERICA LTD - EUGENE MDF,50 N DANEBO AVE,EUGENE,OR,97402,"FLAKEBOARD AMERICA LTD - EUGENE MDF.50 N DANEBO AVE, EUGENE OREGON 97402 (LANE)",0,C,,110000488231
97402SPCTR959TE,-123.185,44.052,False,41,039,002504,41,41039,41039002504,1400000US41039002504,DATALOGIC SCANNING INC,959 TERRY ST,EUGENE,OR,974029150,"DATALOGIC SCANNING INC.959 TERRY ST, EUGENE OREGON 97402 (LANE)",0,C,,110002149498
97402SCNTF175SD,-123.178,44.056000000000004,False,41,039,002504,41,41039,41039002504,1400000US41039002504,SCIENTIFIC DEVELOPMENTS INC,175 S DANEBO,EUGENE,OR,97402,"SCIENTIFIC DEVELOPMENTS INC.175 S DANEBO, EUGENE OREGON 97402 (LANE)",0,C,,110002149489
97402BLKHN1040A,-123.18700000000001,44.05,False,41,039,002504,41,41039,41039002504,1400000US41039002504,BULK HANDLING SYSTEMS INC,460 NORTH DANEBO ROAD,EUGENE,OR,97402,"BULK HANDLING SYSTEMS INC.460 NORTH DANEBO ROAD, EUGENE OREGON 97402 (LANE)",1,C,,110004786713
97402BLKHN46NDA,-123.181,44.06399999999999,False,41,039,002504,41,41039,41039002504,1400000US41039002504,BULK HANDLING SYSTEMS INC,460 NORTH DANEBO AVENUE,EUGENE,OR,97402,"BULK HANDLING SYSTEMS INC.460 NORTH DANEBO AVENUE, EUGENE OREGON 97402 (LANE)",0,C,,110043671390
97402CSCDH75SEN,-123.139,44.059,False,41,039,004300,41,41039,41039004300,1400000US41039004300,CASCADE HANDLE COMPANY INC,75 SENECA RD,EUGENE,OR,97402,"CASCADE HANDLE COMPANY INC.75 SENECA RD, EUGENE OREGON 97402 (LANE)",0,C,,
97402JHBXT85NBA,-123.15299999999999,44.062,False,41,039,004300,41,41039,41039004300,1400000US41039004300,J H BAXTER & CO,85 N BAXTER RD,EUGENE,OR,97402,"J H BAXTER & CO.85 N BAXTER RD, EUGENE OREGON 97402 (LANE)",0,C,,110000488295
97402LNPLY65NBE,-123.162,44.06,False,41,039,004300,41,41039,41039004300,1400000US41039004300,LANE PLYWOOD INC,65 N BERTELSEN RD,EUGENE,OR,97402,"LANE PLYWOOD INC.65 N BERTELSEN RD, EUGENE OREGON 97402 (LANE)",0,C,,
97402RGNRB3595W,-123.154,44.059,False,41,039,004300,41,41039,41039004300,1400000US41039004300,OREGON RUBBER CO,3595 W 1ST AVE,EUGENE,OR,97402,"OREGON RUBBER CO.3595 W 1ST AVE, EUGENE OREGON 97402 (LANE)",0,C,,110000488311
97402WLLMT586MC,-123.13,44.053999999999995,False,41,039,004300,41,41039,41039004300,1400000US41039004300,WILLAMETTE VALLEY CO,586 MCKINLEY ST,EUGENE,OR,97402,"WILLAMETTE VALLEY CO.586 MCKINLEY ST, EUGENE OREGON 97402 (LANE)",0,C,,110000747443
97402NWDPR10NSE,-123.141,44.059,False,41,039,004300,41,41039,41039004300,1400000US41039004300,NEWOOD PRODUCTS OF OREGON,10 N SENECA RD,EUGENE,OR,97402,"NEWOOD PRODUCTS OF OREGON.10 N SENECA RD, EUGENE OREGON 97402 (LANE)",0,C,,
97402TRSJS195NB,-123.161,44.062,False,41,039,004300,41,41039,41039004300,1400000US41039004300,EUGENE ELP PLANT,195 N BERTELSEN RD,EUGENE,OR,97402,"EUGENE ELP PLANT.195 N BERTELSEN RD, EUGENE OREGON 97402 (LANE)",0,C,,110018494903
97402WHTTR3787W,-123.15899999999999,44.058,False,41,039,004300,41,41039,41039004300,1400000US41039004300,WHITTIER WOOD PRODS CO,3787 W 1ST AVE,EUGENE,OR,97402,"WHITTIER WOOD PRODS CO.3787 W 1ST AVE, EUGENE OREGON 97402 (LANE)",0,C,,
97402WSTRN110NO,-123.141,44.062,False,41,039,004300,41,41039,41039004300,1400000US41039004300,WESTERN PNEUMATICS INC,110 N SENECA ST,EUGENE,OR,97402,"WESTERN PNEUMATICS INC.110 N SENECA ST, EUGENE OREGON 97402 (LANE)",0,C,,110000875624
97402HMTTC3590W,-123.154,44.056000000000004,False,41,039,004300,41,41039,41039004300,1400000US41039004300,KOMAG INC,3590 W 3RD AVE,EUGENE,OR,97402,"KOMAG INC.3590 W 3RD AVE, EUGENE OREGON 97402 (LANE)",0,C,,
97402CSCDP3790C,-123.15799999999999,44.063,False,41,039,004300,41,41039,41039004300,1400000US41039004300,CASCADE PLATING & MACHINE,3790 CROSS ST,EUGENE,OR,97402,"CASCADE PLATING & MACHINE.3790 CROSS ST, EUGENE OREGON 97402 (LANE)",0,C,,110000488240
97402MRLDF118HW,-123.13600000000001,44.056000000000004,False,41,039,004300,41,41039,41039004300,1400000US41039004300,EMERALD FOREST PRODUCTS,118 HWY 99 N,EUGENE,OR,97402,"EMERALD FOREST PRODUCTS.118 HWY 99 N, EUGENE OREGON 97402 (LANE)",0,C,,
97402FRBDH4248W,-123.167,44.052,False,41,039,004300,41,41039,41039004300,1400000US41039004300,H.B. FULLER COMPANY,4248 W 6TH AVE,EUGENE,OR,97402,"H.B. FULLER COMPANY.4248 W 6TH AVE, EUGENE OREGON 97402 (LANE)",0,C,,110025334181
97402FRRST1011M,-123.12899999999999,44.048,False,41,039,004403,41,41039,41039004403,1400000US41039004403,FORREST PAINT CO DBA FORREST TECHNICAL COATINGS,1011 MCKINLEY ST,EUGENE,OR,97402,"FORREST PAINT CO DBA FORREST TECHNICAL COATINGS.1011 MCKINLEY ST, EUGENE OREGON 97402 (LANE)",0,C,,110000488259
97402WLLMT2395W,-123.12899999999999,44.052,False,41,039,004403,41,41039,41039004403,1400000US41039004403,WILLAMETTE VALLEY CO,2395 W 7TH PL,EUGENE,OR,97402,"WILLAMETTE VALLEY CO.2395 W 7TH PL, EUGENE OREGON 97402 (LANE)",0,C,,
97402GRGPC2665A,-123.164,44.099,False,41,039,002403,41,41039,41039002403,1400000US41039002403,MURPHY PLYWOOD CO EUGENE OPERATIONS,2350 PRAIRIE RD,EUGENE,OR,97402,"MURPHY PLYWOOD CO EUGENE OPERATIONS.2350 PRAIRIE RD, EUGENE OREGON 97402 (LANE)",0,C,,110000488268
97402GRGPC2665H,-123.169,44.102,False,41,039,002403,41,41039,41039002403,1400000US41039002403,GEORGIA-PACIFIC CHEMICALS  LLC,2665 HWY 99 N,EUGENE,OR,97402,"GEORGIA-PACIFIC CHEMICALS  LLC.2665 HWY 99 N, EUGENE OREGON 97402 (LANE)",0,C,,110028244861
97402LDMCF90049,-123.171,44.107,False,41,039,002403,41,41039,41039002403,1400000US41039002403,MCFARLAND CASCADE POLE & LUMBER CO,90049 HWY 99 N,EUGENE,OR,97402,"MCFARLAND CASCADE POLE & LUMBER CO.90049 HWY 99 N, EUGENE OREGON 97402 (LANE)",0,C,,110000748120
97402PRCSN1900A,-123.16799999999999,44.106,False,41,039,002403,41,41039,41039002403,1400000US41039002403,PRECISION PREFINISHING INC,1900-A IRVING RD,EUGENE,OR,97402,"PRECISION PREFINISHING INC.1900-A IRVING RD, EUGENE OREGON 97402 (LANE)",0,C,,
97402PLYMR2535P,-123.16,44.1,False,41,039,002403,41,41039,41039002403,1400000US41039002403,TRELLEBORG SEALING SOLUTIONS EUGENE,2535 PRAIRE RD UNIT D,EUGENE,OR,97402,"TRELLEBORG SEALING SOLUTIONS EUGENE.2535 PRAIRE RD UNIT D, EUGENE OREGON 97402 (LANE)",0,C,,110001658215
97492KNGHT29862,-123.17,44.115,False,41,039,002403,41,41039,41039002403,1400000US41039002403,KNIGHT'S FABRICATION & WELDING INC,29862 E ENID RD,EUGENE,OR,97402,"KNIGHT'S FABRICATION & WELDING INC.29862 E ENID RD, EUGENE OREGON 97402 (LANE)",0,C,,110022521886
97402LRNCD1400S,-123.162,44.044,False,41,039,004401,41,41039,41039004401,1400000US41039004401,LAURENCE-DAVID INC,1400 S BERTELSEN RD,EUGENE,OR,97402,"LAURENCE-DAVID INC.1400 S BERTELSEN RD, EUGENE OREGON 97402 (LANE)",0,C,,
97402WSTRN1381B,-123.148,44.045,False,41,039,004401,41,41039,41039004401,1400000US41039004401,WESTERN STRUCTURES,1381 BAILEY HILL RD,EUGENE,OR,97402,"WESTERN STRUCTURES.1381 BAILEY HILL RD, EUGENE OREGON 97402 (LANE)",0,C,,110008062194
97402STTSN29545,-123.18299999999999,44.118,False,41,039,002401,41,41039,41039002401,1400000US41039002401,STATES INDUSTRIES INC PLANT 1,29545 E ENID RD,EUGENE,OR,97402,"STATES INDUSTRIES INC PLANT 1.29545 E ENID RD, EUGENE OREGON 97402 (LANE)",0,C,,
97403PPSCL3030J,-123.04799999999999,44.041000000000004,False,41,039,003600,41,41039,41039003600,1400000US41039003600,PEPSI-COLA BOTTLING CO,3030 JUDKINS RD,EUGENE,OR,97403,"PEPSI-COLA BOTTLING CO.3030 JUDKINS RD, EUGENE OREGON 97403 (LANE)",0,C,,
97423GRGPCHWY42,-124.18799999999999,43.17100000000001,False,41,011,000900,41,41011,41011000900,1400000US41011000900,GEORGIA-PACIFIC CORP COQUILLE,HWY 42 S,COQUILLE,OR,97423,"GEORGIA-PACIFIC CORP COQUILLE.HWY 42 S, COQUILLE OREGON 97423 (COOS)",0,C,,
97423RSBRGCEDAR,-124.21700000000001,43.18,False,41,011,000900,41,41011,41011000900,1400000US41011000900,ROSEBURG FOREST PRODUCTS CO - COQUILLE PLYWOOD,451 S. CEDAR POINT RD,COQUILLE,OR,97423,"ROSEBURG FOREST PRODUCTS CO - COQUILLE PLYWOOD.451 S. CEDAR POINT RD, COQUILLE OREGON 97423 (COOS)",0,C,,110014171975
97420CSSPH5959H,-124.23299999999999,43.288999999999994,False,41,011,000900,41,41011,41011000900,1400000US41011000900,COOS ASPHALT,5959 HWY 101 S,COOS BAY,OR,97420,"COOS ASPHALT.5959 HWY 101 S, COOS BAY OREGON 97420 (COOS)",0,C,,110037149993
97424WYRHSUSHWY,-123.07700000000001,43.77,False,41,039,001302,41,41039,41039001302,1400000US41039001302,WEYERHAEUSER CO,US HWY 99 S,COTTAGE GROVE,OR,97424,"WEYERHAEUSER CO.US HWY 99 S, COTTAGE GROVE OREGON 97424 (LANE)",0,C,,
97427BHMCLNAXXX,-122.85,43.703,False,41,039,001400,41,41039,41039001400,1400000US41039001400,BOHEMIA INC CULP CREEK PLANT,37802 ROW RIVER RD,CULP CREEK,OR,97427,"BOHEMIA INC CULP CREEK PLANT.37802 ROW RIVER RD, CULP CREEK OREGON 97427 (LANE)",0,C,,
97435BHMDRFIRAN,-123.323,43.657,False,41,019,030000,41,41019,41019030000,1400000US41019030000,BOHEMIA INC DRAIN PLANT,FIR & LN ST,DRAIN,OR,97435,"BOHEMIA INC DRAIN PLANT.FIR & LN ST, DRAIN OREGON 97435 (DOUGLAS)",0,C,,
97438JSPRW37385,-122.87799999999999,43.979,False,41,039,001600,41,41039,41039001600,1400000US41039001600,JASPER WOOD PRODUCTS LLC,37385 JASPER-LOWELL RD,JASPER,OR,97438,"JASPER WOOD PRODUCTS LLC.37385 JASPER-LOWELL RD, JASPER OREGON 97438 (LANE)",0,C,,110000488393
97440PRCCR10NOR,-123.125,44.059,False,41,039,004200,41,41039,41039004200,1400000US41039004200,PIERCE FITTINGS INC,10 N GARFIELD ST,EUGENE,OR,97402,"PIERCE FITTINGS INC.10 N GARFIELD ST, EUGENE OREGON 97402 (LANE)",0,C,,110000488400
97402STTSN95NOR,-123.131,44.062,False,41,039,004200,41,41039,41039004200,1400000US41039004200,STATES INDUSTRIES INC FOCH ST REET DIV,95 N FOCH ST,EUGENE,OR,97402,"STATES INDUSTRIES INC FOCH ST REET DIV.95 N FOCH ST, EUGENE OREGON 97402 (LANE)",0,C,,
9740WNNKSB22BLA,-123.111,44.056999999999995,False,41,039,004200,41,41039,41039004200,1400000US41039004200,NINKASI BREWING CORP LLC,220 BLAIR BLVD,EUGENE,OR,97402,"NINKASI BREWING CORP LLC.220 BLAIR BLVD, EUGENE OREGON 97402 (LANE)",0,C,,110069242885
97441NTRNTHWY10,-124.11200000000001,43.74100000000001,False,41,019,010000,41,41019,41019010000,1400000US41019010000,INTERNATIONAL PAPER GARDINER PAPER MILL,77622 US HWY 101,GARDINER,OR,974410047,"INTERNATIONAL PAPER GARDINER PAPER MILL.77622 US HWY 101, GARDINER OREGON 97441 (DOUGLAS)",0,C,,
97442GRGRY303ME,-123.419,42.746,False,41,019,210000,41,41019,41019210000,1400000US41019210000,GREGORY FOREST PRODUCTS INC,303 MEHLWOOD LN,GLENDALE,OR,97442,"GREGORY FOREST PRODUCTS INC.303 MEHLWOOD LN, GLENDALE OREGON 97442 (DOUGLAS)",0,C,,
97459CNRDW3998W,-124.21799999999999,43.493,False,41,011,000100,41,41011,41011000100,1400000US41011000100,CONRAD WOOD PRESERVING CO,68765 WILDWOOD RD,NORTH BEND,OR,97459,"CONRAD WOOD PRESERVING CO.68765 WILDWOOD RD, NORTH BEND OREGON 97459 (COOS)",0,C,,110014285978
97459CSBYL250SA,-124.22399999999999,43.498999999999995,False,41,011,000100,41,41011,41011000100,1400000US41011000100,ALLWEATHER WOOD LLC,69015 HAUSER DEPOT RD,NORTH BEND,OR,97459,"ALLWEATHER WOOD LLC.69015 HAUSER DEPOT RD, NORTH BEND OREGON 97459 (COOS)",0,C,,110000488464
97470CHMPN556RI,-123.324,43.217,False,41,019,120000,41,41019,41019120000,1400000US41019120000,CHAMPION INTERNATIONAL CORP,556 RIFLE RANGE RD,ROSEBURG,OR,97470,"CHAMPION INTERNATIONAL CORP.556 RIFLE RANGE RD, ROSEBURG OREGON 97470 (DOUGLAS)",0,C,,
97470RSBRGHIGHW,-123.414,43.09,False,41,019,160000,41,41019,41019160000,1400000US41019160000,ROSEBURG FOREST PRODUCTS DILLARD COMPLEX,OLD HWY 99 S,DILLARD,OR,97432,"ROSEBURG FOREST PRODUCTS DILLARD COMPLEX.OLD HWY 99 S, DILLARD OREGON 97432 (DOUGLAS)",0,C,,110043809028
97432WSTRN477DI,-123.414,43.106,False,41,019,160000,41,41019,41019160000,1400000US41019160000,OREGON DOOR INC,477 DILLARD GARDENS RD,DILLARD,OR,97432,"OREGON DOOR INC.477 DILLARD GARDENS RD, DILLARD OREGON 97432 (DOUGLAS)",0,C,,110000488384
97432MPQLM4346R,-123.369,43.085,False,41,019,160000,41,41019,41019160000,1400000US41019160000,UMPQUA LUMBER CO,4346 ROBERTS MOUNTAIN RD,DILLARD,OR,97432,"UMPQUA LUMBER CO.4346 ROBERTS MOUNTAIN RD, DILLARD OREGON 97432 (DOUGLAS)",0,C,,
97496HVRTR33DIL,-123.41799999999999,43.106,False,41,019,160000,41,41019,41019160000,1400000US41019160000,HOOVER TREATED WOOD PRODUCTS INC,303 DILLARD GARDENS RD,WINSTON,OR,97496,"HOOVER TREATED WOOD PRODUCTS INC.303 DILLARD GARDENS RD, WINSTON OREGON 97496 (DOUGLAS)",0,C,,110022435630
97472BHMLMEASTS,-123.045,43.83,False,41,039,001201,41,41039,41039001201,1400000US41039001201,WILLAMETTE INDUSTRIES INC SAGINAW LAMINATING PLANT,#1 E SAGINAW RD,SAGINAW,OR,97424,"WILLAMETTE INDUSTRIES INC SAGINAW LAMINATING PLANT.#1 E SAGINAW RD, SAGINAW OREGON 97424 (LANE)",0,C,,
97477BLWTR632SH,-122.93799999999999,44.056999999999995,False,41,039,001803,41,41039,41039001803,1400000US41039001803,MONACO COACH CORP SPRINGFIELD,5280 HIGHBANKS RD,SPRINGFIELD,OR,97478,"MONACO COACH CORP SPRINGFIELD.5280 HIGHBANKS RD, SPRINGFIELD OREGON 97478 (LANE)",0,C,,110043090669
97477BRDNN470SO,-123.024,44.043,False,41,039,003500,41,41039,41039003500,1400000US41039003500,HEXION INC,470 SOUTH 2ND STREET,SPRINGFIELD,OR,97477,"HEXION INC.470 SOUTH 2ND STREET, SPRINGFIELD OREGON 97477 (LANE)",0,C,,110000488491
97477GRGPC1651S,-123.005,44.042,False,41,039,003500,41,41039,41039003500,1400000US41039003500,SPRINGFIELD FOREST PRODUCTS INC,1651 S F ST,SPRINGFIELD,OR,97477,"SPRINGFIELD FOREST PRODUCTS INC.1651 S F ST, SPRINGFIELD OREGON 97477 (LANE)",0,C,,
97477CHMBN475NO,-122.986,44.048,False,41,039,003400,41,41039,41039003400,1400000US41039003400,ARCLIN USA LLC,475 28TH ST,SPRINGFIELD,OR,97477,"ARCLIN USA LLC.475 28TH ST, SPRINGFIELD OREGON 97477 (LANE)",0,C,,110000488507
97477WLLMT419S2,-122.986,44.043,False,41,039,003400,41,41039,41039003400,1400000US41039003400,PACIFIC STATES PLYWOOD,419 S 28TH ST,SPRINGFIELD,OR,97477,"PACIFIC STATES PLYWOOD.419 S 28TH ST, SPRINGFIELD OREGON 97477 (LANE)",0,C,,110000488525
97477DWCRN1801A,-122.99799999999999,44.044,False,41,039,003400,41,41039,41039003400,1400000US41039003400,GLOBE METALLURGICAL INC,1801 ASTER ST,SPRINGFIELD,OR,974770013,"GLOBE METALLURGICAL INC.1801 ASTER ST, SPRINGFIELD OREGON 97477 (LANE)",0,C,,
97477RSBRL2509M,-122.991,44.044,False,41,039,003400,41,41039,41039003400,1400000US41039003400,ROSBORO CO LLC SPRINGFIELD FACILITY,2509 MAIN ST,SPRINGFIELD,OR,97477,"ROSBORO CO LLC SPRINGFIELD FACILITY.2509 MAIN ST, SPRINGFIELD OREGON 97477 (LANE)",0,C,,110000771200
97477STNFR800NO,-122.963,44.053000000000004,False,41,039,001903,41,41039,41039001903,1400000US41039001903,STONE FOREST IND INC,800 N 42ND ST,SPRINGFIELD,OR,97477,"STONE FOREST IND INC.800 N 42ND ST, SPRINGFIELD OREGON 97477 (LANE)",0,C,,
97478WYRHS785N4,-122.95299999999999,44.055,False,41,039,001903,41,41039,41039001903,1400000US41039001903,INTERNATIONAL PAPER,801 42ND ST,SPRINGFIELD,OR,97478,"INTERNATIONAL PAPER.801 42ND ST, SPRINGFIELD OREGON 97478 (LANE)",0,C,,110045589225
97478SRRPN80048,-122.946,44.055,False,41,039,001903,41,41039,41039001903,1400000US41039001903,SIERRAPINE SPRINGFIELD DIV,800 48TH ST,SPRINGFIELD,OR,97478,"SIERRAPINE SPRINGFIELD DIV.800 48TH ST, SPRINGFIELD OREGON 97478 (LANE)",0,C,,110002149568
97487BHMNC22822,-123.436,44.023,False,41,039,000902,41,41039,41039000902,1400000US41039000902,BOHEMIA INC VAUGHN PLANT,22822 VAUGHN RD,VENETA,OR,97487,"BOHEMIA INC VAUGHN PLANT.22822 VAUGHN RD, VENETA OREGON 97487 (LANE)",0,C,,
97487BHMVG22822,-123.436,44.023,False,41,039,000902,41,41039,41039000902,1400000US41039000902,ROSBORO LLC - VAUGHN,22833 VAUGHN RD,VENETA,OR,97487,"ROSBORO LLC - VAUGHN.22833 VAUGHN RD, VENETA OREGON 97487 (LANE)",0,C,,110004788846
97501BSCSC3285S,-122.904,42.355,False,41,029,000900,41,41029,41029000900,1400000US41029000900,BOISE CASCADE WOOD PRODUCTS LLC MEDFORD PLYWOOD,3285 N PACIFIC HWY,MEDFORD,OR,97501,"BOISE CASCADE WOOD PRODUCTS LLC MEDFORD PLYWOOD.3285 N PACIFIC HWY, MEDFORD OREGON 97501 (JACKSON)",0,C,,110014266365
97501DRGLD1300C,-122.88,42.343,False,41,029,000100,41,41029,41029000100,1400000US41029000100,DARIGOLD INC MEDFORD PLANT,1300 CT ST,MEDFORD,OR,97501,"DARIGOLD INC MEDFORD PLANT.1300 CT ST, MEDFORD OREGON 97501 (JACKSON)",0,C,,
97501RGVLL1111N,-122.881,42.336000000000006,False,41,029,000100,41,41029,41029000100,1400000US41029000100,ROGUE VALLEY CIRCUITS INC,1111 N CENTRAL AVE,MEDFORD,OR,97501,"ROGUE VALLEY CIRCUITS INC.1111 N CENTRAL AVE, MEDFORD OREGON 97501 (JACKSON)",1,C,,
97501KGPMN2080S,-122.85600000000001,42.306000000000004,False,41,029,000700,41,41029,41029000700,1400000US41029000700,KOGAP MANUFACTURING CO,2080 S PACIFIC HWY,MEDFORD,OR,97501,"KOGAP MANUFACTURING CO.2080 S PACIFIC HWY, MEDFORD OREGON 97501 (JACKSON)",0,C,,
97501MDFRDNORTH,-122.883,42.346000000000004,False,41,029,000300,41,41029,41029000300,1400000US41029000300,MEDITE CORP SERVICES DIV,1901 N PACIFIC HWY,MEDFORD,OR,97501,"MEDITE CORP SERVICES DIV.1901 N PACIFIC HWY, MEDFORD OREGON 97501 (JACKSON)",0,C,,
97501MDTCR2685N,-122.89,42.348,False,41,029,000300,41,41029,41029000300,1400000US41029000300,ROSEBURG FOREST PRODUCTS CO. - MEDFORD MDF,2685 N PACIFIC HWY,MEDFORD,OR,97501,"ROSEBURG FOREST PRODUCTS CO. - MEDFORD MDF.2685 N PACIFIC HWY, MEDFORD OREGON 97501 (JACKSON)",0,C,,110000488561
97501TMBRP25EAS,-122.88799999999999,42.339,False,41,029,000300,41,41029,41029000300,1400000US41029000300,TIMBER PRODUCTS CO MEDFORD,25 E MCANDREWS RD,MEDFORD,OR,97501,"TIMBER PRODUCTS CO MEDFORD.25 E MCANDREWS RD, MEDFORD OREGON 97501 (JACKSON)",0,C,,110000488589
97501SBRSC660SG,-122.869,42.318000000000005,False,41,029,000201,41,41029,41029000201,1400000US41029000201,SABROSO CO,660 S GRAPE ST,MEDFORD,OR,97501,"SABROSO CO.660 S GRAPE ST, MEDFORD OREGON 97501 (JACKSON)",0,C,,
97501SMTHL2399S,-122.85,42.303000000000004,False,41,029,001601,41,41029,41029001601,1400000US41029001601,ALBION PARTNERSHIP,2399 S PACIFIC HWY,MEDFORD,OR,97501,"ALBION PARTNERSHIP.2399 S PACIFIC HWY, MEDFORD OREGON 97501 (JACKSON)",0,C,,
97503BLTST8001T,-122.896,42.426,False,41,029,001100,41,41029,41029001100,1400000US41029001100,ALSTOM,300 W ANTELOPE RD,WHITE CITY,OR,97503,"ALSTOM.300 W ANTELOPE RD, WHITE CITY OREGON 97503 (JACKSON)",0,C,,
97503BCDWR470WA,-122.9,42.431000000000004,False,41,029,001100,41,41029,41029001100,1400000US41029001100,LINDE GAS NA LLC MEDFORD,470 W ANTELOPE RD,WHITE CITY,OR,97503,"LINDE GAS NA LLC MEDFORD.470 W ANTELOPE RD, WHITE CITY OREGON 97503 (JACKSON)",0,C,,110001658331
97502LTMMD3959H,-122.895,42.373999999999995,False,41,029,001100,41,41029,41029001100,1400000US41029001100,MDU RESOURCES CENTRAL POINT CONCRETE,3959 HAMRICK RD,CENTRAL POINT,OR,97502,"MDU RESOURCES CENTRAL POINT CONCRETE.3959 HAMRICK RD, CENTRAL POINT OREGON 97502 (JACKSON)",0,C,,110001654941
9750WKRTLN375KI,-122.964,42.428000000000004,False,41,029,001100,41,41029,41029001100,1400000US41029001100,KIRTLAND CONCRETE,3750 KIRTLAND ROAD,CENTRAL POINT,OR,97502,"KIRTLAND CONCRETE.3750 KIRTLAND ROAD, CENTRAL POINT OREGON 97502 (JACKSON)",0,C,,110039075443
9750WSTHRN696BL,-122.946,42.415,False,41,029,001100,41,41029,41029001100,1400000US41029001100,SOUTHERN OREGON READY MIX,6960 BLACKWELL ROAD,CENTRAL POINT,OR,97502,"SOUTHERN OREGON READY MIX.6960 BLACKWELL ROAD, CENTRAL POINT OREGON 97502 (JACKSON)",0,C,,110042003881
97503MCMPN8124P,-122.882,42.435,False,41,029,001301,41,41029,41029001301,1400000US41029001301,CARESTREAM HEALTH INC,8124 PACIFIC AVE,WHITE CITY,OR,97503,"CARESTREAM HEALTH INC.8124 PACIFIC AVE, WHITE CITY OREGON 97503 (JACKSON)",0,C,,110000488623
97503MRLNB82511,-122.853,42.43600000000001,False,41,029,001301,41,41029,41029001301,1400000US41029001301,MARLIN KK BOAT ENTERPRISE,8251 14TH ST,WHITE CITY,OR,97503,"MARLIN KK BOAT ENTERPRISE.8251 14TH ST, WHITE CITY OREGON 97503 (JACKSON)",1,C,,
97503NRTHW7800P,-122.882,42.43,False,41,029,001301,41,41029,41029001301,1400000US41029001301,TYCO ELECTRONICS INC,7800 PACIFIC AVE,WHITE CITY,OR,97503,"TYCO ELECTRONICS INC.7800 PACIFIC AVE, WHITE CITY OREGON 97503 (JACKSON)",0,C,,
97503RGVLL1795A,-122.851,42.43,False,41,029,001301,41,41029,41029001301,1400000US41029001301,BOISE CASCADE CORPROGUE VALLEY PLYWOOD,1795 ANTELOPE RD,WHITE CITY,OR,97503,"BOISE CASCADE CORPROGUE VALLEY PLYWOOD.1795 ANTELOPE RD, WHITE CITY OREGON 97503 (JACKSON)",2,C,,
97503RVPCR1405A,-122.866,42.428000000000004,False,41,029,001301,41,41029,41029001301,1400000US41029001301,GEORGIA-PACIFIC RESINS INC,1405 ANTELOPE RD,WHITE CITY,OR,97503,"GEORGIA-PACIFIC RESINS INC.1405 ANTELOPE RD, WHITE CITY OREGON 97503 (JACKSON)",0,C,,
97503STNFR7975E,-122.86200000000001,42.431000000000004,False,41,029,001301,41,41029,41029001301,1400000US41029001301,STONE FOREST IND INC,7975 11TH ST,WHITE CITY,OR,97503,"STONE FOREST IND INC.7975 11TH ST, WHITE CITY OREGON 97503 (JACKSON)",0,C,,
97503TMBRP8380A,-122.855,42.438,False,41,029,001301,41,41029,41029001301,1400000US41029001301,TIMBER PRODUCTS CO (DBA WHITE CITY PLYWOOD),8380 AGATE RD,WHITE CITY,OR,97503,"TIMBER PRODUCTS CO (DBA WHITE CITY PLYWOOD).8380 AGATE RD, WHITE CITY OREGON 97503 (JACKSON)",0,C,,
97503LLWTH7893P,-122.885,42.431000000000004,False,41,029,001301,41,41029,41029001301,1400000US41029001301,ALLWEATHER WOOD LLC,7893 PACIFIC AVE,WHITE CITY,OR,97503,"ALLWEATHER WOOD LLC.7893 PACIFIC AVE, WHITE CITY OREGON 97503 (JACKSON)",0,C,,110000488614
97503BSCSC1155A,-122.874,42.428000000000004,False,41,029,001301,41,41029,41029001301,1400000US41029001301,BOISE CASCADE WOOD PRODUCTS LLC-EWP PLANT,1155 ANTELOPE RD,WHITE CITY,OR,97503,"BOISE CASCADE WOOD PRODUCTS LLC-EWP PLANT.1155 ANTELOPE RD, WHITE CITY OREGON 97503 (JACKSON)",0,C,,110000488605
97503RYLKN7930A,-122.85600000000001,42.434,False,41,029,001301,41,41029,41029001301,1400000US41029001301,ROYAL OAK ENT MEDFORD FURNACE,7930 AGATE RD,WHITE CITY,OR,97503,"ROYAL OAK ENT MEDFORD FURNACE.7930 AGATE RD, WHITE CITY OREGON 97503 (JACKSON)",0,C,,
97502LLPHS549TA,-122.885,42.397,False,41,029,001301,41,41029,41029001301,1400000US41029001301,ALL-PHASE CIRCUITS INC,5490 TABLE ROCK RD,CENTRAL POINT,OR,97502,"ALL-PHASE CIRCUITS INC.5490 TABLE ROCK RD, CENTRAL POINT OREGON 97502 (JACKSON)",0,C,,110000817037
97503SCNTR994AN,-122.87299999999999,42.426,False,41,029,001301,41,41029,41029001301,1400000US41029001301,ASCENTRON INC,994 ANTELOPE RD,WHITE CITY,OR,97503,"ASCENTRON INC.994 ANTELOPE RD, WHITE CITY OREGON 97503 (JACKSON)",0,C,,110018496288
97503CRTNT12AVE,-122.87200000000001,42.434,False,41,029,001301,41,41029,41029001301,1400000US41029001301,PLYCEM USA LLC,1200 AVE G,WHITE CITY,OR,97503,"PLYCEM USA LLC.1200 AVE G, WHITE CITY OREGON 97503 (JACKSON)",0,C,,110001658279
97526BNTWD1080S,-123.32600000000001,42.461999999999996,False,41,033,360600,41,41033,41033360600,1400000US41033360600,BENTWOOD FURNITURE INC,310 NW MORGAN LN,GRANTS PASS,OR,975263432,"BENTWOOD FURNITURE INC.310 NW MORGAN LN, GRANTS PASS OREGON 97526 (JOSEPHINE)",0,C,,
97526LTTNP1636N,-123.325,42.458999999999996,False,41,033,360600,41,41033,41033360600,1400000US41033360600,LITTON APPLIED TECH DIV GRANTS PASS OPERATIONS,1636 NW WASHINGTON BLVD,GRANTS PASS,OR,975260306,"LITTON APPLIED TECH DIV GRANTS PASS OPERATIONS.1636 NW WASHINGTON BLVD, GRANTS PASS OREGON 97526 (JOSEPHINE)",0,C,,
97526DMNDC550SE,-123.32,42.433,False,41,033,360701,41,41033,41033360701,1400000US41033360701,MASTERBRAND CABINETS INC-GRANTS PASS OPERATIONS,550 SE MILL ST,GRANTS PASS,OR,97526,"MASTERBRAND CABINETS INC-GRANTS PASS OPERATIONS.550 SE MILL ST, GRANTS PASS OREGON 97526 (JOSEPHINE)",0,C,,110000488687
97526STHRN605SE,-123.322,42.435,False,41,033,360701,41,41033,41033360701,1400000US41033360701,"VALHI INC, SOUTHERN OREGON PLYWOOD DIV",605 SE J ST,GRANTS PASS,OR,97526,"VALHI INC, SOUTHERN OREGON PLYWOOD DIV.605 SE J ST, GRANTS PASS OREGON 97526 (JOSEPHINE)",1,C,,
97526STNFR1090S,-123.31,42.433,False,41,033,360701,41,41033,41033360701,1400000US41033360701,STONE FOREST IND INC,1090 SE M ST,GRANTS PASS,OR,97526,"STONE FOREST IND INC.1090 SE M ST, GRANTS PASS OREGON 97526 (JOSEPHINE)",0,C,,
97526FRPLY124NE,-123.30799999999999,42.435,False,41,033,360500,41,41033,41033360500,1400000US41033360500,FOURPLY INC,124 NE BEACON DR,GRANTS PASS,OR,97526,"FOURPLY INC.124 NE BEACON DR, GRANTS PASS OREGON 97526 (JOSEPHINE)",0,C,,
97526LTTNG1001R,-123.316,42.43899999999999,False,41,033,360500,41,41033,41033360500,1400000US41033360500,LITTON GUIDANCE & CONTROL DIV,1001 REDWOOD HWY SPUR,GRANTS PASS,OR,97526,"LITTON GUIDANCE & CONTROL DIV.1001 REDWOOD HWY SPUR, GRANTS PASS OREGON 97526 (JOSEPHINE)",0,C,,
97526TMBRP125MI,-123.315,42.437,False,41,033,360500,41,41033,41033360500,1400000US41033360500,TIMBER PRODUCTS CO (DBA TIM PLY),125 MILL ST,GRANTS PASS,OR,97526,"TIMBER PRODUCTS CO (DBA TIM PLY).125 MILL ST, GRANTS PASS OREGON 97526 (JOSEPHINE)",0,C,,
97601JLDWN3250L,-121.804,42.251999999999995,False,41,035,972000,41,41035,41035972000,1400000US41035972000,JELD-WEN,3250 LAKEPORT BLVD,KLAMATH FALLS,OR,97601,"JELD-WEN.3250 LAKEPORT BLVD, KLAMATH FALLS OREGON 97601 (KLAMATH)",0,C,,110067272061
97601WYRHSWEYER,-121.82700000000001,42.17100000000001,False,41,035,970900,41,41035,41035970900,1400000US41035970900,COLLINS PRODUCTS LLC,6410 HIGHWAY 66,KLAMATH FALLS,OR,97601,"COLLINS PRODUCTS LLC.6410 HIGHWAY 66, KLAMATH FALLS OREGON 97601 (KLAMATH)",0,C,,110000601527
97601CLMBPHWY97,-121.79700000000001,42.18,False,41,035,970900,41,41035,41035970900,1400000US41035970900,COLUMBIA FOREST PRODUCTS,4949 HWY 97 S,KLAMATH FALLS,OR,97603,"COLUMBIA FOREST PRODUCTS.4949 HWY 97 S, KLAMATH FALLS OREGON 97603 (KLAMATH)",0,C,,110013854917
97701BVRCC20545,-121.29700000000001,44.083,False,41,017,001100,41,41017,41017001100,1400000US41017001100,MONACO COACH CORP BEND,20545 MURRAY RD,BEND,OR,97708,"MONACO COACH CORP BEND.20545 MURRAY RD, BEND OREGON 97708 (DESCHUTES)",0,C,,
97701GRCMM63189,-121.3,44.095,False,41,017,001100,41,41017,41017001100,1400000US41017001100,GRACE MEMBRANE SYS,63189 NELS ANDERSON RD,BEND,OR,97701,"GRACE MEMBRANE SYS.63189 NELS ANDERSON RD, BEND OREGON 97701 (DESCHUTES)",0,C,,
97701CHSND63257,-121.29899999999999,44.097,False,41,017,001100,41,41017,41017001100,1400000US41017001100,"CHASE IND, DURUS DIV",63257 NELS ANDERSON RD,BEND,OR,97701,"CHASE IND, DURUS DIV.63257 NELS ANDERSON RD, BEND OREGON 97701 (DESCHUTES)",1,C,,
97708FQHMS20495,-121.29899999999999,44.083999999999996,False,41,017,001100,41,41017,41017001100,1400000US41017001100,FUQUA HOMES INC BEND DIV,20495 MURRAY RD,BEND,OR,97701,"FUQUA HOMES INC BEND DIV.20495 MURRAY RD, BEND OREGON 97701 (DESCHUTES)",0,C,,110000917759
97701DTCHL63160,-121.309,44.093,False,41,017,001100,41,41017,41017001100,1400000US41017001100,BALLARD FUEL CELL SYSTEMS,63160 BRITTA ST,BEND,OR,97701,"BALLARD FUEL CELL SYSTEMS.63160 BRITTA ST, BEND OREGON 97701 (DESCHUTES)",0,C,,110012701424
97701DTCHL6365A,-121.28200000000001,44.089,False,41,017,001100,41,41017,41017001100,1400000US41017001100,IDATECH LLC,63065 NE 18TH ST,BEND,OR,977019981,"IDATECH LLC.63065 NE 18TH ST, BEND OREGON 97701 (DESCHUTES)",1,C,,110022524669
97702WLLMT55SWD,-121.31,44.05,False,41,017,001500,41,41017,41017001500,1400000US41017001500,WEYERHAEUSER CO KORPINE,175 INDUSTRIAL WAY,BEND,OR,97702,"WEYERHAEUSER CO KORPINE.175 INDUSTRIAL WAY, BEND OREGON 97702 (DESCHUTES)",0,C,,
97701NRTHL681SE,-121.296,44.051,False,41,017,001500,41,41017,41017001500,1400000US41017001500,NORTHLAND FURNITURE LLC,681 SE GLENWOOD,BEND,OR,97701,"NORTHLAND FURNITURE LLC.681 SE GLENWOOD, BEND OREGON 97701 (DESCHUTES)",0,C,,
97734SSWRL7THCS,-121.21700000000001,44.525,False,41,031,960302,41,41031,41031960302,1400000US41031960302,SEASWIRL,710 C ST,CULVER,OR,97734,"SEASWIRL.710 C ST, CULVER OREGON 97734 (JEFFERSON)",0,C,,110000488776
97754CLRPN1155N,-120.84899999999999,44.312,False,41,013,950200,41,41013,41013950200,1400000US41013950200,CLEAR PINE MOULDINGS,1155 N MAIN ST,PRINEVILLE,OR,97754,"CLEAR PINE MOULDINGS.1155 N MAIN ST, PRINEVILLE OREGON 97754 (CROOK)",0,C,,110000488794
97754CRWNP4382E,-120.9,44.345,False,41,013,950200,41,41013,41013950200,1400000US41013950200,CROWN PACIFIC PRINEVILLE,43820 ELLIOT LANE,PRINEVILLE,OR,97754,"CROWN PACIFIC PRINEVILLE.43820 ELLIOT LANE, PRINEVILLE OREGON 97754 (CROOK)",0,C,,
97761WRMSPPOBOX,-121.23,44.765,False,41,031,940000,41,41065,41031940000,1400000US41031940000,WARM SPRINGS FOREST PRODUCTS INDUSTRIES,HWY 26,WARM SPRINGS,OR,97761,"WARM SPRINGS FOREST PRODUCTS INDUSTRIES.HWY 26, WARM SPRINGS OREGON 97761 (WASCO)",0,C,,
97801PNDLT1307S,-118.771,45.675,False,41,059,950700,41,41059,41059950700,1400000US41059950700,PENDLETON WOOLEN MILLS INC,1307 SE CT ST,PENDLETON,OR,97801,"PENDLETON WOOLEN MILLS INC.1307 SE CT ST, PENDLETON OREGON 97801 (UMATILLA)",0,C,,
97801PNDLT501SE,-118.781,45.673,False,41,059,950700,41,41059,41059950700,1400000US41059950700,GRAIN CRAFT,501 SE EMIGRANT AVE,PENDLETON,OR,97801,"GRAIN CRAFT.501 SE EMIGRANT AVE, PENDLETON OREGON 97801 (UMATILLA)",0,C,,110001656672
97818LMBWSCOLUM,-119.68299999999999,45.846000000000004,False,41,049,970100,41,41049,41049970100,1400000US41049970100,LAMB WESTON INC,600 NE COLUMBIA AVE,BOARDMAN,OR,97818,"LAMB WESTON INC.600 NE COLUMBIA AVE, BOARDMAN OREGON 97818 (MORROW)",0,C,,110014074811
97818RGNPTEASTC,-119.68,45.845,False,41,049,970100,41,41049,41049970100,1400000US41049970100,OREGON POTATO CO,E COLUMBIA AVE,BOARDMAN,OR,97818,"OREGON POTATO CO.E COLUMBIA AVE, BOARDMAN OREGON 97818 (MORROW)",0,C,,
97818BRDMN73334,-119.801,45.696000000000005,False,41,049,970100,41,41049,41049970100,1400000US41049970100,BOARDMAN PLANT,73334 TOWER RD,BOARDMAN,OR,97818,"BOARDMAN PLANT.73334 TOWER RD, BOARDMAN OREGON 97818 (MORROW)",0,C,,110000488838
97818CYTSP200UL,-119.67399999999999,45.848,False,41,049,970100,41,41049,41049970100,1400000US41049970100,COYOTE SPRINGS PLANT,200 ULMAN BLVD,BOARDMAN,OR,97818,"COYOTE SPRINGS PLANT.200 ULMAN BLVD, BOARDMAN OREGON 97818 (MORROW)",0,C,,
97818CLMBR79588,-119.65799999999999,45.843999999999994,False,41,049,970100,41,41049,41049970100,1400000US41049970100,COLUMBIA RIVER PROCESSING,79588 RIPPEE RD,BOARDMAN,OR,97818,"COLUMBIA RIVER PROCESSING.79588 RIPPEE RD, BOARDMAN OREGON 97818 (MORROW)",0,C,,110012534622
97838MTLLCSCBUL,-119.45,45.836000000000006,False,41,049,970100,41,41059,41049970100,1400000US41049970100,U.S. ARMY UMATILLA CHEMICAL DEPOT,78798 ORDNANCE RD,HERMISTON,OR,978389544,"U.S. ARMY UMATILLA CHEMICAL DEPOT.78798 ORDNANCE RD, HERMISTON OREGON 97838 (UMATILLA)",0,F,,110014262715
97818PCFCT71335,-119.656,45.856,False,41,049,970100,41,41049,41049970100,1400000US41049970100,PACIFIC ETHANOL COLUMBIA LLC,71335 RAIL LOOP DR,BOARDMAN,OR,97818,"PACIFIC ETHANOL COLUMBIA LLC.71335 RAIL LOOP DR, BOARDMAN OREGON 97818 (MORROW)",0,C,,110031262112
9783WMTLLT78798,-119.45,45.836000000000006,False,41,049,970100,41,41059,41049970100,1400000US41049970100,US ARMY NATIONAL GUARD UMATILLA TRAINING CENTER RANGES,78798 ORDINANCE ROAD,HERMISTON,OR,97838,"US ARMY NATIONAL GUARD UMATILLA TRAINING CENTER RANGES.78798 ORDINANCE ROAD, HERMISTON OREGON 97838 (UMATILLA)",0,F,,110014262715
9781WCLMBR79588,-119.65799999999999,45.843999999999994,False,41,049,970100,41,41049,41049970100,1400000US41049970100,COLUMBIA RIVER TECHNOLOGIES,79588 RIPPEE RD,BOARDMAN,OR,97818,"COLUMBIA RIVER TECHNOLOGIES.79588 RIPPEE RD, BOARDMAN OREGON 97818 (MORROW)",0,C,,110012534622
9781WLMBWS75NEC,-119.669,45.843999999999994,False,41,049,970100,41,41049,41049970100,1400000US41049970100,LAMB WESTON INC,750 NE COLUMBIA AVE,BOARDMAN,OR,97818,"LAMB WESTON INC.750 NE COLUMBIA AVE, BOARDMAN OREGON 97818 (MORROW)",0,C,,110070069755
97827LGNCM90SOU,-117.93799999999999,45.56399999999999,False,41,061,970100,41,41061,41061970100,1400000US41061970100,BOISE CASCADE WOOD PRODUCTS LLC ELGIN COMPLEX,90 S 21ST ST,ELGIN,OR,97827,"BOISE CASCADE WOOD PRODUCTS LLC ELGIN COMPLEX.90 S 21ST ST, ELGIN OREGON 97827 (UNION)",0,C,,110000816895
97838JRSMPHINKL,-119.30799999999999,45.793,False,41,059,951300,41,41059,41059951300,1400000US41059951300,J R SIMPLOT CO HERMISTON FOOD GROUP,79319 SIMPLOT RD,HERMISTON,OR,97838,"J R SIMPLOT CO HERMISTON FOOD GROUP.79319 SIMPLOT RD, HERMISTON OREGON 97838 (UMATILLA)",0,C,,
97875STLYMHOOSI,-119.229,45.783,False,41,059,951300,41,41059,41059951300,1400000US41059951300,A E STALEY MANUFACTURING CO,HOOSIER LN,STANFIELD,OR,97875,"A E STALEY MANUFACTURING CO.HOOSIER LN, STANFIELD OREGON 97875 (UMATILLA)",0,C,,
97838LMBWSWESTL,-119.366,45.806999999999995,False,41,059,951100,41,41059,41059951100,1400000US41059951100,LAMB WESTON INC,78153 WESTLAND RD,HERMISTON,OR,97838,"LAMB WESTON INC.78153 WESTLAND RD, HERMISTON OREGON 97838 (UMATILLA)",0,C,,110007738403
9783WCHSHR3WFEE,-119.294,45.806999999999995,False,41,059,951100,41,41059,41059951100,1400000US41059951100,CHS HERMISTON FEED,300 W FEEDVILLE ROAD,HERMISTON,OR,97838,"CHS HERMISTON FEED.300 W FEEDVILLE ROAD, HERMISTON OREGON 97838 (UMATILLA)",0,C,,110032604732
97850BRDNNHIGHW,-118.031,45.349,False,41,061,970800,41,41061,41061970800,1400000US41061970800,HEXION INC,62575 OREGON HWY 82,ISLAND CITY,OR,97850,"HEXION INC.62575 OREGON HWY 82, ISLAND CITY OREGON 97850 (UNION)",0,C,,110014206590
97850SLNDCHWY82,-118.027,45.35,False,41,061,970800,41,41061,41061970800,1400000US41061970800,WOODGRAIN MILLWORK ISLAND CITY PARTICLEBOARD,62621 OREGON HWY 82,LA GRANDE,OR,97850,"WOODGRAIN MILLWORK ISLAND CITY PARTICLEBOARD.62621 OREGON HWY 82, LA GRANDE OREGON 97850 (UNION)",0,C,,110000488909
97850FLTWDPIERC,-118.016,45.354,False,41,061,970800,41,41061,41061970800,1400000US41061970800,FLEETWOOD TRAVEL TRAILERS OF OREGON INC #24,62582 PIERCE RD,LA GRANDE,OR,97850,"FLEETWOOD TRAVEL TRAILERS OF OREGON INC #24.62582 PIERCE RD, LA GRANDE OREGON 97850 (UNION)",0,C,,110000488892
97850SDFRS60131,-118.00299999999999,45.285,False,41,061,970800,41,41061,41061970800,1400000US41061970800,US FOREST SERVICE LAGRANDE AIRTANKER BASE,60131 PIERCE RD,LA GRANDE,OR,97850,"US FOREST SERVICE LAGRANDE AIRTANKER BASE.60131 PIERCE RD, LA GRANDE OREGON 97850 (UNION)",0,F,,
97850LGRNDJACKS,-118.08,45.331,False,41,061,970400,41,41061,41061970400,1400000US41061970400,BOISE CASCADE CORP LAGRANDE SAWMILL,JACKSON & WILLOW ST,LA GRANDE,OR,97850,"BOISE CASCADE CORP LAGRANDE SAWMILL.JACKSON & WILLOW ST, LA GRANDE OREGON 97850 (UNION)",0,C,,
97862WTRML1565S,-118.37899999999999,45.92,False,41,059,950200,41,41059,41059950200,1400000US41059950200,WATERMILL FOODS INC,1565 S MAIN,MILTON-FREEWATER,OR,978620906,"WATERMILL FOODS INC.1565 S MAIN, MILTON-FREEWATER OREGON 97862 (UMATILLA)",0,C,,
97905SHGRV330CE,-117.42200000000001,44.543,False,41,001,950300,41,41001,41001950300,1400000US41001950300,ASH GROVE CEMENT CO,33060 SHIRTTAIL CREEK RD,DURKEE,OR,97905,"ASH GROVE CEMENT CO.33060 SHIRTTAIL CREEK RD, DURKEE OREGON 97905 (BAKER)",0,C,,110017417776
97913MLGMT101EM,-116.991,43.876000000000005,False,41,045,970500,41,41045,41045970500,1400000US41045970500,AMALGAMATED SUGAR CO LLC,105 E MAIN ST,NYSSA,OR,97913,"AMALGAMATED SUGAR CO LLC.105 E MAIN ST, NYSSA OREGON 97913 (MALHEUR)",0,C,,
97914RDFDS175NE,-116.95700000000001,44.033,False,41,045,970400,41,41045,41045970400,1400000US41045970400,KRAFT HEINZ FOOD CO,175 NE 6TH AVE,ONTARIO,OR,97914,"KRAFT HEINZ FOOD CO.175 NE 6TH AVE, ONTARIO OREGON 97914 (MALHEUR)",0,C,,110000488936
97914CCNTR1784S,-116.93799999999999,44.016999999999996,False,41,045,970400,41,41071,41045970400,1400000US41045970400,ICCO ONTARIO,1784 SE 5TH AVE,ONTARIO,OR,97914,"ICCO ONTARIO.1784 SE 5TH AVE, ONTARIO OREGON 97914 (YAMHILL)",0,C,,110025317743
97006BVRTN1255S,-122.837,45.511,False,41,067,031613,41,41067,41067031613,1400000US41067031613,BEAVERTON PACKAGING,1255 SW BURLINGTON DR,BEAVERTON,OR,97006,"BEAVERTON PACKAGING.1255 SW BURLINGTON DR, BEAVERTON OREGON 97006 (WASHINGTON)",0,C,,
97045PDMNF13963,-122.58,45.33,False,41,005,022603,41,41005,41005022603,1400000US41005022603,ORCHID ORTHOPEDIC SOLUTIONS OREGON INC,13963 FIR ST,OREGON CITY,OR,97045,"ORCHID ORTHOPEDIC SOLUTIONS OREGON INC.13963 FIR ST, OREGON CITY OREGON 97045 (CLACKAMAS)",0,C,,110000486714
97071MRCNS13201,-122.785,45.108999999999995,False,41,047,010400,41,41047,41047010400,1400000US41047010400,AMERICAN SPA MANUFACTURING CO,13201 WILCO HWY,WOODBURN,OR,97071,"AMERICAN SPA MANUFACTURING CO.13201 WILCO HWY, WOODBURN OREGON 97071 (MARION)",0,C,,
97362LNDLK13007,-122.795,45.043,False,41,047,010400,41,41047,41047010400,1400000US41047010400,LAND O'LAKES MT ANGEL,13007 DOWNS RD NE,MOUNT ANGEL,OR,97362,"LAND O'LAKES MT ANGEL.13007 DOWNS RD NE, MOUNT ANGEL OREGON 97362 (MARION)",0,C,,
97362MTNGL250IN,-122.8,45.077,False,41,047,010400,41,41047,41047010400,1400000US41047010400,MOUNT ANGEL BEVERAGE CO INC,250 INDUSTRIAL WAY,MOUNT ANGEL,OR,97362,"MOUNT ANGEL BEVERAGE CO INC.250 INDUSTRIAL WAY, MOUNT ANGEL OREGON 97362 (MARION)",0,C,,
97146BPRDC1935N,-123.935,46.195,False,41,007,950500,41,41007,41007950500,1400000US41007950500,BIO-OREGON INC,1935 NW WARRENTON DR,WARRENTON,OR,97146,"BIO-OREGON INC.1935 NW WARRENTON DR, WARRENTON OREGON 97146 (CLATSOP)",0,C,,
97146WYRHS550NE,-123.915,46.174,False,41,007,950500,41,41007,41007950500,1400000US41007950500,HAMPTON LUMBER MILLS INC. WARRENTON,550 NE SKIPANON DR,WARRENTON,OR,97146,"HAMPTON LUMBER MILLS INC. WARRENTON.550 NE SKIPANON DR, WARRENTON OREGON 97146 (CLATSOP)",0,C,,110000816831
9714WSCSTG2185S,-123.884,46.155,False,41,007,950500,41,41007,41007950500,1400000US41007950500,US COAST GUARD SECTOR COLUMBIA RIVER,2185 SE 12TH PL,WARRENTON,OR,97146,"US COAST GUARD SECTOR COLUMBIA RIVER.2185 SE 12TH PL, WARRENTON OREGON 97146 (CLATSOP)",0,F,,110045403121
97212VLVLN2308N,-122.676,45.54,False,41,051,002303,41,41051,41051002303,1400000US41051002303,VALVOLINE CO,2308 N CLARK AVE,PORTLAND,OR,97212,"VALVOLINE CO.2308 N CLARK AVE, PORTLAND OREGON 97212 (MULTNOMAH)",1,C,,
97227RBRSG2139N,-122.67200000000001,45.538000000000004,False,41,051,002303,41,41051,41051002303,1400000US41051002303,UROBOROS GLASS STUDIOS INC,2139 N KERBY AVE,PORTLAND,OR,972271809,"UROBOROS GLASS STUDIOS INC.2139 N KERBY AVE, PORTLAND OREGON 97227 (MULTNOMAH)",1,C,,110000487768
97227TRRNC2429N,-122.67399999999999,45.54,False,41,051,002303,41,41051,41051002303,1400000US41051002303,TARR ACQUISITION LLC,2429 N BORTHWICK AVE,PORTLAND,OR,972271704,"TARR ACQUISITION LLC.2429 N BORTHWICK AVE, PORTLAND OREGON 97227 (MULTNOMAH)",0,C,,110000487777
97220MYRSC8435N,-122.57600000000001,45.563,False,41,051,007700,41,41051,41051007700,1400000US41051007700,MYERS CONTAINER CORP,8435 NE KILLINGSWORTH ST,PORTLAND,OR,97220,"MYERS CONTAINER CORP.8435 NE KILLINGSWORTH ST, PORTLAND OREGON 97220 (MULTNOMAH)",0,C,,
97227TKCHM3805N,-122.676,45.55,False,41,051,003502,41,41051,41051003502,1400000US41051003502,TEK CHEMICAL INC,3805 N MISSISSIPPI AVE,PORTLAND,OR,972271160,"TEK CHEMICAL INC.3805 N MISSISSIPPI AVE, PORTLAND OREGON 97227 (MULTNOMAH)",0,C,,
97411HRDNP1320O,-124.416,43.111000000000004,False,41,011,001000,41,41011,41011001000,1400000US41011001000,HARDIN OPTICAL CO,1320 OREGON AVE,BANDON,OR,97411,"HARDIN OPTICAL CO.1320 OREGON AVE, BANDON OREGON 97411 (COOS)",0,C,,
97448CNTRY135EF,-123.2,44.214,False,41,039,000404,41,41039,41039000404,1400000US41039000404,COUNTRY COACH LLC,135 E 1ST AVE,JUNCTION CITY,OR,97448,"COUNTRY COACH LLC.135 E 1ST AVE, JUNCTION CITY OREGON 97448 (LANE)",0,C,,110000488446
97459WYRHSJORDA,-124.241,43.435,False,41,011,000502,41,41011,41011000502,1400000US41011000502,WEYERHAEUSER CO NORTH BEND CONTAINERBOARD,JORDAN PT HORSFALL BEACH RD,NORTH BEND,OR,97459,"WEYERHAEUSER CO NORTH BEND CONTAINERBOARD.JORDAN PT HORSFALL BEACH RD, NORTH BEND OREGON 97459 (COOS)",0,C,,
97469GLNBR5093R,-123.428,42.937,False,41,019,200000,41,41019,41019200000,1400000US41019200000,GLENBROOK NICKEL CO,5093 RIDDLE BYPASS RD,RIDDLE,OR,97469,"GLENBROOK NICKEL CO.5093 RIDDLE BYPASS RD, RIDDLE OREGON 97469 (DOUGLAS)",0,C,,
97469GRNDM6THES,-123.365,42.956,False,41,019,200000,41,41019,41019200000,1400000US41019200000,GREEN DIAMOND PRODS,6 TH & E ST,RIDDLE,OR,97469,"GREEN DIAMOND PRODS.6 TH & E ST, RIDDLE OREGON 97469 (DOUGLAS)",0,C,,
97469RSBRGCOWCR,-123.376,42.943999999999996,False,41,019,200000,41,41019,41019200000,1400000US41019200000,ROSEBURG FOREST PRODUCTS CO - RIDDLE PLYWOOD #4,3064 RIDDLE BY PASS ROAD,RIDDLE,OR,97469,"ROSEBURG FOREST PRODUCTS CO - RIDDLE PLYWOOD #4.3064 RIDDLE BY PASS ROAD, RIDDLE OREGON 97469 (DOUGLAS)",0,C,,110060815122
97469DRJHN1991P,-123.35799999999999,42.958999999999996,False,41,019,200000,41,41019,41019200000,1400000US41019200000,DR JOHNSON LUMBER CO,1991 PRUNER RD,RIDDLE,OR,97469,"DR JOHNSON LUMBER CO.1991 PRUNER RD, RIDDLE OREGON 97469 (DOUGLAS)",0,C,,
97469RSBRGCWCRE,-123.40100000000001,42.933,False,41,019,200000,41,41019,41019200000,1400000US41019200000,ROSEBURG FOREST PRODUCTS CO-EWP FACILITY,4500 RIDDLE BYPASS RD,RIDDLE,OR,97469,"ROSEBURG FOREST PRODUCTS CO-EWP FACILITY.4500 RIDDLE BYPASS RD, RIDDLE OREGON 97469 (DOUGLAS)",0,C,,110009155298
97501MRBLD680SO,-122.913,42.368,False,41,029,001001,41,41029,41029001001,1400000US41029001001,MARBLE DESIGNS INC,680 S FRONT ST,CENTRAL POINT,OR,975020034,"MARBLE DESIGNS INC.680 S FRONT ST, CENTRAL POINT OREGON 97502 (JACKSON)",0,C,,110000488570
97527NVRNM3560R,-123.27,42.427,False,41,033,361300,41,41033,41033361300,1400000US41033361300,ENVIRONMENTAL CONTAINERS SYSTEMS INC,3560 ROGUE RIVER HWY,GRANTS PASS,OR,97527,"ENVIRONMENTAL CONTAINERS SYSTEMS INC.3560 ROGUE RIVER HWY, GRANTS PASS OREGON 97527 (JOSEPHINE)",0,C,,
97756BVRLY1266S,-121.17,44.263999999999996,False,41,017,000900,41,41017,41017000900,1400000US41017000900,BEVERLY PACIFIC CO,1266 SE LAKE RD,REDMOND,OR,97756,"BEVERLY PACIFIC CO.1266 SE LAKE RD, REDMOND OREGON 97756 (DESCHUTES)",0,C,,
97756SDFRS1740S,-121.149,44.26,False,41,017,000900,41,41017,41017000900,1400000US41017000900,US FOREST SERVICE REDMOND AIR TANKER BASE,REDMOND AIR CENTER 1740 SE OCHOCO WAY,REDMOND,OR,97756,"US FOREST SERVICE REDMOND AIR TANKER BASE.REDMOND AIR CENTER 1740 SE OCHOCO WAY, REDMOND OREGON 97756 (DESCHUTES)",0,F,,110001133728
9775WKYTCH975SW,-121.169,44.268,False,41,017,000900,41,41017,41017000900,1400000US41017000900,KEY TECHNOLOGY INC,975 SW FIRST STREET,REDMOND,OR,97756,"KEY TECHNOLOGY INC.975 SW FIRST STREET, REDMOND OREGON 97756 (DESCHUTES)",0,C,,110043671407
97756KYTCHSELAK,-121.16799999999999,44.268,False,41,017,000900,41,41017,41017000900,1400000US41017000900,KEY TECHNOLOGY INC,111 SE LAKE RD,REDMOND,OR,97756,"KEY TECHNOLOGY INC.111 SE LAKE RD, REDMOND OREGON 97756 (DESCHUTES)",0,C,,110064691873
9775WNSLRN2115S,-121.163,44.256,False,41,017,000900,41,41017,41017000900,1400000US41017000900,NOSLER INC,2115 SW 6TH STREET,REDMOND,OR,97756,"NOSLER INC.2115 SW 6TH STREET, REDMOND OREGON 97756 (DESCHUTES)",0,C,,110070058967
97801CLBYP4650B,-118.848,45.669,False,41,059,950500,41,41059,41059950500,1400000US41059950500,COLBY PLASTIC PROCESSORS,4650 BARTSCH RD,PENDLETON,OR,97801,"COLBY PLASTIC PROCESSORS.4650 BARTSCH RD, PENDLETON OREGON 97801 (UMATILLA)",0,C,,
97801FLTWD121NW,-118.84299999999999,45.67,False,41,059,950500,41,41059,41059950500,1400000US41059950500,FLEETWOOD TRAVEL TRAILERS OF OREGON INC #23,4640 NW BARTSCH RD,PENDLETON,OR,97801,"FLEETWOOD TRAVEL TRAILERS OF OREGON INC #23.4640 NW BARTSCH RD, PENDLETON OREGON 97801 (UMATILLA)",0,C,,110000488810
9780WLPPRT461NW,-118.84299999999999,45.67,False,41,059,950500,41,41059,41059950500,1400000US41059950500,LIPPERT COMPONENTS INC-PLANT 27,4601 NW MCKENNON,PENDLETON,OR,97801,"LIPPERT COMPONENTS INC-PLANT 27.4601 NW MCKENNON, PENDLETON OREGON 97801 (UMATILLA)",0,C,,110046124065
97868WDFBRPOBOX,-118.83,45.497,False,41,059,951400,41,41059,41059951400,1400000US41059951400,WOOD FIBER IND MASONITE CORP,MILL RD,PILOT ROCK,OR,97868,"WOOD FIBER IND MASONITE CORP.MILL RD, PILOT ROCK OREGON 97868 (UMATILLA)",0,C,,
97868KNZRS6NWCE,-118.83,45.489,False,41,059,951400,41,41059,41059951400,1400000US41059951400,KINZUA RESOURCES LLC,600 NW CEDAR ST,PILOT ROCK,OR,97868,"KINZUA RESOURCES LLC.600 NW CEDAR ST, PILOT ROCK OREGON 97868 (UMATILLA)",0,C,,110007738617
97051PSMNF514MI,-122.825,45.854,False,41,009,970800,41,41009,41009970800,1400000US41009970800,PSI MANUFACTURING CORP,514 MILTON WAY,SAINT HELENS,OR,97051,"PSI MANUFACTURING CORP.514 MILTON WAY, SAINT HELENS OREGON 97051 (COLUMBIA)",0,C,,
97051FRSNL1155D,-122.814,45.869,False,41,009,970800,41,41009,41009970800,1400000US41009970800,STIMSON LUMBER CO ST HELENS,1155 DEER ISLAND RD,SAINT HELENS,OR,97051,"STIMSON LUMBER CO ST HELENS.1155 DEER ISLAND RD, SAINT HELENS OREGON 97051 (COLUMBIA)",0,C,,110013286149
97062PLYWD10510,-122.786,45.368,False,41,067,032107,41,41067,41067032107,1400000US41067032107,PLYWOOD PANELS INC,10510 SW INDUSTRIAL WAY,TUALATIN,OR,970628552,"PLYWOOD PANELS INC.10510 SW INDUSTRIAL WAY, TUALATIN OREGON 97062 (WASHINGTON)",0,C,,
97062GYLRD10900,-122.79,45.371,False,41,067,032107,41,41067,41067032107,1400000US41067032107,GAYLORD INDUSTRIES,10900 SW AVERY ST,TUALATIN,OR,97062,"GAYLORD INDUSTRIES.10900 SW AVERY ST, TUALATIN OREGON 97062 (WASHINGTON)",0,C,,110000486821
97141TLLMK4175H,-123.84299999999999,45.483999999999995,False,41,057,960400,41,41057,41057960400,1400000US41057960400,TILLAMOOK COUNTY CREAMERY ASSOC,4185 HWY 101 N,TILLAMOOK,OR,97141,"TILLAMOOK COUNTY CREAMERY ASSOC.4185 HWY 101 N, TILLAMOOK OREGON 97141 (TILLAMOOK)",0,C,,110006114276
97141TLLMK3111E,-123.831,45.45399999999999,False,41,057,960400,41,41057,41057960400,1400000US41057960400,TILLAMOOK LUMBER C0MPANY,3111 THIRD STREET,TILLAMOOK,OR,97141,"TILLAMOOK LUMBER C0MPANY.3111 THIRD STREET, TILLAMOOK OREGON 97141 (TILLAMOOK)",0,C,,110001656645
97141STMSN59MFF,-123.806,45.418,False,41,057,960400,41,41057,41057960400,1400000US41057960400,STIMSON LUMBER CO - TILLAMOOK,6115 HANGAR ROAD,TILLAMOOK,OR,97141,"STIMSON LUMBER CO - TILLAMOOK.6115 HANGAR ROAD, TILLAMOOK OREGON 97141 (TILLAMOOK)",0,C,,110020517573
9714WCHSNT62BLI,-123.79899999999999,45.42100000000001,False,41,057,960400,41,41057,41057960400,1400000US41057960400,CHS NUTRITION TILLAMOOK,6200 BLIMP BLVD,TILLAMOOK,OR,97141,"CHS NUTRITION TILLAMOOK.6200 BLIMP BLVD, TILLAMOOK OREGON 97141 (TILLAMOOK)",0,C,,110070070127
97352MTJFF1827T,-123.023,44.735,False,41,047,010802,41,41047,41047010802,1400000US41047010802,MT JEFFERSON WOOLENS,"1827 TALBOT RD SE, PO BOX 185",JEFFERSON,OR,97352,"MT JEFFERSON WOOLENS.1827 TALBOT RD SE, PO BOX 185, JEFFERSON OREGON 97352 (MARION)",0,C,,
97402MLCLR4849P,-123.181,44.043,False,41,039,001002,41,41039,41039001002,1400000US41039001002,MOLECULAR PROBES INC,29851 WILLOW CREEK RD,EUGENE,OR,97402,"MOLECULAR PROBES INC.29851 WILLOW CREEK RD, EUGENE OREGON 97402 (LANE)",0,C,,110000488302
97402HYNDS1830W,-123.18299999999999,44.04,False,41,039,001002,41,41039,41039001002,1400000US41039001002,HYNIX SEMICONDUCTOR MANUFACTUR ING AMERICA INC.,1830 WILLOW CREEK CIR,EUGENE,OR,97402,"HYNIX SEMICONDUCTOR MANUFACTUR ING AMERICA INC..1830 WILLOW CREEK CIR, EUGENE OREGON 97402 (LANE)",0,C,,110000488286
97405TMSMT85451,-123.01,43.983000000000004,False,41,039,001700,41,41039,41039001700,1400000US41039001700,TOM SMITH FIBERGLASS INC,85451 HWY 99 S,EUGENE,OR,97405,"TOM SMITH FIBERGLASS INC.85451 HWY 99 S, EUGENE OREGON 97405 (LANE)",0,C,,
97405CDRPD86470,-123.02,44.012,False,41,039,001700,41,41039,41039001700,1400000US41039001700,JOHNSON CRUSHERS INTERNATIONAL INC,86470 FRANKLIN BLVD,EUGENE,OR,97405,"JOHNSON CRUSHERS INTERNATIONAL INC.86470 FRANKLIN BLVD, EUGENE OREGON 97405 (LANE)",0,C,,110000816751
97702NSLRN107SW,-121.32799999999999,44.05,False,41,017,001400,41,41017,41017001400,1400000US41017001400,NOSLER INC,107 SW COLUMBIA ST,BEND,OR,97702,"NOSLER INC.107 SW COLUMBIA ST, BEND OREGON 97702 (DESCHUTES)",0,C,,110000488758
97702DVNCD307SW,-121.32799999999999,44.04600000000001,False,41,017,001400,41,41017,41017001400,1400000US41017001400,ADVANCED POWER TECHNOLOGY INC,307 SW COLUMBIA ST,BEND,OR,97702,"ADVANCED POWER TECHNOLOGY INC.307 SW COLUMBIA ST, BEND OREGON 97702 (DESCHUTES)",0,C,,
97015BRDMC15507,-122.531,45.41,False,41,005,022105,41,41005,41005022105,1400000US41005022105,BROD & MCCLUNG-PACE CO HEAT TRANSFER DIV,15507 SE FORMOR CT,CLACKAMAS,OR,97015,"BROD & MCCLUNG-PACE CO HEAT TRANSFER DIV.15507 SE FORMOR CT, CLACKAMAS OREGON 97015 (CLACKAMAS)",0,C,,
97015DRVNM11465,-122.545,45.41,False,41,005,022105,41,41005,41005022105,1400000US41005022105,DRAVON MEDICAL INC,11465 SE HWY 212,CLACKAMAS,OR,970159020,"DRAVON MEDICAL INC.11465 SE HWY 212, CLACKAMAS OREGON 97015 (CLACKAMAS)",0,C,,
9701WPCSTR11241,-122.54799999999999,45.41,False,41,005,022105,41,41005,41005022105,1400000US41005022105,ASTRONICS PECO GROUP,11241 SE HWY 212,CLACKAMAS,OR,97015,"ASTRONICS PECO GROUP.11241 SE HWY 212, CLACKAMAS OREGON 97015 (CLACKAMAS)",0,C,,110067263758
97070PRGTZ9255S,-122.772,45.34,False,41,067,032110,41,41005,41067032110,1400000US41067032110,PRAEGITZER INDUSTRIES INC,9255 SW PIONEER CT,WILSONVILLE,OR,97070,"PRAEGITZER INDUSTRIES INC.9255 SW PIONEER CT, WILSONVILLE OREGON 97070 (CLACKAMAS)",0,C,,
97140CFFLK12TNQ,-122.79799999999999,45.345,False,41,067,032110,41,41067,41067032110,1400000US41067032110,COFFEE LAKE CONCRETE,12000 TONQUIN RD,SHERWOOD,OR,97140,"COFFEE LAKE CONCRETE.12000 TONQUIN RD, SHERWOOD OREGON 97140 (WASHINGTON)",0,C,,110037149644
97221LPNRS6149S,-122.741,45.479,False,41,051,006701,41,41051,41051006701,1400000US41051006701,ALPENROSE DAIRY,6149 SW SHATTUCK RD,PORTLAND,OR,97221,"ALPENROSE DAIRY.6149 SW SHATTUCK RD, PORTLAND OREGON 97221 (MULTNOMAH)",0,C,,110000487679
97222TTNMB9109S,-122.59700000000001,45.457,False,41,005,021601,41,41051,41005021601,1400000US41005021601,TITANIUM BUSINESS SATELLITE,9109 SE 64TH,PORTLAND,OR,972069505,"TITANIUM BUSINESS SATELLITE.9109 SE 64TH, PORTLAND OREGON 97206 (MULTNOMAH)",0,C,,
97224JDCCH16055,-122.75299999999999,45.403999999999996,False,41,067,030806,41,41067,41067030806,1400000US41067030806,JADCO CHEMICAL LTD,16055 SW 74TH AVE,TIGARD,OR,97224,"JADCO CHEMICAL LTD.16055 SW 74TH AVE, TIGARD OREGON 97224 (WASHINGTON)",0,C,,
97304NRTHW4582D,-123.12,44.931000000000004,False,41,053,005300,41,41053,41053005300,1400000US41053005300,NORTHWEST SPAS INC,4582 DALLAS HWY NW,SALEM,OR,97304,"NORTHWEST SPAS INC.4582 DALLAS HWY NW, SALEM OREGON 97304 (POLK)",0,C,,
97321DWLDN33710,-123.15799999999999,44.559,False,41,043,030700,41,41043,41043030700,1400000US41043030700,WASTEQUIP OREGON,33710 OAKVILLE RD,ALBANY,OR,97321,"WASTEQUIP OREGON.33710 OAKVILLE RD, ALBANY OREGON 97321 (LINN)",0,C,,110000487946
97339MDCRV2862H,-123.242,44.563,False,41,043,030700,41,41043,41043030700,1400000US41043030700,MDU CORVALLIS ASPHALT,28602 HWY 34,CORVALLIS,OR,97339,"MDU CORVALLIS ASPHALT.28602 HWY 34, CORVALLIS OREGON 97339 (LINN)",0,C,,110037149957
97321SYNTH1290I,-123.103,44.628,False,41,043,020801,41,41043,41043020801,1400000US41043020801,WR GRACE & CO,1290 INDUSTRIAL WAY SW,ALBANY,OR,97322,"WR GRACE & CO.1290 INDUSTRIAL WAY SW, ALBANY OREGON 97322 (LINN)",0,C,,110000488026
97470RNCSY2826C,-123.47399999999999,43.211000000000006,False,41,019,070000,41,41019,41019070000,1400000US41019070000,ORENCO SYSTEMS INC,2826 COLONIAL RD,ROSEBURG,OR,97470,"ORENCO SYSTEMS INC.2826 COLONIAL RD, ROSEBURG OREGON 97470 (DOUGLAS)",0,C,,
97470SMRNB133WE,-123.34700000000001,43.3,False,41,019,090000,41,41019,41019090000,1400000US41019090000,ORENCO SYSTEMS INC,133 WEYERHAEUSER DR N,ROSEBURG,OR,97470,"ORENCO SYSTEMS INC.133 WEYERHAEUSER DR N, ROSEBURG OREGON 97470 (DOUGLAS)",0,C,,110000488482
97470FCCCM8452O,-123.345,43.317,False,41,019,090000,41,41019,41019090000,1400000US41019090000,FCC COMMERCIAL FURNITURE INC,8452 OLD HWY 99 N,ROSEBURG,OR,97470,"FCC COMMERCIAL FURNITURE INC.8452 OLD HWY 99 N, ROSEBURG OREGON 97470 (DOUGLAS)",0,C,,110000824243
97470LCNCB867NB,-123.34,43.31,False,41,019,090000,41,41019,41019090000,1400000US41019090000,ORENCO SYSTEMS INC,867 N BANK RD,ROSEBURG,OR,97470,"ORENCO SYSTEMS INC.867 N BANK RD, ROSEBURG OREGON 97470 (DOUGLAS)",0,C,,110004798354
97504SMCRM2067C,-122.86,42.372,False,41,029,001200,41,41029,41029001200,1400000US41029001200,SRC VISION INC,2067 COMMERCE DR,MEDFORD,OR,975049744,"SRC VISION INC.2067 COMMERCE DR, MEDFORD OREGON 97504 (JACKSON)",0,C,,
97233CNMXM621SE,-122.456,45.518,False,41,051,009801,41,41051,41051009801,1400000US41051009801,ECONO MAX MANUFACTURING INC,621 SE 202ND,PORTLAND,OR,97233,"ECONO MAX MANUFACTURING INC.621 SE 202ND, PORTLAND OREGON 97233 (MULTNOMAH)",0,C,,
97426FRCRS33464,-123.025,43.928999999999995,False,41,039,001101,41,41039,41039001101,1400000US41039001101,FOSTER FARMS CRESWELL PLANT,33464 E W LN,CRESWELL,OR,974269750,"FOSTER FARMS CRESWELL PLANT.33464 E W LN, CRESWELL OREGON 97426 (LANE)",0,C,,
97031DFRST4780D,-121.62799999999999,45.591,False,41,027,950100,41,41027,41027950100,1400000US41027950100,DEE FOREST PRODUCTS INC,4780 DEE HWY,HOOD RIVER,OR,97031,"DEE FOREST PRODUCTS INC.4780 DEE HWY, HOOD RIVER OREGON 97031 (HOOD RIVER)",0,C,,
97266MLSFB8855S,-122.579,45.452,False,41,005,022201,41,41005,41005022201,1400000US41005022201,MILES FIBERGLASS & PLASTICS INC OTTY RD,8855 SE OTTY RD,HAPPY VALLEY,OR,97086,"MILES FIBERGLASS & PLASTICS INC OTTY RD.8855 SE OTTY RD, HAPPY VALLEY OREGON 97086 (CLACKAMAS)",0,C,,110006853342
97444DVNCD35002,-124.369,42.562,False,41,015,950200,41,41015,41015950200,1400000US41015950200,ADVANCED PRODUCTS,35002 TAMS RD,GOLD BEACH,OR,97444,"ADVANCED PRODUCTS.35002 TAMS RD, GOLD BEACH OREGON 97444 (CURRY)",0,C,,
97828PRKSB331GO,-117.287,45.43,False,41,063,960300,41,41063,41063960300,1400000US41063960300,PARKS BRONZE,331 GOLF COURSE RD,ENTERPRISE,OR,97828,"PARKS BRONZE.331 GOLF COURSE RD, ENTERPRISE OREGON 97828 (WALLOWA)",0,C,,110000500921
97846VLLYB307WA,-117.23299999999999,45.357,False,41,063,960100,41,41063,41063960100,1400000US41063960100,VALLEY BRONZE OF OREGON,307 W ALDER,JOSEPH,OR,97846,"VALLEY BRONZE OF OREGON.307 W ALDER, JOSEPH OREGON 97846 (WALLOWA)",0,C,,
97846JSPHB83365,-117.23,45.379,False,41,063,960100,41,41063,41063960100,1400000US41063960100,JOSEPH BRONZE INC,83365 JOSEPH HWY,JOSEPH,OR,97846,"JOSEPH BRONZE INC.83365 JOSEPH HWY, JOSEPH OREGON 97846 (WALLOWA)",0,C,,110000488874
97478KNGSF3315M,-122.98,44.063,False,41,039,002001,41,41039,41039002001,1400000US41039002001,KINGSFORD MANUFACTURING CO,3315 MARCOLA RD,SPRINGFIELD,OR,97477,"KINGSFORD MANUFACTURING CO.3315 MARCOLA RD, SPRINGFIELD OREGON 97477 (LANE)",0,C,,110000488534
97603QGLSS5855W,-121.755,42.17100000000001,False,41,035,970800,41,41035,41035970800,1400000US41035970800,MASCO BATH,5855 WASHBURN WAY,KLAMATH FALLS,OR,97603,"MASCO BATH.5855 WASHBURN WAY, KLAMATH FALLS OREGON 97603 (KLAMATH)",1,C,,110000488730
97603SRFRC173FW,-121.74700000000001,42.162,False,41,035,970800,41,41035,41035970800,1400000US41035970800,U.S. DOD USAF KINGSLEY FIELD ANG,173 FW 221 WAGNER ST SUITE 16,KLAMATH FALLS,OR,976030211,"U.S. DOD USAF KINGSLEY FIELD ANG.173 FW 221 WAGNER ST SUITE 16, KLAMATH FALLS OREGON 97603 (KLAMATH)",0,F,,110033604204
97886SMTHFDEPOT,-118.426,45.82,False,41,059,950100,41,41059,41059950100,1400000US41059950100,SMITH FROZEN FOODS INC,101 DEPOT STREET,WESTON,OR,97886,"SMITH FROZEN FOODS INC.101 DEPOT STREET, WESTON OREGON 97886 (UMATILLA)",0,C,,110007738298
97113SHLDN300N2,-123.04,45.523,False,41,067,032901,41,41067,41067032901,1400000US41067032901,SHELDON MANUFACTURING INC,300 N. 26TH AVE.,CORNELIUS,OR,97113,"SHELDON MANUFACTURING INC.300 N. 26TH AVE., CORNELIUS OREGON 97113 (WASHINGTON)",0,C,,110000486929
97408MNCCC91320,-123.059,44.143,False,41,039,000300,41,41039,41039000300,1400000US41039000300,MONACO RV LLC,91320 COBURG INDUSTRIAL WAY,COBURG,OR,97408,"MONACO RV LLC.91320 COBURG INDUSTRIAL WAY, COBURG OREGON 97408 (LANE)",0,C,,110014160772
97401WYRHS92574,-123.083,44.178999999999995,False,41,039,000300,41,41039,41039000300,1400000US41039000300,WEYERHAEUSER COBURG SAWMILL & VENEER,92574 N COBURG RD,EUGENE,OR,97408,"WEYERHAEUSER COBURG SAWMILL & VENEER.92574 N COBURG RD, EUGENE OREGON 97408 (LANE)",0,C,,110020517626
97408GGSND952CB,-123.064,44.122,False,41,039,000300,41,41039,41039000300,1400000US41039000300,EUGENE SAND & GRAVEL--COBURG,90520 COBURG RD,EUGENE,OR,97408,"EUGENE SAND & GRAVEL--COBURG.90520 COBURG RD, EUGENE OREGON 97408 (LANE)",0,C,,110037149984
9740WCRRYN91218,-123.05799999999999,44.141999999999996,False,41,039,000300,41,41039,41039000300,1400000US41039000300,CARRY ON TRAILER CORP,91218 N COBURG IND US TRIAL WAY,COBURG,OR,97408,"CARRY ON TRAILER CORP.91218 N COBURG IND US TRIAL WAY, COBURG OREGON 97408 (LANE)",0,C,,110062922440
97479RNCSY814AI,-123.33200000000001,43.379,False,41,019,050002,41,41019,41019050002,1400000US41019050002,ORENCO SYSTEMS INC,814 AIRWAY AVE,SUTHERLIN,OR,97479,"ORENCO SYSTEMS INC.814 AIRWAY AVE, SUTHERLIN OREGON 97479 (DOUGLAS)",0,C,,110002149577
97601NWRTH1350S,-121.77600000000001,42.22,False,41,035,971800,41,41035,41035971800,1400000US41035971800,CELL TECH/NEW EARTH,1350 S 6TH ST,KLAMATH FALLS,OR,97601,"CELL TECH/NEW EARTH.1350 S 6TH ST, KLAMATH FALLS OREGON 97601 (KLAMATH)",0,C,,
97601KLMTH661SS,-121.772,42.222,False,41,035,971800,41,41035,41035971800,1400000US41035971800,CELL TECH INTERNATINAL,661 SPRING ST,KLAMATH FALLS,OR,97601,"CELL TECH INTERNATINAL.661 SPRING ST, KLAMATH FALLS OREGON 97601 (KLAMATH)",0,C,,
97624DRCRF31725,-121.882,42.511,False,41,035,970200,41,41035,41035970200,1400000US41035970200,DOOR SYSTEMS CHILOQUIN,31725 HWY 97 N STE A,CHILOQUIN,OR,97624,"DOOR SYSTEMS CHILOQUIN.31725 HWY 97 N STE A, CHILOQUIN OREGON 97624 (KLAMATH)",0,C,,110000601536
97002DLMSF11671,-122.824,45.235,False,41,047,010201,41,41047,41047010201,1400000US41047010201,FOSTER FARMS DONALD FEEDMILL,11671 EHLEN RD,AURORA,OR,97002,"FOSTER FARMS DONALD FEEDMILL.11671 EHLEN RD, AURORA OREGON 97002 (MARION)",0,C,,110001135879
97009SHWSF19402,-122.475,45.442,False,41,005,023201,41,41005,41005023201,1400000US41005023201,SHAW'S FIBERGLASS & PLASTICS INC,19402 SE FOSTER RD,DAMASCUS,OR,97089,"SHAW'S FIBERGLASS & PLASTICS INC.19402 SE FOSTER RD, DAMASCUS OREGON 97089 (CLACKAMAS)",0,C,,110000486536
97055MDNBR16600,-122.291,45.403999999999996,False,41,005,023404,41,41005,41005023404,1400000US41005023404,MAIDEN BRONZE INC,16600 SE 362ND DRIVE,SANDY,OR,97055,"MAIDEN BRONZE INC.16600 SE 362ND DRIVE, SANDY OREGON 97055 (CLACKAMAS)",0,C,,110012338737
97055WCBMP36600,-122.287,45.402,False,41,005,023404,41,41005,41005023404,1400000US41005023404,WEC-BMP,36600 INDUSTRIAL WAY,SANDY,OR,97055,"WEC-BMP.36600 INDUSTRIAL WAY, SANDY OREGON 97055 (CLACKAMAS)",1,C,,
97124PSNPR3950N,-122.88799999999999,45.548,False,41,067,031617,41,41067,41067031617,1400000US41067031617,EPSON PORTLAND INC,3950 NW ALOCLEK PLACE,HILLSBORO,OR,97124,"EPSON PORTLAND INC.3950 NW ALOCLEK PLACE, HILLSBORO OREGON 97124 (WASHINGTON)",0,C,,110000816984
97210DRWPN1525N,-122.699,45.534,False,41,051,004900,41,41051,41051004900,1400000US41051004900,DREW PAINTS INC,1525 NW 23RD AVE,PORTLAND,OR,97210,"DREW PAINTS INC.1525 NW 23RD AVE, PORTLAND OREGON 97210 (MULTNOMAH)",0,C,,
97381RDMNH1204M,-122.78,45.016000000000005,False,41,047,010502,41,41047,41047010502,1400000US41047010502,REDMAN HOME,1204 MILL ST,SILVERTON,OR,973811199,"REDMAN HOME.1204 MILL ST, SILVERTON OREGON 97381 (MARION)",0,C,,
97603NWRTH7859S,-121.686,42.165,False,41,035,971000,41,41035,41035971000,1400000US41035971000,CELL TECH INTL,7859 SHORT RD,KLAMATH FALLS,OR,97603,"CELL TECH INTL.7859 SHORT RD, KLAMATH FALLS OREGON 97603 (KLAMATH)",0,C,,
97601NRTHPHWY97,-121.81299999999999,42.324,False,41,035,971000,41,41035,41035971000,1400000US41035971000,NORTH PIT,HWY 97 & SHADY PINE RD,KLAMATH FALLS,OR,97601,"NORTH PIT.HWY 97 & SHADY PINE RD, KLAMATH FALLS OREGON 97601 (KLAMATH)",0,C,,110025317734
97738CMPST12860,-119.08200000000001,43.55,False,41,025,960100,41,41025,41025960100,1400000US41025960100,MONACO RV LLC HINES DIV,320 SNOW MOUNTAIN RD,HINES,OR,97738,"MONACO RV LLC HINES DIV.320 SNOW MOUNTAIN RD, HINES OREGON 97738 (HARNEY)",0,C,,110042074260
97738LSNPCHWY20,-119.084,43.552,False,41,025,960100,41,41025,41025960100,1400000US41025960100,LOUISIANA-PACIFIC CORP,551 HWY 20 S,HINES,OR,97738,"LOUISIANA-PACIFIC CORP.551 HWY 20 S, HINES OREGON 97738 (HARNEY)",0,C,,
97838MRLTT400WE,-119.296,45.851000000000006,False,41,059,951000,41,41059,41059951000,1400000US41059951000,CLAYTON HERMISTON,400 W ELM AVE,HERMISTON,OR,97838,"CLAYTON HERMISTON.400 W ELM AVE, HERMISTON OREGON 97838 (UMATILLA)",0,C,,110014223553
97030CLMBB2300S,-122.412,45.481,False,41,051,010408,41,41051,41051010408,1400000US41051010408,COLUMBIA BRICK PLANT,2300 SE HOGAN RD,GRESHAM,OR,97080,"COLUMBIA BRICK PLANT.2300 SE HOGAN RD, GRESHAM OREGON 97080 (MULTNOMAH)",0,C,,110000486643
97030LSLGC23400,-122.426,45.525,False,41,051,010303,41,41051,41051010303,1400000US41051010303,ON SEMICONDUCTOR,23400 NE GLISAN ST,GRESHAM,OR,97030,"ON SEMICONDUCTOR.23400 NE GLISAN ST, GRESHAM OREGON 97030 (MULTNOMAH)",0,C,,110014190721
97814BHLNM40002,-117.85600000000001,44.794,False,41,001,950200,41,41001,41001950200,1400000US41001950200,BEHLEN MANUFACTURING CO,4000 23RD ST,BAKER CITY,OR,97814,"BEHLEN MANUFACTURING CO.4000 23RD ST, BAKER CITY OREGON 97814 (BAKER)",0,C,,
97836KNZRS54174,-119.587,45.376000000000005,False,41,049,970200,41,41049,41049970200,1400000US41049970200,KINZUA RESOURCES LLC,54174 HWY 74,HEPPNER,OR,97836,"KINZUA RESOURCES LLC.54174 HWY 74, HEPPNER OREGON 97836 (MORROW)",0,C,,
97818PTLTCPTLAT,-119.571,45.748000000000005,False,41,049,970200,41,41049,41049970200,1400000US41049970200,POTLATCH BOARDMAN HYBRID POPLAR FARM,POTLATCH HYBRID POPLAR FARM PO BOX 38 HOMESTEAD RD,BOARDMAN,OR,97818,"POTLATCH BOARDMAN HYBRID POPLAR FARM.POTLATCH HYBRID POPLAR FARM PO BOX 38 HOMESTEAD RD, BOARDMAN OREGON 97818 (MORROW)",1,C,,110004814700
9781WPPRCL772PL,-119.542,45.778999999999996,False,41,049,970200,41,41049,41049970200,1400000US41049970200,UPPER COLUMBIA MILL LLC,77200 POLELINE RD,BOARDMAN,OR,97818,"UPPER COLUMBIA MILL LLC.77200 POLELINE RD, BOARDMAN OREGON 97818 (MORROW)",1,C,,110037809627
97862NRTHW84678,-118.49799999999999,45.976000000000006,False,41,059,950300,41,41059,41059950300,1400000US41059950300,NORTHWEST ART CASTING,84678 RINGER RD,MILTON-FREEWATER,OR,97862,"NORTHWEST ART CASTING.84678 RINGER RD, MILTON-FREEWATER OREGON 97862 (UMATILLA)",0,C,,
97756PCCSC345NE,-121.165,44.285,False,41,017,000700,41,41017,41017000700,1400000US41017000700,PCC STRUCTURALS INC SCHLOSSER,345 NE HEMLOCK,REDMOND,OR,97756,"PCC STRUCTURALS INC SCHLOSSER.345 NE HEMLOCK, REDMOND OREGON 97756 (DESCHUTES)",0,C,,110000488801
97756RDMND1248N,-121.156,44.281000000000006,False,41,017,000700,41,41017,41017000700,1400000US41017000700,MDU RESOURCES REDMOND CONCRETE,1248 NE GREENWOOD AVE,REDMOND,OR,97756,"MDU RESOURCES REDMOND CONCRETE.1248 NE GREENWOOD AVE, REDMOND OREGON 97756 (DESCHUTES)",0,C,,110037145112
97812CHMCL17629,-120.234,45.615,False,41,021,960100,41,41021,41021960100,1400000US41021960100,CHEMICAL WASTE MANAGEMENT OF THE NORTHWEST INC,17629 CEDAR SPRINGS LN,ARLINGTON,OR,97812,"CHEMICAL WASTE MANAGEMENT OF THE NORTHWEST INC.17629 CEDAR SPRINGS LN, ARLINGTON OREGON 97812 (GILLIAM)",0,C,,110013755828
97048CNRDW29175,-122.965,46.1,False,41,009,970300,41,41009,41009970300,1400000US41009970300,CONRAD WOOD PRESERVING CO,29175 DIKE RD,RAINIER,OR,97048,"CONRAD WOOD PRESERVING CO.29175 DIKE RD, RAINIER OREGON 97048 (COLUMBIA)",0,C,,110002148845
97048NTDST29073,-122.97200000000001,46.104,False,41,009,970300,41,41009,41009970300,1400000US41009970300,US GYPSUM CO,29073 DIKE RD,RAINIER,OR,97048,"US GYPSUM CO.29073 DIKE RD, RAINIER OREGON 97048 (COLUMBIA)",0,C,,110013285630
97128RBRBB904E1,-123.189,45.214,False,41,071,030801,41,41071,41071030801,1400000US41071030801,ULTIMATE RB,904 NE 10TH AVE,MCMINNVILLE,OR,97128,"ULTIMATE RB.904 NE 10TH AVE, MCMINNVILLE OREGON 97128 (YAMHILL)",0,C,,110002149005
97058SDBNN3920C,-121.113,45.595,False,41,065,970700,41,41065,41065970700,1400000US41065970700,U.S. DOE BONNEVILLE POWER ADMIN. CELILO CONVERTER STATION,3920 COLUMBIA VIEW DR E,THE DALLES,OR,97058,"U.S. DOE BONNEVILLE POWER ADMIN. CELILO CONVERTER STATION.3920 COLUMBIA VIEW DR E, THE DALLES OREGON 97058 (WASCO)",0,F,,110006858622
97016STMSN865ST,-123.206,46.113,False,41,009,970200,41,41009,41009970200,1400000US41009970200,STIMSON LUMBER CO - CLATSKANIE,865 STIMSON MILL RD,CLATSKANIE,OR,97016,"STIMSON LUMBER CO - CLATSKANIE.865 STIMSON MILL RD, CLATSKANIE OREGON 97016 (COLUMBIA)",0,C,,110004789355
9701WCLMBP812KA,-123.166,46.175,False,41,009,970200,41,41009,41009970200,1400000US41009970200,COLUMBIA PACIFIC BIO-REFINERY,81200 KALLUNKI RD,CLATSKANIE,OR,97016,"COLUMBIA PACIFIC BIO-REFINERY.81200 KALLUNKI RD, CLATSKANIE OREGON 97016 (COLUMBIA)",0,C,,110038366979
9701WPGBVR8997K,-123.155,46.17100000000001,False,41,009,970200,41,41009,41009970200,1400000US41009970200,PGE BEAVER PLANT & PORT WESTWARD PLANT,80997 KALLUNKI RD,CLATSKANIE,OR,97016,"PGE BEAVER PLANT & PORT WESTWARD PLANT.80997 KALLUNKI RD, CLATSKANIE OREGON 97016 (COLUMBIA)",0,C,,110070550036
97032LXCRN2852I,-122.806,45.176,False,41,047,010202,41,41047,41047010202,1400000US41047010202,LOXCREEN COMPANY INC,2852 INDUSTRIAL AVE,HUBBARD,OR,97032,"LOXCREEN COMPANY INC.2852 INDUSTRIAL AVE, HUBBARD OREGON 97032 (MARION)",2,C,,110012701371
97045GLCRN16381,-122.596,45.369,False,41,005,022301,41,41005,41005022301,1400000US41005022301,GLACIER NORTHWEST INC OREGON CITY READY-MIX PLANT,16381 S MAIN ST,OREGON CITY,OR,97045,"GLACIER NORTHWEST INC OREGON CITY READY-MIX PLANT.16381 S MAIN ST, OREGON CITY OREGON 97045 (CLACKAMAS)",0,C,,110004810269
97070XRXFF26600,-122.765,45.325,False,41,005,024400,41,41005,41005024400,1400000US41005024400,XEROX CORP,27063 SW CANYON CREEK RD.,WILSONVILLE,OR,97070,"XEROX CORP.27063 SW CANYON CREEK RD., WILSONVILLE OREGON 97070 (CLACKAMAS)",0,C,,110007736959
97124ZMNMG235NE,-122.959,45.54,False,41,067,032610,41,41067,41067032610,1400000US41067032610,HIREL SYSTEMS OREGON SITE,"1600 NW COMPTON DR, SUITE 140",HILLSBORO,OR,97006,"HIREL SYSTEMS OREGON SITE.1600 NW COMPTON DR, SUITE 140, HILLSBORO OREGON 97006 (WASHINGTON)",1,C,,110004813211
97347FRTHL8900F,-123.553,45.063,False,41,053,020400,41,41053,41053020400,1400000US41053020400,FORT HILL LUMBER,8900 FORT HILL ROAD,GRAND RONDE,OR,97347,"FORT HILL LUMBER.8900 FORT HILL ROAD, GRAND RONDE OREGON 97347 (POLK)",0,C,,
97420GRGPC1170A,-124.20299999999999,43.358000000000004,False,41,011,000700,41,41011,41011000700,1400000US41011000700,COOS BAY SAWMILL,63779 MULLEN RD,COOS BAY,OR,97420,"COOS BAY SAWMILL.63779 MULLEN RD, COOS BAY OREGON 97420 (COOS)",0,C,,110033025660
97420LTMML62155,-124.197,43.335,False,41,011,000700,41,41011,41011000700,1400000US41011000700,MILLINGTON CONCRETE,62155 HWY 101 S,COOS BAY,OR,97420,"MILLINGTON CONCRETE.62155 HWY 101 S, COOS BAY OREGON 97420 (COOS)",0,C,,110031019779
97478CHRMW3240O,-122.98,44.06,False,41,039,001902,41,41039,41039001902,1400000US41039001902,CHROME WORLD,3240 OLYMPIC ST,SPRINGFIELD,OR,97478,"CHROME WORLD.3240 OLYMPIC ST, SPRINGFIELD OREGON 97478 (LANE)",0,C,,
97737CRWNPNO1SA,-121.696,43.477,False,41,035,970100,41,41035,41035970100,1400000US41035970100,INTERFOR US - GILCHRIST,1 SAWMILL RD,GILCHRIST,OR,97737,"INTERFOR US - GILCHRIST.1 SAWMILL RD, GILCHRIST OREGON 97737 (KLAMATH)",0,C,,110001655414
97801LPPRT3700N,-118.82600000000001,45.67100000000001,False,41,059,950400,41,41059,41059950400,1400000US41059950400,LIPPERT COMPONENTS INC - PLANT #27,3700 NW WESTGATE DR,PENDLETON,OR,97801,"LIPPERT COMPONENTS INC - PLANT #27.3700 NW WESTGATE DR, PENDLETON OREGON 97801 (UMATILLA)",0,C,,110012701433
97845GRNTWWHWY2,-118.98299999999999,44.423,False,41,023,960200,41,41023,41023960200,1400000US41023960200,GRANT WESTERN LUMBER CO,W HWY  26,JOHN DAY,OR,97845,"GRANT WESTERN LUMBER CO.W HWY  26, JOHN DAY OREGON 97845 (GRANT)",0,C,,
97869PRRWD457FR,-118.72,44.457,False,41,023,960100,41,41023,41023960100,1400000US41023960100,PRAIRE WOOD PRODS,457 FRONT ST,PRAIRIE CITY,OR,97869,"PRAIRE WOOD PRODS.457 FRONT ST, PRAIRIE CITY OREGON 97869 (GRANT)",0,C,,
97885WLLWFLOWER,-117.587,45.593,False,41,063,960200,41,41063,41063960200,1400000US41063960200,WALLOWA FOREST PRODS,LOWER ORAMAND PRAIRIE RD,WALLOWA,OR,97885,"WALLOWA FOREST PRODS.LOWER ORAMAND PRAIRIE RD, WALLOWA OREGON 97885 (WALLOWA)",0,C,,
97071LPPRT2701N,-122.836,45.16,False,41,047,010307,41,41047,41047010307,1400000US41047010307,LIPPERT COMPONENTS INC PLANT 38,2701 N FRONT ST,WOODBURN,OR,97071,"LIPPERT COMPONENTS INC PLANT 38.2701 N FRONT ST, WOODBURN OREGON 97071 (MARION)",1,C,,
97071LXCRN271FR,-122.836,45.16,False,41,047,010307,41,41047,41047010307,1400000US41047010307,LOXCREEN CO INC,2701 FRONT ST,WOODBURN,OR,97071,"LOXCREEN CO INC.2701 FRONT ST, WOODBURN OREGON 97071 (MARION)",0,C,,110031019733
97230SSLRL17311,-122.485,45.535,False,41,051,009605,41,41051,41051009605,1400000US41051009605,ESSILOR LABORATORIES OF AMERICA INC (DBA OPTI-CRAFT),17311 NE HALSEY ST,PORTLAND,OR,97230,"ESSILOR LABORATORIES OF AMERICA INC (DBA OPTI-CRAFT).17311 NE HALSEY ST, PORTLAND OREGON 97230 (MULTNOMAH)",0,C,,110012256646
9723WRNPRR17383,-122.48299999999999,45.541000000000004,False,41,051,009605,41,41051,41051009605,1400000US41051009605,ARNPRIOR AEROSPACE,17383 NE SACRAMENTO ST,PORTLAND,OR,97230,"ARNPRIOR AEROSPACE.17383 NE SACRAMENTO ST, PORTLAND OREGON 97230 (MULTNOMAH)",0,C,,110064694317
97402PTRSN2948A,-123.189,44.111000000000004,False,41,039,002501,41,41039,41039002501,1400000US41039002501,PETERSON PACIFIC CORP,29408 AIRPORT RD,EUGENE,OR,97402,"PETERSON PACIFIC CORP.29408 AIRPORT RD, EUGENE OREGON 97402 (LANE)",0,C,,110012640605
97470RSBRG3443C,-123.37,43.163999999999994,False,41,019,150000,41,41019,41019150000,1400000US41019150000,ROSEBURG FOREST PRODUCTS CO,3443 CARNES RD,ROSEBURG,OR,97470,"ROSEBURG FOREST PRODUCTS CO.3443 CARNES RD, ROSEBURG OREGON 97470 (DOUGLAS)",1,C,,
97470LTMNC186BE,-123.37,43.153999999999996,False,41,019,150000,41,41019,41019150000,1400000US41019150000,MDU RESOURCES ROSEBURG ASPHALT,186 BEAVER STATE RD,ROSEBURG,OR,97470,"MDU RESOURCES ROSEBURG ASPHALT.186 BEAVER STATE RD, ROSEBURG OREGON 97470 (DOUGLAS)",0,C,,110014266310
97477SFTYK55SHE,-123.035,44.06399999999999,False,41,039,002102,41,41039,41039002102,1400000US41039002102,SAFETY-KLEEN SYSTEMS (705401),550 SHELLY ST SPACE A-E,SPRINGFIELD,OR,97477,"SAFETY-KLEEN SYSTEMS (705401).550 SHELLY ST SPACE A-E, SPRINGFIELD OREGON 97477 (LANE)",0,C,,110020517644
97009CLCGN274SE,-122.381,45.427,False,41,005,023300,41,41005,41005023300,1400000US41005023300,CALCAGNO FOUNDRY,27400 SE HWY 212,BORING,OR,97009,"CALCAGNO FOUNDRY.27400 SE HWY 212, BORING OREGON 97009 (CLACKAMAS)",0,C,,110022811787
97060CSCDF21WCL,-122.39,45.541000000000004,False,41,051,010305,41,41051,41051010305,1400000US41051010305,CASCADE FINE ARTS,201 W COLUMBIA RIVER HWY,TROUTDALE,OR,97060,"CASCADE FINE ARTS.201 W COLUMBIA RIVER HWY, TROUTDALE OREGON 97060 (MULTNOMAH)",0,C,,110022811796
97060MRXCR23365,-122.42299999999999,45.538000000000004,False,41,051,010304,41,41051,41051010304,1400000US41051010304,MERIX CORP,23365 NE HALSEY,WOOD VILLAGE,OR,97060,"MERIX CORP.23365 NE HALSEY, WOOD VILLAGE OREGON 97060 (MULTNOMAH)",0,C,,110012257495
97124BCDWR21421,-122.898,45.565,False,41,067,031504,41,41067,41067031504,1400000US41067031504,QUANTUMCLEAN,8055 NE JACOBSON ST,HILLSBORO,OR,97124,"QUANTUMCLEAN.8055 NE JACOBSON ST, HILLSBORO OREGON 97124 (WASHINGTON)",0,C,,110022448403
97266RNKRM64SE1,-122.559,45.473,False,41,051,008902,41,41051,41051008902,1400000US41051008902,CADMAN - FOSTER ROAD RM,6400 SE 101ST AVE,PORTLAND,OR,97266,"CADMAN - FOSTER ROAD RM.6400 SE 101ST AVE, PORTLAND OREGON 97266 (MULTNOMAH)",0,C,,110022524650
97470CDDCK17271,-123.125,43.302,False,41,019,110000,41,41019,41019110000,1400000US41019110000,CADDOCK ELECTRONICS INC,17271 NORTH UMPQUA HIGHWAY,ROSEBURG,OR,97470,"CADDOCK ELECTRONICS INC.17271 NORTH UMPQUA HIGHWAY, ROSEBURG OREGON 97470 (DOUGLAS)",0,C,,110022811803
97470STNPW965NU,-123.219,43.233000000000004,False,41,019,110000,41,41019,41019110000,1400000US41019110000,AUSTIN POWDER CO,9605 N UMPQUA HWY,ROSEBURG,OR,97470,"AUSTIN POWDER CO.9605 N UMPQUA HWY, ROSEBURG OREGON 97470 (DOUGLAS)",0,C,,110037072253
97838CNTRLPWERL,-119.363,45.879,False,41,059,950900,41,41059,41059950900,1400000US41059950900,CENTRAL PRE-MIX HERMISTON,POWERLINE RD TO PTL RANCH RD,HERMISTON,OR,97838,"CENTRAL PRE-MIX HERMISTON.POWERLINE RD TO PTL RANCH RD, HERMISTON OREGON 97838 (UMATILLA)",0,C,,110022524678
9783WMRCNR8183H,-119.302,45.903999999999996,False,41,059,950900,41,41059,41059950900,1400000US41059950900,AMERICAN ROCK PRODUCTS HERMISTON,81830 HWY 395 N,HERMISTON,OR,97838,"AMERICAN ROCK PRODUCTS HERMISTON.81830 HWY 395 N, HERMISTON OREGON 97838 (UMATILLA)",0,C,,110070556565
97038NTRFR15555,-122.551,45.16,False,41,005,023902,41,41005,41005023902,1400000US41005023902,INTERFOR US - MOLALLA,15555 S HWY 211,MOLALLA,OR,97038,"INTERFOR US - MOLALLA.15555 S HWY 211, MOLALLA OREGON 97038 (CLACKAMAS)",0,C,,110025334172
97527LLTRX1111C,-123.46,42.355,False,41,033,361500,41,41033,41033361500,1400000US41033361500,ALLTRAX INC,1111 CHENEY CREEK RD,GRANTS PASS,OR,97527,"ALLTRAX INC.1111 CHENEY CREEK RD, GRANTS PASS OREGON 97527 (JOSEPHINE)",0,C,,110024887407
9763WLKVWS16MIS,-120.35600000000001,42.2,False,41,037,960200,41,41037,41037960200,1400000US41037960200,COLLINS PINE CO LAKEVIEW SAWMILL,1600 MISSOURI AVE,LAKEVIEW,OR,97630,"COLLINS PINE CO LAKEVIEW SAWMILL.1600 MISSOURI AVE, LAKEVIEW OREGON 97630 (LAKE)",0,C,,110050813938
97309RVRBN415LA,-122.979,44.9,False,41,047,001803,41,41047,41047001803,1400000US41047001803,RIVERBEND SAND & GRAVEL,4105 LANCASTER DR SE,SALEM,OR,97317,"RIVERBEND SAND & GRAVEL.4105 LANCASTER DR SE, SALEM OREGON 97317 (MARION)",0,C,,110001653407
9730WCMXLN2425L,-122.979,44.9,False,41,047,001803,41,41047,41047001803,1400000US41047001803,CEMEX - LANCASTER RM,"2425 LANCASTER DRIVE, SE",SALEM,OR,97301,"CEMEX - LANCASTER RM.2425 LANCASTER DRIVE, SE, SALEM OREGON 97301 (MARION)",0,C,,110043965475
97603DSNPL2918E,-121.75299999999999,42.193000000000005,False,41,035,971500,41,41035,41035971500,1400000US41035971500,EDISON PLANT,2918 EDISON AVE,KLAMATH FALLS,OR,97603,"EDISON PLANT.2918 EDISON AVE, KLAMATH FALLS OREGON 97603 (KLAMATH)",0,C,,110031001797
97603LTMKM4815T,-121.771,42.181999999999995,False,41,035,971500,41,41035,41035971500,1400000US41035971500,MDU RESOURCES KLAMATH FALLS CONCRETE,4815 TINGLEY LN,KLAMATH FALLS,OR,97603,"MDU RESOURCES KLAMATH FALLS CONCRETE.4815 TINGLEY LN, KLAMATH FALLS OREGON 97603 (KLAMATH)",0,C,,110031019813
97115MWFBR2929N,-123.023,45.272,False,41,071,030301,41,41071,41071030301,1400000US41071030301,M&W FIBERGLASS INC,20929 NE NIEDERBERGER RD,DUNDEE,OR,97115,"M&W FIBERGLASS INC.20929 NE NIEDERBERGER RD, DUNDEE OREGON 97115 (YAMHILL)",0,C,,110055500220
97404MDRSR11DIV,-123.10799999999999,44.099,False,41,039,002301,41,41039,41039002301,1400000US41039002301,MDU RESOURCES EUGENE CONCRETE,1001 DIVISION AVE,EUGENE,OR,97404,"MDU RESOURCES EUGENE CONCRETE.1001 DIVISION AVE, EUGENE OREGON 97404 (LANE)",0,C,,110037149975
97701TMLCN64543,-121.331,44.141999999999996,False,41,017,000600,41,41017,41017000600,1400000US41017000600,TUMALO CONCRETE,64543 W HWY 20,BEND,OR,97701,"TUMALO CONCRETE.64543 W HWY 20, BEND OREGON 97701 (DESCHUTES)",0,C,,110037145103
9705WGLCRN22SEF,-122.22399999999999,45.376000000000005,False,41,005,024302,41,41005,41005024302,1400000US41005024302,GLACIER NORTHWEST INC. - SANDY READY MIX,20200 SE FIRWOOD ROAD,SANDY,OR,97055,"GLACIER NORTHWEST INC. - SANDY READY MIX.20200 SE FIRWOOD ROAD, SANDY OREGON 97055 (CLACKAMAS)",0,C,,110014208455
9714WCMPRL9124R,-123.946,46.125,False,41,007,951300,41,41007,41007951300,1400000US41007951300,US ARMY NATIONAL GUARD CAMP RILEA RANGES,33168 PATRIOT WAY,WARRENTON,OR,97146,"US ARMY NATIONAL GUARD CAMP RILEA RANGES.33168 PATRIOT WAY, WARRENTON OREGON 97146 (CLATSOP)",0,F,,110014227265
9740WGNSND3DELT,-123.1,44.097,False,41,039,002201,41,41039,41039002201,1400000US41039002201,EUGENE SAND AND GRAVEL,3000 DELTA HIGHWAY N,EUGENE,OR,97408,"EUGENE SAND AND GRAVEL.3000 DELTA HIGHWAY N, EUGENE OREGON 97408 (LANE)",0,C,,110014224197
9733WCMPDR39432,-123.26299999999999,44.714,False,41,003,010200,41,41003,41003010200,1400000US41003010200,US ARMY NATIONAL GUARD NAJAF TRAINING CTR (CAMP ADAIR) RANGE,39432 RIFLE RANGE RD,CORVALLIS,OR,973309329,"US ARMY NATIONAL GUARD NAJAF TRAINING CTR (CAMP ADAIR) RANGE.39432 RIFLE RANGE RD, CORVALLIS OREGON 97330 (BENTON)",0,F,,110041627736
9775WCTSBK2899H,-121.131,44.256,False,41,017,001001,41,41017,41017001001,1400000US41017001001,US ARMY NATIONAL GUARD CENTRAL OREGON UTES RANGES,2899 HWY 126 E,REDMOND,OR,97756,"US ARMY NATIONAL GUARD CENTRAL OREGON UTES RANGES.2899 HWY 126 E, REDMOND OREGON 97756 (DESCHUTES)",0,F,,110041627754
9705WGLCRN33485,-122.874,45.766000000000005,False,41,009,970900,41,41009,41009970900,1400000US41009970900,GLACIER NORTHWEST INC - SCAPPOOSE READY MIX,33485 E. CROWN ZELLERBACH ROAD,SCAPPOOSE,OR,97056,"GLACIER NORTHWEST INC - SCAPPOOSE READY MIX.33485 E. CROWN ZELLERBACH ROAD, SCAPPOOSE OREGON 97056 (COLUMBIA)",0,C,,110043671372
9731WSNYSL5475G,-122.948,44.907,False,41,047,001802,41,41047,41047001802,1400000US41047001802,PANASONIC ECO SOLUTIONS SOLAR AMERICA,5475 GAFFIN RD. SE,SALEM,OR,97317,"PANASONIC ECO SOLUTIONS SOLAR AMERICA.5475 GAFFIN RD. SE, SALEM OREGON 97317 (MARION)",0,C,,110060260159
9737WFDRLC2772B,-123.38600000000001,45.086000000000006,False,41,071,030501,41,41071,41071030501,1400000US41071030501,FEDERAL CORRECTIONAL INSTITUTION SHERIDAN,27072 BALLSTON RD,SHERIDAN,OR,97378,"FEDERAL CORRECTIONAL INSTITUTION SHERIDAN.27072 BALLSTON RD, SHERIDAN OREGON 97378 (YAMHILL)",0,F,,110001657840
9760WKLMTH166HW,-121.84700000000001,42.075,False,41,035,970700,41,41035,41035970700,1400000US41035970700,KLAMATH PACIFIC FLOWERS PIT,16600 HWY 97 SOUTH,KLAMATH FALLS,OR,97601,"KLAMATH PACIFIC FLOWERS PIT.16600 HWY 97 SOUTH, KLAMATH FALLS OREGON 97601 (KLAMATH)",0,C,,110046124056
9770WSTRRL295NE,-121.277,44.114,False,41,017,001200,41,41017,41017001200,1400000US41017001200,SUTERRA LLC,20950 NE TALUS PLACE,BEND,OR,97701,"SUTERRA LLC.20950 NE TALUS PLACE, BEND OREGON 97701 (DESCHUTES)",0,C,,110040447905
9703WDCKWL289VA,-121.508,45.653,False,41,027,950400,41,41027,41027950400,1400000US41027950400,DUCKWALL-POOLEY FRUIT CO-VAN HORN,2809 VAN HORN DRIVE,HOOD RIVER,OR,97031,"DUCKWALL-POOLEY FRUIT CO-VAN HORN.2809 VAN HORN DRIVE, HOOD RIVER OREGON 97031 (HOOD RIVER)",0,C,,110030768453
9703WDCKWL343DA,-121.53200000000001,45.626000000000005,False,41,027,950400,41,41027,41027950400,1400000US41027950400,DUCKWALL-POOLEY FRUIT CO,3430 DAVIS DRIVE,HOOD RIVER,OR,97031,"DUCKWALL-POOLEY FRUIT CO.3430 DAVIS DRIVE, HOOD RIVER OREGON 97031 (HOOD RIVER)",0,C,,110000547347
9703WCRDNL3125N,-121.516,45.632,False,41,027,950400,41,41027,41027950400,1400000US41027950400,CARDINAL GLASS,3125 NEAL CREEK MILL RD,HOOD RIVER,OR,97031,"CARDINAL GLASS.3125 NEAL CREEK MILL RD, HOOD RIVER OREGON 97031 (HOOD RIVER)",0,C,,110070556563
9710WNRTHW6SETE,-123.176,45.147,False,41,071,031000,41,41071,41071031000,1400000US41071031000,NORTHWEST ENERGETIC AMITY,6000 SE TELEGRAPH ROAD,AMITY,OR,97101,"NORTHWEST ENERGETIC AMITY.6000 SE TELEGRAPH ROAD, AMITY OREGON 97101 (YAMHILL)",0,C,,110055500211
9704WBNCHM3BEAV,-122.594,45.333,False,41,005,022605,41,41005,41005022605,1400000US41005022605,BENCHMADE KNIFE CO,300 BEAVERCREEK RD,OREGON CITY,OR,97045,"BENCHMADE KNIFE CO.300 BEAVERCREEK RD, OREGON CITY OREGON 97045 (CLACKAMAS)",0,C,,110004817413
9741WPCFCW819RA,-124.287,42.05,False,41,015,950302,41,41015,41015950302,1400000US41015950302,PACIFIC WOOD LAMINATES INC,819 RAILROAD AVE,BROOKINGS,OR,97415,"PACIFIC WOOD LAMINATES INC.819 RAILROAD AVE, BROOKINGS OREGON 97415 (CURRY)",0,C,,110058204018
9741WSTHCS17345,-124.31200000000001,42.078,False,41,015,950301,41,41015,41015950301,1400000US41015950301,SOUTH COAST LUMBER CO,17345 CARPENTERVILLE RD,BROOKINGS,OR,97415,"SOUTH COAST LUMBER CO.17345 CARPENTERVILLE RD, BROOKINGS OREGON 97415 (CURRY)",0,C,,110001654549
9701WWLLMT31348,-122.681,45.153,False,41,005,023800,41,41005,41005023800,1400000US41005023800,WILLAMETTE CANBY,31348 S HWY-170,CANBY,OR,97013,"WILLAMETTE CANBY.31348 S HWY-170, CANBY OREGON 97013 (CLACKAMAS)",0,C,,110069292483
9730WLDCST132CA,-123.01700000000001,44.978,False,41,047,001503,41,41047,41047001503,1400000US41047001503,OLDCASTLE PRECAST INC,1302 CANDLEWOOD DR NE,KEIZER,OR,97303,"OLDCASTLE PRECAST INC.1302 CANDLEWOOD DR NE, KEIZER OREGON 97303 (MARION)",0,C,,110070556450
9740WLDCST981HI,-123.193,44.125,False,41,039,001001,41,41039,41039001001,1400000US41039001001,OLDCASTLE PRECAST INC,90801 HIGHWAY 99 N,EUGENE,OR,97402,"OLDCASTLE PRECAST INC.90801 HIGHWAY 99 N, EUGENE OREGON 97402 (LANE)",0,C,,110070556495
