TRIFID,LONGITUDE,LATITUDE,ESTIMATE,STATEFP,COUNTYFP,TRACTCE,STATEGEOID,COUNTYGEOID,TRACTGEOID,AFFGEOID,FACILITY_NAME,STREET,CITY,STUSPS,ZIP_CODE,FACILITY,FAC_CLOSED_IND,ASGN_FEDERAL_IND,BIA_CODE,EPA_REGISTRY_ID
00602BXTRF111CO,-67.185,18.38,False,72,003,430200,72,72003,72003430200,1400000US72003430200,"BAXTER HEALTHCARE CORP, FENWAL DIV",111 COLON ST,AGUADA,PR,602,"BAXTER HEALTHCARE CORP, FENWAL DIV.111 COLON ST, AGUADA PUERTO RICO 00602 (AGUADA MUNICIPIO)",1,C,,
00602BXTRHRD115,-67.191,18.381,False,72,003,430300,72,72003,72003430300,1400000US72003430300,DADE DIAGNOSTICS OF PR INC,RD 115 KM 226,AGUADA,PR,602,"DADE DIAGNOSTICS OF PR INC.RD 115 KM 226, AGUADA PUERTO RICO 00602 (AGUADA MUNICIPIO)",0,C,,
00602ZLTXDURBIN,-67.195,18.38,False,72,003,430300,72,72003,72003430300,1400000US72003430300,ZELTEX PR INC,INDUSTRIAL PARK BLDG T 0993,AGUADA,PR,602,"ZELTEX PR INC.INDUSTRIAL PARK BLDG T 0993, AGUADA PUERTO RICO 00602 (AGUADA MUNICIPIO)",0,C,,
00602SMRTMRD115,-67.191,18.381,False,72,003,430300,72,72003,72003430300,1400000US72003430300,SMART MODULAR TECHNOLOGIES OF PUERTO RICO,RD 115 KM 226 AGUADA INDUSTRIAL PARK,AGUADA,PR,602,"SMART MODULAR TECHNOLOGIES OF PUERTO RICO.RD 115 KM 226 AGUADA INDUSTRIAL PARK, AGUADA PUERTO RICO 00602 (AGUADA MUNICIPIO)",0,C,,110041992742
00605BRNQNPR467,-67.15,18.458,False,72,005,400600,72,72005,72005400600,1400000US72005400600,BORINQUEN DAIRY DIV OF SUIZA DAIRY INC,PR 467 BO CAMASEYES KM 09,AGUADILLA,PR,6050434,"BORINQUEN DAIRY DIV OF SUIZA DAIRY INC.PR 467 BO CAMASEYES KM 09, AGUADILLA PUERTO RICO 00605 (AGUADILLA MUNICIPIO)",0,C,,
00605VNMRBMONTA,-67.141,18.453,False,72,005,400502,72,72005,72005400502,1400000US72005400502,AVON MIRABELLA INC,"MONTANA INDL PARK A ST, LOT 26/27",AGUADILLA,PR,603,"AVON MIRABELLA INC.MONTANA INDL PARK A ST, LOT 26/27, AGUADILLA PUERTO RICO 00603 (AGUADILLA MUNICIPIO)",0,C,,
00605SLCTRLOT10,-67.143,18.449,False,72,005,400502,72,72005,72005400502,1400000US72005400502,SOLECTRON PUERTO RICO AGUADILLA PLANT,LOT 10 & 12 MONTANA INDUSTRIAL RD 459 KM 0.6,AGUADILLA,PR,605,"SOLECTRON PUERTO RICO AGUADILLA PLANT.LOT 10 & 12 MONTANA INDUSTRIAL RD 459 KM 0.6, AGUADILLA PUERTO RICO 00605 (AGUADILLA MUNICIPIO)",0,C,,110013288735
00603SYMMTLAMNT,-67.137,18.456,False,72,005,400502,72,72005,72005400502,1400000US72005400502,SYMMETRICON PUERTO RICO LIMITED,LA MONTANA INDUSTRIAL PARK ST B LOT 52,AGUADILLA,PR,603,"SYMMETRICON PUERTO RICO LIMITED.LA MONTANA INDUSTRIAL PARK ST B LOT 52, AGUADILLA PUERTO RICO 00603 (AGUADILLA MUNICIPIO)",0,C,,110020514816
0060WHPNTRCARR1,-67.137,18.456,False,72,005,400502,72,72005,72005400502,1400000US72005400502,HP INTERNATIONAL TRADING BV (PUERTO RICO BRANCH) LLC,"CARR 110, KM. 5.1",AGUADILLA,PR,603,"HP INTERNATIONAL TRADING BV (PUERTO RICO BRANCH) LLC.CARR 110, KM. 5.1, AGUADILLA PUERTO RICO 00603 (AGUADILLA MUNICIPIO)",0,C,,110067272365
00603DSCFPRD459,-67.144,18.447,True,72,005,400502,72,72005,72005400502,1400000US72005400502,DSC OF PUERTO RICO INC,RD 459 KM 06 LOT 10 MONTANA INDUSTRIAL SITE,AGUADILLA,PR,603,"DSC OF PUERTO RICO INC RD 459 KM 06 LOT 10 MONTANA INDUSTRIAL SITE, AGUADILLA, PR, 603",0,C,,
00607WSTNGRD174,-66.124,18.246,False,72,007,230501,72,72007,72007230501,1400000US72007230501,CUTLER-HAMMER OF PR AGUAS BUENAS PLANT,RTE 174 KM 225,AGUAS BUENAS,PR,703,"CUTLER-HAMMER OF PR AGUAS BUENAS PLANT.RTE 174 KM 225, AGUAS BUENAS PUERTO RICO 00703 (AGUAS BUENAS MUNICIPIO)",0,C,,
00609BRYLCBOLLA,-66.298,18.153,False,72,009,250200,72,72009,72009250200,1400000US72009250200,HARVEY HUBBELL CARIBE INC,STATE RD 725 KM 0.4,AIBONITO,PR,705,"HARVEY HUBBELL CARIBE INC.STATE RD 725 KM 0.4, AIBONITO PUERTO RICO 00705 (AIBONITO MUNICIPIO)",0,C,,110007818362
00705TRCSNRD14K,-66.281,18.13,False,72,009,250200,72,72009,72009250200,1400000US72009250200,TO-RICOS LTD,RD 14 KM 48 BO ASOMANTE,AIBONITO,PR,705,"TO-RICOS LTD.RD 14 KM 48 BO ASOMANTE, AIBONITO PUERTO RICO 00705 (AIBONITO MUNICIPIO)",0,C,,110007805562
00610BXTRHROAD4,-67.137,18.294,False,72,011,810500,72,72011,72011810500,1400000US72011810500,EDWARDS LIFESCIENCES TECHNOLOGY SARL,STATE RD 402 KM 1.4 N LAS MARIAS IND US TRIAL PARK,ANASCO,PR,610,"EDWARDS LIFESCIENCES TECHNOLOGY SARL.STATE RD 402 KM 1.4 N LAS MARIAS IND US TRIAL PARK, ANASCO PUERTO RICO 00610 (ANASCO MUNICIPIO)",0,C,,110042075072
00610CRBGNCARR4,-67.141,18.294,False,72,011,810500,72,72011,72011810500,1400000US72011810500,GE INTERNATIONAL OF PR LLC,STATE RD 402 KM 1.5 INDUSTRIAL ZONE,ANASCO,PR,610,"GE INTERNATIONAL OF PR LLC.STATE RD 402 KM 1.5 INDUSTRIAL ZONE, ANASCO PUERTO RICO 00610 (ANASCO MUNICIPIO)",0,C,,110000739513
00610DWRDSROAD4,-67.139,18.279,False,72,011,810500,72,72011,72011810500,1400000US72011810500,BAXTER HEALTHCARE CORP EDWARDS DIV,RD 402 N KM 10,ANASCO,PR,6101576,"BAXTER HEALTHCARE CORP EDWARDS DIV.RD 402 N KM 10, ANASCO PUERTO RICO 00610 (ANASCO MUNICIPIO)",2,C,,
00610LLRGNGPOBO,-67.13600000000001,18.285999999999998,False,72,011,810300,72,72011,72011810300,1400000US72011810300,ALLERGAN MEDICAL OPTICS,RD 402 LAS MARIAS GPO BOX 1408,ANASCO,PR,6104108,"ALLERGAN MEDICAL OPTICS.RD 402 LAS MARIAS GPO BOX 1408, ANASCO PUERTO RICO 00610 (ANASCO MUNICIPIO)",0,C,,
0061WMPRTRSTATE,-67.135,18.292,False,72,011,810300,72,72011,72011810300,1400000US72011810300,AMO PUERTO RICO MFG INC,STATE RD 402 EDWARD BOULEVARD - INDUSTRIAL PARK,ANASCO,PR,610,"AMO PUERTO RICO MFG INC.STATE RD 402 EDWARD BOULEVARD - INDUSTRIAL PARK, ANASCO PUERTO RICO 00610 (ANASCO MUNICIPIO)",0,C,,110056408613
00612MCMPRZENOG,-66.723,18.455,False,72,013,301400,72,72013,72013301400,1400000US72013301400,MAYCOM AMP PUERTO RICO INC,CALLE A EDIF 4A ZONA INDUSTRIAL ZENO GANDIA,ARECIBO,PR,614,"MAYCOM AMP PUERTO RICO INC.CALLE A EDIF 4A ZONA INDUSTRIAL ZENO GANDIA, ARECIBO PUERTO RICO 00614 (ARECIBO MUNICIPIO)",0,C,,
00612THRMKZENOG,-66.74600000000001,18.458,False,72,013,301100,72,72013,72013301100,1400000US72013301100,THERMO KING PUERTO RICO MANUFACTURA INC,517 ZONA IND US TRIAL,ARECIBO,PR,612,"THERMO KING PUERTO RICO MANUFACTURA INC.517 ZONA IND US TRIAL, ARECIBO PUERTO RICO 00612 (ARECIBO MUNICIPIO)",0,C,,110000580390
00613CRBGPZENOG,-66.742,18.458,False,72,013,301100,72,72013,72013301100,1400000US72013301100,INDUSTRIAL C&S OF PR LLC ARECIBO PLANT,RT. 129 KM. 41.0 ZENO GANDIA INDUSTRIAL PARK,ARECIBO,PR,612,"INDUSTRIAL C&S OF PR LLC ARECIBO PLANT.RT. 129 KM. 41.0 ZENO GANDIA INDUSTRIAL PARK, ARECIBO PUERTO RICO 00612 (ARECIBO MUNICIPIO)",0,C,,110000580407
00613HDSNLCAR12,-66.75,18.467,False,72,013,300800,72,72013,72013300800,1400000US72013300800,HUDSON LOCK DE PUERTO RICO INC,CARR 129 KM 408,ARECIBO,PR,613,"HUDSON LOCK DE PUERTO RICO INC.CARR 129 KM 408, ARECIBO PUERTO RICO 00613 (ARECIBO MUNICIPIO)",0,C,,
00613RSTNDROUTE,-66.657,18.45,False,72,013,300302,72,72013,72013300302,1400000US72013300302,CUTLER HAMMER ELECTRICAL CO,RD 2 KM 67.6 SANTANA IND US TRIAL PARK,ARECIBO,PR,612,"CUTLER HAMMER ELECTRICAL CO.RD 2 KM 67.6 SANTANA IND US TRIAL PARK, ARECIBO PUERTO RICO 00612 (ARECIBO MUNICIPIO)",0,C,,110007176331
00613KYSRRZENOG,-66.708,18.467,False,72,013,300302,72,72013,72013300302,1400000US72013300302,KAYSER-ROTH CORP INC,RD #129 KM 407 ZENO GANDIA INDL PARK,ARECIBO,PR,613,"KAYSER-ROTH CORP INC.RD #129 KM 407 ZENO GANDIA INDL PARK, ARECIBO PUERTO RICO 00613 (ARECIBO MUNICIPIO)",0,C,,
00612PRPCMPR681,-66.699,18.471,False,72,013,300302,72,72013,72013300302,1400000US72013300302,PREPA-CAMBALACHE COMBUSTION TURBINE PLANT,PR-681 KM 0.5,ARECIBO,PR,612,"PREPA-CAMBALACHE COMBUSTION TURBINE PLANT.PR-681 KM 0.5, ARECIBO PUERTO RICO 00612 (ARECIBO MUNICIPIO)",0,C,,110000602571
00612BTTRYRD2KM,-66.694,18.454,False,72,013,300302,72,72013,72013300302,1400000US72013300302,BATTERY RECYCLING CO INC,"RD PR-2, KM. 72.2 CAMBALACHE WARD",ARECIBO,PR,612,"BATTERY RECYCLING CO INC.RD PR-2, KM. 72.2 CAMBALACHE WARD, ARECIBO PUERTO RICO 00612 (ARECIBO MUNICIPIO)",0,C,,110004892885
00615CRBGNSTRD3,-66.039,17.979,False,72,015,280202,72,72015,72015280202,1400000US72015280202,CARIBE GE PRODS INC CARIBE PRODS INC,STATE RD #3 KM 1302,ARROYO,PR,714,"CARIBE GE PRODS INC CARIBE PRODS INC.STATE RD #3 KM 1302, ARROYO PUERTO RICO 00714 (ARROYO MUNICIPIO)",0,C,,
00714STRYKRD3KM,-66.046,17.975,False,72,015,280202,72,72015,72015280202,1400000US72015280202,STRYKER PR LTD,HWY #3 KM. 131.2,ARROYO,PR,714,"STRYKER PR LTD.HWY #3 KM. 131.2, ARROYO PUERTO RICO 00714 (ARROYO MUNICIPIO)",0,C,,
00617BBTTCROADN,-66.571,18.433,False,72,017,590300,72,72017,72017590300,1400000US72017590300,ABBOTT HEALTHCARE (PR) LTD,RD NO.2 KM 58.0 CRUCE DAVILA,BARCELONETA,PR,617,"ABBOTT HEALTHCARE (PR) LTD.RD NO.2 KM 58.0 CRUCE DAVILA, BARCELONETA PUERTO RICO 00617 (BARCELONETA MUNICIPIO)",0,C,,110007806188
00617PFZRPHIGHW,-66.569,18.435,False,72,017,590300,72,72017,72017590300,1400000US72017590300,PFIZER PHARMACEUTICALS LLC,HWY #2 KM 58.2,BARCELONETA,PR,617,"PFIZER PHARMACEUTICALS LLC.HWY #2 KM 58.2, BARCELONETA PUERTO RICO 00617 (BARCELONETA MUNICIPIO)",0,C,,110008472063
00617VSKSPHIGHW,-66.55,18.434,False,72,017,590300,72,72017,72017590300,1400000US72017590300,VISKASE PUERTO RICO CORP,"HWY NO 2   KM 567, CRUCE DAVILA",BARCELONETA,PR,617,"VISKASE PUERTO RICO CORP.HWY NO 2   KM 567, CRUCE DAVILA, BARCELONETA PUERTO RICO 00617 (BARCELONETA MUNICIPIO)",1,C,,
00617BBVLTRDN2K,-66.567,18.434,False,72,017,590300,72,72017,72017590300,1400000US72017590300,ABBVIE LTD,RD NO2 KM 58.0 CRUCE DAVILA,BARCELONETA,PR,617,"ABBVIE LTD.RD NO2 KM 58.0 CRUCE DAVILA, BARCELONETA PUERTO RICO 00617 (BARCELONETA MUNICIPIO)",0,C,,110055065637
00617BRSTLSTATE,-66.564,18.43,False,72,017,590400,72,72017,72017590400,1400000US72017590400,BRISTOL-MYERS SQUIBB MANUFACTU RING CO,"STATE RD # 2,  KM 54.6",BARCELONETA,PR,617,"BRISTOL-MYERS SQUIBB MANUFACTU RING CO.STATE RD # 2,  KM 54.6, BARCELONETA PUERTO RICO 00617 (BARCELONETA MUNICIPIO)",0,C,,110007805811
00617CSRFDPRRD2,-66.562,18.430999999999997,False,72,017,590400,72,72017,72017590400,1400000US72017590400,CASERE FOODS INC,PR RD 2 KM 582,BARCELONETA,PR,617,"CASERE FOODS INC.PR RD 2 KM 582, BARCELONETA PUERTO RICO 00617 (BARCELONETA MUNICIPIO)",0,C,,
00617MRCKSSTATE,-66.54899999999999,18.426,False,72,017,590400,72,72017,72017590400,1400000US72017590400,BOEHRINGER INGELHEIM ANIMAL HEALTH PUERTO RICO LLC,ROAD #2 KM 56.7,BARCELONETA,PR,617,"BOEHRINGER INGELHEIM ANIMAL HEALTH PUERTO RICO LLC.ROAD #2 KM 56.7, BARCELONETA PUERTO RICO 00617 (BARCELONETA MUNICIPIO)",0,C,,110067716662
00617STRLNROAD1,-66.563,18.424,False,72,017,590400,72,72017,72017590400,1400000US72017590400,PFIZER PHARMACEUTICALS LLC (CR UCE DAVILA OPERATIONS),"RD # 140, KM 64.4",BARCELONETA,PR,617,"PFIZER PHARMACEUTICALS LLC (CR UCE DAVILA OPERATIONS).RD # 140, KM 64.4, BARCELONETA PUERTO RICO 00617 (BARCELONETA MUNICIPIO)",0,C,,110041992635
00617RCDLCPRRD2,-66.581,18.431,True,72,017,590400,72,72017,72017590400,1400000US72017590400,RCA DEL CARIBE INC,PR RD #2 KM 595,BARCELONETA,PR,617,"RCA DEL CARIBE INC PR RD #2 KM 595, BARCELONETA, PR, 617",0,C,,
00617THPJHHIGHW,-66.59,18.429000000000002,False,72,013,302202,72,72013,72013302202,1400000US72013302202,PFIZER PHARMACEUTICALS LLC - ARECIBO,"PR-2,  KM 60.0",ARECIBO,PR,612,"PFIZER PHARMACEUTICALS LLC - ARECIBO.PR-2,  KM 60.0, ARECIBO PUERTO RICO 00612 (ARECIBO MUNICIPIO)",0,C,,110000580443
00688MRCKSRD2KM,-66.584,18.432000000000002,False,72,013,302202,72,72013,72013302202,1400000US72013302202,MSD INTERNATIONAL GMBH (PR BRANCH) LLC,RD 2 KM 60.3 SABANA HOYOS,ARECIBO,PR,612,"MSD INTERNATIONAL GMBH (PR BRANCH) LLC.RD 2 KM 60.3 SABANA HOYOS, ARECIBO PUERTO RICO 00612 (ARECIBO MUNICIPIO)",1,C,,110001661327
00619BSSTCESTBL,-66.137,18.375,False,72,021,031701,72,72021,72021031701,1400000US72021031701,BESST CHEMICALS INC,E ST BLDG M928-70-2 MINILLAS INDUSTRIAL PARK,BAYAMON,PR,960,"BESST CHEMICALS INC.E ST BLDG M928-70-2 MINILLAS INDUSTRIAL PARK, BAYAMON PUERTO RICO 00960 (BAYAMON MUNICIPIO)",0,C,,
00619CTNGS85EST,-66.14,18.372,False,72,021,031701,72,72021,72021031701,1400000US72021031701,COATINGS INC CO,MINILLAS INDUSTRIAL PARK 404 E ST,BAYAMON,PR,959,"COATINGS INC CO.MINILLAS INDUSTRIAL PARK 404 E ST, BAYAMON PUERTO RICO 00959 (BAYAMON MUNICIPIO)",0,C,,
00959FRTXNRD174,-66.14399999999999,18.375999999999998,False,72,021,031701,72,72021,72021031701,1400000US72021031701,FORTEX INC,PR RD 174 KM  MINILLAS INDUSTRIAL PARK,BAYAMON,PR,961,"FORTEX INC.PR RD 174 KM  MINILLAS INDUSTRIAL PARK, BAYAMON PUERTO RICO 00961 (BAYAMON MUNICIPIO)",0,C,,
00620RMCCH83EST,-66.142,18.373,False,72,021,031701,72,72021,72021031701,1400000US72021031701,RAMCO CHEMICALS INC,E #83,BAYAMON,PR,959,"RAMCO CHEMICALS INC.E #83, BAYAMON PUERTO RICO 00959 (BAYAMON MUNICIPIO)",0,C,,
00627MNTCDRD174,-66.142,18.373,False,72,021,031701,72,72027,72021031701,1400000US72021031701,MANTECADOS NEVADA,"RD 174 KM 2-3 URB IND, MINILLAS",CAMUY,PR,6278030,"MANTECADOS NEVADA.RD 174 KM 2-3 URB IND, MINILLAS, CAMUY PUERTO RICO 00627 (CAMUY MUNICIPIO)",0,C,,
00958LNPNTMINIL,-66.139,18.372,False,72,021,031701,72,72127,72021031701,1400000US72021031701,LUNA PAINTS CORP,MINILLAS INDL PARK,SAN JUAN,PR,9364051,"LUNA PAINTS CORP.MINILLAS INDL PARK, SAN JUAN PUERTO RICO 00936 (SAN JUAN MUNICIPIO)",0,C,,
00619CLBMNCENTR,-66.277,18.453,False,72,051,540400,72,72051,72051540400,1400000US72051540400,ECOLAB MANUFACTURING INC,"LOT 16,18 & 19 DORADO INDL  PARK",DORADO,PR,6461354,"ECOLAB MANUFACTURING INC.LOT 16,18 & 19 DORADO INDL  PARK, DORADO PUERTO RICO 00646 (DORADO MUNICIPIO)",0,C,,
00619CRBBNLUCHE,-66.133,18.417,False,72,021,030101,72,72021,72021030101,1400000US72021030101,PUMA ENERGY CARIBE LLC,PR 28 KM 2 LUCHETTI IND US TRIAL PARK,BAYAMON,PR,961,"PUMA ENERGY CARIBE LLC.PR 28 KM 2 LUCHETTI IND US TRIAL PARK, BAYAMON PUERTO RICO 00961 (BAYAMON MUNICIPIO)",0,C,,110008471956
00619HBFLLCALLE,-66.141,18.418,False,72,021,030101,72,72021,72021030101,1400000US72021030101,H B FULLER CO HBF-PUERTO RICO,"CALLE C NO 26, LUCHETTI INDL PARK",BAYAMON,PR,961,"H B FULLER CO HBF-PUERTO RICO.CALLE C NO 26, LUCHETTI INDL PARK, BAYAMON PUERTO RICO 00961 (BAYAMON MUNICIPIO)",0,C,,
00619NNCRBLUCHE,-66.138,18.419,False,72,021,030101,72,72021,72021030101,1400000US72021030101,UCAR RESINAS CARIBE INC,LUCHETTI INDUSTRIAL PARK LOT #38 - B ST,BAYAMON,PR,9617499,"UCAR RESINAS CARIBE INC.LUCHETTI INDUSTRIAL PARK LOT #38 - B ST, BAYAMON PUERTO RICO 00961 (BAYAMON MUNICIPIO)",0,C,,
00619RLNCCLUCHE,-66.143,18.418,False,72,021,030101,72,72021,72021030101,1400000US72021030101,RELIANCE CARIBBEAN DIV OF SUPERIOR PAINTS MFG CO INC,LUCHETTI INDUSTRIAL PARK,BAYAMON,PR,959,"RELIANCE CARIBBEAN DIV OF SUPERIOR PAINTS MFG CO INC.LUCHETTI INDUSTRIAL PARK, BAYAMON PUERTO RICO 00959 (BAYAMON MUNICIPIO)",1,C,,
00621MRCNCCALLE,-66.14,18.417,False,72,021,030101,72,72021,72021030101,1400000US72021030101,MISTOLIN CARIBE INC,CALLE A LOT 28 LUCHETTI INDUSTRIAL PARK,BAYAMON,PR,961,"MISTOLIN CARIBE INC.CALLE A LOT 28 LUCHETTI INDUSTRIAL PARK, BAYAMON PUERTO RICO 00961 (BAYAMON MUNICIPIO)",0,C,,110022519666
00621SLNDCLUCHE,-66.14399999999999,18.412,False,72,021,030101,72,72021,72021030101,1400000US72021030101,ISLAND CAN CARRIBEAN INC,PR-28 CORNER PR-05 LUCHETTI IND US TRIAL PARK,BAYAMON,PR,961,"ISLAND CAN CARRIBEAN INC.PR-28 CORNER PR-05 LUCHETTI IND US TRIAL PARK, BAYAMON PUERTO RICO 00961 (BAYAMON MUNICIPIO)",0,C,,110000580470
00960CRBMTBAYAM,-66.139,18.417,False,72,021,030101,72,72021,72021030101,1400000US72021030101,CARIBE METALLURGICAL,"INDUSTRIAL LUCHETTI, LOT 15",BAYAMON,PR,961,"CARIBE METALLURGICAL.INDUSTRIAL LUCHETTI, LOT 15, BAYAMON PUERTO RICO 00961 (BAYAMON MUNICIPIO)",0,C,,110011541199
00632PTRLMURBIN,-66.138,18.416,False,72,021,030101,72,72021,72021030101,1400000US72021030101,PETROLEUM CHEMICAL CORP,LUCHETTI INDL PARK LOT 36 C ST,BAYAMON,PR,959,"PETROLEUM CHEMICAL CORP.LUCHETTI INDL PARK LOT 36 C ST, BAYAMON PUERTO RICO 00959 (BAYAMON MUNICIPIO)",0,C,,
00619SLNDLST167,-66.143,18.412,False,72,021,030101,72,72021,72021030101,1400000US72021030101,ISLAND LITHO CORP,PR-28 CORNER PR-05 LUCHETTI,BAYAMON,PR,961,"ISLAND LITHO CORP.PR-28 CORNER PR-05 LUCHETTI, BAYAMON PUERTO RICO 00961 (BAYAMON MUNICIPIO)",0,C,,110007805973
00961BYMNSLUCHE,-66.139,18.419,False,72,021,030101,72,72021,72021030101,1400000US72021030101,BAYAMON STEEL PROCESSORS INC,LUCHETTI INDUSTRIAL PARK ST B LOT 30,BAYAMON,PR,9610066,"BAYAMON STEEL PROCESSORS INC.LUCHETTI INDUSTRIAL PARK ST B LOT 30, BAYAMON PUERTO RICO 00961 (BAYAMON MUNICIPIO)",0,C,,
00961NSLRWCALLE,-66.138,18.413,False,72,021,030101,72,72021,72021030101,1400000US72021030101,INSULAR WIRE PRODUCTS CORP,CALLE B LOTE 20 URB LUCHETTI,BAYAMON,PR,961,"INSULAR WIRE PRODUCTS CORP.CALLE B LOTE 20 URB LUCHETTI, BAYAMON PUERTO RICO 00961 (BAYAMON MUNICIPIO)",0,C,,
00621GYDPRINTER,-66.146,18.417,True,72,021,030101,72,72021,72021030101,1400000US72021030101,GOYA DE PUERTO RICO INC,INTERSECTION PR-2 & PR 167,BAYAMON,PR,6211467,"GOYA DE PUERTO RICO INC INTERSECTION PR-2 & PR 167, BAYAMON, PR, 6211467",2,C,,
00621SLNDCINTER,-66.146,18.417,True,72,021,030101,72,72021,72021030101,1400000US72021030101,ISLAND CAN CORP,"INTERSECTION PR-2 & PR-167, 167",BAYAMON,PR,6211467,"ISLAND CAN CORP INTERSECTION PR-2 & PR-167, 167, BAYAMON, PR, 6211467",0,C,,
00619HRRSD15CST,-66.164,18.393,False,72,021,030700,72,72021,72021030700,1400000US72021030700,HARRIS PAINTS CORP,"25 C STREET, MINILLAS INDUSTRIAL PARK, BAYAMON, PR",BAYAMON,PR,959,"HARRIS PAINTS CORP.25 C STREET, MINILLAS INDUSTRIAL PARK, BAYAMON, PR, BAYAMON PUERTO RICO 00959 (BAYAMON MUNICIPIO)",0,C,,110007806222
00620NTLLSDSTRE,-66.175,18.383,False,72,021,031201,72,72021,72021031201,1400000US72021031201,ANTILLES ELECTROPLATING INC,D ST # 466 MINILLAS INDL PARK,BAYAMON,PR,959,"ANTILLES ELECTROPLATING INC.D ST # 466 MINILLAS INDL PARK, BAYAMON PUERTO RICO 00959 (BAYAMON MUNICIPIO)",0,C,,
00621SVNPBRD177,-66.071,18.37,False,72,127,009624,72,72021,72127009624,1400000US72127009624,SEVEN-UP RC BOTTLING CO OF PR INC,RD 177 K 83 MINILLAS INDL PARK,BAYAMON,PR,959,"SEVEN-UP RC BOTTLING CO OF PR INC.RD 177 K 83 MINILLAS INDL PARK, BAYAMON PUERTO RICO 00959 (BAYAMON MUNICIPIO)",0,C,,
00623CBRJWROAD3,-67.143,18.075,False,72,023,830102,72,72023,72023830102,1400000US72023830102,CABO ROJO WOOD TREATING PLANT CORP,RD 312-313 KM11 BO BALLA JA,CABO ROJO,PR,623,"CABO ROJO WOOD TREATING PLANT CORP.RD 312-313 KM11 BO BALLA JA, CABO ROJO PUERTO RICO 00623 (CABO ROJO MUNICIPIO)",0,C,,
00623WSTNGRD103,-67.141,18.069000000000003,False,72,023,830102,72,72023,72023830102,1400000US72023830102,CUTLER-HAMMER OF PUERTO RICO,RD 103 KM 74 FOMENTO ST,CABO ROJO,PR,6230949,"CUTLER-HAMMER OF PUERTO RICO.RD 103 KM 74 FOMENTO ST, CABO ROJO PUERTO RICO 00623 (CABO ROJO MUNICIPIO)",0,C,,
00623NSCXXCARR3,-67.154,18.084,False,72,023,830300,72,72023,72023830300,1400000US72023830300,NASCO,BOQUERON RD KM 73,CABO ROJO,PR,623,"NASCO.BOQUERON RD KM 73, CABO ROJO PUERTO RICO 00623 (CABO ROJO MUNICIPIO)",1,C,,110007443855
00623CTLRHRD308,-67.15,18.079,False,72,023,830300,72,72023,72023830300,1400000US72023830300,CUTLER HAMMER ELECTRICAL CO,RD 308 KM 0.9 PEDERNALES WARD,CABO ROJO,PR,623,"CUTLER HAMMER ELECTRICAL CO.RD 308 KM 0.9 PEDERNALES WARD, CABO ROJO PUERTO RICO 00623 (CABO ROJO MUNICIPIO)",0,C,,110007822865
00625BNNRPPRRD1,-66.03699999999999,18.26,False,72,025,200302,72,72025,72025200302,1400000US72025200302,BANNER PAINTS DIV OF SUPERIOR PAINTS MFG CO INC,PR RD 1  KM 320,CAGUAS,PR,725,"BANNER PAINTS DIV OF SUPERIOR PAINTS MFG CO INC.PR RD 1  KM 320, CAGUAS PUERTO RICO 00725 (CAGUAS MUNICIPIO)",1,C,,
00626MTSSHPR1KM,-66.045,18.259,False,72,025,200302,72,72025,72025200302,1400000US72025200302,MATSUSHITA ELECTRIC OF PR INC,"VELAZQUEZ AVE, BAIROA INDL PARK",CAGUAS,PR,7260184,"MATSUSHITA ELECTRIC OF PR INC.VELAZQUEZ AVE, BAIROA INDL PARK, CAGUAS PUERTO RICO 00726 (CAGUAS MUNICIPIO)",0,C,,
00625LTRLM6AURB,-66.036,18.249000000000002,False,72,025,200400,72,72025,72025200400,1400000US72025200400,ULTRALUMBER CORP,"6A URB INDUSTRIAL VAZQUEZ, HC-06 BOX 72501",CAGUAS,PR,725,"ULTRALUMBER CORP.6A URB INDUSTRIAL VAZQUEZ, HC-06 BOX 72501, CAGUAS PUERTO RICO 00725 (CAGUAS MUNICIPIO)",0,C,,
00626QLTYLSTATE,-66.04,18.247,False,72,025,200400,72,72025,72025200400,1400000US72025200400,QUALITY ELECTROPLATING CORP,SAKURA ST VILLA BLANCA IND US TRIAL PARK,CAGUAS,PR,725,"QUALITY ELECTROPLATING CORP.SAKURA ST VILLA BLANCA IND US TRIAL PARK, CAGUAS PUERTO RICO 00725 (CAGUAS MUNICIPIO)",0,C,,110008476602
00625RBRKMSTATE,-66.04899999999999,18.225,False,72,025,201400,72,72025,72025201400,1400000US72025201400,ARBROOK MFG CORP,STATE RD 156 KM 588,CAGUAS,PR,725,"ARBROOK MFG CORP.STATE RD 156 KM 588, CAGUAS PUERTO RICO 00725 (CAGUAS MUNICIPIO)",0,C,,
00625SRLCXSTATE,-66.018,18.241,False,72,025,200600,72,72025,72025200600,1400000US72025200600,SEARLE & CO,STATE RD #189 KM 22 STA JUANA WARD,CAGUAS,PR,725,"SEARLE & CO.STATE RD #189 KM 22 STA JUANA WARD, CAGUAS PUERTO RICO 00725 (CAGUAS MUNICIPIO)",0,C,,
00726MVPHRSTATE,-66.035,18.24,False,72,025,200600,72,72025,72025200600,1400000US72025200600,MOVA PHARMACEUTICAL CORP,STATE RD 1 KM 34.3 VILLA BLANCA INDUSTRIAL PARK,CAGUAS,PR,726,"MOVA PHARMACEUTICAL CORP.STATE RD 1 KM 34.3 VILLA BLANCA INDUSTRIAL PARK, CAGUAS PUERTO RICO 00726 (CAGUAS MUNICIPIO)",0,C,,110007807971
00625THCLRCARR7,-66.061,18.298,False,72,025,200100,72,72025,72025200100,1400000US72025200100,CLOROX MANUFACTURING CO OF PUERTO R ICO INC,RD 1 KM 27.1 RAMAL 798 BO. RIO CANAS,CAGUAS,PR,725,"CLOROX MANUFACTURING CO OF PUERTO R ICO INC.RD 1 KM 27.1 RAMAL 798 BO. RIO CANAS, CAGUAS PUERTO RICO 00725 (CAGUAS MUNICIPIO)",0,C,,110011794647
00725MNFCTCARR1,-66.046,18.29,False,72,025,200100,72,72025,72025200100,1400000US72025200100,MANUFACTURERS BERRIOS,CARR #1 BARRIO RIO CANAS KM 285,CAGUAS,PR,725,"MANUFACTURERS BERRIOS.CARR #1 BARRIO RIO CANAS KM 285, CAGUAS PUERTO RICO 00725 (CAGUAS MUNICIPIO)",0,C,,
00725SCHSCRD175,-66.055,18.296,False,72,025,200100,72,72025,72025200100,1400000US72025200100,SACHS CHEMICAL INC,RD 175 KM.0.02 RIO CANA IND WARD LOT 18,CAGUAS,PR,725,"SACHS CHEMICAL INC.RD 175 KM.0.02 RIO CANA IND WARD LOT 18, CAGUAS PUERTO RICO 00725 (CAGUAS MUNICIPIO)",0,C,,110010624379
00626MYLNNRD156,-66.059,18.243,False,72,025,200304,72,72025,72025200304,1400000US72025200304,MYLAN INC,ROAD156 KM 58.8 VALLE TOLIMA,CAGUAS,PR,725,"MYLAN INC.ROAD156 KM 58.8 VALLE TOLIMA, CAGUAS PUERTO RICO 00725 (CAGUAS MUNICIPIO)",0,C,,110007810556
00725MNFCTAQUAM,-66.04899999999999,18.253,False,72,025,200304,72,72025,72025200304,1400000US72025200304,MANUFACTURING TECHNOLOGY SERVICE,AQUAMARINE 100 VILLA BLANCA,CAGUAS,PR,725,"MANUFACTURING TECHNOLOGY SERVICE.AQUAMARINE 100 VILLA BLANCA, CAGUAS PUERTO RICO 00725 (CAGUAS MUNICIPIO)",0,C,,
00628LLLLY65THI,-65.941,18.377,False,72,031,050902,72,72031,72031050902,1400000US72031050902,LILLY DEL CARIBE INC CAROLIN A,430 CALLE FABRIL,CAROLINA,PR,987,"LILLY DEL CARIBE INC CAROLIN A.430 CALLE FABRIL, CAROLINA PUERTO RICO 00987 (CAROLINA MUNICIPIO)",0,C,,110007808024
00630CRWNCKM126,-65.942,18.378,False,72,031,050902,72,72031,72031050902,1400000US72031050902,CROWN BEVERAGE PACKAGING,"380 CALLE FABRIL ST KM 126 PR-3, PR INDUSTRIAL PAR",CAROLINA,PR,985,"CROWN BEVERAGE PACKAGING.380 CALLE FABRIL ST KM 126 PR-3, PR INDUSTRIAL PAR, CAROLINA PUERTO RICO 00985 (CAROLINA MUNICIPIO)",1,C,,110012630304
00985CPNTS65INF,-65.939,18.375,False,72,031,050902,72,72031,72031050902,1400000US72031050902,AKZO NOBEL PAINTS PUERTO RICO LLC,65 INFANTERIA KM 13.4,CAROLINA,PR,985,"AKZO NOBEL PAINTS PUERTO RICO LLC.65 INFANTERIA KM 13.4, CAROLINA PUERTO RICO 00985 (CAROLINA MUNICIPIO)",0,C,,110042075090
00985CRTSNSTATE,-65.94,18.377,False,72,031,050902,72,72031,72031050902,1400000US72031050902,CURTIS INSTRUMENTS (PR) INC,PUERTO RICO IND US TRIAL PARK KM 12.6 65TH INFANT,CAROLINA,PR,985,"CURTIS INSTRUMENTS (PR) INC.PUERTO RICO IND US TRIAL PARK KM 12.6 65TH INFANT, CAROLINA PUERTO RICO 00985 (CAROLINA MUNICIPIO)",0,C,,110038101130
00629LMNMP185RO,-65.9,18.374000000000002,False,72,029,100504,72,72029,72029100504,1400000US72029100504,ALUMINUM PROCESSING CORP,185 STATE RD KM 065,CANOVANAS,PR,729,"ALUMINUM PROCESSING CORP.185 STATE RD KM 065, CANOVANAS PUERTO RICO 00729 (CANOVANAS MUNICIPIO)",1,C,,
00629PRFNGPOBOX,-65.899,18.379,False,72,029,100200,72,72029,72029100200,1400000US72029100200,A & P PROOFING INSULATION INC,PO BOX 146,CANOVANAS,PR,729,"A & P PROOFING INSULATION INC.PO BOX 146, CANOVANAS PUERTO RICO 00729 (CANOVANAS MUNICIPIO)",0,C,,
00629RMSTRRD188,-65.88600000000001,18.373,False,72,029,100503,72,72029,72029100503,1400000US72029100503,ARMSTRONG PAINT OF PURETO RICO INC,RD #188 KM 07 LOIZA INDUSTRIAL PARK,CANOVANAS,PR,729,"ARMSTRONG PAINT OF PURETO RICO INC.RD #188 KM 07 LOIZA INDUSTRIAL PARK, CANOVANAS PUERTO RICO 00729 (CANOVANAS MUNICIPIO)",0,C,,
00630BXTRHBOSAN,-65.982,18.385,False,72,031,050402,72,72127,72031050402,1400000US72031050402,BAXTER HEALTHCARE CORP OF PR,BO SAN ANTON RD 887 KM 12,CAROLINA,PR,987,"BAXTER HEALTHCARE CORP OF PR.BO SAN ANTON RD 887 KM 12, CAROLINA PUERTO RICO 00987 (SAN JUAN MUNICIPIO)",0,C,,
00630CHCPRCARRE,-65.958,18.381,False,72,031,050700,72,72031,72031050700,1400000US72031050700,AMI CHACE INC,CARRETA 190 KM 15,CAROLINA,PR,985,"AMI CHACE INC.CARRETA 190 KM 15, CAROLINA PUERTO RICO 00985 (CAROLINA MUNICIPIO)",1,C,,
00630TCHRFRD3KM,-65.96300000000001,18.355,False,72,031,050901,72,72031,72031050901,1400000US72031050901,TECH AEROFOAM PRODUCTS INTERNATIONAL INC,STATE RD PR-3  KM 127,CAROLINA,PR,985,"TECH AEROFOAM PRODUCTS INTERNATIONAL INC.STATE RD PR-3  KM 127, CAROLINA PUERTO RICO 00985 (CAROLINA MUNICIPIO)",0,C,,110001662102
00630VRPSPRD887,-65.972,18.375,False,72,031,050501,72,72031,72031050501,1400000US72031050501,VERPAS PRODUCTS INC,RD 887 KM. 0.9 JULIO N MATOS INDUSTRIAL. PARK BLDG,CAROLINA,PR,987,"VERPAS PRODUCTS INC.RD 887 KM. 0.9 JULIO N MATOS INDUSTRIAL. PARK BLDG, CAROLINA PUERTO RICO 00987 (CAROLINA MUNICIPIO)",0,C,,110001142996
00986WYTHXRD3KM,-65.96600000000001,18.382,False,72,031,050501,72,72031,72031050501,1400000US72031050501,"PFIZER PHARMACEUTICALS, LLC",65TH INFANTRY RD KM. 9.7,CAROLINA,PR,984,"PFIZER PHARMACEUTICALS, LLC.65TH INFANTRY RD KM. 9.7, CAROLINA PUERTO RICO 00984 (CAROLINA MUNICIPIO)",0,C,,
0093WTCHRFRSEND,-65.973,18.377,False,72,031,050501,72,72031,72031050501,1400000US72031050501,TECH AEROFOAM PRODUCTS INTERNATIONAL INC.,ROSENDO VELA STREET LOT 6,CAROLINA,PR,987,"TECH AEROFOAM PRODUCTS INTERNATIONAL INC..ROSENDO VELA STREET LOT 6, CAROLINA PUERTO RICO 00987 (CAROLINA MUNICIPIO)",0,C,,110041624374
00632BCRDCSTREE,-66.141,18.458,False,72,033,980001,72,72033,72033980001,1400000US72033980001,BACARDI CORP,RD # 165 KM 2.6 IND US TRIAL AREA,CATANO,PR,962,"BACARDI CORP.RD # 165 KM 2.6 IND US TRIAL AREA, CATANO PUERTO RICO 00962 (CATANO MUNICIPIO)",0,C,,110012592186
00949STNNCROAD8,-66.141,18.454,False,72,033,980001,72,72033,72033980001,1400000US72033980001,EASTON INC,RD 870 KM 26 PALO SECO,CATANO,PR,949,"EASTON INC.RD 870 KM 26 PALO SECO, CATANO PUERTO RICO 00949 (CATANO MUNICIPIO)",0,C,,
00632MRCNNPOBOX,-66.149,18.427,False,72,033,980003,72,72033,72033980003,1400000US72033980003,AMERICAN NATIONAL CAN CO PUERTO RICO FACILITY,RD 869 KM 11 BO PALMAS INDL PARK PO BOX 185,CATANO,PR,962,"AMERICAN NATIONAL CAN CO PUERTO RICO FACILITY.RD 869 KM 11 BO PALMAS INDL PARK PO BOX 185, CATANO PUERTO RICO 00962 (CATANO MUNICIPIO)",0,C,,
00632PRTRCROAD8,-66.153,18.430999999999997,False,72,033,980003,72,72033,72033980003,1400000US72033980003,LINDE GAS PR INC.,CARR. 869 KM 1.8 BO. PALMAS,CATANO,PR,962,"LINDE GAS PR INC..CARR. 869 KM 1.8 BO. PALMAS, CATANO PUERTO RICO 00962 (CATANO MUNICIPIO)",0,C,,110011934069
00962PWRNGLASPA,-66.15100000000001,18.43,False,72,033,980003,72,72127,72033980003,1400000US72033980003,POWER ENGINEERING INC,"LAS PALMAS INDUSTRIAL PARK, D ST",SAN JUAN,PR,962,"POWER ENGINEERING INC.LAS PALMAS INDUSTRIAL PARK, D ST, SAN JUAN PUERTO RICO 00962 (SAN JUAN MUNICIPIO)",0,C,,
00633CNSLDROUTE,-66.149,18.121,False,72,035,260202,72,72035,72035260202,1400000US72035260202,CONSOLIDATED CIGAR CORP,RTE 14 MONTELLANO WARD,CAYEY,PR,736,"CONSOLIDATED CIGAR CORP.RTE 14 MONTELLANO WARD, CAYEY PUERTO RICO 00736 (CAYEY MUNICIPIO)",1,C,,
00634BCTNDLOT6V,-66.14,18.128,False,72,035,260202,72,72035,72035260202,1400000US72035260202,BECTON DICKINSON CARIBE LTD,VICKS DR LOT NO6,CAYEY,PR,7362860,"BECTON DICKINSON CARIBE LTD.VICKS DR LOT NO6, CAYEY PUERTO RICO 00736 (CAYEY MUNICIPIO)",0,C,,
0073WCNGRNANTNI,-66.14,18.124000000000002,False,72,035,260202,72,72035,72035260202,1400000US72035260202,CONGAR INTERNATIONAL CORP,ANTONIO R BARCELO AVE (PR-14) KM 72.2,CAYEY,PR,736,"CONGAR INTERNATIONAL CORP.ANTONIO R BARCELO AVE (PR-14) KM 72.2, CAYEY PUERTO RICO 00736 (CAYEY MUNICIPIO)",0,C,,110060260104
0095WCCCLPPBX51,-66.138,18.125999999999998,False,72,035,260202,72,72035,72035260202,1400000US72035260202,COCA COLA PUERTO RICO BOTTLERS,CARRETERRA 735 KM 2.2,CAYEY,PR,736,"COCA COLA PUERTO RICO BOTTLERS.CARRETERRA 735 KM 2.2, CAYEY PUERTO RICO 00736 (CAYEY MUNICIPIO)",0,C,,110000850892
00633LYCMPROAD7,-66.12899999999999,18.135,False,72,035,260100,72,72035,72035260100,1400000US72035260100,OLAY LLC,"ROAD 735, KM 2.3 BO. RIO LLANO",CAYEY,PR,736,"OLAY LLC.ROAD 735, KM 2.3 BO. RIO LLANO, CAYEY PUERTO RICO 00736 (CAYEY MUNICIPIO)",0,C,,110007342624
00639MDNDPCARRE,-66.097,18.158,False,72,035,260100,72,72041,72035260100,1400000US72035260100,MODINE DE PUERTO RICO,"CARRETERA NUM 1 KM 49 BO, BEATRIZ",CIDRA,PR,739,"MODINE DE PUERTO RICO.CARRETERA NUM 1 KM 49 BO, BEATRIZ, CIDRA PUERTO RICO 00739 (CIDRA MUNICIPIO)",1,C,,
00737CCCLPRD735,-66.126,18.134,False,72,035,260100,72,72035,72035260100,1400000US72035260100,COCA-COLA PUERTO RICO BOTTLERS,RD 735 INTERSECTION RD #1 MONTELLANO WARD,CAYEY,PR,737,"COCA-COLA PUERTO RICO BOTTLERS.RD 735 INTERSECTION RD #1 MONTELLANO WARD, CAYEY PUERTO RICO 00737 (CAYEY MUNICIPIO)",2,C,,
00636MRSNPDORAD,-66.293,18.465999999999998,False,72,051,540200,72,72051,72051540200,1400000US72051540200,EMERSON PUERTO RICO INC,HWY 693 KM 73 DORADO INDUSTRIAL PARK,DORADO,PR,646,"EMERSON PUERTO RICO INC.HWY 693 KM 73 DORADO INDUSTRIAL PARK, DORADO PUERTO RICO 00646 (DORADO MUNICIPIO)",1,C,,110007805893
00646FVSTRHIGHW,-66.293,18.465999999999998,False,72,051,540200,72,72051,72051540200,1400000US72051540200,"FIVE STAR PRODS, MONET","HWY 693 KM 73, INDL PARK",DORADO,PR,646,"FIVE STAR PRODS, MONET.HWY 693 KM 73, INDL PARK, DORADO PUERTO RICO 00646 (DORADO MUNICIPIO)",1,C,,
00646MCNLP698KM,-66.268,18.468,False,72,051,540200,72,72051,72051540200,1400000US72051540200,MCNEIL PHARMACEUTICAL CO,RD 698 KM O8,DORADO,PR,6460710,"MCNEIL PHARMACEUTICAL CO.RD 698 KM O8, DORADO PUERTO RICO 00646 (DORADO MUNICIPIO)",0,C,,
00646GDNTP12RD6,-66.271,18.465,False,72,051,540200,72,72051,72051540200,1400000US72051540200,GUIDANT PR BV,"12 LOT, 698 RD MAMEYAL",DORADO,PR,646,"GUIDANT PR BV.12 LOT, 698 RD MAMEYAL, DORADO PUERTO RICO 00646 (DORADO MUNICIPIO)",0,C,,110030818550
00638THRMKROAD6,-66.472,18.35,False,72,039,955600,72,72039,72039955600,1400000US72039955600,THERMO KING DE PUERTO RICO,"RD 6685, KM 11.2",CIALES,PR,638,"THERMO KING DE PUERTO RICO.RD 6685, KM 11.2, CIALES PUERTO RICO 00638 (CIALES MUNICIPIO)",0,C,,110008476611
00639CRBBNSTATE,-66.153,18.182000000000002,False,72,041,240300,72,72041,72041240300,1400000US72041240300,CARIBBEAN REFRESCOS INC,RD 172 KM 13.4,CIDRA,PR,739,"CARIBBEAN REFRESCOS INC.RD 172 KM 13.4, CIDRA PUERTO RICO 00739 (CIDRA MUNICIPIO)",0,C,,110000580559
00639SCHRNRT173,-66.152,18.184,False,72,041,240300,72,72041,72041240300,1400000US72041240300,CIBA VISION PUERTO RICO INC BUILDING #1,"EL JIBARITO CARRETERA 173, KM 1.1 INDUSTRIAL PARK",CIDRA,PR,739,"CIBA VISION PUERTO RICO INC BUILDING #1.EL JIBARITO CARRETERA 173, KM 1.1 INDUSTRIAL PARK, CIDRA PUERTO RICO 00739 (CIDRA MUNICIPIO)",0,C,,110007807622
00639NCMNF43BAL,-66.161,18.178,False,72,041,240300,72,72041,72041240300,1400000US72041240300,ENCO MANUFACTURING CORP,BALDORIOTY NO. 43,CIDRA,PR,739,"ENCO MANUFACTURING CORP.BALDORIOTY NO. 43, CIDRA PUERTO RICO 00739 (CIDRA MUNICIPIO)",0,C,,110007813615
00639MLLPRROAD1,-66.112,18.195999999999998,False,72,041,240101,72,72041,72041240101,1400000US72041240101,MILLIPORE CIDRA INC,STATE RD 172 KM 7.7,CIDRA,PR,739,"MILLIPORE CIDRA INC.STATE RD 172 KM 7.7, CIDRA PUERTO RICO 00739 (CIDRA MUNICIPIO)",0,C,,110008472189
00739SMTHKCARR1,-66.126,18.197,False,72,041,240101,72,72041,72041240101,1400000US72041240101,SMITHKLINE BEECHAM PHARMACEUTICALS CO,CARR 172 KM 91 BO CERTENEJAS,CIDRA,PR,7391975,"SMITHKLINE BEECHAM PHARMACEUTICALS CO.CARR 172 KM 91 BO CERTENEJAS, CIDRA PUERTO RICO 00739 (CIDRA MUNICIPIO)",1,C,,
00639PPSCLCIDRA,-66.157,18.173,False,72,041,240500,72,72041,72041240500,1400000US72041240500,CONCENTRATE MFG OPS PEPSICO PR INC,RD 172  KM 05 CIDRA INDL PARK,CIDRA,PR,7391558,"CONCENTRATE MFG OPS PEPSICO PR INC.RD 172  KM 05 CIDRA INDL PARK, CIDRA PUERTO RICO 00739 (CIDRA MUNICIPIO)",0,C,,
00708BRNDSGUANA,-66.155,18.162,True,72,041,240500,72,72097,72041240500,1400000US72041240500,BRANDS CO INC,GUANAJIBO INDL ZONE,MAYAGUEZ,PR,680,"BRANDS CO INC GUANAJIBO INDL ZONE, MAYAGUEZ, PR, 680",0,C,,
00640NDSTRRD14K,-66.346,18.083,False,72,043,954400,72,72043,72043954400,1400000US72043954400,INDUSTRIAS AVICOLAS DE PR,RD 14 KM 373,COAMO,PR,7690229,"INDUSTRIAS AVICOLAS DE PR.RD 14 KM 373, COAMO PUERTO RICO 00769 (COAMO MUNICIPIO)",0,C,,
00640WSTNGROADN,-66.362,18.07,False,72,043,954200,72,72043,72043954200,1400000US72043954200,CUTLER HAMMER ELECTRICAL CO,RD 14 KM. 32,COAMO,PR,769,"CUTLER HAMMER ELECTRICAL CO.RD 14 KM. 32, COAMO PUERTO RICO 00769 (COAMO MUNICIPIO)",0,C,,110000739540
00642CNGRNROUTE,-66.233,18.213,False,72,045,951900,72,72045,72045951900,1400000US72045951900,CONGAR INTERNATIONAL CORP TOBACCO THRESHING,RT 778,COMERIO,PR,782,"CONGAR INTERNATIONAL CORP TOBACCO THRESHING.RT 778, COMERIO PUERTO RICO 00782 (COMERIO MUNICIPIO)",0,C,,110007810770
00643MPRTXCARR1,-66.298,18.352,False,72,047,530100,72,72047,72047530100,1400000US72047530100,EMPIRE TEXTILE CORP,CARR 159 KM 134,COROZAL,PR,783,"EMPIRE TEXTILE CORP.CARR 159 KM 134, COROZAL PUERTO RICO 00783 (COROZAL MUNICIPIO)",0,C,,
00648TLLBSCARR1,-65.653,18.336,False,72,053,150301,72,72053,72053150301,1400000US72053150301,TELLABS CARIBE INC,CARR 195 KM 15 PUERTO REAL,FAJARDO,PR,738,"TELLABS CARIBE INC.CARR 195 KM 15 PUERTO REAL, FAJARDO PUERTO RICO 00738 (FAJARDO MUNICIPIO)",1,C,,
00653CHFRTROAD3,-66.904,17.963,False,72,055,961100,72,72055,72055961100,1400000US72055961100,PAN AMERICAN FERTILIZER,PR 133 KM 1.9,GUANICA,PR,653,"PAN AMERICAN FERTILIZER.PR 133 KM 1.9, GUANICA PUERTO RICO 00653 (GUANICA MUNICIPIO)",0,C,,110000852863
00653PRGRNCARRE,-66.904,17.963,False,72,055,961100,72,72055,72055961100,1400000US72055961100,PROGRANOS,CARRETERA ESTATAL #333 KM 19,GUANICA,PR,6530786,"PROGRANOS.CARRETERA ESTATAL #333 KM 19, GUANICA PUERTO RICO 00653 (GUANICA MUNICIPIO)",0,C,,
00654NQSTNROAD3,-66.15,17.963,False,72,057,270202,72,72057,72057270202,1400000US72057270202,BAXTER HEALTHCARE SA/BAXTER HEALTHCARE OF PUERTO RICO,RD # 3 KM 144.2,GUAYAMA,PR,784,"BAXTER HEALTHCARE SA/BAXTER HEALTHCARE OF PUERTO RICO.RD # 3 KM 144.2, GUAYAMA PUERTO RICO 00784 (GUAYAMA MUNICIPIO)",0,C,,110000580577
00655YRSTWSTATE,-66.14699999999999,17.962,False,72,057,270202,72,72057,72057270202,1400000US72057270202,PFIZER PHARMACEUTICALS,STATE RD # 3 KM 142.1,GUAYAMA,PR,784,"PFIZER PHARMACEUTICALS.STATE RD # 3 KM 142.1, GUAYAMA PUERTO RICO 00784 (GUAYAMA MUNICIPIO)",0,C,,110001661274
00784CLGTPRDNO3,-66.152,17.958,False,72,057,270202,72,72057,72057270202,1400000US72057270202,COLGATE-PALMOLIVE OF PUERTO RICO,STATE RD 3 KM 144.7,GUAYAMA,PR,784,"COLGATE-PALMOLIVE OF PUERTO RICO.STATE RD 3 KM 144.7, GUAYAMA PUERTO RICO 00784 (GUAYAMA MUNICIPIO)",0,C,,110000850918
00784CPHRMSTATE,-66.15100000000001,17.98,False,72,057,270202,72,72057,72057270202,1400000US72057270202,LILLY DEL CARIBE INC PR06,STATE RD 53 KM 82 JOBOS EXIT 83,GUAYAMA,PR,784,"LILLY DEL CARIBE INC PR06.STATE RD 53 KM 82 JOBOS EXIT 83, GUAYAMA PUERTO RICO 00784 (GUAYAMA MUNICIPIO)",0,C,,110042087130
00784WHTHLRD3KM,-66.145,17.964000000000002,False,72,057,270202,72,72057,72057270202,1400000US72057270202,AYERST-WYETH PHARMACEUTICALS WHITEHALL LABORATORIES DIV,RD #3 KM 1413,GUAYAMA,PR,784,"AYERST-WYETH PHARMACEUTICALS WHITEHALL LABORATORIES DIV.RD #3 KM 1413, GUAYAMA PUERTO RICO 00784 (GUAYAMA MUNICIPIO)",0,C,,
00784PRPJBPR03K,-66.14,17.961,False,72,057,270202,72,72057,72057270202,1400000US72057270202,PREPA-JOBOS GAS TURBINES POWER PLANT,PR-03 KM 142.2,GUAYAMA,PR,784,"PREPA-JOBOS GAS TURBINES POWER PLANT.PR-03 KM 142.2, GUAYAMA PUERTO RICO 00784 (GUAYAMA MUNICIPIO)",0,C,,110000580933
00654PHLPSPHILI,-66.145,17.948,False,72,057,270201,72,72057,72057270201,1400000US72057270201,CHEVRON PHILLIPS CHEMICAL PUERTO RICO CORE LLC,RD 710  KM. 1.3 LAS MAREAS WARD,GUAYAMA,PR,784,"CHEVRON PHILLIPS CHEMICAL PUERTO RICO CORE LLC.RD 710  KM. 1.3 LAS MAREAS WARD, GUAYAMA PUERTO RICO 00784 (GUAYAMA MUNICIPIO)",1,C,,110000602740
00655LTSDLSTATE,-66.134,17.962,False,72,057,270201,72,72057,72057270201,1400000US72057270201,LATAS DE ALUMINIO BALL INC,STATE RD #3 KM 1408,GUAYAMA,PR,785,"LATAS DE ALUMINIO BALL INC.STATE RD #3 KM 1408, GUAYAMA PUERTO RICO 00785 (GUAYAMA MUNICIPIO)",0,C,,110012591301
00785CHMSRRD3KM,-66.154,17.949,False,72,057,270201,72,72057,72057270201,1400000US72057270201,TAPI PUERTO RICO INC,RD #3 KM. 143.0 JOBOS WARD,GUAYAMA,PR,784,"TAPI PUERTO RICO INC.RD #3 KM. 143.0 JOBOS WARD, GUAYAMA PUERTO RICO 00784 (GUAYAMA MUNICIPIO)",0,C,,110008472143
00785SPRTRKM142,-66.15,17.945,False,72,057,270201,72,72057,72057270201,1400000US72057270201,AES PUERTO RICO LP,"KM 142, RD #3 BO. JOBOS",GUAYAMA,PR,785,"AES PUERTO RICO LP.KM 142, RD #3 BO. JOBOS, GUAYAMA PUERTO RICO 00785 (GUAYAMA MUNICIPIO)",0,C,,110012141805
00656RPRDCSTATE,-66.756,18.002,False,72,059,740400,72,72059,72059740400,1400000US72059740400,AIR PRODUCTS OF PR,STATE RD 127 KM 127,GUAYANILLA,PR,656,"AIR PRODUCTS OF PR.STATE RD 127 KM 127, GUAYANILLA PUERTO RICO 00656 (GUAYANILLA MUNICIPIO)",0,C,,
00656TXCNDBOPEN,-66.76100000000001,17.999000000000002,False,72,059,740400,72,72059,72059740400,1400000US72059740400,TEXACO INDUSTRIES INC,RD 127 KM 155 BO PENONCILLO,GUAYANILLA,PR,656,"TEXACO INDUSTRIES INC.RD 127 KM 155 BO PENONCILLO, GUAYANILLA PUERTO RICO 00656 (GUAYANILLA MUNICIPIO)",0,C,,
00656DCRBNBOMAG,-66.75399999999999,18.0,False,72,059,740400,72,72059,72059740400,1400000US72059740400,PREPA-SOUTH COAST POWER PLANT,PR-127 KM 15.7,GUAYANILLA,PR,656,"PREPA-SOUTH COAST POWER PLANT.PR-127 KM 15.7, GUAYANILLA PUERTO RICO 00656 (GUAYANILLA MUNICIPIO)",0,C,,110009309596
00657DDWLLCARR1,-65.987,18.249000000000002,False,72,063,210502,72,72063,72063210502,1400000US72063210502,D D WILLIAMSON (PR) LTD,RD 189 KM 58 RINCON WARD,GURABO,PR,778,"D D WILLIAMSON (PR) LTD.RD 189 KM 58 RINCON WARD, GURABO PUERTO RICO 00778 (GURABO MUNICIPIO)",0,C,,
00658NSTFRPR189,-65.986,18.249000000000002,False,72,063,210502,72,72063,72063210502,1400000US72063210502,INSITUFORM DE PUERTO RICO INC,PR 189 KM 59,GURABO,PR,778,"INSITUFORM DE PUERTO RICO INC.PR 189 KM 59, GURABO PUERTO RICO 00778 (GURABO MUNICIPIO)",0,C,,
00657FRTCHPARQU,-66.109,18.355999999999998,False,72,061,040500,72,72061,72061040500,1400000US72061040500,FORTO CHEMICAL CORP,PARQUE DE LOS NINOS ST,GUAYNABO,PR,970,"FORTO CHEMICAL CORP.PARQUE DE LOS NINOS ST, GUAYNABO PUERTO RICO 00970 (GUAYNABO MUNICIPIO)",0,C,,110000580595
00657LYMPCPR20K,-66.11,18.379,False,72,061,040421,72,72061,72061040421,1400000US72061040421,OLYMPIC MILLS CORPORATION,RD 20  KM 38 MARTINEZ NADAL AVE,GUAYNABO,PR,9701669,"OLYMPIC MILLS CORPORATION.RD 20  KM 38 MARTINEZ NADAL AVE, GUAYNABO PUERTO RICO 00970 (GUAYNABO MUNICIPIO)",0,C,,
00970JSCHMRD169,-66.11,18.367,False,72,061,040421,72,72061,72061040421,1400000US72061040421,J S CHEM CORP,STATE RD PR-169 KM 45,GUAYNABO,PR,970,"J S CHEM CORP.STATE RD PR-169 KM 45, GUAYNABO PUERTO RICO 00970 (GUAYNABO MUNICIPIO)",0,C,,
00658JHNSN933RO,-65.944,18.234,False,72,063,210504,72,72063,72063210504,1400000US72063210504,JOHNSON & JOHNSON MEDICAL INC,RD 933 KM 01 MAMEY WARD,GURABO,PR,7789631,"JOHNSON & JOHNSON MEDICAL INC.RD 933 KM 01 MAMEY WARD, GURABO PUERTO RICO 00778 (GURABO MUNICIPIO)",1,C,,
00658JNSSNHCO2B,-65.94800000000001,18.246,False,72,063,210504,72,72063,72063210504,1400000US72063210504,JANSSEN ORTHO LLC,STATE RD 933 KM 01 MAMEY WARD,GURABO,PR,7789629,"JANSSEN ORTHO LLC.STATE RD 933 KM 01 MAMEY WARD, GURABO PUERTO RICO 00778 (GURABO MUNICIPIO)",0,C,,
00658SMCNDCARRN,-65.985,18.248,False,72,063,210504,72,72063,72063210504,1400000US72063210504,SEMICONDUCTORES POWEREX INC,CARR NO 30 KM 60 BO RINCON,GURABO,PR,778,"SEMICONDUCTORES POWEREX INC.CARR NO 30 KM 60 BO RINCON, GURABO PUERTO RICO 00778 (GURABO MUNICIPIO)",0,C,,
00660TRMNLSTATE,-67.13,18.137,False,72,067,820300,72,72067,72067820300,1400000US72067820300,EMERSON ELECTRIC CO TERMINAL PRODUCTS DIV,STATE RD NO 2 KM 1633,HORMIGUEROS,PR,6600262,"EMERSON ELECTRIC CO TERMINAL PRODUCTS DIV.STATE RD NO 2 KM 1633, HORMIGUEROS PUERTO RICO 00660 (HORMIGUEROS MUNICIPIO)",0,C,,
00661BRNSPROAD3,-65.82600000000001,18.147000000000002,False,72,069,180600,72,72069,72069180600,1400000US72069180600,BOURNS PR INC,RD 3 KM 826,HUMACAO,PR,791,"BOURNS PR INC.RD 3 KM 826, HUMACAO PUERTO RICO 00791 (HUMACAO MUNICIPIO)",0,C,,
00661CRBGNSTROA,-65.822,18.149,False,72,069,180600,72,72069,72069180600,1400000US72069180600,INDUSTRIAL C&S OF PR LLC,STATE RD 3 KM 82.0,HUMACAO,PR,791,"INDUSTRIAL C&S OF PR LLC.STATE RD 3 KM 82.0, HUMACAO PUERTO RICO 00791 (HUMACAO MUNICIPIO)",0,C,,110007805937
00661MDRLNROAD9,-65.824,18.146,False,72,069,180600,72,72069,72069180600,1400000US72069180600,MED REL INC,RD 909 KM 04 BARRIO MARIANA,HUMACAO,PR,791,"MED REL INC.RD 909 KM 04 BARRIO MARIANA, HUMACAO PUERTO RICO 00791 (HUMACAO MUNICIPIO)",2,C,,
00791TNKFTSTATE,-65.82600000000001,18.148,False,72,069,180600,72,72069,72069180600,1400000US72069180600,TONKA FOOTWEAR CO INC,STATE RD NO 3 KM 825,HUMACAO,PR,791,"TONKA FOOTWEAR CO INC.STATE RD NO 3 KM 825, HUMACAO PUERTO RICO 00791 (HUMACAO MUNICIPIO)",0,C,,
0079WMDTRNHC1BX,-65.824,18.146,False,72,069,180600,72,72069,72069180600,1400000US72069180600,MEDTRONIC PUERTO RICO OPERATIONS CO,"ROAD 909, KM. 0.4, MARIANA WARD",HUMACAO,PR,791,"MEDTRONIC PUERTO RICO OPERATIONS CO.ROAD 909, KM. 0.4, MARIANA WARD, HUMACAO PUERTO RICO 00791 (HUMACAO MUNICIPIO)",0,C,,110000819767
0079WMCRSFPR3KM,-65.82600000000001,18.148,False,72,069,180600,72,72069,72069180600,1400000US72069180600,MICROSOFT OPERATIONS PUERTO RICO LLC,PR-3 KM 82.5 CATANO IND PK - URB INDUSTRIAL CATANO,HUMACAO,PR,791,"MICROSOFT OPERATIONS PUERTO RICO LLC.PR-3 KM 82.5 CATANO IND PK - URB INDUSTRIAL CATANO, HUMACAO PUERTO RICO 00791 (HUMACAO MUNICIPIO)",0,C,,110009437252
00661PCRPRHUMAC,-65.789,18.152,False,72,069,180201,72,72069,72069180201,1400000US72069180201,TAPI PUERTO RICO HUMACAO SITE,ST-C HUMACAO INDUSTRIAL PKWY HWY 3 KM76.3,HUMACAO,PR,791,"TAPI PUERTO RICO HUMACAO SITE.ST-C HUMACAO INDUSTRIAL PKWY HWY 3 KM76.3, HUMACAO PUERTO RICO 00791 (HUMACAO MUNICIPIO)",1,C,,110000580620
00661SQBBMSTATE,-65.795,18.149,False,72,069,180201,72,72069,72069180201,1400000US72069180201,BRISTOL MYERS SQUIBB MANUFACTURING CO,STATE RD # 3 KM 77.5,HUMACAO,PR,791,"BRISTOL MYERS SQUIBB MANUFACTURING CO.STATE RD # 3 KM 77.5, HUMACAO PUERTO RICO 00791 (HUMACAO MUNICIPIO)",0,C,,110000744696
00661LCNPRPRROA,-65.79899999999999,18.157,False,72,069,180201,72,72069,72069180201,1400000US72069180201,ALCON PUERTO RICO INC,PR RD 925 BO JUNQUITO,HUMACAO,PR,791,"ALCON PUERTO RICO INC.PR RD 925 BO JUNQUITO, HUMACAO PUERTO RICO 00791 (HUMACAO MUNICIPIO)",0,C,,
00791RDCNCRD3KM,-65.791,18.151,False,72,069,180201,72,72069,72069180201,1400000US72069180201,REEDCO INC,RD 3  KM 764,HUMACAO,PR,791,"REEDCO INC.RD 3  KM 764, HUMACAO PUERTO RICO 00791 (HUMACAO MUNICIPIO)",0,C,,
00661PRLSSHWYNO,-65.773,18.151,False,72,069,180100,72,72069,72069180100,1400000US72069180100,"PEERLESS TUBE CO, OF PUERTO RICO INC",HWY NO 3 KM 769,HUMACAO,PR,791,"PEERLESS TUBE CO, OF PUERTO RICO INC.HWY NO 3 KM 769, HUMACAO PUERTO RICO 00791 (HUMACAO MUNICIPIO)",1,C,,
00661SYNTXROAD9,-65.86399999999999,18.112000000000002,False,72,069,180302,72,72069,72069180302,1400000US72069180302,LEGACY PHARMACEUTICAL PUERTO RICO LLC,RD 909 KM 1.1 MARIANA WARD,HUMACAO,PR,791,"LEGACY PHARMACEUTICAL PUERTO RICO LLC.RD 909 KM 1.1 MARIANA WARD, HUMACAO PUERTO RICO 00791 (HUMACAO MUNICIPIO)",0,C,,110000580639
00662TDRFTRD112,-67.03,18.482,False,72,071,410402,72,72071,72071410402,1400000US72071410402,OUTDOOR FOOTWEAR CO,STATE RD 112 KM 21 MORA WARD,ISABELA,PR,662,"OUTDOOR FOOTWEAR CO.STATE RD 112 KM 21 MORA WARD, ISABELA PUERTO RICO 00662 (ISABELA MUNICIPIO)",0,C,,
00664BXTRHSTROA,-66.59899999999999,18.217,False,72,073,956100,72,72073,72073956100,1400000US72073956100,BAXTER HEALTHCARE OF PUERTO RICO,250 STATE RD 144 KM 20.6,JAYUYA,PR,664,"BAXTER HEALTHCARE OF PUERTO RICO.250 STATE RD 144 KM 20.6, JAYUYA PUERTO RICO 00664 (JAYUYA MUNICIPIO)",0,C,,110000580648
00665PRDCTKM667,-66.51,18.058,False,72,075,710600,72,72075,72075710600,1400000US72075710600,PRODUCTOS CIRCUITOS DE PR INC,RD 149 KM 667,JUANA DIAZ,PR,795,"PRODUCTOS CIRCUITOS DE PR INC.RD 149 KM 667, JUANA DIAZ PUERTO RICO 00795 (JUANA DIAZ MUNICIPIO)",0,C,,
00795CRBGNCARRI,-66.509,18.059,False,72,075,710600,72,72075,72075710600,1400000US72075710600,CARIBE GE PRODS INC,"CARRION MADURO FINAL, KM 672",JUANA DIAZ,PR,795,"CARIBE GE PRODS INC.CARRION MADURO FINAL, KM 672, JUANA DIAZ PUERTO RICO 00795 (JUANA DIAZ MUNICIPIO)",0,C,,
00666TMPLXPOBOX,-65.929,18.239,False,72,077,500200,72,72077,72077500200,1400000US72077500200,TIMEPLEX CARIBE LTD,RD 189 KM 124,JUNCOS,PR,7771539,"TIMEPLEX CARIBE LTD.RD 189 KM 124, JUNCOS PUERTO RICO 00777 (JUNCOS MUNICIPIO)",0,C,,
00671BRDCRPRIDC,-65.86,18.160999999999998,False,72,085,190301,72,72085,72085190301,1400000US72085190301,C R BARD CARDIOPULMONARY INC,PRIDCO INDL  PARK LOT 5,LAS PIEDRAS,PR,7712001,"C R BARD CARDIOPULMONARY INC.PRIDCO INDL  PARK LOT 5, LAS PIEDRAS PUERTO RICO 00771 (LAS PIEDRAS MUNICIPIO)",0,C,,
00671JHNSNRD183,-65.882,18.177,False,72,085,190301,72,72085,72085190301,1400000US72085190301,MCNEIL HEALTHCARE LLC,RD 183 KM 19.7,LAS PIEDRAS,PR,771,"MCNEIL HEALTHCARE LLC.RD 183 KM 19.7, LAS PIEDRAS PUERTO RICO 00771 (LAS PIEDRAS MUNICIPIO)",0,C,,110000580657
00671PMCRNPRROA,-65.899,18.175,False,72,085,190301,72,72085,72085190301,1400000US72085190301,PAMCOR INC LAS PIEDRAS,PR RD 183 KM 183,LAS PIEDRAS,PR,771,"PAMCOR INC LAS PIEDRAS.PR RD 183 KM 183, LAS PIEDRAS PUERTO RICO 00771 (LAS PIEDRAS MUNICIPIO)",1,C,,
00771WNSLLSTATE,-65.90100000000001,18.175,False,72,085,190301,72,72085,72085190301,1400000US72085190301,OWENS-ILLINOIS HEALTHCARE PACKAGING INC,BARRIO MONTONES RD 183 KM181,LAS PIEDRAS,PR,7712023,"OWENS-ILLINOIS HEALTHCARE PACKAGING INC.BARRIO MONTONES RD 183 KM181, LAS PIEDRAS PUERTO RICO 00771 (LAS PIEDRAS MUNICIPIO)",0,C,,
00771TRCSLSTATE,-65.882,18.164,False,72,085,190301,72,72085,72085190301,1400000US72085190301,TO-RICOS LTD LAS PIEDRAS FEED MILL,"STATE RD PR-183, KM 22 BO. MONTONES",LAS PIEDRAS,PR,771,"TO-RICOS LTD LAS PIEDRAS FEED MILL.STATE RD PR-183, KM 22 BO. MONTONES, LAS PIEDRAS PUERTO RICO 00771 (LAS PIEDRAS MUNICIPIO)",0,C,,110000739595
00671KYPHRPRIDC,-65.878,18.180999999999997,False,72,085,190102,72,72085,72085190102,1400000US72085190102,SCHERING-PLOUGH PRODUCTS LLC,ST #183 KM 18.3 PRIDCO INDL. PARK,LAS PIEDRAS,PR,771,"SCHERING-PLOUGH PRODUCTS LLC.ST #183 KM 18.3 PRIDCO INDL. PARK, LAS PIEDRAS PUERTO RICO 00771 (LAS PIEDRAS MUNICIPIO)",0,C,,110007808989
00671LFSVRHIGHW,-65.83800000000001,18.179000000000002,False,72,085,190102,72,72085,72085190102,1400000US72085190102,HERSHEY PUERTO RICO INC,RD # 30 KM 21.2,LAS PIEDRAS,PR,7710128,"HERSHEY PUERTO RICO INC.RD # 30 KM 21.2, LAS PIEDRAS PUERTO RICO 00771 (LAS PIEDRAS MUNICIPIO)",0,C,,110001659919
00771BDLSPPBX27,-65.874,18.178,False,72,085,190102,72,72085,72085190102,1400000US72085190102,ASPEN SURGICAL PR CORP,ROAD 183 KM 20.3,LAS PIEDRAS,PR,771,"ASPEN SURGICAL PR CORP.ROAD 183 KM 20.3, LAS PIEDRAS PUERTO RICO 00771 (LAS PIEDRAS MUNICIPIO)",0,C,,110020514834
00771RDMDCRD183,-65.872,18.179000000000002,False,72,085,190102,72,72085,72085190102,1400000US72085190102,RD MEDICAL MANUFACTURING INC,RD 183 KM 21.6,LAS PIEDRAS,PR,771,"RD MEDICAL MANUFACTURING INC.RD 183 KM 21.6, LAS PIEDRAS PUERTO RICO 00771 (LAS PIEDRAS MUNICIPIO)",0,C,,110037142491
00671NTLPRPOBOX,-65.92399999999999,18.167,False,72,077,500402,72,72085,72077500402,1400000US72077500402,INTEL PUERTO RICO LTD,ST RD 183 S INDUSTRIAL PARK KM 211,LAS PIEDRAS,PR,771,"INTEL PUERTO RICO LTD.ST RD 183 S INDUSTRIAL PARK KM 211, LAS PIEDRAS PUERTO RICO 00771 (LAS PIEDRAS MUNICIPIO)",0,C,,
00671PRNCM183RD,-65.874,18.176,False,72,085,190202,72,72085,72085190202,1400000US72085190202,CHESEBROUGH-POND'S MANUFACTURING CO,RD 183 KM 212,LAS PIEDRAS,PR,7712005,"CHESEBROUGH-POND'S MANUFACTURING CO.RD 183 KM 212, LAS PIEDRAS PUERTO RICO 00771 (LAS PIEDRAS MUNICIPIO)",0,C,,
00771CNSMRRD183,-65.873,18.173,False,72,085,190202,72,72085,72085190202,1400000US72085190202,JOHNSON & JOHNSON CONSUMER PRODS INC,RD 183 KM 206,LAS PIEDRAS,PR,771,"JOHNSON & JOHNSON CONSUMER PRODS INC.RD 183 KM 206, LAS PIEDRAS PUERTO RICO 00771 (LAS PIEDRAS MUNICIPIO)",1,C,,
00771CTLRH50JES,-65.874,18.176,False,72,085,190202,72,72085,72085190202,1400000US72085190202,CUTLER HAMMER ELECTRICAL CO,CARRETERA 183 KM 20.3,LAS PIEDRAS,PR,771,"CUTLER HAMMER ELECTRICAL CO.CARRETERA 183 KM 20.3, LAS PIEDRAS PUERTO RICO 00771 (LAS PIEDRAS MUNICIPIO)",0,C,,110008053284
00673CRBSTRD992,-65.718,18.372,False,72,089,140201,72,72089,72089140201,1400000US72089140201,CARIBE STAPLE CO INC,RD 992 KM 02,LUQUILLO,PR,773,"CARIBE STAPLE CO INC.RD 992 KM 02, LUQUILLO PUERTO RICO 00773 (LUQUILLO MUNICIPIO)",0,C,,
00673GBNSLROAD9,-65.708,18.358,False,72,089,140101,72,72089,72089140101,1400000US72089140101,METALOR ELECTROTECHNICS (PUERTO RICO) LLC,RD 992 KM 03 BOX 1005,LUQUILLO,PR,773,"METALOR ELECTROTECHNICS (PUERTO RICO) LLC.RD 992 KM 03 BOX 1005, LUQUILLO PUERTO RICO 00773 (LUQUILLO MUNICIPIO)",1,C,,110000580666
00673GBSNLROADS,-65.718,18.371,False,72,089,140101,72,72089,72089140101,1400000US72089140101,AMI GIBSON INC  PLANT II,RD 992 KM 03 LOT #7 LUQUILLO INDL PARK,LUQUILLO,PR,7731005,"AMI GIBSON INC  PLANT II.RD 992 KM 03 LOT #7 LUQUILLO INDL PARK, LUQUILLO PUERTO RICO 00773 (LUQUILLO MUNICIPIO)",0,C,,
00673SYLTRROAD9,-65.719,18.369,False,72,089,140101,72,72089,72089140101,1400000US72089140101,OSRAM SYLVANIA PUERTO RICO CORP,RD 992 KM 05 INDUSTRIAL PARK,LUQUILLO,PR,7730599,"OSRAM SYLVANIA PUERTO RICO CORP.RD 992 KM 05 INDUSTRIAL PARK, LUQUILLO PUERTO RICO 00773 (LUQUILLO MUNICIPIO)",0,C,,
00692CRBGPSTATA,-66.318,18.413,False,72,143,550500,72,72143,72143550500,1400000US72143550500,CARIBE GE FABRICATION INC,STATE RD 2 KM 309,VEGA ALTA,PR,692,"CARIBE GE FABRICATION INC.STATE RD 2 KM 309, VEGA ALTA PUERTO RICO 00692 (VEGA ALTA MUNICIPIO)",2,C,,
00692CRBGPSTATE,-66.318,18.413,False,72,143,550500,72,72143,72143550500,1400000US72143550500,CARIBE GE PILOT,STATE HWY 2 KM 302,VEGA ALTA,PR,692,"CARIBE GE PILOT.STATE HWY 2 KM 302, VEGA ALTA PUERTO RICO 00692 (VEGA ALTA MUNICIPIO)",1,C,,
00692CRBGNSTATE,-66.318,18.413,False,72,143,550500,72,72143,72143550500,1400000US72143550500,INDUSTRIAL C&S OF PR LLC,STATE RD # 2 KM. 30.1,VEGA ALTA,PR,692,"INDUSTRIAL C&S OF PR LLC.STATE RD # 2 KM. 30.1, VEGA ALTA PUERTO RICO 00692 (VEGA ALTA MUNICIPIO)",0,C,,110042075125
00701CRBGNSTATE,-66.469,18.435,False,72,091,570100,72,72091,72091570100,1400000US72091570100,CARIBE GE PRODUCTS INC,RD #2 KM 477,MANATI,PR,674,"CARIBE GE PRODUCTS INC.RD #2 KM 477, MANATI PUERTO RICO 00674 (MANATI MUNICIPIO)",1,C,,
00701CYNMDPRROA,-66.475,18.437,False,72,091,570100,72,72091,72091570100,1400000US72091570100,BASF AGRICULTURAL PRODUCTS DE PUERTO RICO,STATE RD PR 2 KM 47.4,MANATI,PR,674,"BASF AGRICULTURAL PRODUCTS DE PUERTO RICO.STATE RD PR 2 KM 47.4, MANATI PUERTO RICO 00674 (MANATI MUNICIPIO)",0,C,,110007807285
00701DPNTGHIGHW,-66.47399999999999,18.45,False,72,091,570100,72,72091,72091570100,1400000US72091570100,DUPONT AGRICULTURAL CARIBE INDUSTRIES LTD,"P.R. RD NO. 686, KM. 2.3",MANATI,PR,674,"DUPONT AGRICULTURAL CARIBE INDUSTRIES LTD.P.R. RD NO. 686, KM. 2.3, MANATI PUERTO RICO 00674 (MANATI MUNICIPIO)",0,C,,110007802119
00701DPNTLHIGHW,-66.47,18.456,False,72,091,570100,72,72091,72091570100,1400000US72091570100,DU PONT ELECTRONICS MICROCIRCU ITS INDUSTRIES LTD,HWY 686 KM 2.3,MANATI,PR,674,"DU PONT ELECTRONICS MICROCIRCU ITS INDUSTRIES LTD.HWY 686 KM 2.3, MANATI PUERTO RICO 00674 (MANATI MUNICIPIO)",0,C,,110000739568
00701DPNTPHIGHW,-66.46600000000001,18.454,False,72,091,570100,72,72091,72091570100,1400000US72091570100,BRISTOL-MYERS SQUIBB HOLDINGS PHARMA LTD LIABILITY CO,RD 686 KM 2.3,MANATI,PR,674,"BRISTOL-MYERS SQUIBB HOLDINGS PHARMA LTD LIABILITY CO.RD 686 KM 2.3, MANATI PUERTO RICO 00674 (MANATI MUNICIPIO)",0,C,,110056869072
00701DVSGCSTATE,-66.472,18.436,False,72,091,570100,72,72091,72091570100,1400000US72091570100,DAVIS & GECK LTD,"STATE RD PR-2, KM 474",MANATI,PR,674,"DAVIS & GECK LTD.STATE RD PR-2, KM 474, MANATI PUERTO RICO 00674 (MANATI MUNICIPIO)",0,C,,
00701SCHRNROAD6,-66.467,18.438,False,72,091,570100,72,72091,72091570100,1400000US72091570100,SCHERING-PLOUGH PRODUCTS LLC,RT 686 KM 0.5 BO.  COTO NORTE,MANATI,PR,674,"SCHERING-PLOUGH PRODUCTS LLC.RT 686 KM 0.5 BO.  COTO NORTE, MANATI PUERTO RICO 00674 (MANATI MUNICIPIO)",0,C,,110000744712
00701GHBSSPOBOX,-66.497,18.428,False,72,091,570700,72,72091,72091570700,1400000US72091570700,G H BASS CARIBBEAN INC,STATE RD #2 KM 493,MANATI,PR,674,"G H BASS CARIBBEAN INC.STATE RD #2 KM 493, MANATI PUERTO RICO 00674 (MANATI MUNICIPIO)",1,C,,
00701RCHPRSTATE,-66.465,18.427,False,72,091,570500,72,72091,72091570500,1400000US72091570500,PATHEON PUERTO RICO INC,STATE RD 670 KM 2.7,MANATI,PR,674,"PATHEON PUERTO RICO INC.STATE RD 670 KM 2.7, MANATI PUERTO RICO 00674 (MANATI MUNICIPIO)",0,C,,110008471947
00701RTHPHRDNO2,-66.45,18.439,False,72,091,570500,72,72091,72091570500,1400000US72091570500,JANSSEN ORTHO LLC,STATE RD 2 KM 45.6 CAMPO ALEGRE,MANATI,PR,674,"JANSSEN ORTHO LLC.STATE RD 2 KM 45.6 CAMPO ALEGRE, MANATI PUERTO RICO 00674 (MANATI MUNICIPIO)",0,C,,110000858849
00701TNLBRHIGHW,-66.45100000000001,18.439,False,72,091,570500,72,72091,72091570500,1400000US72091570500,WARNER CHILCOTT CO LLC,RD # 2 KM 45.7 COTO NORTE,MANATI,PR,674,"WARNER CHILCOTT CO LLC.RD # 2 KM 45.7 COTO NORTE, MANATI PUERTO RICO 00674 (MANATI MUNICIPIO)",0,C,,110007806650
00674MRNMRPOBOX,-66.465,18.427,False,72,091,570500,72,72091,72091570500,1400000US72091570500,MARION MERRELL INTERNATIONAL SERVICOS DE GESTAO LDA,STATE RD 670 KM 27,MANATI,PR,674,"MARION MERRELL INTERNATIONAL SERVICOS DE GESTAO LDA.STATE RD 670 KM 27, MANATI PUERTO RICO 00674 (MANATI MUNICIPIO)",2,C,,
00674RTHBLRD2KM,-66.45,18.439,False,72,091,570500,72,72091,72091570500,1400000US72091570500,ORTHO BIOLOGICS LLC,"RD #2 KM 456, CAMPO ALEGRE WARD",MANATI,PR,6743333,"ORTHO BIOLOGICS LLC.RD #2 KM 456, CAMPO ALEGRE WARD, MANATI PUERTO RICO 00674 (MANATI MUNICIPIO)",2,C,,
00705BXTRHMERCE,-66.259,18.137,False,72,009,250500,72,72009,72009250500,1400000US72009250500,BAXTER HEALTHCARE OF PUERTO RICO,ROAD 721 KM. 0.3 MERCEDITA SERRALLEZ RD,AIBONITO,PR,705,"BAXTER HEALTHCARE OF PUERTO RICO.ROAD 721 KM. 0.3 MERCEDITA SERRALLEZ RD, AIBONITO PUERTO RICO 00705 (AIBONITO MUNICIPIO)",0,C,,110007805349
00706BXTRFCARR3,-66.986,18.186,False,72,093,960200,72,72093,72093960200,1400000US72093960200,FENWAL INTERNATIONAL INC,RD 357 KM 0.8,MARICAO,PR,606,"FENWAL INTERNATIONAL INC.RD 357 KM 0.8, MARICAO PUERTO RICO 00606 (MARICAO MUNICIPIO)",0,C,,110012638725
00708BMBLBSTREE,-67.152,18.206,False,72,097,080400,72,72097,72097080400,1400000US72097080400,BUMBLE BEE INTERNATIONAL INC,RD 341 KM 45 GOINZALEZ CLEMENTE AVE,MAYAGUEZ,PR,680,"BUMBLE BEE INTERNATIONAL INC.RD 341 KM 45 GOINZALEZ CLEMENTE AVE, MAYAGUEZ PUERTO RICO 00680 (MAYAGUEZ MUNICIPIO)",0,C,,
00708LLLLYSTATE,-67.157,18.267,False,72,097,081522,72,72097,72097081522,1400000US72097081522,LILLY DEL CARIBE INC,3080 AVE HOSTOS,MAYAGUEZ,PR,680,"LILLY DEL CARIBE INC.3080 AVE HOSTOS, MAYAGUEZ PUERTO RICO 00680 (MAYAGUEZ MUNICIPIO)",0,C,,110002054703
00708WSTNGDSTGU,-67.161,18.158,False,72,097,082001,72,72097,72097082001,1400000US72097082001,ABB POWER T&D CO INC,D ST GUANAJIBO INDL PARK,MAYAGUEZ,PR,680,"ABB POWER T&D CO INC.D ST GUANAJIBO INDL PARK, MAYAGUEZ PUERTO RICO 00680 (MAYAGUEZ MUNICIPIO)",0,C,,
00708PRDCTDSTRE,-67.162,18.162,True,72,097,082001,72,72097,72097082001,1400000US72097082001,WESTINGHOUSE PRODUCTOS PR  DIV,D-STREET GUANAJIBO INDL PARK,MAYAGUEZ,PR,680,"WESTINGHOUSE PRODUCTOS PR  DIV D-STREET GUANAJIBO INDL PARK, MAYAGUEZ, PR, 680",0,C,,
00709CRVCRCALLE,-67.142,18.207,False,72,097,080200,72,72097,72097080200,1400000US72097080200,COMPANIA CERVECERA DE PUERTO RICO INC,BLVD ALFONSO VALDES #100,MAYAGUEZ,PR,680,"COMPANIA CERVECERA DE PUERTO RICO INC.BLVD ALFONSO VALDES #100, MAYAGUEZ PUERTO RICO 00680 (MAYAGUEZ MUNICIPIO)",0,C,,110000307757
00709STRKSCARR3,-67.168,18.223,False,72,097,081512,72,72097,72097081512,1400000US72097081512,STARKIST CARIBE INC,3051 RD 64,MAYAGUEZ,PR,680,"STARKIST CARIBE INC.3051 RD 64, MAYAGUEZ PUERTO RICO 00680 (MAYAGUEZ MUNICIPIO)",0,C,,
00709CNTRLRD341,-67.163,18.232,False,72,097,081512,72,72097,72097081512,1400000US72097081512,CENTRAL STATES CAN CO OF PR INC,RD 341 KM45,MAYAGUEZ,PR,680,"CENTRAL STATES CAN CO OF PR INC.RD 341 KM45, MAYAGUEZ PUERTO RICO 00680 (MAYAGUEZ MUNICIPIO)",0,C,,
00680MYGZGMALEC,-67.16,18.219,False,72,097,081512,72,72097,72097081512,1400000US72097081512,MAYAGUEZ GAS TURBINES POWER PL ANT,MALECON AVE,MAYAGUEZ,PR,680,"MAYAGUEZ GAS TURBINES POWER PL ANT.MALECON AVE, MAYAGUEZ PUERTO RICO 00680 (MAYAGUEZ MUNICIPIO)",0,C,,110000580675
00680MPRSSRD64L,-67.168,18.248,False,72,097,081512,72,72097,72097081512,1400000US72097081512,IMPRESS PACKAGING PR INC,STATE RD 64 ALGARROBO INDUSTRIAL PARK,MAYAGUEZ,PR,681,"IMPRESS PACKAGING PR INC.STATE RD 64 ALGARROBO INDUSTRIAL PARK, MAYAGUEZ PUERTO RICO 00681 (MAYAGUEZ MUNICIPIO)",0,C,,110008053346
00715DSTLR331AH,-66.565,18.015,False,72,113,072300,72,72113,72113072300,1400000US72113072300,DESTILERIA SERRALLES INC,AHONORAY ST # 331 MERCEDITA,MERCEDITA,PR,715,"DESTILERIA SERRALLES INC.AHONORAY ST # 331 MERCEDITA, MERCEDITA PUERTO RICO 00715 (PONCE MUNICIPIO)",0,C,,110000307775
00715SSLRNSABAN,-66.539,18.01,False,72,113,072300,72,72113,72113072300,1400000US72113072300,ESSILOR INDUSTRIES,SABANETAS IND US TRIAL PARK # 242,PONCE,PR,716,"ESSILOR INDUSTRIES.SABANETAS IND US TRIAL PARK # 242, PONCE PUERTO RICO 00716 (PONCE MUNICIPIO)",1,C,,110007809853
00715WSTRNTURPE,-66.538,18.008,False,72,113,072300,72,72113,72113072300,1400000US72113072300,WESTERN DIGITAL CARIBE INC,TURPEAUX INDUSTRIAL PARK 1 A,PONCE,PR,7150176,"WESTERN DIGITAL CARIBE INC.TURPEAUX INDUSTRIAL PARK 1 A, PONCE PUERTO RICO 00715 (PONCE MUNICIPIO)",0,C,,
00716NFRMTROAD1,-67.119,18.394000000000002,False,72,099,420200,72,72099,72099420200,1400000US72099420200,INFORMATION MAGNETICS CARIBE INC,RD 125 KM 10,MOCA,PR,718,"INFORMATION MAGNETICS CARIBE INC.RD 125 KM 10, MOCA PUERTO RICO 00718 (MOCA MUNICIPIO)",0,C,,
00717RMSTRCARR1,-66.425,18.373,False,72,101,955202,72,72101,72101955202,1400000US72101955202,AIR MASTER AWNING INC,STATE RD 155 KM 485 BARRIO BUENA VISTA,MOROVIS,PR,687,"AIR MASTER AWNING INC.STATE RD 155 KM 485 BARRIO BUENA VISTA, MOROVIS PUERTO RICO 00687 (MOROVIS MUNICIPIO)",0,C,,
00721CRBGNRD191,-65.788,18.297,False,72,119,130602,72,72119,72119130602,1400000US72119130602,GE RESIDENTIAL PRODS INC,RD #191 KM05 EL YUNQUE,PALMER,PR,721,"GE RESIDENTIAL PRODS INC.RD #191 KM05 EL YUNQUE, PALMER PUERTO RICO 00721 (RIO GRANDE MUNICIPIO)",0,C,,
00723FLRQMROADN,-65.925,17.979,False,72,109,290400,72,72109,72109290400,1400000US72109290400,FLOR-QUIM INC,STATE RD NO3 KM111 BO GUARDARRAYA,PATILLAS,PR,723,"FLOR-QUIM INC.STATE RD NO3 KM111 BO GUARDARRAYA, PATILLAS PUERTO RICO 00723 (PATILLAS MUNICIPIO)",0,C,,
00724RCHMNSTATE,-66.73,18.031,False,72,111,730800,72,72111,72111730800,1400000US72111730800,GULF CHEMICAL CORP,KM04 RD 384 BO TALLABOA,PENUELAS,PR,624,"GULF CHEMICAL CORP.KM04 RD 384 BO TALLABOA, PENUELAS PUERTO RICO 00624 (PENUELAS MUNICIPIO)",1,C,,
00731NDSTR1KMSO,-66.729,17.993,False,72,111,730800,72,72111,72111730800,1400000US72111730800,INDUSTRIAL CHEMICALS CORP,1 KM. S OF STATE RD 127 AT KM. 19.1,PENUELAS,PR,624,"INDUSTRIAL CHEMICALS CORP.1 KM. S OF STATE RD 127 AT KM. 19.1, PENUELAS PUERTO RICO 00624 (PENUELAS MUNICIPIO)",0,C,,110007813660
00724STHPRRD127,-66.735,18.006,False,72,111,730800,72,72111,72111730800,1400000US72111730800,SOUTH PEARL CHEMICAL,RD 127 KM 171,PENUELAS,PR,624,"SOUTH PEARL CHEMICAL.RD 127 KM 171, PENUELAS PUERTO RICO 00624 (PENUELAS MUNICIPIO)",0,C,,
00731PRLSSFIRMD,-66.74600000000001,17.993,False,72,111,730800,72,72111,72111730800,1400000US72111730800,PEERLESS OIL & CHEMICALS INC,"HWY 127, KM.17.1",PENUELAS,PR,624,"PEERLESS OIL & CHEMICALS INC.HWY 127, KM.17.1, PENUELAS PUERTO RICO 00624 (PENUELAS MUNICIPIO)",0,C,,110007342642
00656VSSLLBARRI,-66.752,17.987000000000002,False,72,111,730800,72,72059,72111730800,1400000US72111730800,ARMSTRONG HOLDING CORP,BARRIO MANGAS,GUAYANILLA,PR,656,"ARMSTRONG HOLDING CORP.BARRIO MANGAS, GUAYANILLA PUERTO RICO 00656 (GUAYANILLA MUNICIPIO)",0,C,,
00624NNCRBRD127,-66.738,18.007,False,72,111,730800,72,72111,72111730800,1400000US72111730800,UNION CARBIDE CARIBE LLC,HWY 127 KM 173,PENUELAS,PR,624,"UNION CARBIDE CARIBE LLC.HWY 127 KM 173, PENUELAS PUERTO RICO 00624 (PENUELAS MUNICIPIO)",0,C,,
00624CLCTRRD337,-66.756,17.979,False,72,111,730800,72,72111,72111730800,1400000US72111730800,ECOELECTRICA LP,RD 337 KM 3.7 FIRM DELIVERY,PENUELAS,PR,624,"ECOELECTRICA LP.RD 337 KM 3.7 FIRM DELIVERY, PENUELAS PUERTO RICO 00624 (PENUELAS MUNICIPIO)",0,C,,110007816471
0062WPRTRCCARRE,-66.733,17.993,False,72,111,730800,72,72111,72111730800,1400000US72111730800,PUERTO RICO TERMINALS GROUP LLC,CARRETERA 127 INT 385 - ENTRADA MUELLE TALLABOA,PENUELAS,PR,624,"PUERTO RICO TERMINALS GROUP LLC.CARRETERA 127 INT 385 - ENTRADA MUELLE TALLABOA, PENUELAS PUERTO RICO 00624 (PENUELAS MUNICIPIO)",0,C,,110070234789
00725NTRSPHWY18,-66.02,18.22,False,72,025,202602,72,72025,72025202602,1400000US72025202602,INTERSPACE INDUSTRIES CORP,HWY 183 KM 17,CAGUAS,PR,725,"INTERSPACE INDUSTRIES CORP.HWY 183 KM 17, CAGUAS PUERTO RICO 00725 (CAGUAS MUNICIPIO)",0,C,,
00731FSTSWROAD1,-66.61399999999999,18.012,False,72,113,071200,72,72113,72113071200,1400000US72113071200,FIESTA SWEETENERS CORP,RD #1 KM 125 H 2 BO TENERIAS,PONCE,PR,731,"FIESTA SWEETENERS CORP.RD #1 KM 125 H 2 BO TENERIAS, PONCE PUERTO RICO 00731 (PONCE MUNICIPIO)",0,C,,
00731SRLKNAVENU,-66.618,17.986,False,72,113,072101,72,72113,72113072101,1400000US72113072101,HANES MENSWEAR INC PONCE TEXTILES,84 HOSTOS AVE,PONCE,PR,732,"HANES MENSWEAR INC PONCE TEXTILES.84 HOSTOS AVE, PONCE PUERTO RICO 00732 (PONCE MUNICIPIO)",0,C,,
00731TLLRLCALLE,-66.62100000000001,18.011,False,72,113,071000,72,72113,72113071000,1400000US72113071000,TALLER LA CARIDAD,CALLE ESPERANZA,PONCE,PR,731,"TALLER LA CARIDAD.CALLE ESPERANZA, PONCE PUERTO RICO 00731 (PONCE MUNICIPIO)",0,C,,
00732CHCKPSABAN,-66.581,18.014,False,72,113,072202,72,72113,72113072202,1400000US72113072202,CHECKPOINT CARIBBEAN LTD,SABANETAS INDUSTRIAL PARK LOT 28,PONCE,PR,716,"CHECKPOINT CARIBBEAN LTD.SABANETAS INDUSTRIAL PARK LOT 28, PONCE PUERTO RICO 00716 (PONCE MUNICIPIO)",0,C,,110000580817
00715SSCPRSABEN,-66.584,18.004,False,72,113,072202,72,72113,72113072202,1400000US72113072202,US SURGICAL CORP PUERTO RICO INC,SABENETAS INDL PARK,PONCE,PR,715,"US SURGICAL CORP PUERTO RICO INC.SABENETAS INDL PARK, PONCE PUERTO RICO 00715 (PONCE MUNICIPIO)",0,C,,
00715ZMMRCTURPE,-66.574,18.01,False,72,113,072202,72,72113,72113072202,1400000US72113072202,ZIMMER MANUFACTURING BV,RD 1 KM 123.4 TURPEAUX INDUSTRIAL PARK,MERCEDITA,PR,715,"ZIMMER MANUFACTURING BV.RD 1 KM 123.4 TURPEAUX INDUSTRIAL PARK, MERCEDITA PUERTO RICO 00715 (PONCE MUNICIPIO)",0,C,,110007803476
00732VCSNTAVENI,-66.615,17.969,False,72,113,072102,72,72113,72113072102,1400000US72113072102,VAN CAMP SEAFOOD NATIONAL PACKING CO,3300 AVENIDA SANTIAGO DE LOS CABALLEROS,PONCE,PR,716,"VAN CAMP SEAFOOD NATIONAL PACKING CO.3300 AVENIDA SANTIAGO DE LOS CABALLEROS, PONCE PUERTO RICO 00716 (PONCE MUNICIPIO)",1,C,,
00732WSTRNROAD1,-66.68,18.044,False,72,113,073001,72,72113,72113073001,1400000US72113073001,WESTERN FHER LABS INC,RD 132 KM 253,PONCE,PR,7327468,"WESTERN FHER LABS INC.RD 132 KM 253, PONCE PUERTO RICO 00732 (PONCE MUNICIPIO)",0,C,,
00733PRTRCPUBLI,-66.639,18.023,False,72,113,070100,72,72113,72113070100,1400000US72113070100,CEMEX DE PUERTO RICO INC,STATE RD 123 KM 8.0,PONCE,PR,733,"CEMEX DE PUERTO RICO INC.STATE RD 123 KM 8.0, PONCE PUERTO RICO 00733 (PONCE MUNICIPIO)",0,C,,110022868413
00740STNRCPTORE,-65.645,18.331,False,72,053,150400,72,72053,72053150400,1400000US72053150400,"STANRIC, INC.",RD 195 KM. 1.5 PUERTO REAL INDUSTRIAL PARK,FAJARDO,PR,7400128,"STANRIC, INC..RD 195 KM. 1.5 PUERTO REAL INDUSTRIAL PARK, FAJARDO PUERTO RICO 00740 (FAJARDO MUNICIPIO)",0,C,,110001142950
0073WWRNRCPR195,-65.641,18.332,False,72,053,150400,72,72053,72053150400,1400000US72053150400,TEVA PUERTO RICO LLC,PR 195 KM 1.1,FAJARDO,PR,738,"TEVA PUERTO RICO LLC.PR 195 KM 1.1, FAJARDO PUERTO RICO 00738 (FAJARDO MUNICIPIO)",0,C,,110069571644
00742GLMRTSTATE,-66.933,18.453,False,72,115,330400,72,72115,72115330400,1400000US72115330400,GLAMOURETTE FASHION MILLS INC,STATE RD 113 KM 109,QUEBRADILLAS,PR,6781547,"GLAMOURETTE FASHION MILLS INC.STATE RD 113 KM 109, QUEBRADILLAS PUERTO RICO 00678 (QUEBRADILLAS MUNICIPIO)",0,C,,
00743CRTRPRT115,-67.252,18.336,False,72,117,959500,72,72117,72117959500,1400000US72117959500,CARTER P D INC,RTE 115  KM 129,RINCON,PR,677,"CARTER P D INC.RTE 115  KM 129, RINCON PUERTO RICO 00677 (RINCON MUNICIPIO)",1,C,,
00747KNDLLROUTE,-66.916,18.079,False,72,121,960300,72,72121,72121960300,1400000US72121960300,B. BRAUN OF PR. INC.,STATE RD #2 KM. 215.7,SABANA GRANDE,PR,637,"B. BRAUN OF PR. INC..STATE RD #2 KM. 215.7, SABANA GRANDE PUERTO RICO 00637 (SABANA GRANDE MUNICIPIO)",0,C,,110042086989
00747LCTTPNO9VQ,-66.961,18.070999999999998,False,72,121,960700,72,72121,72121960700,1400000US72121960700,HENKEL PUERTO RICO INC,QUILICHINI AVE # 9,SABANA GRANDE,PR,637,"HENKEL PUERTO RICO INC.QUILICHINI AVE # 9, SABANA GRANDE PUERTO RICO 00637 (SABANA GRANDE MUNICIPIO)",0,C,,110000307793
00751STRTCRD701,-66.3,17.971,False,72,123,953200,72,72123,72123953200,1400000US72123953200,STERI-TECH INC,RD 701 KM. 0.7 SALINAS INDUSTRIAL PARK,SALINAS,PR,751,"STERI-TECH INC.RD 701 KM. 0.7 SALINAS INDUSTRIAL PARK, SALINAS PUERTO RICO 00751 (SALINAS MUNICIPIO)",0,C,,110000602820
00751PRPGRPRO3K,-66.232,17.949,False,72,123,953200,72,72123,72123953200,1400000US72123953200,PREPA - AGUIRRE POWER GENERATI ON COMPLEX,PR-03 KM 152.7 BO. MONTESORRIA AGUIRRE,AGUIRRE,PR,704,"PREPA - AGUIRRE POWER GENERATI ON COMPLEX.PR-03 KM 152.7 BO. MONTESORRIA AGUIRRE, AGUIRRE PUERTO RICO 00704 (SALINAS MUNICIPIO)",0,C,,110000307800
00753CRBGPELRET,-67.02600000000001,18.075,False,72,125,840400,72,72125,72125840400,1400000US72125840400,GE INDUSTRIAL OF PUERTO RICO LLC,EL RETIRO INDUSTRIAL PARK CALLE B,SAN GERMAN,PR,683,"GE INDUSTRIAL OF PUERTO RICO LLC.EL RETIRO INDUSTRIAL PARK CALLE B, SAN GERMAN PUERTO RICO 00683 (SAN GERMAN MUNICIPIO)",0,C,,110007807150
00753WLLCNBSTRE,-67.029,18.077,False,72,125,840400,72,72125,72125840400,1400000US72125840400,WALLACE SILVERSMITHS & PR LTD,EL RETIRO INDUSTRIAL CALLE B,SAN GERMAN,PR,683,"WALLACE SILVERSMITHS & PR LTD.EL RETIRO INDUSTRIAL CALLE B, SAN GERMAN PUERTO RICO 00683 (SAN GERMAN MUNICIPIO)",0,C,,110000580853
00683BXTRHRD122,-67.032,18.085,False,72,125,840400,72,72125,72125840400,1400000US72125840400,FENWAL INTERNATIONAL INC,RD 122 KM 0.5,SAN GERMAN,PR,683,"FENWAL INTERNATIONAL INC.RD 122 KM 0.5, SAN GERMAN PUERTO RICO 00683 (SAN GERMAN MUNICIPIO)",0,C,,110007802645
00753DGTLQPRROA,-67.039,18.089000000000002,False,72,125,840500,72,72125,72125840500,1400000US72125840500,VIASYSTEMS PUERTO RICO INC,RD 362 KM 01 BARRIO GUAMA,SAN GERMAN,PR,683,"VIASYSTEMS PUERTO RICO INC.RD 362 KM 01 BARRIO GUAMA, SAN GERMAN PUERTO RICO 00683 (SAN GERMAN MUNICIPIO)",0,C,,
00683LBNCXRD362,-67.035,18.087,False,72,125,840500,72,72125,72125840500,1400000US72125840500,CORDIS LLC,RD 362 KM 0.5,SAN GERMAN,PR,683,"CORDIS LLC.RD 362 KM 0.5, SAN GERMAN PUERTO RICO 00683 (SAN GERMAN MUNICIPIO)",1,C,,
00754LNCMNURBAP,-65.94800000000001,18.192999999999998,False,72,129,220402,72,72129,72129220402,1400000US72129220402,LANCO MANUFACTURING CORP,URB APONTE # 5,SAN LORENZO,PR,754,"LANCO MANUFACTURING CORP.URB APONTE # 5, SAN LORENZO PUERTO RICO 00754 (SAN LORENZO MUNICIPIO)",0,C,,110004894918
00755VNLMLGUATE,-66.999,18.346,False,72,131,958900,72,72131,72131958900,1400000US72131958900,AVON LOMALINDA INC,STATE RD 446 KM 09 BO GUATEMALA,SAN SEBASTIAN,PR,685,"AVON LOMALINDA INC.STATE RD 446 KM 09 BO GUATEMALA, SAN SEBASTIAN PUERTO RICO 00685 (SAN SEBASTIAN MUNICIPIO)",0,C,,
00757LLRGNSANTA,-66.408,17.954,False,72,133,953600,72,72133,72133953600,1400000US72133953600,ALLERGAN OPTICAL PR INC,SANTA ISABEL INDL PARK,SANTA ISABEL,PR,757,"ALLERGAN OPTICAL PR INC.SANTA ISABEL INDL PARK, SANTA ISABEL PUERTO RICO 00757 (SANTA ISABEL MUNICIPIO)",0,C,,
00757PWRCNSTBBL,-66.40100000000001,17.956,False,72,133,953600,72,72133,72133953600,1400000US72133953600,POWER CONVERSION CARIBE INC,B ST BLDG 13 LA PLAYA INDUSTRIAL PARK,SANTA ISABEL,PR,757,"POWER CONVERSION CARIBE INC.B ST BLDG 13 LA PLAYA INDUSTRIAL PARK, SANTA ISABEL PUERTO RICO 00757 (SANTA ISABEL MUNICIPIO)",0,C,,
00757PRDCTREPAR,-66.404,17.956,False,72,133,953600,72,72133,72133953600,1400000US72133953600,WESTINGHOUSE ELECTRIC CORP PRODUCTOS ELECTRONICOS/PEI #2,REPARTO INDUSTRIALE LA PLAYA,SANTA ISABEL,PR,757,"WESTINGHOUSE ELECTRIC CORP PRODUCTOS ELECTRONICOS/PEI #2.REPARTO INDUSTRIALE LA PLAYA, SANTA ISABEL PUERTO RICO 00757 (SANTA ISABEL MUNICIPIO)",0,C,,
00757SNDSTRD537,-66.405,17.96,False,72,133,953600,72,72133,72133953600,1400000US72133953600,HAMILTON SUNDSTRAND DE PUERTO RICO INC,RD 538 KM 0.7 FELICIA INDUSTRIAL PARK,SANTA ISABEL,PR,757,"HAMILTON SUNDSTRAND DE PUERTO RICO INC.RD 538 KM 0.7 FELICIA INDUSTRIAL PARK, SANTA ISABEL PUERTO RICO 00757 (SANTA ISABEL MUNICIPIO)",0,C,,110042087256
00757PRDCTCALLE,-66.402,17.965,False,72,133,953700,72,72133,72133953700,1400000US72133953700,WESTINGHOUSE ELECTRIC CORP PRODUCTOS ELECTRONICOS/PEI #1,CALLE MUNOZ RIVERA 112,SANTA ISABEL,PR,757,"WESTINGHOUSE ELECTRIC CORP PRODUCTOS ELECTRONICOS/PEI #1.CALLE MUNOZ RIVERA 112, SANTA ISABEL PUERTO RICO 00757 (SANTA ISABEL MUNICIPIO)",0,C,,
00758BXTRHRD165,-66.251,18.383,False,72,135,510300,72,72135,72135510300,1400000US72135510300,"BAXTER HEALTHCARE CORP, PHARMASEAL DIV",RD 165 KM 106 BOCONTORNO,TOA ALTA,PR,953,"BAXTER HEALTHCARE CORP, PHARMASEAL DIV.RD 165 KM 106 BOCONTORNO, TOA ALTA PUERTO RICO 00953 (TOA ALTA MUNICIPIO)",1,C,,
00758BYMNCRD866,-66.19800000000001,18.413,False,72,137,121802,72,72137,72137121802,1400000US72137121802,BAYAMON CAN CO,RD 866 INT 865 BO CANDELARIA ARENAS,TOA BAJA,PR,9364265,"BAYAMON CAN CO.RD 866 INT 865 BO CANDELARIA ARENAS, TOA BAJA PUERTO RICO 00936 (TOA BAJA MUNICIPIO)",0,C,,
00759BRCWDCARR8,-66.203,18.416,False,72,137,121802,72,72137,72137121802,1400000US72137121802,BORICUA WOOD PROCESSING INC,CARR 865 KM 5.5,TOA BAJA,PR,949,"BORICUA WOOD PROCESSING INC.CARR 865 KM 5.5, TOA BAJA PUERTO RICO 00949 (TOA BAJA MUNICIPIO)",0,C,,110000307837
00759MNLDLBROAD,-66.23899999999999,18.412,False,72,137,121802,72,72137,72137121802,1400000US72137121802,MANUEL DEL VALLE INC.,STATE RD #2 KM. 20.5 CANDELARIA WARD,TOA BAJA,PR,949,"MANUEL DEL VALLE INC..STATE RD #2 KM. 20.5 CANDELARIA WARD, TOA BAJA PUERTO RICO 00949 (TOA BAJA MUNICIPIO)",0,C,,110000580871
00949DRXDPPR2KM,-66.234,18.410999999999998,False,72,137,121802,72,72137,72137121802,1400000US72137121802,DAREX DE PUERTO RICO INC.,#2 HWY KM20.5,TOA BAJA,PR,949,"DAREX DE PUERTO RICO INC..#2 HWY KM20.5, TOA BAJA PUERTO RICO 00949 (TOA BAJA MUNICIPIO)",1,C,,110022519719
00759PPMCHROAD2,-66.201,18.409,True,72,137,121802,72,72137,72137121802,1400000US72137121802,PPM CHEMICAL CORP OF PR,RD #2 KM 164,TOA BAJA,PR,949,"PPM CHEMICAL CORP OF PR RD #2 KM 164, TOA BAJA, PR, 949",0,C,,
00758NDSTRRD866,-66.158,18.4,False,72,021,030300,72,72137,72021030300,1400000US72021030300,INDUSTRIAS LA FAMOSA,RD 866 & 865,TOA BAJA,PR,949,"INDUSTRIAS LA FAMOSA.RD 866 & 865, TOA BAJA PUERTO RICO 00949 (TOA BAJA MUNICIPIO)",0,C,,
00759NTRRPRD854,-66.253,18.445999999999998,False,72,137,122400,72,72137,72137122400,1400000US72137122400,CUTLER-HAMMER DE PUERTO RICO CO,RD 854 KM 35,TOA BAJA,PR,949,"CUTLER-HAMMER DE PUERTO RICO CO.RD 854 KM 35, TOA BAJA PUERTO RICO 00949 (TOA BAJA MUNICIPIO)",0,C,,
00762HRMNTHWY2K,-66.324,18.413,False,72,143,550400,72,72143,72143550400,1400000US72143550400,HARMAN AUTOMOTIVE PUERTO RICO INC,RD #2 KM 307,VEGA ALTA,PR,692,"HARMAN AUTOMOTIVE PUERTO RICO INC.RD #2 KM 307, VEGA ALTA PUERTO RICO 00692 (VEGA ALTA MUNICIPIO)",0,C,,
00762NLNDCRD690,-66.336,18.432000000000002,False,72,143,550200,72,72143,72143550200,1400000US72143550200,INLAND CONTAINER CORP,RD 690  KM 1-7 NORTH,VEGA ALTA,PR,692,"INLAND CONTAINER CORP.RD 690  KM 1-7 NORTH, VEGA ALTA PUERTO RICO 00692 (VEGA ALTA MUNICIPIO)",2,C,,
00762WNSLLKM11R,-66.336,18.432000000000002,False,72,143,550200,72,72143,72143550200,1400000US72143550200,UNITED CARIBEAN CONTAINER LTD,KM 11 RD 690,VEGA ALTA,PR,692,"UNITED CARIBEAN CONTAINER LTD.KM 11 RD 690, VEGA ALTA PUERTO RICO 00692 (VEGA ALTA MUNICIPIO)",0,C,,110022533436
00763PRTRCSTREE,-66.387,18.445999999999998,False,72,145,560500,72,72145,72145560500,1400000US72145560500,PUERTO RICO PIGMENTS INC,ST A EXT RD 686,VEGA BAJA,PR,693,"PUERTO RICO PIGMENTS INC.ST A EXT RD 686, VEGA BAJA PUERTO RICO 00693 (VEGA BAJA MUNICIPIO)",1,C,,
00693PRPVGPR2KM,-66.391,18.445999999999998,False,72,145,560500,72,72145,72145560500,1400000US72145560500,PREPA-VEGA BAJA GAS TURBINES POWER PLANT,PR-2 KM 38.0,VEGA BAJA,PR,693,"PREPA-VEGA BAJA GAS TURBINES POWER PLANT.PR-2 KM 38.0, VEGA BAJA PUERTO RICO 00693 (VEGA BAJA MUNICIPIO)",0,C,,110000580719
00763RYCHMRD686,-66.429,18.480999999999998,False,72,145,560204,72,72145,72145560204,1400000US72145560204,RAYCHEM CORP,RD 686 KM 10,VEGA BAJA,PR,693,"RAYCHEM CORP.RD 686 KM 10, VEGA BAJA PUERTO RICO 00693 (VEGA BAJA MUNICIPIO)",0,C,,
00764MTRLDROAD6,-66.395,18.459,False,72,145,560300,72,72145,72145560300,1400000US72145560300,MOTOROLA TELCARRO DE PUERTO RICO  PUERTO RICO OPERATIONS,RD 686 KM 170,VEGA BAJA,PR,694,"MOTOROLA TELCARRO DE PUERTO RICO  PUERTO RICO OPERATIONS.RD 686 KM 170, VEGA BAJA PUERTO RICO 00694 (VEGA BAJA MUNICIPIO)",0,C,,
00764THMSBCABOC,-66.389,18.45,False,72,145,560300,72,72145,72145560300,1400000US72145560300,THOMAS & BETTS CARIBE INC,RD 686 CABO CARIBE IND US TRIAL PARK LOT 32-34,VEGA BAJA,PR,693,"THOMAS & BETTS CARIBE INC.RD 686 CABO CARIBE IND US TRIAL PARK LOT 32-34, VEGA BAJA PUERTO RICO 00693 (VEGA BAJA MUNICIPIO)",0,C,,110001142969
00764CRBGPSTRD6,-66.393,18.456,False,72,145,560300,72,72145,72145560300,1400000US72145560300,GE INDUSTRIAL OF PR LLC,URB CABO CARIBE INDUSTRIAL PARK # 30 ST A,VEGA BAJA,PR,693,"GE INDUSTRIAL OF PR LLC.URB CABO CARIBE INDUSTRIAL PARK # 30 ST A, VEGA BAJA PUERTO RICO 00693 (VEGA BAJA MUNICIPIO)",0,C,,110011935031
00694CHLLNCABOC,-66.385,18.455,False,72,145,560300,72,72145,72145560300,1400000US72145560300,CHALLENGER CARIBBEAN CORP,"CABO CARIBE INDL PARK RD, 686 KM 17 LOT 14",VEGA BAJA,PR,694,"CHALLENGER CARIBBEAN CORP.CABO CARIBE INDL PARK RD, 686 KM 17 LOT 14, VEGA BAJA PUERTO RICO 00694 (VEGA BAJA MUNICIPIO)",0,C,,
00694THMSBCABOC,-66.389,18.45,False,72,145,560300,72,72145,72145560300,1400000US72145560300,THOMAS & BETTS CARIBE INC,CABO CARIBE INDUSTRIAL PARK RD 686 KM 17 LOT 14,VEGA BAJA,PR,6944058,"THOMAS & BETTS CARIBE INC.CABO CARIBE INDUSTRIAL PARK RD 686 KM 17 LOT 14, VEGA BAJA PUERTO RICO 00694 (VEGA BAJA MUNICIPIO)",1,C,,
00764VSSKNCARR6,-66.375,18.441,False,72,145,560600,72,72145,72145560600,1400000US72145560600,V'SOSKE INC,RD 670 INTERSECTION 155,VEGA BAJA,PR,693,"V'SOSKE INC.RD 670 INTERSECTION 155, VEGA BAJA PUERTO RICO 00693 (VEGA BAJA MUNICIPIO)",0,C,,
00765CRBGNRTE20,-65.458,18.14,False,72,147,950500,72,72147,72147950500,1400000US72147950500,GE INDUSTRIAL OF PR LLC VIEQUES PLANT,RD 200 CORNER 201,VIEQUES,PR,765,"GE INDUSTRIAL OF PR LLC VIEQUES PLANT.RD 200 CORNER 201, VIEQUES PUERTO RICO 00765 (VIEQUES MUNICIPIO)",0,C,,110000307846
00765SNVYFCERRO,-65.447,18.125,False,72,147,950500,72,72147,72147950500,1400000US72147950500,US NAVY AFWTF LIVE IMPACT AREA,CERRO MATIAS,VIEQUES,PR,765,"US NAVY AFWTF LIVE IMPACT AREA.CERRO MATIAS, VIEQUES PUERTO RICO 00765 (VIEQUES MUNICIPIO)",1,F,,
00766CMPTRURBLA,-66.48100000000001,18.129,False,72,149,720300,72,72149,72149720300,1400000US72149720300,WESTINGHOUSE DE PR COMPUTER & INSTRUMENTATION DIV,URB LA VEGA KM 11,VILLALBA,PR,766,"WESTINGHOUSE DE PR COMPUTER & INSTRUMENTATION DIV.URB LA VEGA KM 11, VILLALBA PUERTO RICO 00766 (VILLALBA MUNICIPIO)",0,C,,
00766MDTRNROAD1,-66.492,18.125,False,72,149,720400,72,72149,72149720400,1400000US72149720400,MEDTRONIC PR INC,RD 149 KM 563,VILLALBA,PR,766,"MEDTRONIC PR INC.RD 149 KM 563, VILLALBA PUERTO RICO 00766 (VILLALBA MUNICIPIO)",0,C,,
00767HMSPH130CA,-65.85300000000001,18.045,False,72,151,951300,72,72151,72151951300,1400000US72151951300,HEMISPHERE OIL CO INC,"BO CAMINO NUEVO, RD 901 KM 28",YABUCOA,PR,767,"HEMISPHERE OIL CO INC.BO CAMINO NUEVO, RD 901 KM 28, YABUCOA PUERTO RICO 00767 (YABUCOA MUNICIPIO)",1,C,,
00767YBCSNROUTE,-65.851,18.047,False,72,151,951300,72,72151,72151951300,1400000US72151951300,BUCKEYE CARIBBEAN TERMINALS LLC (FORMER SCYI),RT 901 KM 2.7 CAMINO NUEVO WARD,YABUCOA,PR,767,"BUCKEYE CARIBBEAN TERMINALS LLC (FORMER SCYI).RT 901 KM 2.7 CAMINO NUEVO WARD, YABUCOA PUERTO RICO 00767 (YABUCOA MUNICIPIO)",0,C,,110000580915
0076WLNRCVPMB19,-65.85,18.048,False,72,151,951300,72,72151,72151951300,1400000US72151951300,"OLEIN RECOVERY, CORP.",PMB 197 BOX #5,YABUCOA,PR,767,"OLEIN RECOVERY, CORP..PMB 197 BOX #5, YABUCOA PUERTO RICO 00767 (YABUCOA MUNICIPIO)",0,C,,110031393711
00768SRTRSROAD1,-66.858,18.038,False,72,153,750300,72,72153,72153750300,1400000US72153750300,SARTORIUS STEDIM FILTERS INC,PR # 128 INT. PR 376,YAUCO,PR,698,"SARTORIUS STEDIM FILTERS INC.PR # 128 INT. PR 376, YAUCO PUERTO RICO 00698 (YAUCO MUNICIPIO)",0,C,,110000307855
00769LSFLRHWY15,-66.36399999999999,18.05,False,72,043,954600,72,72043,72043954600,1400000US72043954600,LAS FLORES METALARTE INC,HWY 153 KM 121,COAMO,PR,7691904,"LAS FLORES METALARTE INC.HWY 153 KM 121, COAMO PUERTO RICO 00769 (COAMO MUNICIPIO)",0,C,,
00775BXTRHBOFUL,-65.3,18.303,False,72,049,950500,72,72049,72049950500,1400000US72049950500,RD MEDICAL MANUFACTURING INC,BO FULLADOZA,CULEBRA,PR,7750899,"RD MEDICAL MANUFACTURING INC.BO FULLADOZA, CULEBRA PUERTO RICO 00775 (CULEBRA MUNICIPIO)",0,C,,
00910VLCCHPRRD1,-66.093,18.34,False,72,127,010200,72,72127,72127010200,1400000US72127010200,VILCO CHEMICAL INC,PR RD 1 KM 191,SAN JUAN,PR,910,"VILCO CHEMICAL INC.PR RD 1 KM 191, SAN JUAN PUERTO RICO 00910 (SAN JUAN MUNICIPIO)",1,C,,
00926VLCCHPRRD1,-66.093,18.345,False,72,127,010200,72,72127,72127010200,1400000US72127010200,SUPERIOR PAINTS MANUFACTURING CO INC VILCO CHEMICAL DIV,PR RD 1,BARRIO OBRERO,PR,916,"SUPERIOR PAINTS MANUFACTURING CO INC VILCO CHEMICAL DIV.PR RD 1, BARRIO OBRERO PUERTO RICO 00916 (SAN JUAN MUNICIPIO)",0,C,,
00918SPRRPTRESM,-66.036,18.424,False,72,127,004700,72,72127,72127004700,1400000US72127004700,SUPERIOR PAINTS MANUFACTURING CO INC,CALAF ST,SAN JUAN,PR,918,"SUPERIOR PAINTS MANUFACTURING CO INC.CALAF ST, SAN JUAN PUERTO RICO 00918 (SAN JUAN MUNICIPIO)",1,C,,
00918TRPCRFEDER,-66.074,18.432000000000002,False,72,127,010500,72,72127,72127010500,1400000US72127010500,TROPICAIR MANUFACTURING CORP,FEDERICO COSTA FINAL,HATO REY,PR,917,"TROPICAIR MANUFACTURING CORP.FEDERICO COSTA FINAL, HATO REY PUERTO RICO 00917 (SAN JUAN MUNICIPIO)",0,C,,
00918NDLCX198CH,-66.065,18.424,False,72,127,010500,72,72127,72127010500,1400000US72127010500,INDULAC,198 CHARDON AVE,HATO REY,PR,918,"INDULAC.198 CHARDON AVE, HATO REY PUERTO RICO 00918 (SAN JUAN MUNICIPIO)",0,C,,110037238682
0091WVQRTR215CA,-66.071,18.426,False,72,127,010500,72,72127,72127010500,1400000US72127010500,VAQUERIA TRES MONJITAS,215 CALLE FEDERICO COSTA,SAN JUAN,PR,918,"VAQUERIA TRES MONJITAS.215 CALLE FEDERICO COSTA, SAN JUAN PUERTO RICO 00918 (SAN JUAN MUNICIPIO)",0,C,,110055971346
00918NDSTR209ON,-66.062,18.425,True,72,127,010500,72,72127,72127010500,1400000US72127010500,INDUSTRIAL LECHERA DE PUERTO RICO INC,209 O'NEILL ST,SAN JUAN,PR,918,"INDUSTRIAL LECHERA DE PUERTO RICO INC 209 O'NEILL ST, SAN JUAN, PR, 918",0,C,,
00919MNTCDNO113,-66.063,18.438,False,72,127,003902,72,72127,72127003902,1400000US72127003902,MANTECADOS PAYCO INC,CALLE CHARDON #113,SAN JUAN,PR,919,"MANTECADOS PAYCO INC.CALLE CHARDON #113, SAN JUAN PUERTO RICO 00919 (SAN JUAN MUNICIPIO)",1,C,,
00920NTRNTJOHNA,-66.093,18.421,False,72,127,007004,72,72127,72127007004,1400000US72127007004,GULF TREATING CORP,CALLE JOHN ALBERT 320,PUERTO NUEVO,PR,920,"GULF TREATING CORP.CALLE JOHN ALBERT 320, PUERTO NUEVO PUERTO RICO 00920 (SAN JUAN MUNICIPIO)",0,C,,110001142843
00924MXCHMLABRI,-66.024,18.397000000000002,False,72,127,005103,72,72127,72127005103,1400000US72127005103,MAX CHEMICAL INC,"URB. INDUSTRIAL SABANA LLANA, LA BRISA NO. 6",RIO PIEDRAS,PR,924,"MAX CHEMICAL INC.URB. INDUSTRIAL SABANA LLANA, LA BRISA NO. 6, RIO PIEDRAS PUERTO RICO 00924 (SAN JUAN MUNICIPIO)",0,C,,110006433760
00928PMCRNNO67A,-66.024,18.397000000000002,False,72,127,005103,72,72127,72127005103,1400000US72127005103,"PAMCOR INC, RIO PIEDRAS",NO 677 AVE DE DIEGO,RIO PIEDRAS,PR,924,"PAMCOR INC, RIO PIEDRAS.NO 677 AVE DE DIEGO, RIO PIEDRAS PUERTO RICO 00924 (SAN JUAN MUNICIPIO)",1,C,,
00926RBTNCAVPON,-66.065,18.385,False,72,127,009601,72,72127,72127009601,1400000US72127009601,ORBIT INC,1537 AV PONCE DE LEON EL CINCO INDUSTRIAL ZONE,SAN JUAN,PR,926,"ORBIT INC.1537 AV PONCE DE LEON EL CINCO INDUSTRIAL ZONE, SAN JUAN PUERTO RICO 00926 (SAN JUAN MUNICIPIO)",0,C,,
00926WTRTRPOBOX,-66.15,18.434,False,72,033,020425,72,72033,72033020425,1400000US72033020425,WATER TREATMENT SPECIALIST INC,"PR RD 869, KM 2.0 BO PALMAS INDUSTRIAL PARK",CATANO,PR,962,"WATER TREATMENT SPECIALIST INC.PR RD 869, KM 2.0 BO PALMAS INDUSTRIAL PARK, CATANO PUERTO RICO 00962 (CATANO MUNICIPIO)",0,C,,110000580997
00929CCCLBAVEDE,-66.044,18.377,False,72,127,009122,72,72127,72127009122,1400000US72127009122,"COCA-COLA, BOTTLING CO OF PR INC","AVE DE DIEGO FINAL BO SABANA, LLANA",SAN JUAN,PR,929,"COCA-COLA, BOTTLING CO OF PR INC.AVE DE DIEGO FINAL BO SABANA, LLANA, SAN JUAN PUERTO RICO 00929 (SAN JUAN MUNICIPIO)",1,C,,
00630WDTRT65INF,-66.03399999999999,18.381,False,72,127,009122,72,72127,72127009122,1400000US72127009122,PUERTO RICO WOOD TREATING,AVE 65 DE INFANTERIA KM 7.0,CAROLINA,PR,985,"PUERTO RICO WOOD TREATING.AVE 65 DE INFANTERIA KM 7.0, CAROLINA PUERTO RICO 00985 (SAN JUAN MUNICIPIO)",0,C,,110000580522
00953CRBFRHWY86,-66.208,18.371,False,72,135,510504,72,72135,72135510504,1400000US72135510504,CARIBE FURNITURE MANUFACTURING INC,HWY 861 N  KM 50,TOA ALTA,PR,953,"CARIBE FURNITURE MANUFACTURING INC.HWY 861 N  KM 50, TOA ALTA PUERTO RICO 00953 (TOA ALTA MUNICIPIO)",0,C,,
00978SGNLCRD848,-66.00399999999999,18.378,False,72,139,060103,72,72139,72139060103,1400000US72139060103,SIGNAL CARIBE INC,RD #848 KM 16,SAINT JUST,PR,987,"SIGNAL CARIBE INC.RD #848 KM 16, SAINT JUST PUERTO RICO 00987 (TRUJILLO ALTO MUNICIPIO)",0,C,,
00602DSCFPPOBOA,-67.208,18.371,False,72,003,430602,72,72003,72003430602,1400000US72003430602,DSC OF PUERTO RICO INC BLDG 9,W INDUSTRIAL SITE,AGUADA,PR,6020580,"DSC OF PUERTO RICO INC BLDG 9.W INDUSTRIAL SITE, AGUADA PUERTO RICO 00602 (AGUADA MUNICIPIO)",0,C,,
00602DSCFPPOBOX,-67.208,18.371,False,72,003,430602,72,72003,72003430602,1400000US72003430602,DSC OF PUERTO RICO INC BLDG 1,AGUADA WEST INDUSTRIAL SITE,AGUADA,PR,6020580,"DSC OF PUERTO RICO INC BLDG 1.AGUADA WEST INDUSTRIAL SITE, AGUADA PUERTO RICO 00602 (AGUADA MUNICIPIO)",0,C,,
00602GRNGRAGUAD,-67.208,18.371,False,72,003,430602,72,72003,72003430602,1400000US72003430602,DSC OF PUERTO RICO INC BLDG 8,W INDUSTRIAL SITE,AGUADA,PR,6020580,"DSC OF PUERTO RICO INC BLDG 8.W INDUSTRIAL SITE, AGUADA PUERTO RICO 00602 (AGUADA MUNICIPIO)",0,C,,
00603HWLTTSTATE,-67.155,18.435,False,72,005,400800,72,72005,72005400800,1400000US72005400800,HEWLETT-PACKARD CARIBE BV SITE,HWY 110 N KM 5.1,AGUADILLA,PR,603,"HEWLETT-PACKARD CARIBE BV SITE.HWY 110 N KM 5.1, AGUADILLA PUERTO RICO 00603 (AGUADILLA MUNICIPIO)",0,C,,110063174808
00617GNRLNTOMAS,-66.54,18.453,False,72,017,590200,72,72017,72017590200,1400000US72017590200,GENERAL INSTRUMENT CORP PUERTO RICO,9 TOMAS DAVILA ST,BARCELONETA,PR,617,"GENERAL INSTRUMENT CORP PUERTO RICO.9 TOMAS DAVILA ST, BARCELONETA PUERTO RICO 00617 (BARCELONETA MUNICIPIO)",0,C,,
00617PRCSNTMASD,-66.54,18.453,False,72,017,590200,72,72017,72017590200,1400000US72017590200,ADM ALLIANCE NUTRITION OF PUERTO RICO LLC,TOMAS DAVILA ST EDIF 10  PALMAS ALTAS INDUSTRIAL P,BARCELONETA,PR,617,"ADM ALLIANCE NUTRITION OF PUERTO RICO LLC.TOMAS DAVILA ST EDIF 10  PALMAS ALTAS INDUSTRIAL P, BARCELONETA PUERTO RICO 00617 (BARCELONETA MUNICIPIO)",0,C,,110025330666
00627PNMSHPRRD1,-66.852,18.473,False,72,027,320401,72,72027,72027320401,1400000US72027320401,PAN AM SHOE CO INC,"RD119, KM 30 BO PUENTE",CAMUY,PR,627,"PAN AM SHOE CO INC.RD119, KM 30 BO PUENTE, CAMUY PUERTO RICO 00627 (CAMUY MUNICIPIO)",0,C,,
00629CHLLNRD874,-65.92,18.384,False,72,031,051104,72,72029,72031051104,1400000US72031051104,EATON CORP,ROAD PR-874 KM 1.1 TORRECILLA ALTA,CANOVANAS,PR,729,"EATON CORP.ROAD PR-874 KM 1.1 TORRECILLA ALTA, CANOVANAS PUERTO RICO 00729 (CANOVANAS MUNICIPIO)",0,C,,110022524810
0098WPPGRC63FER,-65.934,18.377,False,72,031,051104,72,72031,72031051104,1400000US72031051104,PPG ARCHITECTURAL COATINGS (PUERTO RICO) INC,#630 FERIA ST METROPOLITAN IND US TRIAL PARK,CAROLINA,PR,987,"PPG ARCHITECTURAL COATINGS (PUERTO RICO) INC.#630 FERIA ST METROPOLITAN IND US TRIAL PARK, CAROLINA PUERTO RICO 00987 (CAROLINA MUNICIPIO)",1,C,,110060257911
00659CNTRLRD2KM,-66.777,18.485,False,72,065,310100,72,72065,72065310100,1400000US72065310100,ADM ALLIANCE NUTRITION OF PR LLC,STATE RD NO. 2 KM 83.0 CARRIZALES WARD,HATILLO,PR,659,"ADM ALLIANCE NUTRITION OF PR LLC.STATE RD NO. 2 KM 83.0 CARRIZALES WARD, HATILLO PUERTO RICO 00659 (HATILLO MUNICIPIO)",0,C,,110000307739
00752DGTLQPRRD1,-67.104,18.491,False,72,005,400100,72,72005,72005400100,1400000US72005400100,DIGITAL EQUIPMENT CORP,PR RD 110 KM 58,AGUADILLA,PR,605,"DIGITAL EQUIPMENT CORP.PR RD 110 KM 58, AGUADILLA PUERTO RICO 00605 (AGUADILLA MUNICIPIO)",0,C,,
00690SNSRMSTATE,-67.104,18.496,False,72,005,400100,72,72005,72005400100,1400000US72005400100,SENSORMATIC PUERTO RICO INC.,"STATE RD 110 N, KM. 5.8 SAN ANTONIO WARD",AGUADILLA,PR,690,"SENSORMATIC PUERTO RICO INC..STATE RD 110 N, KM. 5.8 SAN ANTONIO WARD, AGUADILLA PUERTO RICO 00690 (AGUADILLA MUNICIPIO)",0,C,,110007813401
00763WRNRLCARRE,-66.34899999999999,18.449,False,72,145,560100,72,72145,72145560100,1400000US72145560100,PFIZER PHARMACEUTICALS LLC,RD 689 KM 1.9,VEGA BAJA,PR,694,"PFIZER PHARMACEUTICALS LLC.RD 689 KM 1.9, VEGA BAJA PUERTO RICO 00694 (VEGA BAJA MUNICIPIO)",0,C,,110007342786
00985MLNSDAVENI,-66.075,18.417,False,72,127,980101,72,72033,72127980101,1400000US72127980101,MOLINOS DE PUERTO RICO,BUCHANAN TO CATANO KM 1.1,CATANO,PR,962,"MOLINOS DE PUERTO RICO.BUCHANAN TO CATANO KM 1.1, CATANO PUERTO RICO 00962 (CATANO MUNICIPIO)",0,C,,110010785971
00608DCRBNRD3KM,-66.232,17.973,False,72,123,952900,72,72123,72123952900,1400000US72123952900,IDI CARIBE INC,PR3 KM 151.8 AGUIRRE,SALINAS,PR,751,"IDI CARIBE INC.PR3 KM 151.8 AGUIRRE, SALINAS PUERTO RICO 00751 (SALINAS MUNICIPIO)",0,C,,110001991480
00751DSSTNKM156,-66.273,17.972,True,72,123,952900,72,72123,72123952900,1400000US72123952900,DESESTANERIA GOLDSCHMIDT DEL CARIBE INC,KM 1564 PR-3,SALINAS,PR,751,"DESESTANERIA GOLDSCHMIDT DEL CARIBE INC KM 1564 PR-3, SALINAS, PR, 751",0,C,,
00625RTTNSPR1KM,-66.042,18.230999999999998,False,72,025,201200,72,72025,72025201200,1400000US72025201200,RATTAN INDUSTRIES INC,PR RD 1 MM 298,CAGUAS,PR,726,"RATTAN INDUSTRIES INC.PR RD 1 MM 298, CAGUAS PUERTO RICO 00726 (CAGUAS MUNICIPIO)",0,C,,
00632CRBBNSTATE,-66.139,18.438,False,72,033,020422,72,72033,72033020422,1400000US72033020422,CARIBBEAN ELECTROPLATING INC,869 RD KM 05 BO PALMAS,CATANO,PR,962,"CARIBBEAN ELECTROPLATING INC.869 RD KM 05 BO PALMAS, CATANO PUERTO RICO 00962 (CATANO MUNICIPIO)",0,C,,
00638PRCSNBETAN,-66.473,18.337,False,72,039,955700,72,72039,72039955700,1400000US72039955700,PRECISION MICROBLENDERS INC,BETANCES ST 24,CIALES,PR,638,"PRECISION MICROBLENDERS INC.BETANCES ST 24, CIALES PUERTO RICO 00638 (CIALES MUNICIPIO)",0,C,,
00731CHLNPELTUQ,-66.648,17.988,False,72,113,073010,72,72113,72113073010,1400000US72113073010,DANA ENGINE MANAGEMENT GROUP,101 EL TUQUE IND PARK STREET B 101 EL TUQUE IND PA,PONCE,PR,7282803,"DANA ENGINE MANAGEMENT GROUP.101 EL TUQUE IND PARK STREET B 101 EL TUQUE IND PA, PONCE PUERTO RICO 00728 (PONCE MUNICIPIO)",0,C,,
00732BLCHMROADN,-66.639,17.998,False,72,113,073010,72,72113,72113073010,1400000US72113073010,BILCHEM LTD,RD NO 132 KM 235,PONCE,PR,7327468,"BILCHEM LTD.RD NO 132 KM 235, PONCE PUERTO RICO 00732 (PONCE MUNICIPIO)",0,C,,
0073WLLDWSBARAM,-66.641,18.002,False,72,113,073010,72,72113,72113073010,1400000US72113073010,ALLIED WASTE OF PONCE,BARAMAYA AVENUE - PR 500 - COTORRA WARD,PONCE,PR,732,"ALLIED WASTE OF PONCE.BARAMAYA AVENUE - PR 500 - COTORRA WARD, PONCE PUERTO RICO 00732 (PONCE MUNICIPIO)",0,C,,
00922FRSTLDEDIE,-66.064,18.451,False,72,127,001600,72,72127,72127001600,1400000US72127001600,FOREST LABS CARIBE INC,DE DIEGO AVE 126 LA RIVIERA,SAN JUAN,PR,922,"FOREST LABS CARIBE INC.DE DIEGO AVE 126 LA RIVIERA, SAN JUAN PUERTO RICO 00922 (SAN JUAN MUNICIPIO)",0,C,,
00936SZDRYAVEDE,-66.084,18.392,False,72,127,008202,72,72127,72127008202,1400000US72127008202,SUIZA DAIRY CORP,SAN PATRICIO & DE DIEGO AVENUES,RIO PIEDRAS,PR,921,"SUIZA DAIRY CORP.SAN PATRICIO & DE DIEGO AVENUES, RIO PIEDRAS PUERTO RICO 00921 (SAN JUAN MUNICIPIO)",0,C,,110001660131
00740XMDTRCARR1,-65.836,18.379,False,72,119,130200,72,72023,72119130200,1400000US72119130200,XOMED-TREACE PR INC,CARR 195 KM 15,CABO ROJO,PR,6230731,"XOMED-TREACE PR INC.CARR 195 KM 15, CABO ROJO PUERTO RICO 00623 (CABO ROJO MUNICIPIO)",0,C,,
00757PWRPRPRRD1,-66.381,18.015,False,72,133,953500,72,72133,72133953500,1400000US72133953500,POWER PARTS INC,PR RD 153 KM 70,SANTA ISABEL,PR,757,"POWER PARTS INC.PR RD 153 KM 70, SANTA ISABEL PUERTO RICO 00757 (SANTA ISABEL MUNICIPIO)",0,C,,
00757PRDCT116CA,-66.42399999999999,17.97,False,72,133,953500,72,72133,72133953500,1400000US72133953500,PRODUCTOS ELECTRONICOS INDUSTRIALES (PEI),116 MUNOZ RIVERA ST,SANTA ISABEL,PR,757,"PRODUCTOS ELECTRONICOS INDUSTRIALES (PEI).116 MUNOZ RIVERA ST, SANTA ISABEL PUERTO RICO 00757 (SANTA ISABEL MUNICIPIO)",1,C,,110025330693
00959GPWRPRD177,-66.143,18.383,False,72,021,031611,72,72021,72021031611,1400000US72021031611,HARVEY HUBBELL CARIBE INC,RD 177 CORNER RD 174 MINILLAS INDL PARK,BAYAMON,PR,959,"HARVEY HUBBELL CARIBE INC.RD 177 CORNER RD 174 MINILLAS INDL PARK, BAYAMON PUERTO RICO 00959 (BAYAMON MUNICIPIO)",0,C,,
00707CRBGNSTATE,-66.00399999999999,17.985,False,72,109,290300,72,72109,72109290300,1400000US72109290300,GE INDUSTRIAL OF PR LLC,STATE RD 3 KM 1226,PATILLAS,PR,723,"GE INDUSTRIAL OF PR LLC.STATE RD 3 KM 1226, PATILLAS PUERTO RICO 00723 (PATILLAS MUNICIPIO)",0,C,,110000580764
00738PLLPRRD194,-65.649,18.304000000000002,False,72,053,150601,72,72053,72053150601,1400000US72053150601,PALL BIOMEDICAL,RD 94 KM 04 PALL BLVD 98,FAJARDO,PR,738,"PALL BIOMEDICAL.RD 94 KM 04 PALL BLVD 98, FAJARDO PUERTO RICO 00738 (FAJARDO MUNICIPIO)",0,C,,
00738PLLPRRD19A,-65.649,18.304000000000002,False,72,053,150601,72,72053,72053150601,1400000US72053150601,PALL LIFE SCIENCES PUERTO RICO LLC,RD. 194 KM 0.4 PALL BLVD # 100,FAJARDO,PR,738,"PALL LIFE SCIENCES PUERTO RICO LLC.RD. 194 KM 0.4 PALL BLVD # 100, FAJARDO PUERTO RICO 00738 (FAJARDO MUNICIPIO)",0,C,,110000491833
00936SNJNCKM267,-66.298,18.394000000000002,False,72,051,540700,72,72051,72051540700,1400000US72051540700,ARGOS PUERTO RICO CORP,KM 26.7 STATE HWY #2,DORADO,PR,646,"ARGOS PUERTO RICO CORP.KM 26.7 STATE HWY #2, DORADO PUERTO RICO 00646 (DORADO MUNICIPIO)",0,C,,110000581004
00961TRSTNHWY2K,-66.19,18.408,False,72,021,031032,72,72021,72021031032,1400000US72021031032,TRISTANI RUBBER INDUSTRIES INC,NO 26 CALLE C,BAYAMON,PR,961,"TRISTANI RUBBER INDUSTRIES INC.NO 26 CALLE C, BAYAMON PUERTO RICO 00961 (BAYAMON MUNICIPIO)",1,C,,
00680BRSTLFOREI,-67.155,18.157,False,72,097,082012,72,72097,72097082012,1400000US72097082012,BRISTOL MYERS SQUIBB MANUFACTURING CO.,RD 114 KM. 3.7 FOREIGN TRADE ZONE NO. 7 ST B,MAYAGUEZ,PR,680,"BRISTOL MYERS SQUIBB MANUFACTURING CO..RD 114 KM. 3.7 FOREIGN TRADE ZONE NO. 7 ST B, MAYAGUEZ PUERTO RICO 00680 (MAYAGUEZ MUNICIPIO)",0,C,,110007436818
00735SDDSNRTEPR,-65.637,18.230999999999998,False,72,037,160100,72,72037,72037160100,1400000US72037160100,US NAVY NAVAL STATION ROOSEVELT ROADS,RT PR3,CEIBA,PR,735,"US NAVY NAVAL STATION ROOSEVELT ROADS.RT PR3, CEIBA PUERTO RICO 00735 (CEIBA MUNICIPIO)",1,F,,
00735SNVYNLAKEC,-65.639,18.242,False,72,037,160100,72,72037,72037160100,1400000US72037160100,US NAVY NAVAL STATION ROOSEVELT ROADS SMALL ARMS RANGE,LAKE CHAMBERLAIN RD,CEIBA,PR,735,"US NAVY NAVAL STATION ROOSEVELT ROADS SMALL ARMS RANGE.LAKE CHAMBERLAIN RD, CEIBA PUERTO RICO 00735 (CEIBA MUNICIPIO)",2,F,,
00777MNNNCSTATE,-65.91,18.23,False,72,077,500301,72,72077,72077500301,1400000US72077500301,MENNEN-COLGATE JUNCOS,STATE RD PR-31 NO 100 LOT Y1 CEIBA NORTE IND PARK,JUNCOS,PR,777,"MENNEN-COLGATE JUNCOS.STATE RD PR-31 NO 100 LOT Y1 CEIBA NORTE IND PARK, JUNCOS PUERTO RICO 00777 (JUNCOS MUNICIPIO)",0,C,,
00777MGNMNRD31K,-65.904,18.236,False,72,077,500301,72,72077,72077500301,1400000US72077500301,AMGEN MANUFACTURING  LTD,RD 31 KM 24.6,JUNCOS,PR,777,"AMGEN MANUFACTURING  LTD.RD 31 KM 24.6, JUNCOS PUERTO RICO 00777 (JUNCOS MUNICIPIO)",0,C,,110020514843
00904RMYVTISLAG,-66.09,18.456,False,72,127,004200,72,72127,72127004200,1400000US72127004200,US ARMY AVIATION SUPPORT FACILITY,ISLA GRANDE FLYING AREA,SAN JUAN,PR,904,"US ARMY AVIATION SUPPORT FACILITY.ISLA GRANDE FLYING AREA, SAN JUAN PUERTO RICO 00904 (SAN JUAN MUNICIPIO)",0,F,,
00926CHMTXCARR1,-66.045,18.327,False,72,127,010042,72,72127,72127010042,1400000US72127010042,CHEMTREX CARIBBEAN INC,"STATE RD 176 KM 95 CAM LAS, PIEDRAS",SAN JUAN,PR,926,"CHEMTREX CARIBBEAN INC.STATE RD 176 KM 95 CAM LAS, PIEDRAS, SAN JUAN PUERTO RICO 00926 (SAN JUAN MUNICIPIO)",0,C,,
00718BCKMNELDUQ,-65.717,18.2,False,72,103,170300,72,72103,72103170300,1400000US72103170300,BECKMAN INSTRUMENTS NAGUABO INC,EL DUQUE INDUSTRIAL PARK STATE RD 971 ST 4,NAGUABO,PR,718,"BECKMAN INSTRUMENTS NAGUABO INC.EL DUQUE INDUSTRIAL PARK STATE RD 971 ST 4, NAGUABO PUERTO RICO 00718 (NAGUABO MUNICIPIO)",0,C,,
00718CMBPRELDUQ,-65.727,18.211,False,72,103,170300,72,72103,72103170300,1400000US72103170300,COMBE PRODUCTS INC,EL DUQUE INDUSTRIAL PARK RD 971 ST A,NAGUABO,PR,718,"COMBE PRODUCTS INC.EL DUQUE INDUSTRIAL PARK RD 971 ST A, NAGUABO PUERTO RICO 00718 (NAGUABO MUNICIPIO)",0,C,,110022522019
00767JPNTBRD3KM,-65.855,18.089000000000002,False,72,151,950600,72,72151,72151950600,1400000US72151950600,R. J. REYNOLDS TOBACCO (CI) CO,RD 3 KM 90.4 BO AGUACATE,YABUCOA,PR,7670070,"R. J. REYNOLDS TOBACCO (CI) CO.RD 3 KM 90.4 BO AGUACATE, YABUCOA PUERTO RICO 00767 (YABUCOA MUNICIPIO)",0,C,,110008053293
00926SHLLCRD28P,-66.107,18.428,False,72,127,980104,72,72061,72127980104,1400000US72127980104,SHELL CO (PR) LTD,RD 28 PUEBLO VIEJO WARD,GUAYNABO,PR,970,"SHELL CO (PR) LTD.RD 28 PUEBLO VIEJO WARD, GUAYNABO PUERTO RICO 00970 (GUAYNABO MUNICIPIO)",0,C,,
00920PRPSNMERCA,-66.105,18.427,False,72,127,980104,72,72127,72127980104,1400000US72127980104,PREPA - SAN JUAN STEAM PLANT,MERCADO CENTRAL AVE ZONA PORTUARIA RD PR-28,PUERTO NUEVO,PR,920,"PREPA - SAN JUAN STEAM PLANT.MERCADO CENTRAL AVE ZONA PORTUARIA RD PR-28, PUERTO NUEVO PUERTO RICO 00920 (SAN JUAN MUNICIPIO)",0,C,,110000744749
00694HRVYHRD686,-66.405,18.486,False,72,145,560201,72,72145,72145560201,1400000US72145560201,HUBBELL CARIBE LTD,RD 686 KM 17.3,VEGA BAJA,PR,693,"HUBBELL CARIBE LTD.RD 686 KM 17.3, VEGA BAJA PUERTO RICO 00693 (VEGA BAJA MUNICIPIO)",0,C,,110001142488
00791XLXNCRTE90,-65.83800000000001,18.134,False,72,069,180800,72,72069,72069180800,1400000US72069180800,EX-LAX INC,RTE 909 KM 13 MARIANA WARD,HUMACAO,PR,7919731,"EX-LAX INC.RTE 909 KM 13 MARIANA WARD, HUMACAO PUERTO RICO 00791 (HUMACAO MUNICIPIO)",0,C,,
00791PRPYBPR03K,-65.824,18.105999999999998,False,72,069,180800,72,72069,72069180800,1400000US72069180800,PREPA-YABUCOA GAS TURBINES POW ER PLANT,PR-03 KM 86.5,HUMACAO,PR,791,"PREPA-YABUCOA GAS TURBINES POW ER PLANT.PR-03 KM 86.5, HUMACAO PUERTO RICO 00791 (HUMACAO MUNICIPIO)",0,C,,110007342795
00791SMLSS3ST83,-65.827,18.137999999999998,False,72,069,180800,72,72069,72069180800,1400000US72069180800,SEAMLESS TEXTILES,ST #3 83.6 KM,HUMACAO,PR,791,"SEAMLESS TEXTILES.ST #3 83.6 KM, HUMACAO PUERTO RICO 00791 (HUMACAO MUNICIPIO)",0,C,,110020514852
00777LSRPRRD185,-65.92,18.242,False,72,077,500100,72,72077,72077500100,1400000US72077500100,LASER PRODUCT INC,RD 185 KM 19.0,JUNCOS,PR,777,"LASER PRODUCT INC.RD 185 KM 19.0, JUNCOS PUERTO RICO 00777 (JUNCOS MUNICIPIO)",0,C,,110000580924
00674RHNPLCALLE,-66.48899999999999,18.436,False,72,091,570201,72,72091,72091570201,1400000US72091570201,INYX USA LTD,SAN JOSE RD 604 COTTO NORTE INDUSTRIAL PARK,MANATI,PR,674,"INYX USA LTD.SAN JOSE RD 604 COTTO NORTE INDUSTRIAL PARK, MANATI PUERTO RICO 00674 (MANATI MUNICIPIO)",0,C,,110007807374
00674SFTYKKM510,-66.507,18.430999999999997,False,72,091,570202,72,72091,72091570202,1400000US72091570202,"SAFETY-KLEEN ENVIROSYSTEM CO OF PUERTO RICO,INC.",HWY #2 KM. 51,MANATI,PR,674,"SAFETY-KLEEN ENVIROSYSTEM CO OF PUERTO RICO,INC..HWY #2 KM. 51, MANATI PUERTO RICO 00674 (MANATI MUNICIPIO)",0,C,,110000744507
00735PRPDGPR03K,-65.65899999999999,18.241,False,72,037,160300,72,72037,72037160300,1400000US72037160300,PREPA-DAGUAO GAS TURBINES POWER PLANT,PR-03 KM 58.3,CEIBA,PR,735,"PREPA-DAGUAO GAS TURBINES POWER PLANT.PR-03 KM 58.3, CEIBA PUERTO RICO 00735 (CEIBA MUNICIPIO)",0,C,,110007170747
00920TXCDPRD28P,-66.107,18.423,False,72,061,040200,72,72061,72061040200,1400000US72061040200,PUMA ENERGY CARIBE LLC-GUAYNABO 2 TERMINAL,RD 28 KM 0.8 PUEBLO VIEJO WARD,GUAYNABO,PR,971,"PUMA ENERGY CARIBE LLC-GUAYNABO 2 TERMINAL.RD 28 KM 0.8 PUEBLO VIEJO WARD, GUAYNABO PUERTO RICO 00971 (GUAYNABO MUNICIPIO)",0,C,,110000748175
00965SSCTBSTATE,-66.107,18.425,False,72,061,040200,72,72061,72061040200,1400000US72061040200,TOTAL GUAYNABO BULK TERMINAL,STATE RD NO 28 KM 0..8,GUAYNABO,PR,965,"TOTAL GUAYNABO BULK TERMINAL.STATE RD NO 28 KM 0..8, GUAYNABO PUERTO RICO 00965 (GUAYNABO MUNICIPIO)",0,C,,110009436468
00965PCKGNAMELI,-66.111,18.423,False,72,061,040200,72,72061,72061040200,1400000US72061040200,WESTROCK-PUERTO RICO INC,AMELIA IND US TRIAL PARK 47 AMELIA ST,GUAYNABO,PR,968,"WESTROCK-PUERTO RICO INC.AMELIA IND US TRIAL PARK 47 AMELIA ST, GUAYNABO PUERTO RICO 00968 (GUAYNABO MUNICIPIO)",0,C,,110015784926
0096WBTBCRCARRE,-66.109,18.423,False,72,061,040200,72,72061,72061040200,1400000US72061040200,BTB CORPORATION,CARRETERA #28 ARMY TERMINAL ROAD,GUAYNABO,PR,965,"BTB CORPORATION.CARRETERA #28 ARMY TERMINAL ROAD, GUAYNABO PUERTO RICO 00965 (GUAYNABO MUNICIPIO)",0,C,,110060260774
0096WPTRLMCARRE,-66.109,18.423,False,72,061,040200,72,72061,72061040200,1400000US72061040200,PETROLEUM PRODUCTS SUPPLY LLC,CARRETERA 165 KM 2.4,GUAYNABO,PR,965,"PETROLEUM PRODUCTS SUPPLY LLC.CARRETERA 165 KM 2.4, GUAYNABO PUERTO RICO 00965 (GUAYNABO MUNICIPIO)",0,C,,110069263861
00937SSLMMLUISM,-66.006,18.439,False,72,031,980003,72,72031,72031980003,1400000US72031980003,LMM AIRPORT PLANT,LUIS MUNOZ MARIN INT AIRPORT MUNIZ AIR BASE AREA,CAROLINA,PR,979,"LMM AIRPORT PLANT.LUIS MUNOZ MARIN INT AIRPORT MUNIZ AIR BASE AREA, CAROLINA PUERTO RICO 00979 (CAROLINA MUNICIPIO)",0,C,,110007544416
00979GDNVTSUNOI,-65.998,18.44,False,72,031,980003,72,72031,72031980003,1400000US72031980003,PUMA ENERGY CARIBE LLC FUEL DEPOT,"AIRPORT FUEL FACILITY BASE MUNIZ, LMMI AIRPORT",CAROLINA,PR,979,"PUMA ENERGY CARIBE LLC FUEL DEPOT.AIRPORT FUEL FACILITY BASE MUNIZ, LMMI AIRPORT, CAROLINA PUERTO RICO 00979 (CAROLINA MUNICIPIO)",0,C,,110022524856
0097WPRTRC2JSET,-65.994,18.439,False,72,031,980003,72,72127,72031980003,1400000US72031980003,US DOD USAF PUERTO RICO ANG,200 JOSE (TONY) SANTANA,CAROLINA,PR,979,"US DOD USAF PUERTO RICO ANG.200 JOSE (TONY) SANTANA, CAROLINA PUERTO RICO 00979 (SAN JUAN MUNICIPIO)",0,F,,110009700467
00950PRPPLPR165,-66.149,18.455,False,72,137,120200,72,72137,72137120200,1400000US72137120200,PREPA - PALO SECO STEAM PLANT,PR-165 KM. 31.8,TOA BAJA,PR,949,"PREPA - PALO SECO STEAM PLANT.PR-165 KM. 31.8, TOA BAJA PUERTO RICO 00949 (TOA BAJA MUNICIPIO)",0,C,,110000607950
00962CHNDLRD869,-66.156,18.426,False,72,033,980002,72,72033,72033980002,1400000US72033980002,MAYS CHEMICAL CO OF PR DBA MAYS OCHOA,RD 869 ST 2 BO PALMAS,CATANO,PR,962,"MAYS CHEMICAL CO OF PR DBA MAYS OCHOA.RD 869 ST 2 BO PALMAS, CATANO PUERTO RICO 00962 (CATANO MUNICIPIO)",0,C,,110007806151
00962SHLNDST4BL,-66.146,18.426,False,72,033,020403,72,72033,72033020403,1400000US72033020403,ASHLAND DISTRIBUTION CO,ST 4 BLDG 4 IND ZONE,CATANO,PR,962,"ASHLAND DISTRIBUTION CO.ST 4 BLDG 4 IND ZONE, CATANO PUERTO RICO 00962 (CATANO MUNICIPIO)",0,C,,
00718DLLTMINDUS,-65.742,18.213,False,72,103,170100,72,72103,72103170100,1400000US72103170100,DUAL-LITE MANUFACTURING INC,RD 31 INT 192,NAGUABO,PR,718,"DUAL-LITE MANUFACTURING INC.RD 31 INT 192, NAGUABO PUERTO RICO 00718 (NAGUABO MUNICIPIO)",0,C,,
00731PSTRN3057C,-66.653,17.987000000000002,False,72,113,073006,72,72113,72113073006,1400000US72113073006,POSITRONIC CARIBE,3057 CARRETERA # 591 EL TUQUE INDL PARK,PONCE,PR,731,"POSITRONIC CARIBE.3057 CARRETERA # 591 EL TUQUE INDL PARK, PONCE PUERTO RICO 00731 (PONCE MUNICIPIO)",0,C,,
00731STRGTRD951,-66.652,17.989,False,72,113,073006,72,72113,72113073006,1400000US72113073006,SOLECTRON DE PUERTO RICO,RD 591 EL TUQUE INDUSTRIAL PARK,PONCE,PR,731,"SOLECTRON DE PUERTO RICO.RD 591 EL TUQUE INDUSTRIAL PARK, PONCE PUERTO RICO 00731 (PONCE MUNICIPIO)",0,C,,110012708230
00792LTRNSCARR9,-65.77,18.145,False,72,069,180500,72,72069,72069180500,1400000US72069180500,LUTRON SM INC,"CARR #2, SECTOR BO MARIANA 2",HUMACAO,PR,792,"LUTRON SM INC.CARR #2, SECTOR BO MARIANA 2, HUMACAO PUERTO RICO 00792 (HUMACAO MUNICIPIO)",0,C,,110007552781
0079WBRDSHPARQU,-65.792,18.146,False,72,069,180500,72,72069,72069180500,1400000US72069180500,BARD SHANNON LTD,PARQUE INDUSTRIAL SAN GERONIMO LOTE 1,HUMACAO,PR,791,"BARD SHANNON LTD.PARQUE INDUSTRIAL SAN GERONIMO LOTE 1, HUMACAO PUERTO RICO 00791 (HUMACAO MUNICIPIO)",0,C,,110069321460
00951HLSMDRD2KM,-66.235,18.409000000000002,False,72,137,122002,72,72137,72137122002,1400000US72137122002,HOLSUM DE PUERTO RICO INC,RD 2 BO CANDELARIA KM 20.1,TOA BAJA,PR,951,"HOLSUM DE PUERTO RICO INC.RD 2 BO CANDELARIA KM 20.1, TOA BAJA PUERTO RICO 00951 (TOA BAJA MUNICIPIO)",0,C,,110007807329
00662CMMNWRD2KI,-67.01100000000001,18.467,False,72,071,410702,72,72071,72071410702,1400000US72071410702,COMMONWEALTH BATTERY DEVELOPMENT INC,RD  2 KILOMETER 1112,ISABELA,PR,662,"COMMONWEALTH BATTERY DEVELOPMENT INC.RD  2 KILOMETER 1112, ISABELA PUERTO RICO 00662 (ISABELA MUNICIPIO)",0,C,,
00603MCRNTRD11K,-67.10300000000001,18.472,False,72,005,401302,72,72005,72005401302,1400000US72005401302,MICRON TECHNOLOGY PUERTO RICO INC,RD 110 KM 5.9 LOT # 10,AGUADILLA,PR,603,"MICRON TECHNOLOGY PUERTO RICO INC.RD 110 KM 5.9 LOT # 10, AGUADILLA PUERTO RICO 00603 (AGUADILLA MUNICIPIO)",0,C,,110020514807
00725BLLBNRICAN,-66.051,18.302,False,72,127,010100,72,72025,72127010100,1400000US72127010100,BULL BOND MANUFACTURING CORP,RIO CANAS INDUSTRIAL PARK LOT 35,CAGUAS,PR,725,"BULL BOND MANUFACTURING CORP.RIO CANAS INDUSTRIAL PARK LOT 35, CAGUAS PUERTO RICO 00725 (CAGUAS MUNICIPIO)",0,C,,110020514825
00737NYPRPST15K,-66.16,18.109,False,72,035,260700,72,72035,72035260700,1400000US72035260700,NYPRO PUERTO RICO INC,15 LUIS MUNOZ MARIN AVE KM 15.4,CAYEY,PR,737,"NYPRO PUERTO RICO INC.15 LUIS MUNOZ MARIN AVE KM 15.4, CAYEY PUERTO RICO 00737 (CAYEY MUNICIPIO)",0,C,,110023128694
0071WPNCCN619AV,-66.574,18.022000000000002,False,72,113,072201,72,72113,72113072201,1400000US72113072201,PONCE CAN,619 AVE LA CEIBA,PONCE,PR,717,"PONCE CAN.619 AVE LA CEIBA, PONCE PUERTO RICO 00717 (PONCE MUNICIPIO)",0,C,,110037948326
00921SVCRB1CASI,-66.079,18.391,False,72,127,008400,72,72127,72127008400,1400000US72127008400,VETERANS AFFAIR CARRIBEAN HEALTHCARE SYSTEMS,10 CASIA ST,SAN JUAN,PR,921,"VETERANS AFFAIR CARRIBEAN HEALTHCARE SYSTEMS.10 CASIA ST, SAN JUAN PUERTO RICO 00921 (SAN JUAN MUNICIPIO)",0,F,,110037608283
00751SRMYNRAD1I,-66.292,18.000999999999998,False,72,123,952700,72,72123,72123952700,1400000US72123952700,US ARMY NATIONAL GUARD CAMP SANTIAGO TRAINING CENTER-RANGES,ROAD # 1 INT ROAD #154,SALINAS,PR,751,"US ARMY NATIONAL GUARD CAMP SANTIAGO TRAINING CENTER-RANGES.ROAD # 1 INT ROAD #154, SALINAS PUERTO RICO 00751 (SALINAS MUNICIPIO)",0,F,,110006868979
0079WCPRVSRAD58,-66.53399999999999,18.015,False,72,075,710902,72,72075,72075710902,1400000US72075710902,COOPERVISION CARIBBEAN CORP,500 RD PR-584 KM 0.9 AMUELAS IND US TRIAL PARK,JUANA DIAZ,PR,795,"COOPERVISION CARIBBEAN CORP.500 RD PR-584 KM 0.9 AMUELAS IND US TRIAL PARK, JUANA DIAZ PUERTO RICO 00795 (JUANA DIAZ MUNICIPIO)",0,C,,110060259928
0096WPMNRG1922A,-66.118,18.392,False,72,061,040304,72,72061,72061040304,1400000US72061040304,BEST PETROLEUM CORP BULK TERMINAL,RD 28 KM 0.2,GUAYNABO,PR,965,"BEST PETROLEUM CORP BULK TERMINAL.RD 28 KM 0.2, GUAYNABO PUERTO RICO 00965 (GUAYNABO MUNICIPIO)",0,C,,110039019148
0078WPRTGSPBX84,-66.634,18.062,False,72,113,072600,72,72113,72113072600,1400000US72113072600,"PORTUGUES DAM, PORTUGUES AND BUCANA RIVERS",PROJECT ROAD PR-10 KM 5.5,PONCE,PR,731,"PORTUGUES DAM, PORTUGUES AND BUCANA RIVERS.PROJECT ROAD PR-10 KM 5.5, PONCE PUERTO RICO 00731 (PONCE MUNICIPIO)",0,F,,110041999861
0096WMLNSDCALLE,-66.111,18.435,False,72,061,040101,72,72061,72061040101,1400000US72061040101,MOLINOS DE PUERTO RICO,CARRETERA 165 (INTERIOR) KM 1.1 SABANA INDUSTRIAL,GUAYNABO,PR,966,"MOLINOS DE PUERTO RICO.CARRETERA 165 (INTERIOR) KM 1.1 SABANA INDUSTRIAL, GUAYNABO PUERTO RICO 00966 (GUAYNABO MUNICIPIO)",0,C,,110010415915
0096WPNMRCCALLE,-66.111,18.434,False,72,061,040101,72,72061,72061040101,1400000US72061040101,PAN AMERICAN GRAIN MANUFACTURING,CALLE CENTRAL ESQ. SAN PABLO BO. SABANA,GUAYNABO,PR,969,"PAN AMERICAN GRAIN MANUFACTURING.CALLE CENTRAL ESQ. SAN PABLO BO. SABANA, GUAYNABO PUERTO RICO 00969 (GUAYNABO MUNICIPIO)",0,C,,110064087900
0065WMSTRPPR127,-66.793,18.024,False,72,059,740300,72,72059,72059740300,1400000US72059740300,MASTER PAINTS & CHEMICALS CORP,PR-127 KM. 12.7,GUAYANILLA,PR,656,"MASTER PAINTS & CHEMICALS CORP.PR-127 KM. 12.7, GUAYANILLA PUERTO RICO 00656 (GUAYANILLA MUNICIPIO)",0,C,,110069282163
0065WSPHLTCARRE,-66.80199999999999,18.402,False,72,065,310500,72,72065,72065310500,1400000US72065310500,ASPHALT SOLUTIONS INC,CARRETERA 487 KM 3.4 SEC CAMPO ALEGRE BO BUENA VIS,HATILLO,PR,659,"ASPHALT SOLUTIONS INC.CARRETERA 487 KM 3.4 SEC CAMPO ALEGRE BO BUENA VIS, HATILLO PUERTO RICO 00659 (HATILLO MUNICIPIO)",0,C,,110060261817
0095WSPHLTCARR8,-66.244,18.375999999999998,False,72,135,510200,72,72135,72135510200,1400000US72135510200,"ASPHALT SOLUTIONS, INC.",CARR 861 KM 0.8 BARRIO PINAS,TOA ALTA,PR,953,"ASPHALT SOLUTIONS, INC..CARR 861 KM 0.8 BARRIO PINAS, TOA ALTA PUERTO RICO 00953 (TOA ALTA MUNICIPIO)",0,C,,110060261764
0073WCSTMDCALLE,-65.665,18.332,False,72,053,150200,72,72053,72053150200,1400000US72053150200,CUSTOMED,CALLE IGUALDAD # 7,FAJARDO,PR,738,"CUSTOMED.CALLE IGUALDAD # 7, FAJARDO PUERTO RICO 00738 (FAJARDO MUNICIPIO)",0,C,,110070070768
0096WHDSNT869KM,-66.12100000000001,18.44,False,72,033,020200,72,72033,72033020200,1400000US72033020200,HUDSON TECHNOLOGIES CO,869 KM 1.5 - ROYAL INDUSTRIAL PARK B-2 BARRIO PALMAS,CATANO,PR,962,"HUDSON TECHNOLOGIES CO.869 KM 1.5 - ROYAL INDUSTRIAL PARK B-2 BARRIO PALMAS, CATANO PUERTO RICO 00962 (CATANO MUNICIPIO)",0,C,,110070071511
0098WCRTSNCUATR,-65.98,18.417,False,72,031,050222,72,72031,72031050222,1400000US72031050222,CURTIS INSTRUMENTS (PR) INC,"CUATRO RUEDAS STREET, SABANA ABAJO INDUSTRIAL PARK",CAROLINA,PR,983,"CURTIS INSTRUMENTS (PR) INC.CUATRO RUEDAS STREET, SABANA ABAJO INDUSTRIAL PARK, CAROLINA PUERTO RICO 00983 (CAROLINA MUNICIPIO)",0,C,,110070070549
0072WBLLBNRICAN,-66.04,18.236,False,72,025,201000,72,72025,72025201000,1400000US72025201000,BULL BOND MFG,RIO CANAS INDUSTRIAL PARK LOT # 35 - ROAD 175 KM 0.2,CAGUAS,PR,725,"BULL BOND MFG.RIO CANAS INDUSTRIAL PARK LOT # 35 - ROAD 175 KM 0.2, CAGUAS PUERTO RICO 00725 (CAGUAS MUNICIPIO)",0,C,,110070550490
00612PRSNRBOSAB,-66.625,18.442,True,72,013,300102,72,72013,72013300102,1400000US72013300102,PRASA  - NORTH COAST SUPERAQUEDUCT PROJ,BO SABANA HOYOS SECTOR BALLAJA RD 663 KM 16 RAMAL,ARECIBO,PR,612,"PRASA  - NORTH COAST SUPERAQUEDUCT PROJ BO SABANA HOYOS SECTOR BALLAJA RD 663 KM 16 RAMAL, ARECIBO, PR, 612",0,C,,
