TRIFID,LONGITUDE,LATITUDE,ESTIMATE,STATEFP,COUNTYFP,TRACTCE,STATEGEOID,COUNTYGEOID,TRACTGEOID,AFFGEOID,FACILITY_NAME,STREET,CITY,STUSPS,ZIP_CODE,FACILITY,FAC_CLOSED_IND,ASGN_FEDERAL_IND,BIA_CODE,EPA_REGISTRY_ID
02806SKNKLBAYSP,-71.348,41.748999999999995,False,44,001,030100,44,44001,44001030100,1400000US44001030100,SEEKONK LACE CO,BAY SPRING AVE,BARRINGTON,RI,2806,"SEEKONK LACE CO.BAY SPRING AVE, BARRINGTON RHODE ISLAND 02806 (BRISTOL)",1,C,,
02808BRDFR1712B,-71.749,41.406000000000006,False,44,009,050902,44,44009,44009050902,1400000US44009050902,BRADFORD DYEING ASSOC INC,460 BRADFORD RD,BRADFORD,RI,28089744,"BRADFORD DYEING ASSOC INC.460 BRADFORD RD, BRADFORD RHODE ISLAND 02808 (WASHINGTON)",0,C,,
02809CJPRSFRANK,-71.268,41.676,False,44,001,030700,44,44001,44001030700,1400000US44001030700,C J PEARSON CO BRISTOL YACHT CO,FRANKLIN ST,BRISTOL,RI,2809,"C J PEARSON CO BRISTOL YACHT CO.FRANKLIN ST, BRISTOL RHODE ISLAND 02809 (BRISTOL)",0,C,,
02809NWNGL500WO,-71.27199999999999,41.673,False,44,001,030700,44,44001,44001030700,1400000US44001030700,NEW ENGLAND GLAS INC,"500 WOOD ST, BLDG #12",BRISTOL,RI,28090330,"NEW ENGLAND GLAS INC.500 WOOD ST, BLDG #12, BRISTOL RHODE ISLAND 02809 (BRISTOL)",1,C,,
02809PRMRT345TH,-71.279,41.672,False,44,001,030700,44,44001,44001030700,1400000US44001030700,COATS AMERICAN BRISTOL PLANT,345 THAMES ST,BRISTOL,RI,2809,"COATS AMERICAN BRISTOL PLANT.345 THAMES ST, BRISTOL RHODE ISLAND 02809 (BRISTOL)",1,C,,
02809CRYDR47GOO,-71.274,41.693000000000005,False,44,001,030902,44,44001,44001030902,1400000US44001030902,C E RYDER CORPORATION,47 GOODING AVE,BRISTOL,RI,28092698,"C E RYDER CORPORATION.47 GOODING AVE, BRISTOL RHODE ISLAND 02809 (BRISTOL)",0,C,,
02809LCTLT20GOO,-71.277,41.693000000000005,False,44,001,030902,44,44001,44001030902,1400000US44001030902,ALCATEL NETWORK SYS INC,20 GOODING AVE,BRISTOL,RI,2809,"ALCATEL NETWORK SYS INC.20 GOODING AVE, BRISTOL RHODE ISLAND 02809 (BRISTOL)",1,C,,
02809CRRLL97BRO,-71.271,41.701,False,44,001,030902,44,44001,44001030902,1400000US44001030902,CARROLL MARINE LTD,91 BROAD COMMON RD,BRISTOL,RI,28092701,"CARROLL MARINE LTD.91 BROAD COMMON RD, BRISTOL RHODE ISLAND 02809 (BRISTOL)",0,C,,
02809LBNMN47GOO,-71.275,41.693000000000005,False,44,001,030902,44,44001,44001030902,1400000US44001030902,ALBIN MANUFACTURING INC,47 GOODING AVE,BRISTOL,RI,2809,"ALBIN MANUFACTURING INC.47 GOODING AVE, BRISTOL RHODE ISLAND 02809 (BRISTOL)",0,C,,
02809PTCCR51BAL,-71.26899999999999,41.703,False,44,001,030902,44,44001,44001030902,1400000US44001030902,COVALENCE SPECIALTY ADHESIVES LLC,51 BALLOU BLVD,BRISTOL,RI,2809,"COVALENCE SPECIALTY ADHESIVES LLC.51 BALLOU BLVD, BRISTOL RHODE ISLAND 02809 (BRISTOL)",0,C,,110000312108
02809SCHLZ19BRO,-71.271,41.695,False,44,001,030902,44,44001,44001030902,1400000US44001030902,SCHULZ BOAT CO INC,19 BROAD COMMON RD,BRISTOL,RI,2809,"SCHULZ BOAT CO INC.19 BROAD COMMON RD, BRISTOL RHODE ISLAND 02809 (BRISTOL)",0,C,,
02809DXNND386ME,-71.258,41.678999999999995,False,44,001,030901,44,44001,44001030901,1400000US44001030901,SAINT-GOBAIN,386 METACOM AVE,BRISTOL,RI,2809,"SAINT-GOBAIN.386 METACOM AVE, BRISTOL RHODE ISLAND 02809 (BRISTOL)",0,C,,110000312082
02813KNYNNMAINS,-71.626,41.446000000000005,False,44,009,050600,44,44009,44009050600,1400000US44009050600,KENYON INDUSTRIES INC,36 SHERMAN AVE,KENYON,RI,2836,"KENYON INDUSTRIES INC.36 SHERMAN AVE, KENYON RHODE ISLAND 02836 (WASHINGTON)",0,C,,110000312117
02894CHRBR299CH,-71.72,41.438,False,44,009,050600,44,44009,44009050600,1400000US44009050600,CHARBERT INC,299 CHURCH ST,WOOD RIVER JUNCTION,RI,2894,"CHARBERT INC.299 CHURCH ST, WOOD RIVER JUNCTION RHODE ISLAND 02894 (WASHINGTON)",0,C,,
02898LDCST49STI,-71.686,41.513999999999996,False,44,009,050600,44,44009,44009050600,1400000US44009050600,OLDCASTLE,49 STILSON RD,WYOMING,RI,2898,"OLDCASTLE.49 STILSON RD, WYOMING RHODE ISLAND 02898 (WASHINGTON)",0,C,,110038275005
02816GRLNDONESO,-71.567,41.69,False,44,003,020602,44,44003,44003020602,1400000US44003020602,GARLAND INDUSTRIES INC,1 S MAIN ST,COVENTRY,RI,2816,"GARLAND INDUSTRIES INC.1 S MAIN ST, COVENTRY RHODE ISLAND 02816 (KENT)",0,C,,110000312153
02816CSMDF8INDU,-71.586,41.7,False,44,003,020602,44,44003,44003020602,1400000US44003020602,BOSTON SCIENTIFIC,8 INDUSTRIAL DR,COVENTRY,RI,2816,"BOSTON SCIENTIFIC.8 INDUSTRIAL DR, COVENTRY RHODE ISLAND 02816 (KENT)",0,C,,110032604938
02816HCHST500WA,-71.54,41.695,False,44,003,020604,44,44003,44003020604,1400000US44003020604,DYSTAR LP,502  WASHINGTON ST,COVENTRY,RI,2816,"DYSTAR LP.502  WASHINGTON ST, COVENTRY RHODE ISLAND 02816 (KENT)",0,C,,
02816CLRNT500WA,-71.539,41.695,False,44,003,020604,44,44003,44003020604,1400000US44003020604,CLARIANT CORP,500 WASHINGTON ST,COVENTRY,RI,28165469,"CLARIANT CORP.500 WASHINGTON ST, COVENTRY RHODE ISLAND 02816 (KENT)",0,C,,110000312135
02816RHDST498WA,-71.539,41.693000000000005,False,44,003,020604,44,44003,44003020604,1400000US44003020604,RHODES TECHNOLOGIES,498 WASHINGTON ST,COVENTRY,RI,2816,"RHODES TECHNOLOGIES.498 WASHINGTON ST, COVENTRY RHODE ISLAND 02816 (KENT)",0,C,,110040900237
02816VCTRC618MA,-71.53399999999999,41.723,False,44,003,020400,44,44003,44003020400,1400000US44003020400,VICTOR CORP,618 MAIN ST,COVENTRY,RI,2816,"VICTOR CORP.618 MAIN ST, COVENTRY RHODE ISLAND 02816 (KENT)",0,C,,
02818CHRRY2000S,-71.495,41.645,False,44,003,020903,44,44003,44003020903,1400000US44003020903,EAGLEPICHER TECHNOLOGIES LLC,2000 S COUNTY TRAIL,EAST GREENWICH,RI,2818,"EAGLEPICHER TECHNOLOGIES LLC.2000 S COUNTY TRAIL, EAST GREENWICH RHODE ISLAND 02818 (KENT)",0,C,,110000312171
02818STNLYBRIGG,-71.494,41.63399999999999,False,44,003,020903,44,44003,44003020903,1400000US44003020903,STANLEY FASTENING SYSTEMS,BRIGGS DR,EAST GREENWICH,RI,2818,"STANLEY FASTENING SYSTEMS.BRIGGS DR, EAST GREENWICH RHODE ISLAND 02818 (KENT)",1,C,,110000581255
02818SRMYC2841S,-71.492,41.619,False,44,003,020903,44,44009,44003020903,1400000US44003020903,US ARMY NATIONAL GUARD CAMP FOGARTY RANGES,2841 S COUNTY TRAIL,EAST GREENWICH,RI,2818,"US ARMY NATIONAL GUARD CAMP FOGARTY RANGES.2841 S COUNTY TRAIL, EAST GREENWICH RHODE ISLAND 02818 (WASHINGTON)",0,F,,110037142954
02823RKWRG538MA,-71.544,41.729,False,44,003,020601,44,44003,44003020601,1400000US44003020601,ARKWRIGHT ADVANCED COATING INC,538 MAIN ST,COVENTRY,RI,2816,"ARKWRIGHT ADVANCED COATING INC.538 MAIN ST, COVENTRY RHODE ISLAND 02816 (KENT)",0,C,,110000499292
02827KNGFS377VI,-71.697,41.706,False,44,003,020702,44,44003,44003020702,1400000US44003020702,KING FASTENER CO,773 VICTORY HWY,GREENE,RI,2827,"KING FASTENER CO.773 VICTORY HWY, GREENE RHODE ISLAND 02827 (KENT)",1,C,,
02836KNYNL1425K,-71.505,41.45399999999999,False,44,009,051201,44,44009,44009051201,1400000US44009051201,BROOKWOOD LAMINATING CORP,1425 KINGSTOWN RD,PEACE DALE,RI,2883,"BROOKWOOD LAMINATING CORP.1425 KINGSTOWN RD, PEACE DALE RHODE ISLAND 02883 (WASHINGTON)",0,C,,110000312199
02879HNSNP17FIR,-71.5,41.461999999999996,False,44,009,051201,44,44009,44009051201,1400000US44009051201,HANSON PIPE & PRECAST INC WAKEFIELD PLANT,170 FIORE INDUSTRIAL DR,WAKEFIELD,RI,2879,"HANSON PIPE & PRECAST INC WAKEFIELD PLANT.170 FIORE INDUSTRIAL DR, WAKEFIELD RHODE ISLAND 02879 (WASHINGTON)",0,C,,110022522091
02838RCHMB1690O,-71.472,41.96,False,44,007,011500,44,44007,44007011500,1400000US44007011500,ROCHAMBEAU WORSTED CO,315 OLD RIVER RD,MANVILLE,RI,2838,"ROCHAMBEAU WORSTED CO.315 OLD RIVER RD, MANVILLE RHODE ISLAND 02838 (PROVIDENCE)",0,C,,
02865RDHDMALBIO,-71.483,41.93,False,44,007,011500,44,44007,44007011500,1400000US44007011500,RED HED MANUFACTURING,38 ALBION RD,LINCOLN,RI,28653703,"RED HED MANUFACTURING.38 ALBION RD, LINCOLN RHODE ISLAND 02865 (PROVIDENCE)",0,C,,
02865TCRSSONEAL,-71.482,41.935,False,44,007,011500,44,44007,44007011500,1400000US44007011500,A. T. CROSS CO,ONE ALBION RD,LINCOLN,RI,2865,"A. T. CROSS CO.ONE ALBION RD, LINCOLN RHODE ISLAND 02865 (PROVIDENCE)",0,C,,110000312527
02865FLNTN40ALB,-71.48100000000001,41.949,False,44,007,011500,44,44007,44007011500,1400000US44007011500,FLINT INK CORP,40 ALBION RD,LINCOLN,RI,2865,"FLINT INK CORP.40 ALBION RD, LINCOLN RHODE ISLAND 02865 (PROVIDENCE)",0,C,,
02838HLYBR60NEW,-71.469,41.968999999999994,False,44,007,011500,44,44007,44007011500,1400000US44007011500,HEALY BROTHERS CORP,60 NEW RIVER RD,LINCOLN,RI,2838,"HEALY BROTHERS CORP.60 NEW RIVER RD, LINCOLN RHODE ISLAND 02838 (PROVIDENCE)",0,C,,
02840RBRTDCODDI,-71.316,41.479,False,44,005,041000,44,44005,44005041000,1400000US44005041000,"ROBERT E DERECKTOR OF RI, INC",CODDING COVE,MIDDLETOWN,RI,2840,"ROBERT E DERECKTOR OF RI, INC.CODDING COVE, MIDDLETOWN RHODE ISLAND 02840 (NEWPORT)",0,C,,
02852BRWNSPRECI,-71.469,41.632,False,44,009,050103,44,44009,44009050103,1400000US44009050103,BROWN & SHARPE INC,PRECISION PARK FRENCHTOWN RD,NORTH KINGSTOWN,RI,2852,"BROWN & SHARPE INC.PRECISION PARK FRENCHTOWN RD, NORTH KINGSTOWN RHODE ISLAND 02852 (WASHINGTON)",0,C,,
02852GNRLDQUONS,-71.42,41.593,False,44,009,050103,44,44009,44009050103,1400000US44009050103,GENERAL DYNAMICS ELECTRIC BOAT CORP,165 DILLABUR AVE,NORTH KINGSTOWN,RI,2852,"GENERAL DYNAMICS ELECTRIC BOAT CORP.165 DILLABUR AVE, NORTH KINGSTOWN RHODE ISLAND 02852 (WASHINGTON)",0,C,,110000581264
02852STNLYCALLA,-71.433,41.6,False,44,009,050103,44,44009,44009050103,1400000US44009050103,STANLEY FASTENING SYSTEMS,545 CALLAHAN RD QP/DAVISVILLE INDUSTRIAL PARK,NORTH KINGSTOWN,RI,2852,"STANLEY FASTENING SYSTEMS.545 CALLAHAN RD QP/DAVISVILLE INDUSTRIAL PARK, NORTH KINGSTOWN RHODE ISLAND 02852 (WASHINGTON)",1,C,,110000312224
02854BBSTRDEVIL,-71.468,41.605,False,44,009,050103,44,44009,44009050103,1400000US44009050103,BB & S TREATED LUMBER OF NE,61 BONNEAU RD,NORTH KINGSTOWN,RI,2852,"BB & S TREATED LUMBER OF NE.61 BONNEAU RD, NORTH KINGSTOWN RHODE ISLAND 02852 (WASHINGTON)",0,C,,110025158567
02852TRYPL21CRI,-71.42699999999999,41.592,False,44,009,050103,44,44009,44009050103,1400000US44009050103,TORAY PLASTICS (AMERICA) INC,50 BELVER AVE,NORTH KINGSTOWN,RI,2852,"TORAY PLASTICS (AMERICA) INC.50 BELVER AVE, NORTH KINGSTOWN RHODE ISLAND 02852 (WASHINGTON)",0,C,,110000312233
02852DVLPM300OL,-71.479,41.607,False,44,009,050103,44,44009,44009050103,1400000US44009050103,DEVELOPMENT ASSOCIATES INC,300 OLD BAPTIST RD,NORTH KINGSTOWN,RI,2852,"DEVELOPMENT ASSOCIATES INC.300 OLD BAPTIST RD, NORTH KINGSTOWN RHODE ISLAND 02852 (WASHINGTON)",0,C,,110000312215
02852NVLNT160FR,-71.469,41.632,False,44,009,050103,44,44009,44009050103,1400000US44009050103,"ANVIL INTERNATIONAL, L.P.",160 FRENCHTOWN RD PRECISION PARK,NORTH KINGSTOWN,RI,28521782,"ANVIL INTERNATIONAL, L.P..160 FRENCHTOWN RD PRECISION PARK, NORTH KINGSTOWN RHODE ISLAND 02852 (WASHINGTON)",0,C,,110008053499
02852SNSCM1MACN,-71.443,41.593,False,44,009,050103,44,44009,44009050103,1400000US44009050103,SENESCO MAIN YARD,10 MACNAUGHT ST,NORTH KINGSTOWN,RI,2852,"SENESCO MAIN YARD.10 MACNAUGHT ST, NORTH KINGSTOWN RHODE ISLAND 02852 (WASHINGTON)",0,C,,110021278918
02852SNSCR139RG,-71.413,41.588,False,44,009,050103,44,44009,44009050103,1400000US44009050103,SENESCO REPAIRYARD,1390 ROGER WILLIAMS WAY,NORTH KINGSTOWN,RI,28527414,"SENESCO REPAIRYARD.1390 ROGER WILLIAMS WAY, NORTH KINGSTOWN RHODE ISLAND 02852 (WASHINGTON)",0,C,,110024428118
02852HDSPP244BU,-71.42699999999999,41.588,False,44,009,050103,44,44009,44009050103,1400000US44009050103,HD SUPPLY WATERWORKS LTD. (RI001-7846),244 BURLINGHAM AVE,NORTH KINGSTOWN,RI,2852,"HD SUPPLY WATERWORKS LTD. (RI001-7846).244 BURLINGHAM AVE, NORTH KINGSTOWN RHODE ISLAND 02852 (WASHINGTON)",0,C,,110031001074
0285WHYWRD61WHI,-71.429,41.586000000000006,False,44,009,050103,44,44009,44009050103,1400000US44009050103,"HAYWARD INDUSTRIES, INC.",61 WHITECAP DR.,NORTH KINGSTOWN,RI,2852,"HAYWARD INDUSTRIES, INC..61 WHITECAP DR., NORTH KINGSTOWN RHODE ISLAND 02852 (WASHINGTON)",0,C,,110041625747
02860CCNTP25EST,-71.402,41.865,False,44,007,016400,44,44007,44007016400,1400000US44007016400,ACCENT PLATING CO INC,25 ESTEN AVE,PAWTUCKET,RI,2860,"ACCENT PLATING CO INC.25 ESTEN AVE, PAWTUCKET RHODE ISLAND 02860 (PROVIDENCE)",0,C,,
02860CHNND65WOO,-71.40100000000001,41.864,False,44,007,016400,44,44007,44007016400,1400000US44007016400,CHN ANODIZING,65 WOODLAWN AVE,PAWTUCKET,RI,2860,"CHN ANODIZING.65 WOODLAWN AVE, PAWTUCKET RHODE ISLAND 02860 (PROVIDENCE)",1,C,,110012481064
02860CLYNC50EST,-71.40100000000001,41.86,False,44,007,016400,44,44007,44007016400,1400000US44007016400,COOLEY GROUP INC,50 ESTEN AVE,PAWTUCKET,RI,2860,"COOLEY GROUP INC.50 ESTEN AVE, PAWTUCKET RHODE ISLAND 02860 (PROVIDENCE)",0,C,,110000312251
02860VTRSN881MA,-71.399,41.868,False,44,007,016400,44,44007,44007016400,1400000US44007016400,VITRUS,881 MAIN ST,PAWTUCKET,RI,2860,"VITRUS.881 MAIN ST, PAWTUCKET RHODE ISLAND 02860 (PROVIDENCE)",0,C,,110000312322
02860HPWBB1005M,-71.399,41.863,False,44,007,016400,44,44007,44007016400,1400000US44007016400,HOPE WEBBING CO,1005 MAIN ST,PAWTUCKET,RI,2860,"HOPE WEBBING CO.1005 MAIN ST, PAWTUCKET RHODE ISLAND 02860 (PROVIDENCE)",0,C,,
02860CTHDR250ES,-71.402,41.861000000000004,False,44,007,016400,44,44007,44007016400,1400000US44007016400,CATHEDRAL ART METAL CO INC,250 ESTEN ST,PAWTUCKET,RI,2860,"CATHEDRAL ART METAL CO INC.250 ESTEN ST, PAWTUCKET RHODE ISLAND 02860 (PROVIDENCE)",0,C,,
02860MCRFB1MOSH,-71.399,41.86,False,44,007,016400,44,44007,44007016400,1400000US44007016400,MICROFIBRES INC,1 MOSHASSUCK ST,PAWTUCKET,RI,2860,"MICROFIBRES INC.1 MOSHASSUCK ST, PAWTUCKET RHODE ISLAND 02860 (PROVIDENCE)",1,C,,110000312279
02860PRVDN358LO,-71.398,41.86,False,44,007,016400,44,44007,44007016400,1400000US44007016400,PROVIDENCE BRAID CO,358 LOWDEN ST,PAWTUCKET,RI,2860,"PROVIDENCE BRAID CO.358 LOWDEN ST, PAWTUCKET RHODE ISLAND 02860 (PROVIDENCE)",0,C,,110001663968
02860CLFXN38COL,-71.41,41.858999999999995,False,44,007,016300,44,44007,44007016300,1400000US44007016300,BUNGE NORTH AMERICA EAST LLC,38 COLFAX ST,PAWTUCKET,RI,2860,"BUNGE NORTH AMERICA EAST LLC.38 COLFAX ST, PAWTUCKET RHODE ISLAND 02860 (PROVIDENCE)",0,C,,
02860PWTCK181CO,-71.407,41.861000000000004,False,44,007,016300,44,44007,44007016300,1400000US44007016300,PAWTUCKET POWER ASSOCIATES,181 CONCORD ST,PAWTUCKET,RI,2860,"PAWTUCKET POWER ASSOCIATES.181 CONCORD ST, PAWTUCKET RHODE ISLAND 02860 (PROVIDENCE)",0,C,,110028052185
02860CRLCB249RO,-71.383,41.881,False,44,007,015200,44,44007,44007015200,1400000US44007015200,GENERAL CABLE INDUSTRIES INC,249 ROOSEVELT AVE,PAWTUCKET,RI,2862,"GENERAL CABLE INDUSTRIES INC.249 ROOSEVELT AVE, PAWTUCKET RHODE ISLAND 02862 (PROVIDENCE)",0,C,,
02860WRBLN100DE,-71.386,41.875,True,44,007,015200,44,44007,44007015200,1400000US44007015200,WR BLOUNT,100 DEXTER ST,PAWTUCKET,RI,2860,"WR BLOUNT 100 DEXTER ST, PAWTUCKET, RI, 2860",0,C,,
02860DRTKM666SC,-71.375,41.861999999999995,False,44,007,017100,44,44007,44007017100,1400000US44007017100,DORTEK MANUFACTURING INC,666 SCHOOL ST,PAWTUCKET,RI,2860,"DORTEK MANUFACTURING INC.666 SCHOOL ST, PAWTUCKET RHODE ISLAND 02860 (PROVIDENCE)",0,C,,
02860HRDTL45YOR,-71.36399999999999,41.861000000000004,False,44,007,017100,44,44007,44007017100,1400000US44007017100,HORD CRYSTAL,45 YORK AVE,PAWTUCKET,RI,2860,"HORD CRYSTAL.45 YORK AVE, PAWTUCKET RHODE ISLAND 02860 (PROVIDENCE)",0,C,,110004902936
02860RDCCS6BEVE,-71.373,41.861000000000004,False,44,007,017100,44,44007,44007017100,1400000US44007017100,RIDCO CASTING CO,6 BEVERAGE HILL AVE,PAWTUCKET,RI,2860,"RIDCO CASTING CO.6 BEVERAGE HILL AVE, PAWTUCKET RHODE ISLAND 02860 (PROVIDENCE)",0,C,,110000312313
02861HSBRN450DI,-71.369,41.875,False,44,007,017100,44,44007,44007017100,1400000US44007017100,HASBRO INC,450 DIVISION ST,PAWTUCKET,RI,2861,"HASBRO INC.450 DIVISION ST, PAWTUCKET RHODE ISLAND 02861 (PROVIDENCE)",0,C,,
02860PRCSN100AS,-71.37,41.876999999999995,False,44,007,017100,44,44007,44007017100,1400000US44007017100,PRECISION METALS INC,100 ASHTON ST,PAWTUCKET,RI,2860,"PRECISION METALS INC.100 ASHTON ST, PAWTUCKET RHODE ISLAND 02860 (PROVIDENCE)",0,C,,
02860PRMCN775SC,-71.375,41.858999999999995,False,44,007,017100,44,44007,44007017100,1400000US44007017100,PRM CONCRETE CORP.,775 SCHOOL ST,PAWTUCKET,RI,2860,"PRM CONCRETE CORP..775 SCHOOL ST, PAWTUCKET RHODE ISLAND 02860 (PROVIDENCE)",0,C,,110004919116
02860LVNPL560MI,-71.407,41.873000000000005,False,44,007,015000,44,44007,44007015000,1400000US44007015000,LEVIN PLATING INC,560 MINERAL SPRING AVE,PAWTUCKET,RI,2860,"LEVIN PLATING INC.560 MINERAL SPRING AVE, PAWTUCKET RHODE ISLAND 02860 (PROVIDENCE)",0,C,,
02860MNTJW603MI,-71.40899999999999,41.873000000000005,False,44,007,015000,44,44007,44007015000,1400000US44007015000,MONET JEWELERS INC,603 MINERAL SPRING AVE,PAWTUCKET,RI,2860,"MONET JEWELERS INC.603 MINERAL SPRING AVE, PAWTUCKET RHODE ISLAND 02860 (PROVIDENCE)",0,C,,
02860PRVDN51FAI,-71.41,41.873999999999995,False,44,007,015000,44,44007,44007015000,1400000US44007015000,PROVIDENCE METALLIZING CO IN C,51 FAIRLAWN AVE,PAWTUCKET,RI,2860,"PROVIDENCE METALLIZING CO IN C.51 FAIRLAWN AVE, PAWTUCKET RHODE ISLAND 02860 (PROVIDENCE)",0,C,,110000312297
02860VNCNC55FAI,-71.41,41.873000000000005,False,44,007,015000,44,44007,44007015000,1400000US44007015000,VAN & CO INC,55 FAIRLAWN AVE,PAWTUCKET,RI,2860,"VAN & CO INC.55 FAIRLAWN AVE, PAWTUCKET RHODE ISLAND 02860 (PROVIDENCE)",0,C,,
02860DMSDLREARF,-71.407,41.876999999999995,False,44,007,015000,44,44007,44007015000,1400000US44007015000,ADAMSDALE CONCRETE INC,551 WEEDEN ST (REAR),PAWTUCKET,RI,2860,"ADAMSDALE CONCRETE INC.551 WEEDEN ST (REAR), PAWTUCKET RHODE ISLAND 02860 (PROVIDENCE)",0,C,,110009439394
02861LMWDS500NA,-71.344,41.863,False,44,007,017000,44,44007,44007017000,1400000US44007017000,ELMWOOD SENSORS,500 NARRAGANSETT PARK DR,PAWTUCKET,RI,28614325,"ELMWOOD SENSORS.500 NARRAGANSETT PARK DR, PAWTUCKET RHODE ISLAND 02861 (PROVIDENCE)",0,C,,
02861MTLLN690NA,-71.34899999999999,41.861999999999995,False,44,007,017000,44,44007,44007017000,1400000US44007017000,COPPERWELD BIMETALLICS METALLON DIV,690 NARRAGANSETT PARK DR,PAWTUCKET,RI,28614326,"COPPERWELD BIMETALLICS METALLON DIV.690 NARRAGANSETT PARK DR, PAWTUCKET RHODE ISLAND 02861 (PROVIDENCE)",0,C,,
02861RBCND645NA,-71.347,41.861999999999995,False,44,007,017000,44,44007,44007017000,1400000US44007017000,AMES ELECTRO MATERIALS CONTACT TAPE GROUP,645 NARRAGANSETT PARK DR,PAWTUCKET,RI,2861,"AMES ELECTRO MATERIALS CONTACT TAPE GROUP.645 NARRAGANSETT PARK DR, PAWTUCKET RHODE ISLAND 02861 (PROVIDENCE)",0,C,,
02861RHDSL211CO,-71.363,41.87,False,44,007,017000,44,44007,44007017000,1400000US44007017000,RHODE ISLAND TEXTILE CO,211 COLUMBUS AVE,PAWTUCKET,RI,2861,"RHODE ISLAND TEXTILE CO.211 COLUMBUS AVE, PAWTUCKET RHODE ISLAND 02861 (PROVIDENCE)",0,C,,
02861PRSTL505NA,-71.342,41.863,False,44,007,017000,44,44007,44007017000,1400000US44007017000,PRESTO LIFTS INC,505 NARRAGANSETT PARK DR,PAWTUCKET,RI,2861,"PRESTO LIFTS INC.505 NARRAGANSETT PARK DR, PAWTUCKET RHODE ISLAND 02861 (PROVIDENCE)",0,C,,
02861NPTCN30HAM,-71.363,41.878,False,44,007,016800,44,44007,44007016800,1400000US44007016800,NEPTCO INC,30 HAMLET ST,PAWTUCKET,RI,2861,"NEPTCO INC.30 HAMLET ST, PAWTUCKET RHODE ISLAND 02861 (PROVIDENCE)",0,C,,110000312340
02861NRRGN730YO,-71.363,41.876999999999995,False,44,007,016800,44,44007,44007016800,1400000US44007016800,NARRAGANSETT COATED PAPER CORP,730 YORK AVE,PAWTUCKET,RI,2861,"NARRAGANSETT COATED PAPER CORP.730 YORK AVE, PAWTUCKET RHODE ISLAND 02861 (PROVIDENCE)",0,C,,
02861NWMNC10DEA,-71.363,41.872,False,44,007,016800,44,44007,44007016800,1400000US44007016800,NEWMAN-CROSBY STEEL INC,10 DEAN ST,PAWTUCKET,RI,2861,"NEWMAN-CROSBY STEEL INC.10 DEAN ST, PAWTUCKET RHODE ISLAND 02861 (PROVIDENCE)",1,C,,
02861TKNRP505CE,-71.36399999999999,41.886,False,44,007,015600,44,44007,44007015600,1400000US44007015600,TEKNOR APEX CO,505 CENTRAL AVE,PAWTUCKET,RI,2861,"TEKNOR APEX CO.505 CENTRAL AVE, PAWTUCKET RHODE ISLAND 02861 (PROVIDENCE)",0,C,,110000312368
02861TRXNC300AR,-71.36,41.88,False,44,007,015900,44,44007,44007015900,1400000US44007015900,TRUEX INC,300 ARMISTICE BLVD,PAWTUCKET,RI,2861,"TRUEX INC.300 ARMISTICE BLVD, PAWTUCKET RHODE ISLAND 02861 (PROVIDENCE)",0,C,,110000312377
02862MRCNN36FRE,-71.366,41.885,False,44,007,015900,44,44007,44007015900,1400000US44007015900,AMERICAN INSULATED WIRE CORP PAWTUCKET,36 FREEMAN ST,PAWTUCKET,RI,2862,"AMERICAN INSULATED WIRE CORP PAWTUCKET.36 FREEMAN ST, PAWTUCKET RHODE ISLAND 02862 (PROVIDENCE)",0,C,,
02862NLCMF30BEE,-71.398,41.879,False,44,007,015100,44,44007,44007015100,1400000US44007015100,NULCO MANUFACTURING CORP,30 BEECHER ST,PAWTUCKET,RI,2860,"NULCO MANUFACTURING CORP.30 BEECHER ST, PAWTUCKET RHODE ISLAND 02860 (PROVIDENCE)",0,C,,110000312395
02862PTCCR211WE,-71.395,41.878,False,44,007,015100,44,44007,44007015100,1400000US44007015100,PATCO CORP,211 WEEDEN ST,PAWTUCKET,RI,2862,"PATCO CORP.211 WEEDEN ST, PAWTUCKET RHODE ISLAND 02862 (PROVIDENCE)",1,C,,
02862NNWDD125GO,-71.389,41.878,False,44,007,016100,44,44007,44007016100,1400000US44007016100,UNION WADDING CO,125 GOFF AVE,PAWTUCKET,RI,2862,"UNION WADDING CO.125 GOFF AVE, PAWTUCKET RHODE ISLAND 02862 (PROVIDENCE)",0,C,,
02860FCNCX248PI,-71.39,41.876999999999995,False,44,007,016100,44,44007,44007016100,1400000US44007016100,AAFCO INC,248 PINE ST,PAWTUCKET,RI,2860,"AAFCO INC.248 PINE ST, PAWTUCKET RHODE ISLAND 02860 (PROVIDENCE)",0,C,,
02860MNTJW125NE,-71.4,41.868,False,44,007,016100,44,44007,44007016100,1400000US44007016100,MONET GROUP INC,125 NEWELL AVE,PAWTUCKET,RI,2860,"MONET GROUP INC.125 NEWELL AVE, PAWTUCKET RHODE ISLAND 02860 (PROVIDENCE)",0,C,,
02860RBRTS258PI,-71.39,41.876999999999995,False,44,007,016100,44,44007,44007016100,1400000US44007016100,ROBERTS CHEMICAL CO INC,258 PINE ST,PAWTUCKET,RI,2860,"ROBERTS CHEMICAL CO INC.258 PINE ST, PAWTUCKET RHODE ISLAND 02860 (PROVIDENCE)",1,C,,110020686159
02862RYLLC95GRA,-71.351,41.882,False,44,007,015800,44,44007,44007015800,1400000US44007015800,AMERICAN INSULATED WIRE CORP DARLINGTON,95 GRAND AVE,PAWTUCKET,RI,2862,"AMERICAN INSULATED WIRE CORP DARLINGTON.95 GRAND AVE, PAWTUCKET RHODE ISLAND 02862 (PROVIDENCE)",0,C,,
02863CHRSM400BR,-71.387,41.885,False,44,007,010800,44,44007,44007010800,1400000US44007010800,CHARISMA MANUFACTURING,400 BROAD ST,CENTRAL FALLS,RI,2863,"CHARISMA MANUFACTURING.400 BROAD ST, CENTRAL FALLS RHODE ISLAND 02863 (PROVIDENCE)",0,C,,
02863TKNCT396RO,-71.382,41.88399999999999,False,44,007,010800,44,44007,44007010800,1400000US44007010800,TEKNICOTE INC,396 ROOSEVELT AVE,CENTRAL FALLS,RI,2863,"TEKNICOTE INC.396 ROOSEVELT AVE, CENTRAL FALLS RHODE ISLAND 02863 (PROVIDENCE)",0,C,,
02863LZBTH521RO,-71.382,41.887,False,44,007,010800,44,44007,44007010800,1400000US44007010800,ELIZABETH WEBBING MILLS CO,521 ROOSEVELT AVE,CENTRAL FALLS,RI,2863,"ELIZABETH WEBBING MILLS CO.521 ROOSEVELT AVE, CENTRAL FALLS RHODE ISLAND 02863 (PROVIDENCE)",0,C,,
02863DYTXC1280H,-71.38600000000001,41.897,False,44,007,010900,44,44007,44007010900,1400000US44007010900,DYTEX CHEMICAL CO INC,1280 HIGH ST,CENTRAL FALLS,RI,2863,"DYTEX CHEMICAL CO INC.1280 HIGH ST, CENTRAL FALLS RHODE ISLAND 02863 (PROVIDENCE)",0,C,,
02863GNRLP59FOU,-71.387,41.89,False,44,007,010900,44,44007,44007010900,1400000US44007010900,GENERAL POLYMER INC,59 FOUNDRY ST,CENTRAL FALLS,RI,2863,"GENERAL POLYMER INC.59 FOUNDRY ST, CENTRAL FALLS RHODE ISLAND 02863 (PROVIDENCE)",0,C,,
02863GTPRD1193B,-71.389,41.896,False,44,007,010900,44,44007,44007010900,1400000US44007010900,OSRAM SYLVANIA INC,1193 BROAD ST,CENTRAL FALLS,RI,2863,"OSRAM SYLVANIA INC.1193 BROAD ST, CENTRAL FALLS RHODE ISLAND 02863 (PROVIDENCE)",1,C,,110000312411
02863HSBRN1033B,-71.388,41.894,False,44,007,010900,44,44007,44007010900,1400000US44007010900,HASBRO INC,1033 BROAD ST,CENTRAL FALLS,RI,2863,"HASBRO INC.1033 BROAD ST, CENTRAL FALLS RHODE ISLAND 02863 (PROVIDENCE)",0,C,,
02863LBRTY6CHAS,-71.385,41.896,False,44,007,010900,44,44007,44007010900,1400000US44007010900,LIBERTY PLATING CO INC,6 CHASES LN,CENTRAL FALLS,RI,28630242,"LIBERTY PLATING CO INC.6 CHASES LN, CENTRAL FALLS RHODE ISLAND 02863 (PROVIDENCE)",0,C,,
02863WHTTT33HIG,-71.403,41.886,False,44,007,011100,44,44007,44007011100,1400000US44007011100,WHITTET-HIGGINS CO,33 HIGGINSON AVE,CENTRAL FALLS,RI,2863,"WHITTET-HIGGINS CO.33 HIGGINSON AVE, CENTRAL FALLS RHODE ISLAND 02863 (PROVIDENCE)",0,C,,
02865MBNCX1DUCH,-71.405,41.893,False,44,007,011100,44,44007,44007011100,1400000US44007011100,AMBI INC,1 DUCHESS WAY,LINCOLN,RI,2865,"AMBI INC.1 DUCHESS WAY, LINCOLN RHODE ISLAND 02865 (PROVIDENCE)",0,C,,
02864KNTCX111MA,-71.428,41.928000000000004,False,44,007,011301,44,44007,44007011301,1400000US44007011301,OKONITE CO INC,111 MARTIN ST,CUMBERLAND,RI,2864,"OKONITE CO INC.111 MARTIN ST, CUMBERLAND RHODE ISLAND 02864 (PROVIDENCE)",0,C,,110000312439
02864TRMNT1224M,-71.426,41.933,False,44,007,011301,44,44007,44007011301,1400000US44007011301,AIR PRODUCTS & CHEMICALS INC,1226 MENDON RD,CUMBERLAND,RI,2864,"AIR PRODUCTS & CHEMICALS INC.1226 MENDON RD, CUMBERLAND RHODE ISLAND 02864 (PROVIDENCE)",1,C,,
02909NTNLL50VAL,-71.399,41.923,False,44,007,011301,44,44007,44007011301,1400000US44007011301,ANTONELLI PLATING CO,50 VALLEY ST,PROVIDENCE,RI,29092459,"ANTONELLI PLATING CO.50 VALLEY ST, PROVIDENCE RHODE ISLAND 02909 (PROVIDENCE)",0,C,,
02864CCLPT35MAR,-71.425,41.928999999999995,False,44,007,011301,44,44007,44007011301,1400000US44007011301,KIK CUSTOM PRODUCTS INC,35 MARTIN ST,CUMBERLAND,RI,2864,"KIK CUSTOM PRODUCTS INC.35 MARTIN ST, CUMBERLAND RHODE ISLAND 02864 (PROVIDENCE)",0,C,,110043555630
02864JTSLC1FRON,-71.431,41.938,False,44,007,011301,44,44007,44007011301,1400000US44007011301,J T SLOCOMB CO SPECIALTY MATERIALS DIV,1 FRONT ST,CUMBERLAND,RI,2864,"J T SLOCOMB CO SPECIALTY MATERIALS DIV.1 FRONT ST, CUMBERLAND RHODE ISLAND 02864 (PROVIDENCE)",0,C,,
02865CHMRT11NEW,-71.479,41.928999999999995,False,44,007,011600,44,44007,44007011600,1400000US44007011600,CHEMART,11 NEW ENGLAND WAY,LINCOLN,RI,2865,"CHEMART.11 NEW ENGLAND WAY, LINCOLN RHODE ISLAND 02865 (PROVIDENCE)",0,C,,110000312475
02865CRLCB1CARO,-71.477,41.922,False,44,007,011600,44,44007,44007011600,1400000US44007011600,GENERAL CABLE INDUSTRIES LLC,3 CAROL DRIVE,LINCOLN,RI,2865,"GENERAL CABLE INDUSTRIES LLC.3 CAROL DRIVE, LINCOLN RHODE ISLAND 02865 (PROVIDENCE)",0,C,,110000312484
02865LNHNT1WELL,-71.48,41.919,False,44,007,011600,44,44007,44007011600,1400000US44007011600,OLIN HUNT SPECIALTY PRODUCTS INC,ONE WELLINGTON RD,LINCOLN,RI,2865,"OLIN HUNT SPECIALTY PRODUCTS INC.ONE WELLINGTON RD, LINCOLN RHODE ISLAND 02865 (PROVIDENCE)",0,C,,
02865MLLRM6CARO,-71.48100000000001,41.923,False,44,007,011600,44,44007,44007011600,1400000US44007011600,BULLARD ABRASIVES INC,6 CAROL DR,LINCOLN,RI,2865,"BULLARD ABRASIVES INC.6 CAROL DR, LINCOLN RHODE ISLAND 02865 (PROVIDENCE)",0,C,,110002087287
02865SHFFR1CROW,-71.482,41.92100000000001,False,44,007,011600,44,44007,44007011600,1400000US44007011600,SHEAFFER INC CROWNMARK DIV,1 CROWNMARK DR,LINCOLN,RI,2865,"SHEAFFER INC CROWNMARK DIV.1 CROWNMARK DR, LINCOLN RHODE ISLAND 02865 (PROVIDENCE)",1,C,,
02865TCHNC5WELL,-71.479,41.919,False,44,007,011600,44,44007,44007011600,1400000US44007011600,MATERION TECHNICAL MATERIALS INC,5 WELLINGTON RD,LINCOLN,RI,2865,"MATERION TECHNICAL MATERIALS INC.5 WELLINGTON RD, LINCOLN RHODE ISLAND 02865 (PROVIDENCE)",0,C,,110000312518
02865TNRYN6NEWE,-71.482,41.93,False,44,007,011600,44,44007,44007011600,1400000US44007011600,TANURY INDUSTRIES,6 NEW ENGLAND WAY,LINCOLN,RI,2865,"TANURY INDUSTRIES.6 NEW ENGLAND WAY, LINCOLN RHODE ISLAND 02865 (PROVIDENCE)",0,C,,110000312536
02865VSTWL11WEL,-71.479,41.919,False,44,007,011600,44,44007,44007011600,1400000US44007011600,VISTAWALL ARCHITECTURAL PRODUCTS,11 WELLINGTON RD,LINCOLN,RI,28654411,"VISTAWALL ARCHITECTURAL PRODUCTS.11 WELLINGTON RD, LINCOLN RHODE ISLAND 02865 (PROVIDENCE)",0,C,,
02865VNNRB4CARO,-71.48100000000001,41.923,False,44,007,011600,44,44007,44007011600,1400000US44007011600,VENNERBECK STERN LEACH,4 CAROL DR PO BOX 486,LINCOLN,RI,2865,"VENNERBECK STERN LEACH.4 CAROL DR PO BOX 486, LINCOLN RHODE ISLAND 02865 (PROVIDENCE)",1,C,,110000312545
02865GRYST7WELL,-71.479,41.919,False,44,007,011600,44,44007,44007011600,1400000US44007011600,GREYSTONE OF LINCOLN,7 WELLINGTON RD,LINCOLN,RI,2865,"GREYSTONE OF LINCOLN.7 WELLINGTON RD, LINCOLN RHODE ISLAND 02865 (PROVIDENCE)",0,C,,110004899245
0286WDNSNP1PWDE,-71.48,41.916000000000004,False,44,007,011600,44,44007,44007011600,1400000US44007011600,DENISON PHARMACEUTICALS LLC,1 POWDER HILL ROAD,LINCOLN,RI,2865,"DENISON PHARMACEUTICALS LLC.1 POWDER HILL ROAD, LINCOLN RHODE ISLAND 02865 (PROVIDENCE)",0,C,,110070029046
02865JCSRV13BLA,-71.45,41.913,True,44,007,011600,44,44007,44007011600,1400000US44007011600,JUICE SERVICES INC DIV OF DEAN FOODS,13 BLACKSTONE VALLEY WAY,LINCOLN,RI,2865,"JUICE SERVICES INC DIV OF DEAN FOODS 13 BLACKSTONE VALLEY WAY, LINCOLN, RI, 2865",1,C,,
02865LNHNTINDUS,-71.40899999999999,41.891000000000005,False,44,007,011702,44,44007,44007011702,1400000US44007011702,OLIN HUNT SPECIALTY PRODUCTS INC,INDUSTRIAL CIRCLE,LINCOLN,RI,2865,"OLIN HUNT SPECIALTY PRODUCTS INC.INDUSTRIAL CIRCLE, LINCOLN RHODE ISLAND 02865 (PROVIDENCE)",0,C,,
02865LCHMN50IND,-71.40899999999999,41.891999999999996,False,44,007,011702,44,44007,44007011702,1400000US44007011702,LINCOLN FINE INGREDIENTS A MAROON GROUP LLC CO,50 INDUSTRIAL CIR,LINCOLN,RI,2865,"LINCOLN FINE INGREDIENTS A MAROON GROUP LLC CO.50 INDUSTRIAL CIR, LINCOLN RHODE ISLAND 02865 (PROVIDENCE)",0,C,,110000312493
02865CLLYR100HI,-71.409,41.888,True,44,007,011702,44,44007,44007011702,1400000US44007011702,COLLYER INSULATED WIRE,100 HIGGINSON AVE,LINCOLN,RI,2865,"COLLYER INSULATED WIRE 100 HIGGINSON AVE, LINCOLN, RI, 2865",1,C,,
02871LCTLT1170E,-71.252,41.566,False,44,005,040102,44,44005,44005040102,1400000US44005040102,ALCATEL TRANSCOM,1170 E MAIN RD,PORTSMOUTH,RI,2871,"ALCATEL TRANSCOM.1170 E MAIN RD, PORTSMOUTH RHODE ISLAND 02871 (NEWPORT)",0,C,,
02871PRSNYWESTS,-71.26899999999999,41.623000000000005,False,44,005,040103,44,44005,44005040103,1400000US44005040103,PEARSON YACHTS CORP,W SHORE RD,PORTSMOUTH,RI,2871,"PEARSON YACHTS CORP.W SHORE RD, PORTSMOUTH RHODE ISLAND 02871 (NEWPORT)",0,C,,
02871RYTHN1847W,-71.271,41.571000000000005,False,44,005,040103,44,44005,44005040103,1400000US44005040103,RAYTHEON CO,1847 W MAIN RD,PORTSMOUTH,RI,28711087,"RAYTHEON CO.1847 W MAIN RD, PORTSMOUTH RHODE ISLAND 02871 (NEWPORT)",0,C,,110000904996
02871SNFSH200HI,-71.26,41.597,False,44,005,040103,44,44005,44005040103,1400000US44005040103,QUARTERMOON INC,200 HIGHPOINT AVE,PORTSMOUTH,RI,2871,"QUARTERMOON INC.200 HIGHPOINT AVE, PORTSMOUTH RHODE ISLAND 02871 (NEWPORT)",0,C,,110000312581
02871HDNTRONELI,-71.286,41.585,False,44,005,040103,44,44005,44005040103,1400000US44005040103,HINCKLEY YACHT SERVICES,1 LITTLE HARBOR LANDING,PORTSMOUTH,RI,2871,"HINCKLEY YACHT SERVICES.1 LITTLE HARBOR LANDING, PORTSMOUTH RHODE ISLAND 02871 (NEWPORT)",0,C,,110009813229
02871XTPNC225AL,-71.282,41.591,False,44,005,040103,44,44005,44005040103,1400000US44005040103,TPI COMPOSITES INC,225 ALEXANDER RD,PORTSMOUTH,RI,2871,"TPI COMPOSITES INC.225 ALEXANDER RD, PORTSMOUTH RHODE ISLAND 02871 (NEWPORT)",0,C,,
02871LBNMN226WE,-71.26899999999999,41.623000000000005,False,44,005,040103,44,44005,44005040103,1400000US44005040103,ALBIN MANFACTURING INC.,226 W SHORE RD,PORTSMOUTH,RI,2871,"ALBIN MANFACTURING INC..226 W SHORE RD, PORTSMOUTH RHODE ISLAND 02871 (NEWPORT)",0,C,,110000312572
02871SDFNSDFSPM,-71.284,41.584,True,44,005,040103,44,44005,44005040103,1400000US44005040103,US DEFENSE LOGISTICS AGENCY MELVILLE FUEL SUPPORT POINT,DFSP MELVILLE TERMINAL,PORTSMOUTH,RI,2871,"US DEFENSE LOGISTICS AGENCY MELVILLE FUEL SUPPORT POINT DFSP MELVILLE TERMINAL, PORTSMOUTH, RI, 2871",0,F,,
02876MRPXLPROVI,-71.566,41.992,False,44,007,012803,44,44007,44007012803,1400000US44007012803,NARRAGANSETT IMAGING,51 INDUSTRIAL DR,NORTH SMITHFIELD,RI,2896,"NARRAGANSETT IMAGING.51 INDUSTRIAL DR, NORTH SMITHFIELD RHODE ISLAND 02896 (PROVIDENCE)",0,C,,110004936570
02876PLYTP110GR,-71.57300000000001,41.998000000000005,False,44,007,012803,44,44007,44007012803,1400000US44007012803,POLYTOP CORP,110 GRAHAM DR,SLATERSVILLE,RI,2876,"POLYTOP CORP.110 GRAHAM DR, SLATERSVILLE RHODE ISLAND 02876 (PROVIDENCE)",0,C,,
02882DWLND15RAY,-71.43,41.492,False,44,009,051502,44,44009,44009051502,1400000US44009051502,DEWAL INDUSTRIES LLC,15 RAY TRAINOR DRIVE,NARRAGANSETT,RI,2882,"DEWAL INDUSTRIES LLC.15 RAY TRAINOR DRIVE, NARRAGANSETT RHODE ISLAND 02882 (WASHINGTON)",0,C,,110000312607
02885CRLCB426ME,-71.27,41.727,False,44,001,030500,44,44001,44001030500,1400000US44001030500,CAROL CABLE CO INC,426 METACOM AVE,WARREN,RI,2885,"CAROL CABLE CO INC.426 METACOM AVE, WARREN RHODE ISLAND 02885 (BRISTOL)",0,C,,
02885LLYDM130FR,-71.27600000000001,41.728,False,44,001,030500,44,44001,44001030500,1400000US44001030500,REEVES BROTHERS-WARREN,130 FRANKLIN ST,WARREN,RI,2885,"REEVES BROTHERS-WARREN.130 FRANKLIN ST, WARREN RHODE ISLAND 02885 (BRISTOL)",0,C,,110000762942
02885MRCNT91MAI,-71.28699999999999,41.736999999999995,False,44,001,030500,44,44001,44001030500,1400000US44001030500,AMERICAN TOURISTER INC,91 MAIN ST,WARREN,RI,2885,"AMERICAN TOURISTER INC.91 MAIN ST, WARREN RHODE ISLAND 02885 (BRISTOL)",1,C,,
02885MNRCH99MAI,-71.286,41.736000000000004,False,44,001,030500,44,44001,44001030500,1400000US44001030500,MONARCH INDUSTRIES,99 MAIN ST,WARREN,RI,2885,"MONARCH INDUSTRIES.99 MAIN ST, WARREN RHODE ISLAND 02885 (BRISTOL)",0,C,,110015784418
02885RJMNF560ME,-71.27,41.723,False,44,001,030602,44,44001,44001030602,1400000US44001030602,RJ MFG CO,560 METACOM AVE,WARREN,RI,28850387,"RJ MFG CO.560 METACOM AVE, WARREN RHODE ISLAND 02885 (BRISTOL)",0,C,,
02885TLLTSMARKE,-71.271,41.75,False,44,001,030601,44,44001,44001030601,1400000US44001030601,PEARSON MARINE GROUP,373 MARKET ST,WARREN,RI,2885,"PEARSON MARINE GROUP.373 MARKET ST, WARREN RHODE ISLAND 02885 (BRISTOL)",0,C,,110029952102
0288WTPCMP373BM,-71.274,41.739,False,44,001,030601,44,44001,44001030601,1400000US44001030601,TPI COMPOSITES INC,373 MARKET ST,WARREN,RI,2885,"TPI COMPOSITES INC.373 MARKET ST, WARREN RHODE ISLAND 02885 (BRISTOL)",0,C,,110029952102
02886JYPRNWARWI,-71.42699999999999,41.717,False,44,003,021902,44,44003,44003021902,1400000US44003021902,JAY PRINTING CO,WARWICK INDUSTRIAL DR,WARWICK,RI,2886,"JAY PRINTING CO.WARWICK INDUSTRIAL DR, WARWICK RHODE ISLAND 02886 (KENT)",0,C,,
0288WNTYTC333ST,-71.42699999999999,41.711000000000006,False,44,003,021902,44,44003,44003021902,1400000US44003021902,ANTAYA TECHNOLOGIES CORP,333 STRAWBERRY FIELD RD SUITE 3,WARWICK,RI,2886,"ANTAYA TECHNOLOGIES CORP.333 STRAWBERRY FIELD RD SUITE 3, WARWICK RHODE ISLAND 02886 (KENT)",0,C,,110069393061
02886LCTRF111GI,-71.464,41.695,False,44,003,022201,44,44003,44003022201,1400000US44003022201,ELECTRO-FILMS INC,111 GILBANE ST,WARWICK,RI,2886,"ELECTRO-FILMS INC.111 GILBANE ST, WARWICK RHODE ISLAND 02886 (KENT)",0,C,,
02886LVGHN555JE,-71.442,41.733000000000004,False,44,003,021100,44,44003,44003021100,1400000US44003021100,L VAUGHN CO,555 JEFFERSON BLVD,WARWICK,RI,2886,"L VAUGHN CO.555 JEFFERSON BLVD, WARWICK RHODE ISLAND 02886 (KENT)",0,C,,
02886NTNLV36BEL,-71.443,41.72,False,44,003,021100,44,44003,44003021100,1400000US44003021100,NATIONAL VELOUR CORP,36 BELLAIR AVE,WARWICK,RI,2886,"NATIONAL VELOUR CORP.36 BELLAIR AVE, WARWICK RHODE ISLAND 02886 (KENT)",0,C,,
02886TCHNC80COM,-71.419,41.736999999999995,False,44,003,021100,44,44003,44003021100,1400000US44003021100,TECHNICAL COMPONENTS INC,80 COMMERCE DR,WARWICK,RI,28862430,"TECHNICAL COMPONENTS INC.80 COMMERCE DR, WARWICK RHODE ISLAND 02886 (KENT)",0,C,,
02886TCMXX25GRA,-71.446,41.731,False,44,003,021100,44,44003,44003021100,1400000US44003021100,21 EMI RI,25 GRAYSTONE ST,WARWICK,RI,2886,"21 EMI RI.25 GRAYSTONE ST, WARWICK RHODE ISLAND 02886 (KENT)",0,C,,
02886TWLLC55SER,-71.445,41.736999999999995,False,44,003,021100,44,44003,44003021100,1400000US44003021100,A T WALL CO,55 SERVICE AVE,WARWICK,RI,2886,"A T WALL CO.55 SERVICE AVE, WARWICK RHODE ISLAND 02886 (KENT)",0,C,,110000312652
02887MYSMR450PA,-71.43,41.736000000000004,False,44,003,021100,44,44003,44003021100,1400000US44003021100,MAYS/MARSHALL & MEIER CO,450 PAVILION AVE,WARWICK,RI,2887,"MAYS/MARSHALL & MEIER CO.450 PAVILION AVE, WARWICK RHODE ISLAND 02887 (KENT)",0,C,,
02888HLLMR50COL,-71.442,41.743,False,44,003,021100,44,44003,44003021100,1400000US44003021100,JAMES A MURPHY & SON (RI),50 COLORADO AVE,WARWICK,RI,2888,"JAMES A MURPHY & SON (RI).50 COLORADO AVE, WARWICK RHODE ISLAND 02888 (KENT)",0,C,,110009439456
02888MNTJW1400P,-71.43,41.743,False,44,003,021100,44,44003,44003021100,1400000US44003021100,MONET GROUP INC,1400 POST RD,WARWICK,RI,2888,"MONET GROUP INC.1400 POST RD, WARWICK RHODE ISLAND 02888 (KENT)",0,C,,
02888PSCRR75PEN,-71.443,41.74100000000001,False,44,003,021100,44,44003,44003021100,1400000US44003021100,PEASE & CURREN INC,75 PENNSYLVANIA AVE,WARWICK,RI,2888,"PEASE & CURREN INC.75 PENNSYLVANIA AVE, WARWICK RHODE ISLAND 02888 (KENT)",0,C,,110000312670
02888RLTCH33MIN,-71.429,41.739,False,44,003,021100,44,44003,44003021100,1400000US44003021100,REELTECH,33 MINNESOTA AVE,WARWICK,RI,2888,"REELTECH.33 MINNESOTA AVE, WARWICK RHODE ISLAND 02888 (KENT)",1,C,,
02887KNZMN111PL,-71.446,41.733999999999995,False,44,003,021100,44,44003,44003021100,1400000US44003021100,ERWIN PEARL INTL KUNZMANN CHAIN DIV,111 PLAN WAY,WARWICK,RI,28877170,"ERWIN PEARL INTL KUNZMANN CHAIN DIV.111 PLAN WAY, WARWICK RHODE ISLAND 02887 (KENT)",0,C,,
02888RBCND80CYP,-71.437,41.751000000000005,False,44,003,021100,44,44003,44003021100,1400000US44003021100,RBC INDUSTRIES,80 CYPRESS ST,WARWICK,RI,2888,"RBC INDUSTRIES.80 CYPRESS ST, WARWICK RHODE ISLAND 02888 (KENT)",0,C,,
02886NTNLC55ACC,-71.447,41.735,False,44,003,021100,44,44003,44003021100,1400000US44003021100,NATIONAL CHAIN CO,55 ACCESS RD,WARWICK,RI,2886,"NATIONAL CHAIN CO.55 ACCESS RD, WARWICK RHODE ISLAND 02886 (KENT)",0,C,,110012482205
0288WLLDVT54AIR,-71.42699999999999,41.733000000000004,False,44,003,021100,44,44007,44003021100,1400000US44003021100,ALLIED AVIATION FUELING OF RHODE ISLAND,540 AIRPORT ROAD,WARWICK,RI,2886,"ALLIED AVIATION FUELING OF RHODE ISLAND.540 AIRPORT ROAD, WARWICK RHODE ISLAND 02886 (PROVIDENCE)",0,C,,110037250168
02886MLLRD1280J,-71.44800000000001,41.714,False,44,003,022100,44,44003,44003022100,1400000US44003022100,INTERPLEX METALS RI CORP,1280 JEFFERSON BLVD,WARWICK,RI,2886,"INTERPLEX METALS RI CORP.1280 JEFFERSON BLVD, WARWICK RHODE ISLAND 02886 (KENT)",0,C,,110012798641
02886NGLHR263KI,-71.446,41.73,False,44,003,022100,44,44003,44003022100,1400000US44003022100,LUCAS MILHAUPT WARWICK LLC,235 KILVERT ST,WARWICK,RI,2886,"LUCAS MILHAUPT WARWICK LLC.235 KILVERT ST, WARWICK RHODE ISLAND 02886 (KENT)",0,C,,110004936366
02886NRTHS303KI,-71.446,41.73,False,44,003,022100,44,44003,44003022100,1400000US44003022100,NORTHEAST PAPER CONVERTING CORP,303 KILVERT ST,WARWICK,RI,2886,"NORTHEAST PAPER CONVERTING CORP.303 KILVERT ST, WARWICK RHODE ISLAND 02886 (KENT)",0,C,,
02886KNNYM1000J,-71.446,41.721000000000004,False,44,003,022100,44,44003,44003022100,1400000US44003022100,KENNEY MANUFACTURING CO,1000 JEFFERSON BLVD,WARWICK,RI,2886,"KENNEY MANUFACTURING CO.1000 JEFFERSON BLVD, WARWICK RHODE ISLAND 02886 (KENT)",0,C,,110000618617
02886LVTNM745JE,-71.443,41.728,False,44,003,022100,44,44003,44003022100,1400000US44003022100,LEVITON MANUFACTURING INC.,745 JEFFERSON BLVD,WARWICK,RI,2886,"LEVITON MANUFACTURING INC..745 JEFFERSON BLVD, WARWICK RHODE ISLAND 02886 (KENT)",0,C,,110000895096
02886GBRFN399KI,-71.45100000000001,41.729,False,44,003,022100,44,44003,44003022100,1400000US44003022100,GEIB REFINING CORP,399 KILVERT ST,WARWICK,RI,2886,"GEIB REFINING CORP.399 KILVERT ST, WARWICK RHODE ISLAND 02886 (KENT)",0,C,,
02886TFFNY1INTE,-71.456,41.727,False,44,003,022100,44,44003,44003022100,1400000US44003022100,TIFFANY & CO,1 INTERNATIONAL WAY,WARWICK,RI,2886,"TIFFANY & CO.1 INTERNATIONAL WAY, WARWICK RHODE ISLAND 02886 (KENT)",0,C,,
02888GGSLL60PIO,-71.4,41.766999999999996,False,44,003,021002,44,44003,44003021002,1400000US44003021002,PERKINELMER CENTURION MECHANICAL SEAL,15 PIONEER AVE,WARWICK,RI,2888,"PERKINELMER CENTURION MECHANICAL SEAL.15 PIONEER AVE, WARWICK RHODE ISLAND 02888 (KENT)",0,C,,
02888HMMLD175PO,-71.39699999999999,41.762,False,44,003,021002,44,44003,44003021002,1400000US44003021002,HAMMEL DAHL INC,175 POST RD,WARWICK,RI,28881585,"HAMMEL DAHL INC.175 POST RD, WARWICK RHODE ISLAND 02888 (KENT)",1,C,,
02888TCNCX25BEL,-71.399,41.763999999999996,False,44,003,021002,44,44003,44003021002,1400000US44003021002,ETCO INC,25 BELLOWS ST,WARWICK,RI,2888,"ETCO INC.25 BELLOWS ST, WARWICK RHODE ISLAND 02888 (KENT)",0,C,,
02888DVNCD105BE,-71.40100000000001,41.763999999999996,False,44,003,021002,44,44003,44003021002,1400000US44003021002,ADVANCED CHEMICAL CO,105 BELLOWS ST,WARWICK,RI,2888,"ADVANCED CHEMICAL CO.105 BELLOWS ST, WARWICK RHODE ISLAND 02888 (KENT)",0,C,,110004905808
02891DRLNGCANAL,-71.832,41.38399999999999,False,44,009,050801,44,44009,44009050801,1400000US44009050801,DARLINGTON FABRICS CANAL,48 CANAL ST,WESTERLY,RI,2891,"DARLINGTON FABRICS CANAL.48 CANAL ST, WESTERLY RHODE ISLAND 02891 (WASHINGTON)",0,C,,110015790312
02891GLDMS60IND,-71.83,41.383,False,44,009,050801,44,44009,44009050801,1400000US44009050801,GUILD MUSIC CORP,60 INDUSTRIAL DR,WESTERLY,RI,2891,"GUILD MUSIC CORP.60 INDUSTRIAL DR, WESTERLY RHODE ISLAND 02891 (WASHINGTON)",0,C,,
02892TDRDT1LIBE,-71.57300000000001,41.48,False,44,009,051306,44,44009,44009051306,1400000US44009051306,MODINE MANUFACTURING CO,604 LIBERTY LN,WEST KINGSTON,RI,2892,"MODINE MANUFACTURING CO.604 LIBERTY LN, WEST KINGSTON RHODE ISLAND 02892 (WASHINGTON)",0,C,,110012483259
02892MRCNP132FA,-71.567,41.483999999999995,False,44,009,051306,44,44009,44009051306,1400000US44009051306,AMERICAN POWER CONVERSION CORP,132 FAIRGROUNDS RD,WEST KINGSTON,RI,2892,"AMERICAN POWER CONVERSION CORP.132 FAIRGROUNDS RD, WEST KINGSTON RHODE ISLAND 02892 (WASHINGTON)",0,C,,110004930727
02893HPVLL20REM,-71.523,41.687,False,44,003,020102,44,44003,44003020102,1400000US44003020102,HOPE VALLEY DYEING CORP,20 REMINGTON ST,WEST WARWICK,RI,28930188,"HOPE VALLEY DYEING CORP.20 REMINGTON ST, WEST WARWICK RHODE ISLAND 02893 (KENT)",0,C,,
02893WRWCK65MAN,-71.524,41.687,False,44,003,020102,44,44003,44003020102,1400000US44003020102,WARWICK DYEING CORP,65 MANCHESTER ST,WEST WARWICK,RI,2893,"WARWICK DYEING CORP.65 MANCHESTER ST, WEST WARWICK RHODE ISLAND 02893 (KENT)",0,C,,
02893MTCHM155MA,-71.52199999999999,41.693999999999996,False,44,003,020102,44,44003,44003020102,1400000US44003020102,METACHEM RESINS CORP. (MERECO),1505 MAIN ST,WEST WARWICK,RI,2893,"METACHEM RESINS CORP. (MERECO).1505 MAIN ST, WEST WARWICK RHODE ISLAND 02893 (KENT)",0,C,,110004902712
02893JMSRV21BRA,-71.523,41.713,False,44,003,020300,44,44003,44003020300,1400000US44003020300,JAMES RIVER CORP DECORATIVE PRODUCTS DIV,21 BRAYTON ST  CS-1005,WEST WARWICK,RI,28933601,"JAMES RIVER CORP DECORATIVE PRODUCTS DIV.21 BRAYTON ST  CS-1005, WEST WARWICK RHODE ISLAND 02893 (KENT)",0,C,,
02893MTRLN1400D,-71.50399999999999,41.674,False,44,003,020101,44,44003,44003020101,1400000US44003020101,AMTROL INC,1400 DIVISION RD,WEST WARWICK,RI,2893,"AMTROL INC.1400 DIVISION RD, WEST WARWICK RHODE ISLAND 02893 (KENT)",0,C,,110000312698
02893DRYVTONEEN,-71.516,41.666000000000004,False,44,003,020101,44,44003,44003020101,1400000US44003020101,DRYVIT SYSTEMS INC,1 ENERGY WAY,WEST WARWICK,RI,2893,"DRYVIT SYSTEMS INC.1 ENERGY WAY, WEST WARWICK RHODE ISLAND 02893 (KENT)",0,C,,110012482982
02893NWNGLHAYST,-71.513,41.716,False,44,003,020200,44,44003,44003020200,1400000US44003020200,NEW ENGLAND UNION CO INC,107 HAY ST,WEST WARWICK,RI,2893,"NEW ENGLAND UNION CO INC.107 HAY ST, WEST WARWICK RHODE ISLAND 02893 (KENT)",0,C,,110000581273
02893RGNLB200PR,-71.51100000000001,41.714,False,44,003,020500,44,44003,44003020500,1400000US44003020500,ORIGINAL BRADFORD SOAP WORKS INC,200 PROVIDENCE ST,WEST WARWICK,RI,28930907,"ORIGINAL BRADFORD SOAP WORKS INC.200 PROVIDENCE ST, WEST WARWICK RHODE ISLAND 02893 (KENT)",0,C,,110000312705
02893SLLCHGREEN,-71.491,41.72,False,44,003,020500,44,44003,44003020500,1400000US44003020500,SOLUOL INC WEST WARWICK,GREEN HILL & MARKET ST,WEST WARWICK,RI,2893,"SOLUOL INC WEST WARWICK.GREEN HILL & MARKET ST, WEST WARWICK RHODE ISLAND 02893 (KENT)",0,C,,110007824293
02895CNCNT20PRI,-71.51100000000001,42.015,False,44,007,018100,44,44007,44007018100,1400000US44007018100,CNC INTERNATIONAL LP,20 PRIVILEGE ST,WOONSOCKET,RI,2895,"CNC INTERNATIONAL LP.20 PRIVILEGE ST, WOONSOCKET RHODE ISLAND 02895 (PROVIDENCE)",0,C,,110035831222
02895CRLCB150HA,-71.502,42.001999999999995,False,44,007,017900,44,44007,44007017900,1400000US44007017900,CAROL CABLE CO INC,150 HAMLET AVE,WOONSOCKET,RI,2895,"CAROL CABLE CO INC.150 HAMLET AVE, WOONSOCKET RHODE ISLAND 02895 (PROVIDENCE)",1,C,,
02895CSNDS71VIL,-71.503,42.005,False,44,007,017900,44,44007,44007017900,1400000US44007017900,ACS INDUSTRIES INC,71 VILLANOVA ST,WOONSOCKET,RI,2895,"ACS INDUSTRIES INC.71 VILLANOVA ST, WOONSOCKET RHODE ISLAND 02895 (PROVIDENCE)",0,C,,
02895CNSLD104VI,-71.502,42.005,False,44,007,017900,44,44007,44007017900,1400000US44007017900,CONSOLIDATED AUTO SCREEN INC,104 VILLA NOVA ST,WOONSOCKET,RI,2895,"CONSOLIDATED AUTO SCREEN INC.104 VILLA NOVA ST, WOONSOCKET RHODE ISLAND 02895 (PROVIDENCE)",0,C,,
02895NRTHR153HA,-71.501,42.001999999999995,False,44,007,017900,44,44007,44007017900,1400000US44007017900,NORTHERN PRODUCTS INC,153 HAMLET AVE,WOONSOCKET,RI,2895,"NORTHERN PRODUCTS INC.153 HAMLET AVE, WOONSOCKET RHODE ISLAND 02895 (PROVIDENCE)",0,C,,110002337105
02895CNSTT413MA,-71.5,42.001,True,44,007,017900,44,44007,44007017900,1400000US44007017900,OCEAN STATE FINISHING CO,413 MANVILLE RD,WOONSOCKET,RI,2895,"OCEAN STATE FINISHING CO 413 MANVILLE RD, WOONSOCKET, RI, 2895",0,C,,
02895RSCRF685SO,-71.502,42.01,False,44,007,018000,44,44007,44007018000,1400000US44007018000,ROSECRAFT INCORPORATED,685 SOCIAL ST,WOONSOCKET,RI,2895,"ROSECRAFT INCORPORATED.685 SOCIAL ST, WOONSOCKET RHODE ISLAND 02895 (PROVIDENCE)",0,C,,
02895PLYRT32MEC,-71.513,42.00899999999999,False,44,007,018000,44,44007,44007018000,1400000US44007018000,POLYURETHANE MOLDING INC.,32 MECHANIC AVE,WOONSOCKET,RI,2895,"POLYURETHANE MOLDING INC..32 MECHANIC AVE, WOONSOCKET RHODE ISLAND 02895 (PROVIDENCE)",1,C,,110000312732
02895NTNLC185AL,-71.513,42.001999999999995,False,44,007,018000,44,44007,44007018000,1400000US44007018000,NATIONAL CHROMIUM CO INC (WOONSOCKET),185 ALLEN ST,WOONSOCKET,RI,2895,"NATIONAL CHROMIUM CO INC (WOONSOCKET).185 ALLEN ST, WOONSOCKET RHODE ISLAND 02895 (PROVIDENCE)",0,C,,
02895SLHTT43RAI,-71.514,42.004,False,44,007,018000,44,44007,44007018000,1400000US44007018000,SILHOUETTES INC,43 RAILROAD ST,WOONSOCKET,RI,2895,"SILHOUETTES INC.43 RAILROAD ST, WOONSOCKET RHODE ISLAND 02895 (PROVIDENCE)",0,C,,
02895DRLCT1SHRR,-71.514,42.00899999999999,False,44,007,018000,44,44007,44007018000,1400000US44007018000,DURALECTRA-CHN LLC,1 SHORR CT,WOONSOCKET,RI,2895,"DURALECTRA-CHN LLC.1 SHORR CT, WOONSOCKET RHODE ISLAND 02895 (PROVIDENCE)",0,C,,110054248239
02895TCHND85FAI,-71.52199999999999,42.004,False,44,007,017400,44,44007,44007017400,1400000US44007017400,PORTOLA TECH INTERNATIONAL,85 FAIRMOUNT ST,WOONSOCKET,RI,2895,"PORTOLA TECH INTERNATIONAL.85 FAIRMOUNT ST, WOONSOCKET RHODE ISLAND 02895 (PROVIDENCE)",0,C,,110000491897
02895STRNR1174R,-71.53,42.00899999999999,False,44,007,017400,44,44007,44007017400,1400000US44007017400,EASTERN RESINS & CHEMICALS CO,1174 RIVER ST,WOONSOCKET,RI,2895,"EASTERN RESINS & CHEMICALS CO.1174 RIVER ST, WOONSOCKET RHODE ISLAND 02895 (PROVIDENCE)",0,C,,
02895SVLLD229FI,-71.52600000000001,42.003,False,44,007,017400,44,44007,44007017400,1400000US44007017400,SEVILLE DYEING CO INC,229 1ST AVE,WOONSOCKET,RI,28951209,"SEVILLE DYEING CO INC.229 1ST AVE, WOONSOCKET RHODE ISLAND 02895 (PROVIDENCE)",0,C,,
02895DRNDP719RI,-71.52600000000001,42.006,False,44,007,017400,44,44007,44007017400,1400000US44007017400,DORADO PROCESSING INC,719 RIVER ST,WOONSOCKET,RI,2895,"DORADO PROCESSING INC.719 RIVER ST, WOONSOCKET RHODE ISLAND 02895 (PROVIDENCE)",0,C,,
02895TLNTCENDOF,-71.54,42.011,False,44,007,012801,44,44007,44007012801,1400000US44007012801,ATP MFG CO,END OF CARRINGTON ST,WOONSOCKET,RI,2896,"ATP MFG CO.END OF CARRINGTON ST, WOONSOCKET RHODE ISLAND 02896 (PROVIDENCE)",1,C,,
02896TPMFG761GR,-71.555,42.0,False,44,007,012801,44,44007,44007012801,1400000US44007012801,ATP MANUFACTURING,761 GREAT RD,NORTH SMITHFIELD,RI,28966811,"ATP MANUFACTURING.761 GREAT RD, NORTH SMITHFIELD RHODE ISLAND 02896 (PROVIDENCE)",0,C,,
02896THHBG582GR,-71.54899999999999,41.998999999999995,False,44,007,012801,44,44007,44007012801,1400000US44007012801,HB GROUP,582 GREAT RD,NORTH SMITHFIELD,RI,2896,"HB GROUP.582 GREAT RD, NORTH SMITHFIELD RHODE ISLAND 02896 (PROVIDENCE)",0,C,,
0289WTLNTC229QU,-71.593,42.013000000000005,False,44,007,012801,44,44007,44007012801,1400000US44007012801,ATLANTIC FOOTCARE INC,229 QUAKER HWY,NORTH SMITHFIELD,RI,2896,"ATLANTIC FOOTCARE INC.229 QUAKER HWY, NORTH SMITHFIELD RHODE ISLAND 02896 (PROVIDENCE)",0,C,,110070037296
0289WMTRLS8CENT,-71.583,42.013000000000005,False,44,007,012801,44,44007,44007012801,1400000US44007012801,MATERIAL SAMPLING TECHNOLOGIES,800 CENTRAL ST,NORTH SMITHFIELD,RI,2896,"MATERIAL SAMPLING TECHNOLOGIES.800 CENTRAL ST, NORTH SMITHFIELD RHODE ISLAND 02896 (PROVIDENCE)",0,C,,110004934313
02901KLTZN44WAR,-71.426,41.81100000000001,False,44,007,001200,44,44007,44007001200,1400000US44007001200,KLITZNER INDUSTRIES INC,44 WARREN ST,PROVIDENCE,RI,2901,"KLITZNER INDUSTRIES INC.44 WARREN ST, PROVIDENCE RHODE ISLAND 02901 (PROVIDENCE)",0,C,,
02907RFSTN102WE,-71.426,41.81,False,44,007,001200,44,44007,44007001200,1400000US44007001200,RAU FASTENERS CO LLC,102 WESTFIELD ST,PROVIDENCE,RI,2907,"RAU FASTENERS CO LLC.102 WESTFIELD ST, PROVIDENCE RHODE ISLAND 02907 (PROVIDENCE)",1,C,,
02907JSFCR55CRO,-71.426,41.809,False,44,007,001200,44,44007,44007001200,1400000US44007001200,JOSEF CREATIONS INC,55 CROMWELL ST,PROVIDENCE,RI,2907,"JOSEF CREATIONS INC.55 CROMWELL ST, PROVIDENCE RHODE ISLAND 02907 (PROVIDENCE)",0,C,,
02903NVRSL695ED,-71.407,41.809,False,44,007,000600,44,44007,44007000600,1400000US44007000600,UNIVERSAL ENGRAVERS,695 EDDY ST,PROVIDENCE,RI,2903,"UNIVERSAL ENGRAVERS.695 EDDY ST, PROVIDENCE RHODE ISLAND 02903 (PROVIDENCE)",0,C,,
02903PRCSN162CL,-71.41199999999999,41.818000000000005,False,44,007,000600,44,44007,44007000600,1400000US44007000600,PRECISION METALS INC,162 CLIFFORD ST,PROVIDENCE,RI,2903,"PRECISION METALS INC.162 CLIFFORD ST, PROVIDENCE RHODE ISLAND 02903 (PROVIDENCE)",0,C,,
02903RGLPL85SOU,-71.40899999999999,41.817,False,44,007,000600,44,44007,44007000600,1400000US44007000600,REGAL PLATING CO,85 S ST,PROVIDENCE,RI,2903,"REGAL PLATING CO.85 S ST, PROVIDENCE RHODE ISLAND 02903 (PROVIDENCE)",0,C,,110000312787
02903SPDLD70SHI,-71.41,41.818999999999996,False,44,007,000600,44,44007,44007000600,1400000US44007000600,TEXTRON INC SPEIDEL DIV,70 SHIP ST,PROVIDENCE,RI,2903,"TEXTRON INC SPEIDEL DIV.70 SHIP ST, PROVIDENCE RHODE ISLAND 02903 (PROVIDENCE)",0,C,,
02903VCTRY145GL,-71.408,41.815,False,44,007,000600,44,44007,44007000600,1400000US44007000600,VICTORY FINISHING TECHNOLOGIES  INC,145 GLOBE ST,PROVIDENCE,RI,2903,"VICTORY FINISHING TECHNOLOGIES  INC.145 GLOBE ST, PROVIDENCE RHODE ISLAND 02903 (PROVIDENCE)",0,C,,110000312803
02905HNDYH715ED,-71.407,41.809,False,44,007,000600,44,44007,44007000600,1400000US44007000600,HANDY & HARMAN,715 EDDY ST,PROVIDENCE,RI,2905,"HANDY & HARMAN.715 EDDY ST, PROVIDENCE RHODE ISLAND 02905 (PROVIDENCE)",1,C,,
02905NTNLP946ED,-71.406,41.802,False,44,007,000600,44,44007,44007000600,1400000US44007000600,NATIONAL PLATING CORP,946 EDDY ST,PROVIDENCE,RI,2905,"NATIONAL PLATING CORP.946 EDDY ST, PROVIDENCE RHODE ISLAND 02905 (PROVIDENCE)",0,C,,110000312901
02903NRTHS170AL,-71.404,41.809,False,44,007,000600,44,44007,44007000600,1400000US44007000600,NORTHEAST PETROLEUM PROVIDENCE TERMINAL,170 ALLENS AVE,PROVIDENCE,RI,2903,"NORTHEAST PETROLEUM PROVIDENCE TERMINAL.170 ALLENS AVE, PROVIDENCE RHODE ISLAND 02903 (PROVIDENCE)",0,C,,
02903SGNNW40POI,-71.405,41.817,False,44,007,000600,44,44007,44007000600,1400000US44007000600,MANCHESTER STREET LLC,40 POINT ST,PROVIDENCE,RI,2903,"MANCHESTER STREET LLC.40 POINT ST, PROVIDENCE RHODE ISLAND 02903 (PROVIDENCE)",0,C,,110000312796
02905MTVNT520AL,-71.4,41.799,False,44,007,000600,44,44007,44007000600,1400000US44007000600,SHELL PROVIDENCE TERMINAL,520 ALLENS AVE,PROVIDENCE,RI,2905,"SHELL PROVIDENCE TERMINAL.520 ALLENS AVE, PROVIDENCE RHODE ISLAND 02905 (PROVIDENCE)",0,C,,110000312894
02905HRFFJ226PU,-71.408,41.806999999999995,False,44,007,000600,44,44007,44007000600,1400000US44007000600,HERFF JONES INC,226 PUBLIC ST,PROVIDENCE,RI,2905,"HERFF JONES INC.226 PUBLIC ST, PROVIDENCE RHODE ISLAND 02905 (PROVIDENCE)",0,C,,110002087508
02903SPRGP144AL,-71.405,41.81,False,44,007,000600,44,44007,44007000600,1400000US44007000600,SPRAGUE PROVIDENCE,144 ALLENS AVE,PROVIDENCE,RI,2903,"SPRAGUE PROVIDENCE.144 ALLENS AVE, PROVIDENCE RHODE ISLAND 02903 (PROVIDENCE)",0,C,,110001663174
02905MNTRC185SH,-71.407,41.807,True,44,007,000600,44,44007,44007000600,1400000US44007000600,MINIATURE CASTING CORP,185 SHERBURNE ST,PROVIDENCE,RI,29054898,"MINIATURE CASTING CORP 185 SHERBURNE ST, PROVIDENCE, RI, 29054898",1,C,,
02903RLMNF274PI,-71.414,41.818000000000005,False,44,007,000800,44,44007,44007000800,1400000US44007000800,ROLO MANUFACTURING CO INC,274 PINE ST,PROVIDENCE,RI,2903,"ROLO MANUFACTURING CO INC.274 PINE ST, PROVIDENCE RHODE ISLAND 02903 (PROVIDENCE)",0,C,,
02903MLNNC86CRA,-71.412,41.82,True,44,007,000800,44,44007,44007000800,1400000US44007000800,MALINA INC,86 CRARY ST,PROVIDENCE,RI,29034983,"MALINA INC 86 CRARY ST, PROVIDENCE, RI, 29034983",1,C,,
02903XCLLM200CH,-71.41199999999999,41.849,False,44,007,002900,44,44007,44007002900,1400000US44007002900,EXCELL MANUFACTURING CO,70 ROYAL LITTLE  DR,PROVIDENCE,RI,2904,"EXCELL MANUFACTURING CO.70 ROYAL LITTLE  DR, PROVIDENCE RHODE ISLAND 02904 (PROVIDENCE)",0,C,,
02904BBGRN333WE,-71.413,41.846000000000004,False,44,007,002900,44,44007,44007002900,1400000US44007002900,B B GREENBERG CO,333 W RIVER ST,PROVIDENCE,RI,29042610,"B B GREENBERG CO.333 W RIVER ST, PROVIDENCE RHODE ISLAND 02904 (PROVIDENCE)",0,C,,
02904GLDCR403CH,-71.419,41.845,False,44,007,002900,44,44007,44007002900,1400000US44007002900,GOLD CROWN INC,403 CHARLES ST,PROVIDENCE,RI,2904,"GOLD CROWN INC.403 CHARLES ST, PROVIDENCE RHODE ISLAND 02904 (PROVIDENCE)",0,C,,
02904HHSCR148WE,-71.414,41.843999999999994,False,44,007,002900,44,44007,44007002900,1400000US44007002900,H & H PRODUCTS,148 W RIVER ST,PROVIDENCE,RI,2904,"H & H PRODUCTS.148 W RIVER ST, PROVIDENCE RHODE ISLAND 02904 (PROVIDENCE)",0,C,,
02904MXWLL99WES,-71.415,41.842,False,44,007,002900,44,44007,44007002900,1400000US44007002900,QUEBECOR PRINTING PROVIDENCE INC,99 W RIVER ST,PROVIDENCE,RI,29082606,"QUEBECOR PRINTING PROVIDENCE INC.99 W RIVER ST, PROVIDENCE RHODE ISLAND 02908 (PROVIDENCE)",0,C,,
02904NTRNT387CH,-71.418,41.842,False,44,007,002900,44,44007,44007002900,1400000US44007002900,INTERNATIONAL INSIGNIA CORP,387 CHARLES ST,PROVIDENCE,RI,2904,"INTERNATIONAL INSIGNIA CORP.387 CHARLES ST, PROVIDENCE RHODE ISLAND 02904 (PROVIDENCE)",0,C,,
02940NNNDS10ADM,-71.418,41.841,False,44,007,002900,44,44007,44007002900,1400000US44007002900,UNION IND INC,10 ADMIRAL ST,PROVIDENCE,RI,2908,"UNION IND INC.10 ADMIRAL ST, PROVIDENCE RHODE ISLAND 02908 (PROVIDENCE)",0,C,,
02904GPLTN94SIL,-71.416,41.846000000000004,False,44,007,002900,44,44007,44007002900,1400000US44007002900,G & A PLATING CO,94 SILVER SPRING ST,PROVIDENCE,RI,2904,"G & A PLATING CO.94 SILVER SPRING ST, PROVIDENCE RHODE ISLAND 02904 (PROVIDENCE)",0,C,,
02904GVNNJ100NA,-71.402,41.853,False,44,007,003300,44,44007,44007003300,1400000US44007003300,GIOVANNI JEWELRY CO,100 NASHUA ST,PROVIDENCE,RI,2904,"GIOVANNI JEWELRY CO.100 NASHUA ST, PROVIDENCE RHODE ISLAND 02904 (PROVIDENCE)",0,C,,
02904JDNDS812BR,-71.434,41.855,False,44,007,002800,44,44007,44007002800,1400000US44007002800,JED INDUSTRIES INC,812 BRANCH AVE,PROVIDENCE,RI,2904,"JED INDUSTRIES INC.812 BRANCH AVE, PROVIDENCE RHODE ISLAND 02904 (PROVIDENCE)",0,C,,
02904LCTRL10HOU,-71.434,41.856,False,44,007,002800,44,44007,44007002800,1400000US44007002800,ELECTROLIZING INC,20 HOUGHTON ST,PROVIDENCE,RI,2904,"ELECTROLIZING INC.20 HOUGHTON ST, PROVIDENCE RHODE ISLAND 02904 (PROVIDENCE)",0,C,,110040060563
02904MNLLT30HOU,-71.434,41.856,False,44,007,002800,44,44007,44007002800,1400000US44007002800,MAINELLI TOOL & DIE INC,30 HOUGHTON ST,PROVIDENCE,RI,2904,"MAINELLI TOOL & DIE INC.30 HOUGHTON ST, PROVIDENCE RHODE ISLAND 02904 (PROVIDENCE)",0,C,,
02904RYLPL1117D,-71.443,41.856,False,44,007,002800,44,44007,44007002800,1400000US44007002800,ROYAL PLASTICS CO INC (DBA ROYAL OF AMERICA),1117 DOUGLAS AVE,NORTH PROVIDENCE,RI,2904,"ROYAL PLASTICS CO INC (DBA ROYAL OF AMERICA).1117 DOUGLAS AVE, NORTH PROVIDENCE RHODE ISLAND 02904 (PROVIDENCE)",1,C,,
02904MRTCM135PE,-71.442,41.864,False,44,007,011901,44,44007,44007011901,1400000US44007011901,MERIT COMP,135 PEAL AVE,PROVIDENCE,RI,2904,"MERIT COMP.135 PEAL AVE, PROVIDENCE RHODE ISLAND 02904 (PROVIDENCE)",0,C,,
02904RHDSL148WE,-71.438,41.861,True,44,007,011901,44,44007,44007011901,1400000US44007011901,RHODE ISLAND TOOL CO INC,148 W RIVER ST,PROVIDENCE,RI,2904,"RHODE ISLAND TOOL CO INC 148 W RIVER ST, PROVIDENCE, RI, 2904",0,C,,
02905DRMTC960BR,-71.415,41.798,False,44,007,000200,44,44007,44007000200,1400000US44007000200,DARMET CORP,960 BROAD ST,PROVIDENCE,RI,2905,"DARMET CORP.960 BROAD ST, PROVIDENCE RHODE ISLAND 02905 (PROVIDENCE)",0,C,,
02905FRGSN13014,-71.408,41.793,False,44,007,000102,44,44007,44007000102,1400000US44007000102,FERGUSON PERFORATING CO INC,130-140 ERNEST ST,PROVIDENCE,RI,2905,"FERGUSON PERFORATING CO INC.130-140 ERNEST ST, PROVIDENCE RHODE ISLAND 02905 (PROVIDENCE)",0,C,,110004903276
02905LRCCX97JOH,-71.404,41.793,False,44,007,000102,44,44007,44007000102,1400000US44007000102,LORAC CO,97 JOHNSON ST,PROVIDENCE,RI,2905,"LORAC CO.97 JOHNSON ST, PROVIDENCE RHODE ISLAND 02905 (PROVIDENCE)",0,C,,
02905NRRGN82ALD,-71.407,41.795,False,44,007,000102,44,44007,44007000102,1400000US44007000102,NARRAGANSETT SCREW CO,82 ALDRICH ST,PROVIDENCE,RI,2905,"NARRAGANSETT SCREW CO.82 ALDRICH ST, PROVIDENCE RHODE ISLAND 02905 (PROVIDENCE)",0,C,,
02905GRGMNHARBO,-71.383,41.788999999999994,False,44,007,000101,44,44007,44007000101,1400000US44007000101,UNIVAR USA INC - PROVIDENCE BRANCH,HARBORSIDE BLVD,PROVIDENCE,RI,2905,"UNIVAR USA INC - PROVIDENCE BRANCH.HARBORSIDE BLVD, PROVIDENCE RHODE ISLAND 02905 (PROVIDENCE)",0,C,,110000602955
02905LLNSM89SHI,-71.391,41.792,False,44,007,000101,44,44007,44007000101,1400000US44007000101,ALLENS MANUFACTURING,89 SHIPYARD ST,PROVIDENCE,RI,2905,"ALLENS MANUFACTURING.89 SHIPYARD ST, PROVIDENCE RHODE ISLAND 02905 (PROVIDENCE)",0,C,,
02905MNRCH189GE,-71.4,41.792,False,44,007,000101,44,44007,44007000101,1400000US44007000101,MONARCH METAL FINISHING CO INC,189 GEORGIA AVE,PROVIDENCE,RI,2905,"MONARCH METAL FINISHING CO INC.189 GEORGIA AVE, PROVIDENCE RHODE ISLAND 02905 (PROVIDENCE)",0,C,,110000312885
02905PRVDN225CA,-71.4,41.791000000000004,False,44,007,000101,44,44007,44007000101,1400000US44007000101,PROVIDENCE CHAIN CO,225 CAROLINA AVE,PROVIDENCE,RI,2905,"PROVIDENCE CHAIN CO.225 CAROLINA AVE, PROVIDENCE RHODE ISLAND 02905 (PROVIDENCE)",0,C,,110000312910
02905RBCMF192GE,-71.4,41.792,False,44,007,000101,44,44007,44007000101,1400000US44007000101,RIBCO MANUFACTURING INC,192 GEORGIA AVE,PROVIDENCE,RI,2905,"RIBCO MANUFACTURING INC.192 GEORGIA AVE, PROVIDENCE RHODE ISLAND 02905 (PROVIDENCE)",0,C,,
02905RMBRS735AL,-71.39699999999999,41.793,False,44,007,000101,44,44007,44007000101,1400000US44007000101,ARMBRUST INTERNATIONAL,735 ALLENS AVE,PROVIDENCE,RI,2905,"ARMBRUST INTERNATIONAL.735 ALLENS AVE, PROVIDENCE RHODE ISLAND 02905 (PROVIDENCE)",0,C,,110000312938
02905SNRFN35TER,-71.39399999999999,41.79600000000001,False,44,007,000101,44,44007,44007000101,1400000US44007000101,SUN REFINING & MARKETING CO,35 TERMINAL RD,PROVIDENCE,RI,2905,"SUN REFINING & MARKETING CO.35 TERMINAL RD, PROVIDENCE RHODE ISLAND 02905 (PROVIDENCE)",0,C,,
02905SPCTR217CH,-71.40100000000001,41.793,False,44,007,000101,44,44007,44007000101,1400000US44007000101,SPECTRUM COATINGS LABS INC,217 CHAPMAN ST,PROVIDENCE,RI,2905,"SPECTRUM COATINGS LABS INC.217 CHAPMAN ST, PROVIDENCE RHODE ISLAND 02905 (PROVIDENCE)",0,C,,
02940FDRLP1139E,-71.404,41.795,False,44,007,000101,44,44007,44007000101,1400000US44007000101,MAHR INC,1139 EDDY ST,PROVIDENCE,RI,2905,"MAHR INC.1139 EDDY ST, PROVIDENCE RHODE ISLAND 02905 (PROVIDENCE)",0,C,,110000895087
02905JWLRS85ELL,-71.40100000000001,41.794,False,44,007,000101,44,44007,44007000101,1400000US44007000101,JEWELERS REFINING SERVICE INC,85 ELLENFIELD ST,PROVIDENCE,RI,2905,"JEWELERS REFINING SERVICE INC.85 ELLENFIELD ST, PROVIDENCE RHODE ISLAND 02905 (PROVIDENCE)",0,C,,
02905LNJWL1280E,-71.403,41.79,False,44,007,000101,44,44007,44007000101,1400000US44007000101,ALAN JEWELRY CO,1280 EDDY ST,PROVIDENCE,RI,2905,"ALAN JEWELRY CO.1280 EDDY ST, PROVIDENCE RHODE ISLAND 02905 (PROVIDENCE)",1,C,,
02940MNRCH325HA,-71.391,41.787,False,44,007,000101,44,44007,44007000101,1400000US44007000101,MONARCH INDUSTRIES INC,325 HARBORSIDE BLVD,PROVIDENCE,RI,29405202,"MONARCH INDUSTRIES INC.325 HARBORSIDE BLVD, PROVIDENCE RHODE ISLAND 02940 (PROVIDENCE)",0,C,,
02905RNBWM177GE,-71.4,41.792,False,44,007,000101,44,44007,44007000101,1400000US44007000101,IRA GREEN INC,177 GEORGIA AVE,PROVIDENCE,RI,2905,"IRA GREEN INC.177 GEORGIA AVE, PROVIDENCE RHODE ISLAND 02905 (PROVIDENCE)",0,C,,110000312947
02905DNCRF24BAK,-71.398,41.794,False,44,007,000101,44,44007,44007000101,1400000US44007000101,DANECRAFT INC,24 BAKER ST,PROVIDENCE,RI,2905,"DANECRAFT INC.24 BAKER ST, PROVIDENCE RHODE ISLAND 02905 (PROVIDENCE)",0,C,,
02905HDSNT29TER,-71.39699999999999,41.795,False,44,007,000101,44,44007,44007000101,1400000US44007000101,HUDSON TERMINAL,29 TERMINAL RD,PROVIDENCE,RI,2905,"HUDSON TERMINAL.29 TERMINAL RD, PROVIDENCE RHODE ISLAND 02905 (PROVIDENCE)",0,C,,110032893938
0290WNPTNR35TER,-71.392,41.79600000000001,False,44,007,000101,44,44007,44007000101,1400000US44007000101,NEPT NORTH,75 TERMINAL ROAD,PROVIDENCE,RI,2905,"NEPT NORTH.75 TERMINAL ROAD, PROVIDENCE RHODE ISLAND 02905 (PROVIDENCE)",0,C,,110039019193
0290WNPTST13TER,-71.392,41.79600000000001,False,44,007,000101,44,44007,44007000101,1400000US44007000101,NEPT SOUTH,130 TERMINAL ROAD,PROVIDENCE,RI,2905,"NEPT SOUTH.130 TERMINAL ROAD, PROVIDENCE RHODE ISLAND 02905 (PROVIDENCE)",0,C,,110039019200
02905PTTNM17VIR,-71.482,41.997,False,44,007,018500,44,44007,44007018500,1400000US44007018500,PATTON-MACGUYER INC,17 VIRGINIA AVE,PROVIDENCE,RI,29054441,"PATTON-MACGUYER INC.17 VIRGINIA AVE, PROVIDENCE RHODE ISLAND 02905 (PROVIDENCE)",0,C,,
02895HMLTN300PA,-71.47800000000001,41.993,False,44,007,018500,44,44007,44007018500,1400000US44007018500,"HAMILTON STANDARD INTERCONNECT, SYS",300 PARK E DR,WOONSOCKET,RI,2895,"HAMILTON STANDARD INTERCONNECT, SYS.300 PARK E DR, WOONSOCKET RHODE ISLAND 02895 (PROVIDENCE)",1,C,,
02895LTRFN500PA,-71.47800000000001,41.996,False,44,007,018500,44,44007,44007018500,1400000US44007018500,CARPENTER POWDER PRODUCTS,500 PARK E DR HIGHLAND INDL PARK,WOONSOCKET,RI,2895,"CARPENTER POWDER PRODUCTS.500 PARK E DR HIGHLAND INDL PARK, WOONSOCKET RHODE ISLAND 02895 (PROVIDENCE)",0,C,,110004928357
02895TCHNC300PA,-71.471,42.0,False,44,007,018500,44,44007,44007018500,1400000US44007018500,TECHNIC INC ENGINEERED POWDERS DIV,300 PARK EAST DR,WOONSOCKET,RI,2895,"TECHNIC INC ENGINEERED POWDERS DIV.300 PARK EAST DR, WOONSOCKET RHODE ISLAND 02895 (PROVIDENCE)",0,C,,110000496062
02895PLYRT1FUND,-71.485,41.99100000000001,False,44,007,018500,44,44007,44007018500,1400000US44007018500,POLYURETHANE MOLDING INC,100 FOUNDERS DR,WOONSOCKET,RI,2895,"POLYURETHANE MOLDING INC.100 FOUNDERS DR, WOONSOCKET RHODE ISLAND 02895 (PROVIDENCE)",0,C,,110004919474
02905RSTRD928ED,-71.407,41.802,False,44,007,000500,44,44007,44007000500,1400000US44007000500,R E STURDY CO INC,928 EDDY ST,PROVIDENCE,RI,2905,"R E STURDY CO INC.928 EDDY ST, PROVIDENCE RHODE ISLAND 02905 (PROVIDENCE)",0,C,,
02905LTTLC908ED,-71.407,41.803000000000004,False,44,007,000500,44,44007,44007000500,1400000US44007000500,LITTLE & CO INC,908 EDDY ST,PROVIDENCE,RI,2905,"LITTLE & CO INC.908 EDDY ST, PROVIDENCE RHODE ISLAND 02905 (PROVIDENCE)",0,C,,
02907CNSLD150NI,-71.439,41.799,False,44,007,001500,44,44007,44007001500,1400000US44007001500,UNCAS MFGCO,150 NIANTIC AVE,PROVIDENCE,RI,2907,"UNCAS MFGCO.150 NIANTIC AVE, PROVIDENCE RHODE ISLAND 02907 (PROVIDENCE)",0,C,,
02909NSNNC100DU,-71.436,41.8,False,44,007,001500,44,44007,44007001500,1400000US44007001500,C & J JEWELRY CO INC,100 DUPONT DR,PROVIDENCE,RI,2907,"C & J JEWELRY CO INC.100 DUPONT DR, PROVIDENCE RHODE ISLAND 02907 (PROVIDENCE)",0,C,,
02907QLTYS150PA,-71.436,41.794,False,44,007,001500,44,44007,44007001500,1400000US44007001500,"QUALITY SPRAYING & STENCILING, CO",150 PARK LN,PROVIDENCE,RI,2907,"QUALITY SPRAYING & STENCILING, CO.150 PARK LN, PROVIDENCE RHODE ISLAND 02907 (PROVIDENCE)",0,C,,
02907SPSTJ225DU,-71.436,41.797,False,44,007,001500,44,44007,44007001500,1400000US44007001500,ESPOSITO JEWELRY INC,225 DUPONT DR,PROVIDENCE,RI,29070777,"ESPOSITO JEWELRY INC.225 DUPONT DR, PROVIDENCE RHODE ISLAND 02907 (PROVIDENCE)",0,C,,
02907TSRDL195DU,-71.436,41.798,False,44,007,001500,44,44007,44007001500,1400000US44007001500,SARDELLI INTERNATIONAL LLC.,195 DUPONT DR,PROVIDENCE,RI,2907,"SARDELLI INTERNATIONAL LLC..195 DUPONT DR, PROVIDENCE RHODE ISLAND 02907 (PROVIDENCE)",0,C,,110000491913
02907NCRGR175DU,-71.435,41.798,False,44,007,001500,44,44007,44007001500,1400000US44007001500,RAWCLIFFE CORP,175 DUPONT DR,PROVIDENCE,RI,2907,"RAWCLIFFE CORP.175 DUPONT DR, PROVIDENCE RHODE ISLAND 02907 (PROVIDENCE)",0,C,,110004903702
02907NTRPL45SAL,-71.432,41.803999999999995,False,44,007,001400,44,44007,44007001400,1400000US44007001400,INTERPLEX METALS RI CORP,45 SALEM ST,PROVIDENCE,RI,2907,"INTERPLEX METALS RI CORP.45 SALEM ST, PROVIDENCE RHODE ISLAND 02907 (PROVIDENCE)",0,C,,
02907NTRNT7NINI,-71.437,41.803999999999995,False,44,007,001400,44,44007,44007001400,1400000US44007001400,"INTERNATIONAL ETCHING,INC.",7 NINIGRET AVE,PROVIDENCE,RI,2907,"INTERNATIONAL ETCHING,INC..7 NINIGRET AVE, PROVIDENCE RHODE ISLAND 02907 (PROVIDENCE)",0,C,,110000312956
02907PLGRM120SP,-71.453,41.976000000000006,False,44,007,011402,44,44007,44007011402,1400000US44007011402,PILGRIM SCREW CORP,120 SPRAGUE ST,PROVIDENCE,RI,2907,"PILGRIM SCREW CORP.120 SPRAGUE ST, PROVIDENCE RHODE ISLAND 02907 (PROVIDENCE)",0,C,,110000312974
02864TFFNY300MA,-71.459,42.003,False,44,007,011402,44,44007,44007011402,1400000US44007011402,TIFFANY & CO,300 MAPLE RIDGE DR,CUMBERLAND,RI,2864,"TIFFANY & CO.300 MAPLE RIDGE DR, CUMBERLAND RHODE ISLAND 02864 (PROVIDENCE)",0,C,,110070037152
02908MPCNC335VA,-71.439,41.826,False,44,007,002200,44,44007,44007002200,1400000US44007002200,IMPCO INC,335 VALLEY ST,PROVIDENCE,RI,2908,"IMPCO INC.335 VALLEY ST, PROVIDENCE RHODE ISLAND 02908 (PROVIDENCE)",0,C,,
02908GJJWL52RIV,-71.436,41.82899999999999,False,44,007,002200,44,44007,44007002200,1400000US44007002200,G & J JEWELRY,52 RIVER AVE,PROVIDENCE,RI,2908,"G & J JEWELRY.52 RIVER AVE, PROVIDENCE RHODE ISLAND 02908 (PROVIDENCE)",0,C,,
02909GPRVD586AT,-71.436,41.825,False,44,007,002500,44,44007,44007002500,1400000US44007002500,GE PROVIDENCE BASE PLANT,586 ATWELLS AVE,PROVIDENCE,RI,2909,"GE PROVIDENCE BASE PLANT.586 ATWELLS AVE, PROVIDENCE RHODE ISLAND 02909 (PROVIDENCE)",0,C,,
02909NCSMN623AT,-71.438,41.825,False,44,007,002500,44,44007,44007002500,1400000US44007002500,UNCAS MFG CO,623 ATWELLS AVE,PROVIDENCE,RI,2909,"UNCAS MFG CO.623 ATWELLS AVE, PROVIDENCE RHODE ISLAND 02909 (PROVIDENCE)",0,C,,
02909STRNW498KI,-71.433,41.827,False,44,007,002500,44,44007,44007002500,1400000US44007002500,EASTERN WIRE PRODUCTS CO,498 KINSLEY AVE,PROVIDENCE,RI,2909,"EASTERN WIRE PRODUCTS CO.498 KINSLEY AVE, PROVIDENCE RHODE ISLAND 02909 (PROVIDENCE)",0,C,,
02908MCRFN555VA,-71.431,41.83,False,44,007,002500,44,44007,44007002500,1400000US44007002500,MICROFIN CORP,555 VALLEY ST,PROVIDENCE,RI,2908,"MICROFIN CORP.555 VALLEY ST, PROVIDENCE RHODE ISLAND 02908 (PROVIDENCE)",0,C,,
02909RCNMS400HA,-71.434,41.825,False,44,007,002500,44,44007,44007002500,1400000US44007002500,ARCONIUM SPECIALTY ALLOYS,400 HARRIS AVE,PROVIDENCE,RI,2909,"ARCONIUM SPECIALTY ALLOYS.400 HARRIS AVE, PROVIDENCE RHODE ISLAND 02909 (PROVIDENCE)",0,C,,
02909STRLL50SIM,-71.434,41.827,False,44,007,002500,44,44007,44007002500,1400000US44007002500,OSTER ALLOYS,50 SIMS AVE,PROVIDENCE,RI,2909,"OSTER ALLOYS.50 SIMS AVE, PROVIDENCE RHODE ISLAND 02909 (PROVIDENCE)",0,C,,
02909RCNMS50SIM,-71.434,41.827,False,44,007,002500,44,44007,44007002500,1400000US44007002500,UMICORE THIN FILM PRODUCTS,50 SIMS AVE,PROVIDENCE,RI,2909,"UMICORE THIN FILM PRODUCTS.50 SIMS AVE, PROVIDENCE RHODE ISLAND 02909 (PROVIDENCE)",0,C,,110000313018
02909MPRLP25MAN,-71.444,41.817,False,44,007,001900,44,44007,44007001900,1400000US44007001900,CATHEDRAL ART METAL CO INC.,25 MANTON AVE,PROVIDENCE,RI,2909,"CATHEDRAL ART METAL CO INC..25 MANTON AVE, PROVIDENCE RHODE ISLAND 02909 (PROVIDENCE)",0,C,,110000312260
02909STRTR58CUR,-71.45,41.821999999999996,False,44,007,001900,44,44007,44007001900,1400000US44007001900,STAR-TRON CORP,58 CURTIS ST,PROVIDENCE,RI,2909,"STAR-TRON CORP.58 CURTIS ST, PROVIDENCE RHODE ISLAND 02909 (PROVIDENCE)",0,C,,
02909VCTRY50AGN,-71.443,41.815,False,44,007,001600,44,44007,44007001600,1400000US44007001600,VICTORY PEARL INC,50 AGNES ST,PROVIDENCE,RI,2909,"VICTORY PEARL INC.50 AGNES ST, PROVIDENCE RHODE ISLAND 02909 (PROVIDENCE)",0,C,,
02909NSSNS71TRO,-71.442,41.815,False,44,007,001600,44,44007,44007001600,1400000US44007001600,EUNIS & SONS POLISHING CO,71 TROY ST,PROVIDENCE,RI,2909,"EUNIS & SONS POLISHING CO.71 TROY ST, PROVIDENCE RHODE ISLAND 02909 (PROVIDENCE)",1,C,,
02909LCTRN204HA,-71.449,41.817,False,44,007,001600,44,44007,44007001600,1400000US44007001600,"ELECTRONIC PRECISION CIRCUITRY, INC",204 HARTFORD AVE,PROVIDENCE,RI,2909,"ELECTRONIC PRECISION CIRCUITRY, INC.204 HARTFORD AVE, PROVIDENCE RHODE ISLAND 02909 (PROVIDENCE)",1,C,,
02910HYSHT800WE,-71.428,41.766999999999996,False,44,007,013800,44,44007,44007013800,1400000US44007013800,SPECTRUM THERMAL PROCESSING LLC,818 WELLINGTON AVE,CRANSTON,RI,2910,"SPECTRUM THERMAL PROCESSING LLC.818 WELLINGTON AVE, CRANSTON RHODE ISLAND 02910 (PROVIDENCE)",0,C,,110000313036
02910RHDSL50BUR,-71.44800000000001,41.793,False,44,007,014100,44,44007,44007014100,1400000US44007014100,"RHODE ISLAND INSULATED WIRE, UNIT OF AMER INSULATED WIRE",50 BURNHAM AV,CRANSTON,RI,2910,"RHODE ISLAND INSULATED WIRE, UNIT OF AMER INSULATED WIRE.50 BURNHAM AV, CRANSTON RHODE ISLAND 02910 (PROVIDENCE)",1,C,,
02910TCHNC1SPEC,-71.445,41.792,False,44,007,014100,44,44007,44007014100,1400000US44007014100,TECHNIC INC,1 SPECTACLE ST,CRANSTON,RI,2910,"TECHNIC INC.1 SPECTACLE ST, CRANSTON RHODE ISLAND 02910 (PROVIDENCE)",0,C,,110000313072
02920TCNCC1160C,-71.45,41.795,False,44,007,014100,44,44007,44007014100,1400000US44007014100,TACO INC - CRANSTON,1160 CRANSTON ST,CRANSTON,RI,2920,"TACO INC - CRANSTON.1160 CRANSTON ST, CRANSTON RHODE ISLAND 02920 (PROVIDENCE)",0,C,,110012482713
02910SCTTB1637E,-71.425,41.768,False,44,007,013600,44,44007,44007013600,1400000US44007013600,SCOTT BRASS INC,1637 ELMWOOD AVE,CRANSTON,RI,2910,"SCOTT BRASS INC.1637 ELMWOOD AVE, CRANSTON RHODE ISLAND 02910 (PROVIDENCE)",0,C,,110000313054
02910TRBRT1370E,-71.423,41.773,False,44,007,013600,44,44007,44007013600,1400000US44007013600,TRI-BRO TOOL CO INC,1370 ELMWOOD AVE,CRANSTON,RI,2910,"TRI-BRO TOOL CO INC.1370 ELMWOOD AVE, CRANSTON RHODE ISLAND 02910 (PROVIDENCE)",0,C,,
02910PLYCH20FIF,-71.425,41.763000000000005,False,44,007,013600,44,44007,44007013600,1400000US44007013600,POLYCHEM CORP,20 5TH AVE,CRANSTON,RI,2910,"POLYCHEM CORP.20 5TH AVE, CRANSTON RHODE ISLAND 02910 (PROVIDENCE)",0,C,,
02910TBZXX20AVE,-71.429,41.761,False,44,007,013600,44,44007,44007013600,1400000US44007013600,AUTOBRAZE,20 AVERY RD,CRANSTON,RI,29105602,"AUTOBRAZE.20 AVERY RD, CRANSTON RHODE ISLAND 02910 (PROVIDENCE)",0,C,,
02905CHMPK167MI,-71.414,41.766000000000005,False,44,007,013600,44,44007,44007013600,1400000US44007013600,SAFETY-KLEEN SYSTEMS INC,167 MILL ST,CRANSTON,RI,2905,"SAFETY-KLEEN SYSTEMS INC.167 MILL ST, CRANSTON RHODE ISLAND 02905 (PROVIDENCE)",0,C,,110000312849
02910NTYTC72FEN,-71.42399999999999,41.773999999999994,False,44,007,013600,44,44007,44007013600,1400000US44007013600,ANTAYA TECHNOLOGIES CORP,72 FENNER ST,CRANSTON,RI,2910,"ANTAYA TECHNOLOGIES CORP.72 FENNER ST, CRANSTON RHODE ISLAND 02910 (PROVIDENCE)",1,C,,110002087642
02910MSLCT1515E,-71.425,41.766999999999996,False,44,007,013600,44,44007,44007013600,1400000US44007013600,UMICORE TECHNICAL MATERIALS NORTH AMERICA INC,1515 ELMWOOD AVE,CRANSTON,RI,29103800,"UMICORE TECHNICAL MATERIALS NORTH AMERICA INC.1515 ELMWOOD AVE, CRANSTON RHODE ISLAND 02910 (PROVIDENCE)",0,C,,110009444182
02911FRNCC1800S,-71.472,41.855,False,44,007,012000,44,44007,44007012000,1400000US44007012000,F RONCI CO INC,1800 SMITH ST,NORTH PROVIDENCE,RI,2911,"F RONCI CO INC.1800 SMITH ST, NORTH PROVIDENCE RHODE ISLAND 02911 (PROVIDENCE)",0,C,,
02911FRNND184WO,-71.475,41.84,False,44,007,012102,44,44007,44007012102,1400000US44007012102,FERNANDO ORIGINALS,184 WOONASQUATUCKET AVE,NORTH PROVIDENCE,RI,2911,"FERNANDO ORIGINALS.184 WOONASQUATUCKET AVE, NORTH PROVIDENCE RHODE ISLAND 02911 (PROVIDENCE)",0,C,,
02911THNWN19HUM,-71.475,41.845,False,44,007,012102,44,44007,44007012102,1400000US44007012102,NEW ANNEX PLATING INC,19 HUMBERT ST,NORTH PROVIDENCE,RI,2911,"NEW ANNEX PLATING INC.19 HUMBERT ST, NORTH PROVIDENCE RHODE ISLAND 02911 (PROVIDENCE)",0,C,,
02911VLRCR330WO,-71.477,41.845,False,44,007,012102,44,44007,44007012102,1400000US44007012102,VOLARE CREATIONS INC,330 WOONASQUATUCKET AVE,NORTH PROVIDENCE,RI,2911,"VOLARE CREATIONS INC.330 WOONASQUATUCKET AVE, NORTH PROVIDENCE RHODE ISLAND 02911 (PROVIDENCE)",0,C,,
02911SRNGT1GREY,-71.492,41.865,False,44,007,012300,44,44007,44007012300,1400000US44007012300,INDUPLATE LLC,1 GREYSTONE DR,NORTH PROVIDENCE,RI,2911,"INDUPLATE LLC.1 GREYSTONE DR, NORTH PROVIDENCE RHODE ISLAND 02911 (PROVIDENCE)",0,C,,110000313090
02911WRCSTGREYS,-71.492,41.865,False,44,007,012300,44,44007,44007012300,1400000US44007012300,WORCESTER CO,1 GREYSTONE AVE,NORTH PROVIDENCE,RI,2911,"WORCESTER CO.1 GREYSTONE AVE, NORTH PROVIDENCE RHODE ISLAND 02911 (PROVIDENCE)",0,C,,
02912BTRSL115RA,-71.486,41.852,False,44,007,012300,44,44007,44007012300,1400000US44007012300,ABATE & URSILLO PLATING CO,115 RAILROAD AVE,JOHNSTON,RI,2919,"ABATE & URSILLO PLATING CO.115 RAILROAD AVE, JOHNSTON RHODE ISLAND 02919 (PROVIDENCE)",1,C,,
02919GTNRY100RA,-71.486,41.853,False,44,007,012300,44,44007,44007012300,1400000US44007012300,G TANURY PLATING CO,100 RAILROAD AVE,JOHNSTON,RI,2919,"G TANURY PLATING CO.100 RAILROAD AVE, JOHNSTON RHODE ISLAND 02919 (PROVIDENCE)",0,C,,
02919JMSRVGOLDS,-71.47399999999999,41.833999999999996,False,44,007,012300,44,44007,44007012300,1400000US44007012300,FIBERMARK DSI,1 GOLDSMITH ST,JOHNSTON,RI,2919,"FIBERMARK DSI.1 GOLDSMITH ST, JOHNSTON RHODE ISLAND 02919 (PROVIDENCE)",0,C,,
02919TWNLC178GE,-71.488,41.846,True,44,007,012300,44,44007,44007012300,1400000US44007012300,TOWN ELECTROPLATING CO INC,178 GEORGAE WATERMAN RD,JOHNSTON,RI,2919,"TOWN ELECTROPLATING CO INC 178 GEORGAE WATERMAN RD, JOHNSTON, RI, 2919",0,C,,
02911VNSPL50WAT,-71.486,41.86,False,44,007,012104,44,44007,44007012104,1400000US44007012104,EVANS PLATING CORP,50 WATERMAN AVE,CENTERDALE,RI,2911,"EVANS PLATING CORP.50 WATERMAN AVE, CENTERDALE RHODE ISLAND 02911 (PROVIDENCE)",0,C,,
02914BBLLC800WA,-71.35300000000001,41.81399999999999,False,44,007,010300,44,44007,44007010300,1400000US44007010300,B.A.BALLOU & CO. INC.,800 WATERMAN AVE,EAST PROVIDENCE,RI,2914,"B.A.BALLOU & CO. INC..800 WATERMAN AVE, EAST PROVIDENCE RHODE ISLAND 02914 (PROVIDENCE)",0,C,,110012481858
02914SPDLD25FAI,-71.35300000000001,41.81399999999999,False,44,007,010300,44,44007,44007010300,1400000US44007010300,TEXTRON INC SPEIDEL DIV,25 FAIRMOUNT AVE,EAST PROVIDENCE,RI,2914,"TEXTRON INC SPEIDEL DIV.25 FAIRMOUNT AVE, EAST PROVIDENCE RHODE ISLAND 02914 (PROVIDENCE)",0,C,,
02914SCCCT889WA,-71.348,41.812,False,44,007,010300,44,44007,44007010300,1400000US44007010300,SCUCCATO CORP,889 WATERMAN AVE,EAST PROVIDENCE,RI,2914,"SCUCCATO CORP.889 WATERMAN AVE, EAST PROVIDENCE RHODE ISLAND 02914 (PROVIDENCE)",0,C,,
02914PRCSN22ALM,-71.346,41.81399999999999,False,44,007,010300,44,44007,44007010300,1400000US44007010300,PRECISION ART COORDINATORS INC,22 ALMEIDA AVE,EAST PROVIDENCE,RI,2914,"PRECISION ART COORDINATORS INC.22 ALMEIDA AVE, EAST PROVIDENCE RHODE ISLAND 02914 (PROVIDENCE)",1,C,,
02914FDXXX977WA,-71.347,41.81100000000001,False,44,007,010300,44,44007,44007010300,1400000US44007010300,EFD INC,977 WATERMAN AVE,EAST PROVIDENCE,RI,2914,"EFD INC.977 WATERMAN AVE, EAST PROVIDENCE RHODE ISLAND 02914 (PROVIDENCE)",0,C,,
02914GRDNR830WA,-71.351,41.813,False,44,007,010300,44,44007,44007010300,1400000US44007010300,GARDENER SPECIALTY METALS LLC,830 WATERMAN AVE,EAST PROVIDENCE,RI,2914,"GARDENER SPECIALTY METALS LLC.830 WATERMAN AVE, EAST PROVIDENCE RHODE ISLAND 02914 (PROVIDENCE)",0,C,,
02914KNCRP199AM,-71.34899999999999,41.8,False,44,007,010501,44,44007,44007010501,1400000US44007010501,DSM COATING RESINS INC,199 AMARAL ST,EAST PROVIDENCE,RI,2915,"DSM COATING RESINS INC.199 AMARAL ST, EAST PROVIDENCE RHODE ISLAND 02915 (PROVIDENCE)",0,C,,110000313134
0291WNRDSN4CATA,-71.343,41.803000000000004,False,44,007,010501,44,44007,44007010501,1400000US44007010501,NORDSONEFD,40 CATAMORE BLVD.,EAST PROVIDENCE,RI,2914,"NORDSONEFD.40 CATAMORE BLVD., EAST PROVIDENCE RHODE ISLAND 02914 (PROVIDENCE)",0,C,,110004932912
02914LNHNT200MA,-71.37,41.82899999999999,False,44,007,010200,44,44007,44007010200,1400000US44007010200,FUJIFILM ELECTRONIC MATERIALS USA INC,200 MASSASOIT AVE,EAST PROVIDENCE,RI,2914,"FUJIFILM ELECTRONIC MATERIALS USA INC.200 MASSASOIT AVE, EAST PROVIDENCE RHODE ISLAND 02914 (PROVIDENCE)",1,C,,110000313143
02914MRCNR19GRO,-71.374,41.818999999999996,False,44,007,010200,44,44007,44007010200,1400000US44007010200,AMERICAN RING CO INC,19 GROSVENOR AVE,EAST PROVIDENCE,RI,2914,"AMERICAN RING CO INC.19 GROSVENOR AVE, EAST PROVIDENCE RHODE ISLAND 02914 (PROVIDENCE)",0,C,,
02914RGNCD7484V,-71.382,41.82,False,44,007,010200,44,44007,44007010200,1400000US44007010200,ORGANIC DYES & PIGMENTS LLC,65-84 VALLEY ST,EAST PROVIDENCE,RI,2914,"ORGANIC DYES & PIGMENTS LLC.65-84 VALLEY ST, EAST PROVIDENCE RHODE ISLAND 02914 (PROVIDENCE)",0,C,,110000313189
02914VNSFN33EAS,-71.367,41.827,False,44,007,010200,44,44007,44007010200,1400000US44007010200,EVANS FINDINGS CO,33 EASTERN AVE,EAST PROVIDENCE,RI,2914,"EVANS FINDINGS CO.33 EASTERN AVE, EAST PROVIDENCE RHODE ISLAND 02914 (PROVIDENCE)",0,C,,
02916WHTTKKINGP,-71.365,41.832,False,44,007,010200,44,44007,44007010200,1400000US44007010200,MORTON INTERNATIONAL INC EPR,KING PHILIP RD,EAST PROVIDENCE,RI,2916,"MORTON INTERNATIONAL INC EPR.KING PHILIP RD, EAST PROVIDENCE RHODE ISLAND 02916 (PROVIDENCE)",0,C,,
02914JNTTJ373TA,-71.36399999999999,41.821000000000005,False,44,007,010200,44,44007,44007010200,1400000US44007010200,JONETTE JEWELRY CO,373 TAUNTON AVE,EAST PROVIDENCE,RI,2914,"JONETTE JEWELRY CO.373 TAUNTON AVE, EAST PROVIDENCE RHODE ISLAND 02914 (PROVIDENCE)",0,C,,
02914GTTYTDEXTE,-71.37,41.832,False,44,007,010200,44,44007,44007010200,1400000US44007010200,GETTY TERMINALS CORP,DEXTER RD & MASSASOIT AVE,EAST PROVIDENCE,RI,2914,"GETTY TERMINALS CORP.DEXTER RD & MASSASOIT AVE, EAST PROVIDENCE RHODE ISLAND 02914 (PROVIDENCE)",0,C,,
0291WSPNRG3DEXT,-71.37100000000001,41.83,False,44,007,010200,44,44007,44007010200,1400000US44007010200,ASPEN AEROGELS RHODE ISLAND LLC,3 DEXTER ROAD,EAST PROVIDENCE,RI,2914,"ASPEN AEROGELS RHODE ISLAND LLC.3 DEXTER ROAD, EAST PROVIDENCE RHODE ISLAND 02914 (PROVIDENCE)",0,C,,110001663101
0291WSPRGS1DEXT,-71.37,41.832,False,44,007,010200,44,44007,44007010200,1400000US44007010200,SPRAGUE EAST PROVIDENCE TERMINAL,100 DEXTER RD,EAST PROVIDENCE,RI,2914,"SPRAGUE EAST PROVIDENCE TERMINAL.100 DEXTER RD, EAST PROVIDENCE RHODE ISLAND 02914 (PROVIDENCE)",0,C,,110032893947
02915TRFRK3400P,-71.363,41.781000000000006,False,44,007,010502,44,44007,44007010502,1400000US44007010502,MONET GROUP INC,3400 PAWTUCKET AVE,EAST PROVIDENCE,RI,2915,"MONET GROUP INC.3400 PAWTUCKET AVE, EAST PROVIDENCE RHODE ISLAND 02915 (PROVIDENCE)",0,C,,
02914MBLLS1001W,-71.344,41.788000000000004,False,44,007,010502,44,44007,44007010502,1400000US44007010502,EXXONMOBIL OIL CORP EAST PROVIDENCE TERMINAL,1001 WAMPANOAG TRAIL,EAST PROVIDENCE,RI,2915,"EXXONMOBIL OIL CORP EAST PROVIDENCE TERMINAL.1001 WAMPANOAG TRAIL, EAST PROVIDENCE RHODE ISLAND 02915 (PROVIDENCE)",0,C,,110000313152
02916FCLTCPOBOX,-71.35300000000001,41.838,False,44,007,010102,44,44007,44007010102,1400000US44007010102,FACILE HOLDINGS INC,171 GREENWOOD AVE,RUMFORD,RI,2916,"FACILE HOLDINGS INC.171 GREENWOOD AVE, RUMFORD RHODE ISLAND 02916 (PROVIDENCE)",0,C,,
02916FRTNC54TAY,-71.34899999999999,41.855,False,44,007,010102,44,44007,44007010102,1400000US44007010102,FORT INC,54 TAYLOR DR,EAST PROVIDENCE,RI,2916,"FORT INC.54 TAYLOR DR, EAST PROVIDENCE RHODE ISLAND 02916 (PROVIDENCE)",0,C,,
02916NYMNM275FE,-71.35,41.85,False,44,007,010102,44,44007,44007010102,1400000US44007010102,HUHTAMAKI EAST PROVIDENCE,275 FERRIS AVE,EAST PROVIDENCE,RI,2916,"HUHTAMAKI EAST PROVIDENCE.275 FERRIS AVE, EAST PROVIDENCE RHODE ISLAND 02916 (PROVIDENCE)",0,C,,
02916TNYCR320NA,-71.345,41.857,False,44,007,010102,44,44007,44007010102,1400000US44007010102,TANYA CREATIONS INC,320 NARRAGANSETT PARK DR,EAST PROVIDENCE,RI,2914,"TANYA CREATIONS INC.320 NARRAGANSETT PARK DR, EAST PROVIDENCE RHODE ISLAND 02914 (PROVIDENCE)",0,C,,
0291WNTYTC181NA,-71.348,41.858000000000004,False,44,007,010102,44,44007,44007010102,1400000US44007010102,ANTAYA TECHNOLOGIES CORP,181 NARRAGANSETT PARK DR,EAST PROVIDENCE,RI,2916,"ANTAYA TECHNOLOGIES CORP.181 NARRAGANSETT PARK DR, EAST PROVIDENCE RHODE ISLAND 02916 (PROVIDENCE)",1,C,,110044831527
02916HNDYH231FE,-71.358,41.85,False,44,007,010101,44,44007,44007010101,1400000US44007010101,INTERPLEX ENGINEERED PRODUCTS,231 FERRIS AVE,EAST PROVIDENCE,RI,2916,"INTERPLEX ENGINEERED PRODUCTS.231 FERRIS AVE, EAST PROVIDENCE RHODE ISLAND 02916 (PROVIDENCE)",0,C,,110010955154
02916LLDFT10NEW,-71.361,41.855,False,44,007,010101,44,44007,44007010101,1400000US44007010101,ALLIED-SIGNAL FILTER & SPARK PLUG GROUP,10 NEW RD,RUMFORD,RI,29162000,"ALLIED-SIGNAL FILTER & SPARK PLUG GROUP.10 NEW RD, RUMFORD RHODE ISLAND 02916 (PROVIDENCE)",0,C,,
02916CNSTT300BO,-71.368,41.843,False,44,007,010101,44,44007,44007010101,1400000US44007010101,OCEAN STATE STEEL INC,300 BOURNE AVE,EAST PROVIDENCE,RI,29164916,"OCEAN STATE STEEL INC.300 BOURNE AVE, EAST PROVIDENCE RHODE ISLAND 02916 (PROVIDENCE)",0,C,,
02916MNRCH10NEW,-71.361,41.855,False,44,007,010101,44,44007,44007010101,1400000US44007010101,MONARCH INDUSTRIES INC,10 NEW RD,EAST PROVIDENCE,RI,2916,"MONARCH INDUSTRIES INC.10 NEW RD, EAST PROVIDENCE RHODE ISLAND 02916 (PROVIDENCE)",0,C,,
02917FRDRC20IND,-71.55,41.916000000000004,False,44,007,012601,44,44007,44007012601,1400000US44007012601,FREDERICK GUMM CHEMICAL CO NEW ENGLAND DIV,20 INDUSTRIAL DR,SMITHFIELD,RI,29171596,"FREDERICK GUMM CHEMICAL CO NEW ENGLAND DIV.20 INDUSTRIAL DR, SMITHFIELD RHODE ISLAND 02917 (PROVIDENCE)",0,C,,
02917FBRGL960DO,-71.51899999999999,41.915,False,44,007,012601,44,44007,44007012601,1400000US44007012601,FIBERGLASS FABRICATORS INC,964 DOUGLAS PIKE,SMITHFIELD,RI,2917,"FIBERGLASS FABRICATORS INC.964 DOUGLAS PIKE, SMITHFIELD RHODE ISLAND 02917 (PROVIDENCE)",0,C,,110000313223
02917CRYST6INDU,-71.54899999999999,41.916000000000004,False,44,007,012601,44,44007,44007012601,1400000US44007012601,CRYSTALITE EMBEDMENTS INC,6 INDUSTRIAL DR,SMITHFIELD,RI,2917,"CRYSTALITE EMBEDMENTS INC.6 INDUSTRIAL DR, SMITHFIELD RHODE ISLAND 02917 (PROVIDENCE)",0,C,,
0291WSPRNY1THUR,-71.517,41.912,False,44,007,012601,44,44007,44007012601,1400000US44007012601,HONEYWELL SAFETY PRODUCTS,10 THURBER BLVD,SMITHFIELD,RI,2917,"HONEYWELL SAFETY PRODUCTS.10 THURBER BLVD, SMITHFIELD RHODE ISLAND 02917 (PROVIDENCE)",0,C,,110043693679
02917GRHMTRT123,-71.484,41.919,False,44,007,012602,44,44007,44007012602,1400000US44007012602,LENOX INC (DBA GORHAM),270 JENCKES HILL RD,SMITHFIELD,RI,29171947,"LENOX INC (DBA GORHAM).270 JENCKES HILL RD, SMITHFIELD RHODE ISLAND 02917 (PROVIDENCE)",0,C,,
02917JBCND430DO,-71.492,41.891999999999996,False,44,007,012602,44,44007,44007012602,1400000US44007012602,JIBCO INDUSTRIES,430 DOUGLAS PIKE,SMITHFIELD,RI,2917,"JIBCO INDUSTRIES.430 DOUGLAS PIKE, SMITHFIELD RHODE ISLAND 02917 (PROVIDENCE)",0,C,,
02917PCQLT40MAP,-71.501,41.876000000000005,False,44,007,012602,44,44007,44007012602,1400000US44007012602,P & C QUALITY TURNED COMPONENTS INC,40 MAPLE AVE,ESMOND,RI,29170701,"P & C QUALITY TURNED COMPONENTS INC.40 MAPLE AVE, ESMOND RHODE ISLAND 02917 (PROVIDENCE)",0,C,,
02917MSXXX2ESMO,-71.501,41.879,False,44,007,012602,44,44007,44007012602,1400000US44007012602,MSA,2 ESMOND ST,ESMOND,RI,29170702,"MSA.2 ESMOND ST, ESMOND RHODE ISLAND 02917 (PROVIDENCE)",0,C,,
02917STNDR3SPRA,-71.54,41.885,False,44,007,012701,44,44007,44007012701,1400000US44007012701,STANDARD SPRAY CO INC,3 SPRAGUEVILLE RD,SMITHFIELD,RI,2917,"STANDARD SPRAY CO INC.3 SPRAGUEVILLE RD, SMITHFIELD RHODE ISLAND 02917 (PROVIDENCE)",0,C,,
02919QLTXN19IND,-71.509,41.824,False,44,007,012200,44,44007,44007012200,1400000US44007012200,QUALITEX INC,19 INDUSTRIAL LN,JOHNSTON,RI,2919,"QUALITEX INC.19 INDUSTRIAL LN, JOHNSTON RHODE ISLAND 02919 (PROVIDENCE)",0,C,,
02919TRJYC2INDU,-71.509,41.824,False,44,007,012200,44,44007,44007012200,1400000US44007012200,TRI-JAY CO,2 INDUSTRIAL LN,JOHNSTON,RI,2919,"TRI-JAY CO.2 INDUSTRIAL LN, JOHNSTON RHODE ISLAND 02919 (PROVIDENCE)",0,C,,110000819990
02920RDNJR10IND,-71.509,41.824,False,44,007,012200,44,44007,44007012200,1400000US44007012200,ARDEN JEWELRY MANUFACTURING CO INC,10 INDUSTRIAL LN,JOHNSTON,RI,2919,"ARDEN JEWELRY MANUFACTURING CO INC.10 INDUSTRIAL LN, JOHNSTON RHODE ISLAND 02919 (PROVIDENCE)",0,C,,
02919RNJWL1INDU,-71.509,41.824,False,44,007,012200,44,44007,44007012200,1400000US44007012200,RO-AN JEWELRY INC,1 INDL LN,JOHNSTON,RI,2919,"RO-AN JEWELRY INC.1 INDL LN, JOHNSTON RHODE ISLAND 02919 (PROVIDENCE)",0,C,,
02919MRDSP27MIL,-71.521,41.828,True,44,007,012200,44,44007,44007012200,1400000US44007012200,MARO DISPLAY INC,27 MILL ST,JOHNSTON,RI,2919,"MARO DISPLAY INC 27 MILL ST, JOHNSTON, RI, 2919",0,C,,
02919STGRN2032P,-71.51,41.788999999999994,False,44,007,012500,44,44007,44007012500,1400000US44007012500,EAST GREENWICH/BROWN DAIRY,2032 PLAINFIELD PIKE,GARDEN CITY,RI,2921,"EAST GREENWICH/BROWN DAIRY.2032 PLAINFIELD PIKE, GARDEN CITY RHODE ISLAND 02921 (PROVIDENCE)",0,C,,
02919NQPLT66MIL,-71.488,41.79600000000001,False,44,007,012500,44,44007,44007012500,1400000US44007012500,UNIQUE PLATING CO,66 MILL ST,JOHNSTON,RI,2919,"UNIQUE PLATING CO.66 MILL ST, JOHNSTON RHODE ISLAND 02919 (PROVIDENCE)",0,C,,
02919QKRPR20STA,-71.488,41.798,False,44,007,012500,44,44007,44007012500,1400000US44007012500,QUAKER PRECISION COATINGS INC,20 STARR ST PROVIDENCE,JOHNSTON,RI,2919,"QUAKER PRECISION COATINGS INC.20 STARR ST PROVIDENCE, JOHNSTON RHODE ISLAND 02919 (PROVIDENCE)",0,C,,
02920BNCXXFOURS,-71.453,41.742,False,44,007,014200,44,44007,44007014200,1400000US44007014200,UBIO INC,FOUR SHARPE DR,CRANSTON,RI,29204410,"UBIO INC.FOUR SHARPE DR, CRANSTON RHODE ISLAND 02920 (PROVIDENCE)",0,C,,
02920GNNNS33KEN,-71.45100000000001,41.742,False,44,007,014200,44,44007,44007014200,1400000US44007014200,GANNON & SCOTT,33 KENNEY DR,CRANSTON,RI,2920,"GANNON & SCOTT.33 KENNEY DR, CRANSTON RHODE ISLAND 02920 (PROVIDENCE)",0,C,,110000313287
02920MNTRC21SLA,-71.45100000000001,41.746,False,44,007,014200,44,44007,44007014200,1400000US44007014200,MINIATURE CASTING CORP,21 SLATER RD,CRANSTON,RI,29204458,"MINIATURE CASTING CORP.21 SLATER RD, CRANSTON RHODE ISLAND 02920 (PROVIDENCE)",0,C,,
02920PPSCL1400P,-71.454,41.747,False,44,007,014200,44,44007,44007014200,1400000US44007014200,PEPSI BOTTLING GROUP CRANSTON RI,1400 PONTIAC AVE,CRANSTON,RI,29204460,"PEPSI BOTTLING GROUP CRANSTON RI.1400 PONTIAC AVE, CRANSTON RHODE ISLAND 02920 (PROVIDENCE)",0,C,,110000499327
02920SLNNM41SLA,-71.44800000000001,41.747,False,44,007,014200,44,44007,44007014200,1400000US44007014200,ISELANN-MOSS INDUSTRIES INC,41 SLATER RD,CRANSTON,RI,2920,"ISELANN-MOSS INDUSTRIES INC.41 SLATER RD, CRANSTON RHODE ISLAND 02920 (PROVIDENCE)",0,C,,
02920SWRVS1KENN,-71.456,41.743,False,44,007,014200,44,44007,44007014200,1400000US44007014200,SWAROVSKI NA LTD,1 KENNEY DR,CRANSTON,RI,2920,"SWAROVSKI NA LTD.1 KENNEY DR, CRANSTON RHODE ISLAND 02920 (PROVIDENCE)",0,C,,110000313296
02920GGSLL50SHA,-71.455,41.74,False,44,007,014200,44,44007,44007014200,1400000US44007014200,JOHN CRANE INC,50 SHARPE DR,CRANSTON,RI,2920,"JOHN CRANE INC.50 SHARPE DR, CRANSTON RHODE ISLAND 02920 (PROVIDENCE)",0,C,,110000313278
02920KYTCH30KEN,-71.453,41.742,False,44,007,014200,44,44007,44007014200,1400000US44007014200,KEY TECH INC,30 KENNEY DR,CRANSTON,RI,2920,"KEY TECH INC.30 KENNEY DR, CRANSTON RHODE ISLAND 02920 (PROVIDENCE)",0,C,,
02920MXXXX25KEN,-71.453,41.742,False,44,007,014200,44,44007,44007014200,1400000US44007014200,AIM PRODUCTS,25 KENNEY DR,CRANSTON,RI,2920,"AIM PRODUCTS.25 KENNEY DR, CRANSTON RHODE ISLAND 02920 (PROVIDENCE)",0,C,,
02920TFFNY4KENN,-71.45,41.74100000000001,False,44,007,014200,44,44007,44007014200,1400000US44007014200,TIFFANY & CO,40 KENNEY DR,CRANSTON,RI,2920,"TIFFANY & CO.40 KENNEY DR, CRANSTON RHODE ISLAND 02920 (PROVIDENCE)",0,C,,110015322159
02920BRCNN1318C,-71.458,41.792,False,44,007,014700,44,44007,44007014700,1400000US44007014700,"BERCEN, INC.",1381 CRANSTON ST,CRANSTON,RI,2920,"BERCEN, INC..1381 CRANSTON ST, CRANSTON RHODE ISLAND 02920 (PROVIDENCE)",0,C,,110016692408
02920CRNST1381C,-71.458,41.792,False,44,007,014700,44,44007,44007014700,1400000US44007014700,CRANSTON PRINT WORKS CO  CRANSTON DIV,1381 CRANSTON ST,CRANSTON,RI,2920,"CRANSTON PRINT WORKS CO  CRANSTON DIV.1381 CRANSTON ST, CRANSTON RHODE ISLAND 02920 (PROVIDENCE)",2,C,,
02920NTYTC15IND,-71.456,41.788000000000004,False,44,007,014700,44,44007,44007014700,1400000US44007014700,ANTAYA TECHNOLOGIES CORP,15 INDUSTRIAL RD,CRANSTON,RI,2920,"ANTAYA TECHNOLOGIES CORP.15 INDUSTRIAL RD, CRANSTON RHODE ISLAND 02920 (PROVIDENCE)",1,C,,110004903588
02920DVLNC100SO,-71.456,41.755,False,44,007,013900,44,44007,44007013900,1400000US44007013900,DAVOL INC,100 SOCKANOSSETT CROSSROAD,CRANSTON,RI,29205539,"DAVOL INC.100 SOCKANOSSETT CROSSROAD, CRANSTON RHODE ISLAND 02920 (PROVIDENCE)",0,C,,
02920MRTHN16WES,-71.518,41.783,False,44,007,014600,44,44007,44007014600,1400000US44007014600,MEARTHANE PRODUCTS CORP,16 WESTERN INDUSTRIAL DR,CRANSTON,RI,2921,"MEARTHANE PRODUCTS CORP.16 WESTERN INDUSTRIAL DR, CRANSTON RHODE ISLAND 02921 (PROVIDENCE)",0,C,,110002058852
0292WPXSTC21STA,-71.528,41.788000000000004,False,44,007,014600,44,44007,44007014600,1400000US44007014600,EPOXIES ETC,21 STARLINE WAY,CRANSTON,RI,2921,"EPOXIES ETC.21 STARLINE WAY, CRANSTON RHODE ISLAND 02921 (PROVIDENCE)",0,C,,110043693688
02940STRNC35LIV,-71.40899999999999,41.842,False,44,007,003100,44,44007,44007003100,1400000US44007003100,EASTERN COLOR & CHEMICAL CO,35 LIVINGSTON ST,PROVIDENCE,RI,2904,"EASTERN COLOR & CHEMICAL CO.35 LIVINGSTON ST, PROVIDENCE RHODE ISLAND 02904 (PROVIDENCE)",0,C,,110001664574
02804SHWYL24LAU,-71.792,41.423,False,44,009,050700,44,44009,44009050700,1400000US44009050700,ASHAWAY LINE & TWINE MANUFACTURING CO,24 LAUREL ST,ASHAWAY,RI,2804,"ASHAWAY LINE & TWINE MANUFACTURING CO.24 LAUREL ST, ASHAWAY RHODE ISLAND 02804 (WASHINGTON)",0,C,,
02832CSTLP35MEC,-71.717,41.501999999999995,False,44,009,050700,44,44009,44009050700,1400000US44009050700,COASTAL PLASTICS INC,35 MECHANIC ST,HOPE VALLEY,RI,2832,"COASTAL PLASTICS INC.35 MECHANIC ST, HOPE VALLEY RHODE ISLAND 02832 (WASHINGTON)",0,C,,
02804MPRLW50CHA,-71.792,41.398999999999994,False,44,009,050700,44,44009,44009050700,1400000US44009050700,IMPERIAL WALLCOVERINGS INC,50 CHASE HILL RD,ASHAWAY,RI,2804,"IMPERIAL WALLCOVERINGS INC.50 CHASE HILL RD, ASHAWAY RHODE ISLAND 02804 (WASHINGTON)",0,C,,
02816CLCHM592AR,-71.546,41.665,False,44,003,020603,44,44003,44003020603,1400000US44003020603,CAL CHEMICAL CORP.,592 ARNOLD RD,COVENTRY,RI,2816,"CAL CHEMICAL CORP..592 ARNOLD RD, COVENTRY RHODE ISLAND 02816 (KENT)",0,C,,110000312126
02862GLNCR5SAUN,-71.374,41.882,False,44,007,016000,44,44007,44007016000,1400000US44007016000,GLENCAIRN MANUFACTURING CO,5 SAUNDERS ST,PAWTUCKET,RI,2862,"GLENCAIRN MANUFACTURING CO.5 SAUNDERS ST, PAWTUCKET RHODE ISLAND 02862 (PROVIDENCE)",0,C,,
02864STRLZCUMBE,-71.39699999999999,41.915,False,44,007,011200,44,44007,44007011200,1400000US44007011200,KENDALL HEALTHCARE PRODS CO,35 CUMBERLAND INDL RD,CUMBERLAND,RI,2864,"KENDALL HEALTHCARE PRODS CO.35 CUMBERLAND INDL RD, CUMBERLAND RHODE ISLAND 02864 (PROVIDENCE)",1,C,,
02864TKNCT2TITU,-71.39399999999999,41.901,False,44,007,011200,44,44007,44007011200,1400000US44007011200,TEKNICOTE INC,2 TITUS ST,CUMBERLAND,RI,2864,"TEKNICOTE INC.2 TITUS ST, CUMBERLAND RHODE ISLAND 02864 (PROVIDENCE)",0,C,,
02909DNCSP77PRU,-71.461,41.806999999999995,False,44,007,001700,44,44007,44007001700,1400000US44007001700,DUNC'S PLATING CO INC,77 PRUDENCE AVE,PROVIDENCE,RI,2909,"DUNC'S PLATING CO INC.77 PRUDENCE AVE, PROVIDENCE RHODE ISLAND 02909 (PROVIDENCE)",0,C,,
02910NTNNT430WE,-71.426,41.777,False,44,007,013701,44,44007,44007013701,1400000US44007013701,ANTON ENTERPRISES INC,430 WELLINGTON AVE,CRANSTON,RI,2910,"ANTON ENTERPRISES INC.430 WELLINGTON AVE, CRANSTON RHODE ISLAND 02910 (PROVIDENCE)",0,C,,
02910JHNRH400ST,-71.425,41.776,False,44,007,013701,44,44007,44007013701,1400000US44007013701,JOHN R HESS & CO INC,400 STATION ST,CRANSTON,RI,2910,"JOHN R HESS & CO INC.400 STATION ST, CRANSTON RHODE ISLAND 02910 (PROVIDENCE)",0,C,,110000313045
02828CBTCR25LAR,-71.536,41.86600000000001,False,44,007,012702,44,44007,44007012702,1400000US44007012702,"COMPOSITE TECHNICAL CERAMICS, INC",25 LARK INDUSTRIAL PKWY,GREENVILLE,RI,2828,"COMPOSITE TECHNICAL CERAMICS, INC.25 LARK INDUSTRIAL PKWY, GREENVILLE RHODE ISLAND 02828 (PROVIDENCE)",1,C,,
02864TKNRCCUMBE,-71.4,41.953,False,44,007,011401,44,44007,44007011401,1400000US44007011401,TEKNOR COLOR CO,20 INDUSTRIAL RD,CUMBERLAND,RI,2864,"TEKNOR COLOR CO.20 INDUSTRIAL RD, CUMBERLAND RHODE ISLAND 02864 (PROVIDENCE)",0,C,,
0286WTHKNT5INDU,-71.402,41.953,False,44,007,011401,44,44007,44007011401,1400000US44007011401,THE OKONITE CO INC,5 INDUSTRIAL RD,CUMBERLAND,RI,2864,"THE OKONITE CO INC.5 INDUSTRIAL RD, CUMBERLAND RHODE ISLAND 02864 (PROVIDENCE)",0,C,,110061058368
02864HLTHTJCT29,-71.4,41.954,True,44,007,011401,44,44007,44007011401,1400000US44007011401,HEALTH-TEX INC  DIAMOND HILL PLANT,JCT  295/114,CUMBERLAND,RI,2864,"HEALTH-TEX INC  DIAMOND HILL PLANT JCT  295/114, CUMBERLAND, RI, 2864",0,C,,
02817BWMFG40TEC,-71.572,41.659,False,44,003,020800,44,44003,44003020800,1400000US44003020800,IMMUNEX RHODE ISLAND CORP A SUBSIDIARY OF AMGEN INC,40 TECHNOLOGY WAY,WEST GREENWICH,RI,2817,"IMMUNEX RHODE ISLAND CORP A SUBSIDIARY OF AMGEN INC.40 TECHNOLOGY WAY, WEST GREENWICH RHODE ISLAND 02817 (KENT)",0,C,,110016754369
02883TCHNC217CH,-71.498,41.448,False,44,009,051202,44,44009,44009051202,1400000US44009051202,TECHNICAL INDUSTRIES INC,217 CHURCH ST,SOUTH KINGSTOWN,RI,2879,"TECHNICAL INDUSTRIES INC.217 CHURCH ST, SOUTH KINGSTOWN RHODE ISLAND 02879 (WASHINGTON)",0,C,,110000312616
02842FRDMY305OL,-71.279,41.538000000000004,False,44,005,040304,44,44005,44005040304,1400000US44005040304,FREEDOM YACHTS INC,305 OLIPHANT LN,MIDDLETOWN,RI,2842,"FREEDOM YACHTS INC.305 OLIPHANT LN, MIDDLETOWN RHODE ISLAND 02842 (NEWPORT)",0,C,,110012480868
02908MRCNS15CLA,-71.421,41.843,False,44,007,002700,44,44007,44007002700,1400000US44007002700,EXSIL INC,15 CLARKSON ST,PROVIDENCE,RI,2908,"EXSIL INC.15 CLARKSON ST, PROVIDENCE RHODE ISLAND 02908 (PROVIDENCE)",0,C,,110000312983
02809RDRC03MINT,-71.26,41.676,False,44,001,030800,44,44001,44001030800,1400000US44001030800,REED-RICO,3 MINTURN FARM RD,BRISTOL,RI,2809,"REED-RICO.3 MINTURN FARM RD, BRISTOL RHODE ISLAND 02809 (BRISTOL)",0,C,,110000496044
02830CNSTT1575S,-71.678,42.008,False,44,007,013001,44,44007,44007013001,1400000US44007013001,OCEAN STATE POWER,1575 SHERMAN FARM RD,HARRISVILLE,RI,2830,"OCEAN STATE POWER.1575 SHERMAN FARM RD, HARRISVILLE RHODE ISLAND 02830 (PROVIDENCE)",0,C,,110000312180
02839BLDNM1MAIN,-71.697,41.974,True,44,007,013001,44,44007,44007013001,1400000US44007013001,BOLIDEN METECH INC,1 MAIN ST,MAPLEVILLE,RI,2839,"BOLIDEN METECH INC 1 MAIN ST, MAPLEVILLE, RI, 2839",0,C,,
02852LNMCR80CIR,-71.456,41.592,False,44,009,050102,44,44009,44009050102,1400000US44009050102,FUJIFILM ELECTRONIC MATERIALS USA INC,80 CIRCUIT DR,NORTH KINGSTOWN,RI,2852,"FUJIFILM ELECTRONIC MATERIALS USA INC.80 CIRCUIT DR, NORTH KINGSTOWN RHODE ISLAND 02852 (WASHINGTON)",0,C,,110038168096
02852GRDNR512OL,-71.482,41.601000000000006,False,44,009,050102,44,44009,44009050102,1400000US44009050102,GARDENER SPECIALTY METALS LLC,512 OLD BAPTIST RD,NORTH KINGSTOWN,RI,2852,"GARDENER SPECIALTY METALS LLC.512 OLD BAPTIST RD, NORTH KINGSTOWN RHODE ISLAND 02852 (WASHINGTON)",0,C,,
02822MRGNM659SC,-71.554,41.521,False,44,009,050500,44,44009,44009050500,1400000US44009050500,MORGAN AM&T (CARBON TECH INC),659 S COUNTY TRAIL,EXETER,RI,2822,"MORGAN AM&T (CARBON TECH INC).659 S COUNTY TRAIL, EXETER RHODE ISLAND 02822 (WASHINGTON)",0,C,,
02822HRTGC535SC,-71.55,41.528,False,44,009,050500,44,44009,44009050500,1400000US44009050500,HERITAGE CONCRETE CORP,535 S COUNTY TRAIL,EXETER,RI,2822,"HERITAGE CONCRETE CORP.535 S COUNTY TRAIL, EXETER RHODE ISLAND 02822 (WASHINGTON)",0,C,,110004929178
02891DRLNG36BEA,-71.83,41.367,False,44,009,050802,44,44009,44009050802,1400000US44009050802,DARLINGTON FABRICS CORP BEACH,36 BEACH ST,WESTERLY,RI,2891,"DARLINGTON FABRICS CORP BEACH.36 BEACH ST, WESTERLY RHODE ISLAND 02891 (WASHINGTON)",0,C,,110015750187
02807BLCKS100OC,-71.566,41.174,False,44,009,041500,44,44009,44009041500,1400000US44009041500,BLOCK ISLAND POWER CO,100 OCEAN AVE,BLOCK ISLAND,RI,2807,"BLOCK ISLAND POWER CO.100 OCEAN AVE, BLOCK ISLAND RHODE ISLAND 02807 (WASHINGTON)",2,C,,110001663450
02841SNVYN1SIMO,-71.308,41.522,False,44,005,040200,44,44005,44005040200,1400000US44005040200,U.S. NAVY NAVAL STATION NEWPORT,1 SIMON PIETRI DR. BLDG. 1 ENVIRONMENTAL DEPT.,NEWPORT,RI,2841,"U.S. NAVY NAVAL STATION NEWPORT.1 SIMON PIETRI DR. BLDG. 1 ENVIRONMENTAL DEPT., NEWPORT RHODE ISLAND 02841 (NEWPORT)",0,F,,110059712583
02921PRMCN875PH,-71.485,41.762,False,44,007,014501,44,44007,44007014501,1400000US44007014501,PRM CONCRETE CORP - CRANSTON R.I. PLANT,875 PHENIX AVE,CRANSTON,RI,2921,"PRM CONCRETE CORP - CRANSTON R.I. PLANT.875 PHENIX AVE, CRANSTON RHODE ISLAND 02921 (PROVIDENCE)",0,C,,110017385006
02920CRTRP64PET,-71.499,41.764,True,44,007,014501,44,44007,44007014501,1400000US44007014501,CARTIER PLATING INC,64 PETTACONSETT AVE,CRANSTON,RI,2920,"CARTIER PLATING INC 64 PETTACONSETT AVE, CRANSTON, RI, 2920",0,C,,
02895HNYWL245RA,-71.518,42.005,False,44,007,017300,44,44007,44007017300,1400000US44007017300,HONEYWELL SENSING & CONTROL,245 RAILROAD ST,WOONSOCKET,RI,2895,"HONEYWELL SENSING & CONTROL.245 RAILROAD ST, WOONSOCKET RHODE ISLAND 02895 (PROVIDENCE)",0,C,,110004912587
02905PRTDG1128N,-71.39399999999999,41.782,False,44,007,013500,44,44007,44007013500,1400000US44007013500,PORT EDGEWOOD LTD,1128 NARRAGANSETT BLVD,CRANSTON,RI,2905,"PORT EDGEWOOD LTD.1128 NARRAGANSETT BLVD, CRANSTON RHODE ISLAND 02905 (PROVIDENCE)",0,C,,
02921NRTHS2PLAI,-71.503,41.788999999999994,False,44,007,014800,44,44007,44007014800,1400000US44007014800,HONEYWELL SAFETY PRODUCTS,2000 PLAINFIELD PIKE,CRANSTON,RI,2921,"HONEYWELL SAFETY PRODUCTS.2000 PLAINFIELD PIKE, CRANSTON RHODE ISLAND 02921 (PROVIDENCE)",0,C,,110004906558
02886MNNCH3134P,-71.453,41.7,False,44,003,022000,44,44003,44003022000,1400000US44003022000,MANN DISTRIBUTION,3134 POST RD,WARWICK,RI,2886,"MANN DISTRIBUTION.3134 POST RD, WARWICK RHODE ISLAND 02886 (KENT)",1,C,,110009440747
02840NWPRT312CN,-71.317,41.513999999999996,False,44,005,040500,44,44005,44005040500,1400000US44005040500,NEWPORT BIODIESEL INC,312 CONNELL HWY,NEWPORT,RI,2840,"NEWPORT BIODIESEL INC.312 CONNELL HWY, NEWPORT RHODE ISLAND 02840 (NEWPORT)",0,C,,110055218438
02839TKNCT2MAIN,-71.648,41.948,True,44,007,013002,44,44007,44007013002,1400000US44007013002,TEKNICOTE INC CTI DIV,2 MAIN ST,MAPLEVILLE,RI,2839,"TEKNICOTE INC CTI DIV 2 MAIN ST, MAPLEVILLE, RI, 2839",0,C,,
02888PBMNF185JE,-71.417,41.749,True,44,003,021200,44,44003,44003021200,1400000US44003021200,P & B MANUFACTURING,185 JEFFERSON BLVD,WARWICK,RI,2888,"P & B MANUFACTURING 185 JEFFERSON BLVD, WARWICK, RI, 2888",0,C,,
02907PRKLN100NI,-71.427,41.799,True,44,007,000300,44,44007,44007000300,1400000US44007000300,PARK LANE ASSOCIATES,100 NINATIC AVE,PROVIDENCE,RI,2907,"PARK LANE ASSOCIATES 100 NINATIC AVE, PROVIDENCE, RI, 2907",0,C,,
