TRIFID,LONGITUDE,LATITUDE,ESTIMATE,STATEFP,COUNTYFP,TRACTCE,STATEGEOID,COUNTYGEOID,TRACTGEOID,AFFGEOID,FACILITY_NAME,STREET,CITY,STUSPS,ZIP_CODE,FACILITY,FAC_CLOSED_IND,ASGN_FEDERAL_IND,BIA_CODE,EPA_REGISTRY_ID
57006DKTRN33132,-96.75200000000001,44.308,False,46,011,958600,46,46011,46011958600,1400000US46011958600,DAKTRONICS INC,331 32ND AVE,BROOKINGS,SD,57006,"DAKTRONICS INC.331 32ND AVE, BROOKINGS SOUTH DAKOTA 57006 (BROOKINGS)",0,C,,110000427556
57006STRCR405RA,-96.685,44.282,False,46,011,958600,46,46011,46011958600,1400000US46011958600,STAR CIRCUITS INC,405 RAILROAD ST,BROOKINGS,SD,57006,"STAR CIRCUITS INC.405 RAILROAD ST, BROOKINGS SOUTH DAKOTA 57006 (BROOKINGS)",0,C,,110000427574
57002VRSNN1VERA,-96.71700000000001,44.297,False,46,011,958600,46,46011,46011958600,1400000US46011958600,VALERO RENEWABLE FUELS LLC*,ONE VALERO PLACE,AURORA,SD,57002,"VALERO RENEWABLE FUELS LLC*.ONE VALERO PLACE, AURORA SOUTH DAKOTA 57002 (BROOKINGS)",0,C,,110043806218
5700WSTRCR2132N,-96.75200000000001,44.306000000000004,False,46,011,958600,46,46011,46011958600,1400000US46011958600,STAR CIRCUITS INC,201 32ND AVENUE,BROOKINGS,SD,57006,"STAR CIRCUITS INC.201 32ND AVENUE, BROOKINGS SOUTH DAKOTA 57006 (BROOKINGS)",0,C,,110040374911
5700WNVTRR47491,-96.709,44.297,False,46,011,958600,46,46011,46011958600,1400000US46011958600,NOVITA AURORA LLC,47491 213TH ST,AURORA,SD,57002,"NOVITA AURORA LLC.47491 213TH ST, AURORA SOUTH DAKOTA 57002 (BROOKINGS)",0,C,,110070156194
57006MCMPN60122,-96.765,44.29600000000001,False,46,011,959000,46,46011,46011959000,1400000US46011959000,3M CO BROOKINGS,601 22ND AVE S,BROOKINGS,SD,57006,"3M CO BROOKINGS.601 22ND AVE S, BROOKINGS SOUTH DAKOTA 57006 (BROOKINGS)",0,C,,110000427565
57006TWNCT101SU,-96.762,44.306000000000004,False,46,011,958900,46,46011,46011958900,1400000US46011958900,TWIN CITY FAN COS BROOKINGS,101 SUNRISE RIDGE RD S,BROOKINGS,SD,57006,"TWIN CITY FAN COS BROOKINGS.101 SUNRISE RIDGE RD S, BROOKINGS SOUTH DAKOTA 57006 (BROOKINGS)",0,C,,110000427583
57006LRSNM2333E,-96.766,44.303000000000004,False,46,011,958900,46,46011,46011958900,1400000US46011958900,LARSON MANUFACTURING CO,2333 EASTBROOK DR,BROOKINGS,SD,57006,"LARSON MANUFACTURING CO.2333 EASTBROOK DR, BROOKINGS SOUTH DAKOTA 57006 (BROOKINGS)",0,C,,
5700WTWNCT5INSB,-96.765,44.3,False,46,011,958900,46,46011,46011958900,1400000US46011958900,TWIN CITY FAN COS INSBROOK,500 INSBROOK LN,BROOKINGS,SD,57006,"TWIN CITY FAN COS INSBROOK.500 INSBROOK LN, BROOKINGS SOUTH DAKOTA 57006 (BROOKINGS)",0,C,,110070068026
57013MCCRDROUTE,-96.626,43.301,False,46,083,010200,46,46083,46083010200,1400000US46083010200,ADAMS THERMAL SYSTEMS INC.,47920 5TH ST,CANTON,SD,57013,"ADAMS THERMAL SYSTEMS INC..47920 5TH ST, CANTON SOUTH DAKOTA 57013 (LINCOLN)",0,C,,110043086157
57013FSTKPRR3BO,-96.57600000000001,43.303000000000004,False,46,083,010200,46,46083,46083010200,1400000US46083010200,FASTEK PRODUCTS INC,"RR # 3, BOX 2B",CANTON,SD,57013,"FASTEK PRODUCTS INC.RR # 3, BOX 2B, CANTON SOUTH DAKOTA 57013 (LINCOLN)",0,C,,
5701WMGLNR515NI,-96.573,43.303999999999995,False,46,083,010200,46,46083,46083010200,1400000US46083010200,OMEGA LINER CO INC,515 NOID ROAD,CANTON,SD,57013,"OMEGA LINER CO INC.515 NOID ROAD, CANTON SOUTH DAKOTA 57013 (LINCOLN)",0,C,,110070491063
57025LDKNGCORNE,-96.675,42.687,False,46,127,020200,46,46127,46127020200,1400000US46127020200,LOAD KING TRAILERS,701 E ROSE ST,ELK POINT,SD,57025,"LOAD KING TRAILERS.701 E ROSE ST, ELK POINT SOUTH DAKOTA 57025 (UNION)",0,C,,110001137065
57028TNDKT1000W,-96.61,44.045,False,46,101,959700,46,46101,46101959700,1400000US46101959700,EATON TECHNOLOGIES INC,1000 WEST ELM,FLANDREAU,SD,57028,"EATON TECHNOLOGIES INC.1000 WEST ELM, FLANDREAU SOUTH DAKOTA 57028 (MOODY)",0,C,,
57042GHLCX915SW,-97.12799999999999,43.996,False,46,079,960200,46,46079,46079960200,1400000US46079960200,MANITOU EQUIPMENT AMERICAS LLC - MADISON,915 SW 7TH ST,MADISON,SD,57042,"MANITOU EQUIPMENT AMERICAS LLC - MADISON.915 SW 7TH ST, MADISON SOUTH DAKOTA 57042 (LAKE)",0,C,,110000427627
57042PRKND300SO,-97.126,44.001000000000005,False,46,079,960200,46,46079,46079960200,1400000US46079960200,PROKO IND INC,300 S OLIVE ST,MADISON,SD,57042,"PROKO IND INC.300 S OLIVE ST, MADISON SOUTH DAKOTA 57042 (LAKE)",1,C,,
57042RSBDM111WC,-97.11399999999999,44.005,False,46,079,960200,46,46079,46079960200,1400000US46079960200,ROSEBUD MFG CO INC,111 W CENTER ST,MADISON,SD,570420409,"ROSEBUD MFG CO INC.111 W CENTER ST, MADISON SOUTH DAKOTA 57042 (LAKE)",0,C,,
57042RCTCM70112,-97.104,43.99100000000001,False,46,079,960200,46,46079,46079960200,1400000US46079960200,ARCTIC CAT INC.,701 12TH ST,MADISON,SD,57042,"ARCTIC CAT INC..701 12TH ST, MADISON SOUTH DAKOTA 57042 (LAKE)",0,C,,110000427636
57042PRSNM900SW,-97.126,44.0,False,46,079,960200,46,46079,46079960200,1400000US46079960200,PERSONA INC (MADISON),900 SW 4TH ST,MADISON,SD,57042,"PERSONA INC (MADISON).900 SW 4TH ST, MADISON SOUTH DAKOTA 57042 (LAKE)",0,C,,
57042FLCNP65SW7,-97.12100000000001,43.997,False,46,079,960200,46,46079,46079960200,1400000US46079960200,FALCON PLASTICS INC,605 SW 7TH ST,MADISON,SD,57042,"FALCON PLASTICS INC.605 SW 7TH ST, MADISON SOUTH DAKOTA 57042 (LAKE)",0,C,,110022523483
5704WGLBLPPBX46,-97.09899999999999,43.989,False,46,079,960200,46,46079,46079960200,1400000US46079960200,GLOBAL POLYMER INDUSTRIES INC,1001 SE 12TH ST,MADISON,SD,57042,"GLOBAL POLYMER INDUSTRIES INC.1001 SE 12TH ST, MADISON SOUTH DAKOTA 57042 (LAKE)",0,C,,110064459839
57058FTRLM411CE,-97.395,43.721000000000004,False,46,087,964600,46,46087,46087964600,1400000US46087964600,FETERL MANUFACTURING CORP,411 W CENTER AVE,SALEM,SD,57058,"FETERL MANUFACTURING CORP.411 W CENTER AVE, SALEM SOUTH DAKOTA 57058 (MCCOOK)",0,C,,110000427645
57062CRNDS1314W,-97.89200000000001,42.86,False,46,009,967700,46,46009,46009967700,1400000US46009967700,CHICAGO RAWHIDE OF SPRINGFIELD,1314 WALNUT ST,SPRINGFIELD,SD,57062,"CHICAGO RAWHIDE OF SPRINGFIELD.1314 WALNUT ST, SPRINGFIELD SOUTH DAKOTA 57062 (BON HOMME)",0,C,,
57071LNDLK111KA,-96.927,44.324,False,46,011,958700,46,46011,46011958700,1400000US46011958700,LAND O'LAKES,111 KASAN AVE,VOLGA,SD,57071,"LAND O'LAKES.111 KASAN AVE, VOLGA SOUTH DAKOTA 57071 (BROOKINGS)",0,C,,
57071SDKTS100CA,-96.90799999999999,44.325,False,46,011,958700,46,46011,46011958700,1400000US46011958700,SOUTH DAKOTA SOYBEAN PROCESSORS,100 CASPIAN AVE,VOLGA,SD,57071,"SOUTH DAKOTA SOYBEAN PROCESSORS.100 CASPIAN AVE, VOLGA SOUTH DAKOTA 57071 (BROOKINGS)",0,C,,110000427681
57078LMXXT2300A,-97.352,42.887,False,46,135,966200,46,46135,46135966200,1400000US46135966200,HYDRO EXTRUSION USA LLC,2500 ALUMAX RD,YANKTON,SD,57078,"HYDRO EXTRUSION USA LLC.2500 ALUMAX RD, YANKTON SOUTH DAKOTA 57078 (YANKTON)",0,C,,110000427716
57078MTRNNEASTH,-97.363,42.879,False,46,135,966200,46,46135,46135966200,1400000US46135966200,M-TRON INDUSTRIES INC,E HWY 50,YANKTON,SD,57078,"M-TRON INDUSTRIES INC.E HWY 50, YANKTON SOUTH DAKOTA 57078 (YANKTON)",0,C,,
57078DLLCTEASTH,-97.369,42.876999999999995,False,46,135,966200,46,46135,46135966200,1400000US46135966200,VISHAY-DALE ELECTRONICS,1505 E HWY 50,YANKTON,SD,57078,"VISHAY-DALE ELECTRONICS.1505 E HWY 50, YANKTON SOUTH DAKOTA 57078 (YANKTON)",0,C,,110000602429
57078HSTNG1901H,-97.346,42.887,False,46,135,966200,46,46135,46135966200,1400000US46135966200,BALDWIN FILTERS INC,1901 HASTINGS DR,YANKTON,SD,57078,"BALDWIN FILTERS INC.1901 HASTINGS DR, YANKTON SOUTH DAKOTA 57078 (YANKTON)",0,C,,110004946319
57078GHLPW900FE,-97.37200000000001,42.879,False,46,135,966200,46,46135,46135966200,1400000US46135966200,MANITOU EQUIPMENT AMERICAS LLC - YANKTON,900 FERDIG AVE,YANKTON,SD,57078,"MANITOU EQUIPMENT AMERICAS LLC - YANKTON.900 FERDIG AVE, YANKTON SOUTH DAKOTA 57078 (YANKTON)",0,C,,110000427690
5707WCNCRT221AL,-97.35600000000001,42.887,False,46,135,966200,46,46135,46135966200,1400000US46135966200,CONCRETE MATERIALS COMPANY-YANKTON,2210 ALUMAX ROAD,YANKTON,SD,57078,"CONCRETE MATERIALS COMPANY-YANKTON.2210 ALUMAX ROAD, YANKTON SOUTH DAKOTA 57078 (YANKTON)",0,C,,110012710398
57078PRTCNW21ST,-97.404,42.891000000000005,False,46,135,966302,46,46135,46135966302,1400000US46135966302,KOLBERG-PIONEER INC,700 W 21ST ST,YANKTON,SD,57078,"KOLBERG-PIONEER INC.700 W 21ST ST, YANKTON SOUTH DAKOTA 57078 (YANKTON)",0,C,,110000427725
57078WLSNTHWY81,-97.39200000000001,42.891999999999996,False,46,135,966302,46,46135,46135966302,1400000US46135966302,WILSON TRAILER CO,3602 BROADWAY HWY 81 N,YANKTON,SD,57078,"WILSON TRAILER CO.3602 BROADWAY HWY 81 N, YANKTON SOUTH DAKOTA 57078 (YANKTON)",0,C,,110000594937
5707WLMRDT224WE,-97.417,42.893,False,46,135,966302,46,46135,46135966302,1400000US46135966302,L&M RADIATOR INC,2204 W CITY LIMITS RD,YANKTON,SD,57078,"L&M RADIATOR INC.2204 W CITY LIMITS RD, YANKTON SOUTH DAKOTA 57078 (YANKTON)",0,C,,110031419230
57101MRQPX300EA,-96.72200000000001,43.604,False,46,099,000100,46,46099,46099000100,1400000US46099000100,ALAMO SMC,300 E 60TH ST N,SIOUX FALLS,SD,57104,"ALAMO SMC.300 E 60TH ST N, SIOUX FALLS SOUTH DAKOTA 57104 (MINNEHAHA)",0,C,,
57104HTCHN3401N,-96.721,43.583,False,46,099,000100,46,46099,46099000100,1400000US46099000100,HUTCHINSON TECHNOLOGY  INC,3401 N 4TH AVE,SIOUX FALLS,SD,571040768,"HUTCHINSON TECHNOLOGY  INC.3401 N 4TH AVE, SIOUX FALLS SOUTH DAKOTA 57104 (MINNEHAHA)",0,C,,
57104RVNND1810E,-96.735,43.568999999999996,False,46,099,000100,46,46099,46099000100,1400000US46099000100,RAVEN EFD,731 W ALGONQUIN ST,SIOUX FALLS,SD,57104,"RAVEN EFD.731 W ALGONQUIN ST, SIOUX FALLS SOUTH DAKOTA 57104 (MINNEHAHA)",0,C,,
57104STRMR700E4,-96.719,43.589,False,46,099,000100,46,46099,46099000100,1400000US46099000100,STARMARK CABINETRY,700 E 48TH ST N,SIOUX FALLS,SD,57104,"STARMARK CABINETRY.700 E 48TH ST N, SIOUX FALLS SOUTH DAKOTA 57104 (MINNEHAHA)",0,C,,110000427789
57117DLMNF1000W,-96.744,43.568000000000005,False,46,099,000100,46,46099,46099000100,1400000US46099000100,WOODS EQUIPMENT CO,1000 W CHEROKEE ST ATTN:  JENNIFER ELLIS,SIOUX FALLS,SD,57104,"WOODS EQUIPMENT CO.1000 W CHEROKEE ST ATTN:  JENNIFER ELLIS, SIOUX FALLS SOUTH DAKOTA 57104 (MINNEHAHA)",0,C,,110000427814
57104TRSTT1600A,-96.73299999999999,43.567,False,46,099,000100,46,46099,46099000100,1400000US46099000100,MEDALLIC ART CO LTD,1600 A AVE,SIOUX FALLS,SD,57104,"MEDALLIC ART CO LTD.1600 A AVE, SIOUX FALLS SOUTH DAKOTA 57104 (MINNEHAHA)",0,C,,
57104GRCNC3501N,-96.721,43.585,False,46,099,000100,46,46099,46099000100,1400000US46099000100,GRACO INC SIOUX FALLS,3501 N 4TH ST,SIOUX FALLS,SD,57104,"GRACO INC SIOUX FALLS.3501 N 4TH ST, SIOUX FALLS SOUTH DAKOTA 57104 (MINNEHAHA)",0,C,,110000427752
57104HTCHN2301E,-96.693,43.602,False,46,099,000100,46,46099,46099000100,1400000US46099000100,HUTCHINSON TECHNOLOGY INC,2301 E 60TH ST N,SIOUX FALLS,SD,571040768,"HUTCHINSON TECHNOLOGY INC.2301 E 60TH ST N, SIOUX FALLS SOUTH DAKOTA 57104 (MINNEHAHA)",0,C,,
57104LCTRN600E5,-96.719,43.591,False,46,099,000100,46,46099,46099000100,1400000US46099000100,ELECTRONIC SYSTEMS INC,600 E 50TH ST N,SIOUX FALLS,SD,57104,"ELECTRONIC SYSTEMS INC.600 E 50TH ST N, SIOUX FALLS SOUTH DAKOTA 57104 (MINNEHAHA)",0,C,,110004947452
57104SRFRC1201W,-96.742,43.573,False,46,099,000100,46,46099,46099000100,1400000US46099000100,US DOD USAF JOE FOSS FIELD ANG SD,1201 W ALGONQUIN ST,SIOUX FALLS,SD,57104,"US DOD USAF JOE FOSS FIELD ANG SD.1201 W ALGONQUIN ST, SIOUX FALLS SOUTH DAKOTA 57104 (MINNEHAHA)",0,F,,110004944044
57104TYCPL18NMA,-96.74799999999999,43.573,False,46,099,000100,46,46099,46099000100,1400000US46099000100,TYCO PLASTICS SIOUX FALLS,1800 N M AVE,SIOUX FALLS,SD,57104,"TYCO PLASTICS SIOUX FALLS.1800 N M AVE, SIOUX FALLS SOUTH DAKOTA 57104 (MINNEHAHA)",0,C,,
57104DSGNT612WB,-96.735,43.566,False,46,099,000100,46,46099,46099000100,1400000US46099000100,DESIGN TANKS LLC,612 W BLACKHAWK ST,SIOUX FALLS,SD,57104,"DESIGN TANKS LLC.612 W BLACKHAWK ST, SIOUX FALLS SOUTH DAKOTA 57104 (MINNEHAHA)",0,C,,110025317182
57104HNSNP161E3,-96.705,43.583999999999996,False,46,099,000100,46,46099,46099000100,1400000US46099000100,HANSON PIPE & PRECAST,1601 E 39TH ST N,SIOUX FALLS,SD,57104,"HANSON PIPE & PRECAST.1601 E 39TH ST N, SIOUX FALLS SOUTH DAKOTA 57104 (MINNEHAHA)",0,C,,110031001635
57104LTTNM600E5,-96.719,43.595,False,46,099,000100,46,46099,46099000100,1400000US46099000100,DAKTRONICS INC,600 E 54TH ST N PARK 2 B US INESS CENTER,SIOUX FALLS,SD,57104,"DAKTRONICS INC.600 E 54TH ST N PARK 2 B US INESS CENTER, SIOUX FALLS SOUTH DAKOTA 57104 (MINNEHAHA)",0,C,,110002124040
5710WDMNDM34E6T,-96.72200000000001,43.602,False,46,099,000100,46,46099,46099000100,1400000US46099000100,DIAMOND MOWERS INC,340 E 60TH ST N,SIOUX FALLS,SD,57104,"DIAMOND MOWERS INC.340 E 60TH ST N, SIOUX FALLS SOUTH DAKOTA 57104 (MINNEHAHA)",0,C,,110066987390
5710WRVNND111WA,-96.74,43.571999999999996,False,46,099,000100,46,46099,46099000100,1400000US46099000100,RAVEN INDUSTRIES INC,1101 W ALGONQUIN ST,SIOUX FALLS,SD,57104,"RAVEN INDUSTRIES INC.1101 W ALGONQUIN ST, SIOUX FALLS SOUTH DAKOTA 57104 (MINNEHAHA)",0,C,,110046539867
57102SXSTL19612,-96.726,43.551,False,46,099,000700,46,46099,46099000700,1400000US46099000700,SIOUX STEEL CO,196 1/2 E 6TH ST,SIOUX FALLS,SD,571045929,"SIOUX STEEL CO.196 1/2 E 6TH ST, SIOUX FALLS SOUTH DAKOTA 57104 (MINNEHAHA)",0,C,,
57102RVNND205EA,-96.725,43.551,False,46,099,000700,46,46099,46099000700,1400000US46099000700,RAVEN INDUSTRIES INC.,205 E 6TH ST,SIOUX FALLS,SD,57104,"RAVEN INDUSTRIES INC..205 E 6TH ST, SIOUX FALLS SOUTH DAKOTA 57104 (MINNEHAHA)",0,C,,110024423006
57104RVNND101E6,-96.726,43.551,False,46,099,000700,46,46099,46099000700,1400000US46099000700,RAVEN INDUSTRIES INC,101 E 6TH ST,SIOUX FALLS,SD,57104,"RAVEN INDUSTRIES INC.101 E 6TH ST, SIOUX FALLS SOUTH DAKOTA 57104 (MINNEHAHA)",1,C,,110016703511
57104LNDLK1501W,-96.74700000000001,43.54600000000001,False,46,099,000900,46,46099,46099000900,1400000US46099000900,LAND O'LAKES INC NEW PRODS,1501 W 10TH ST,SIOUX FALLS,SD,57104,"LAND O'LAKES INC NEW PRODS.1501 W 10TH ST, SIOUX FALLS SOUTH DAKOTA 57104 (MINNEHAHA)",0,C,,
57104MDRNP1209W,-96.743,43.562,False,46,099,000201,46,46099,46099000201,1400000US46099000201,CCL LABEL MODERN PRESS DIV,1209 W BAILEY ST,SIOUX FALLS,SD,57104,"CCL LABEL MODERN PRESS DIV.1209 W BAILEY ST, SIOUX FALLS SOUTH DAKOTA 57104 (MINNEHAHA)",0,C,,
57104NWZLN611WE,-96.74700000000001,43.555,False,46,099,000201,46,46099,46099000201,1400000US46099000201,NEW ZEALAND MILK PRODUCTS,611 W AVE N,SIOUX FALLS,SD,57104,"NEW ZEALAND MILK PRODUCTS.611 W AVE N, SIOUX FALLS SOUTH DAKOTA 57104 (MINNEHAHA)",0,C,,
57106DKTTREXIT7,-96.8,43.451,False,46,083,010101,46,46083,46083010101,1400000US46083010101,"DAKOTA TRANSPORTATION SERVICES, INC",EXIT 73 & I-29 S,SIOUX FALLS,SD,57106,"DAKOTA TRANSPORTATION SERVICES, INC.EXIT 73 & I-29 S, SIOUX FALLS SOUTH DAKOTA 57106 (LINCOLN)",0,C,,
57064DTSNC27157,-96.806,43.452,False,46,083,010101,46,46083,46083010101,1400000US46083010101,HARVARD INTEGRATIONS,27157 470TH AVE,TEA,SD,57064,"HARVARD INTEGRATIONS.27157 470TH AVE, TEA SOUTH DAKOTA 57064 (LINCOLN)",0,C,,110031296087
5710WDMNDM27134,-96.79899999999999,43.457,False,46,083,010101,46,46083,46083010101,1400000US46083010101,DIAMOND MOWERS INC,27134 S PARKLANE DR,SIOUX FALLS,SD,57106,"DIAMOND MOWERS INC.27134 S PARKLANE DR, SIOUX FALLS SOUTH DAKOTA 57106 (LINCOLN)",0,C,,110063742669
57106GGBRS4301W,-96.779,43.544,False,46,099,001001,46,46099,46099001001,1400000US46099001001,GAGE BROS CONCRETE PRODS INC,4301 W 12TH ST,SIOUX FALLS,SD,57106,"GAGE BROS CONCRETE PRODS INC.4301 W 12TH ST, SIOUX FALLS SOUTH DAKOTA 57106 (MINNEHAHA)",0,C,,110002124068
57106GLDNS101SO,-96.791,43.547,False,46,099,001001,46,46099,46099001001,1400000US46099001001,LAND O'LAKES PURINA FEED LLC - SIOUX FALLS SD,101 S MARION RD,SIOUX FALLS,SD,57107,"LAND O'LAKES PURINA FEED LLC - SIOUX FALLS SD.101 S MARION RD, SIOUX FALLS SOUTH DAKOTA 57107 (MINNEHAHA)",0,C,,110000427798
57107HRLLR5100W,-96.788,43.544,False,46,099,001001,46,46099,46099001001,1400000US46099001001,HANSEN MANUFACTURING DBA HI-ROLLER CONVEYORS,5100 W 12TH ST,SIOUX FALLS,SD,57107,"HANSEN MANUFACTURING DBA HI-ROLLER CONVEYORS.5100 W 12TH ST, SIOUX FALLS SOUTH DAKOTA 57107 (MINNEHAHA)",0,C,,110008058939
57117JHNMR1400N,-96.719,43.563,False,46,099,000300,46,46099,46099000300,1400000US46099000300,SMITHFIELD PACKAGED MEATS CORP - SIOUX FALLS,1400 N WEBER AVE,SIOUX FALLS,SD,57117,"SMITHFIELD PACKAGED MEATS CORP - SIOUX FALLS.1400 N WEBER AVE, SIOUX FALLS SOUTH DAKOTA 57117 (MINNEHAHA)",0,C,,110000427823
57117WLLNG2008N,-96.76799999999999,43.568999999999996,False,46,099,000202,46,46099,46099000202,1400000US46099000202,HOH WATER TECHNOLOGY INC,2008 N WESTPORT AVE,SIOUX FALLS,SD,57107,"HOH WATER TECHNOLOGY INC.2008 N WESTPORT AVE, SIOUX FALLS SOUTH DAKOTA 57107 (MINNEHAHA)",0,C,,110002124086
57107TMNTR3509T,-96.773,43.565,False,46,099,000202,46,46099,46099000202,1400000US46099000202,"WASTEQUIP INC, TEEM INC (DBA)",3509 W TEEM DR,SIOUX FALLS,SD,57107,"WASTEQUIP INC, TEEM INC (DBA).3509 W TEEM DR, SIOUX FALLS SOUTH DAKOTA 57107 (MINNEHAHA)",0,C,,
5710WCNCRT144NL,-96.771,43.563,False,46,099,000202,46,46099,46099000202,1400000US46099000202,CONCRETE MATERIALS COMPANY-MADISON STREET,1404 N LOUISE AVE,SIOUX FALLS,SD,57107,"CONCRETE MATERIALS COMPANY-MADISON STREET.1404 N LOUISE AVE, SIOUX FALLS SOUTH DAKOTA 57107 (MINNEHAHA)",0,C,,110062714647
57201MDCMN121AI,-97.154,44.928000000000004,False,46,029,954502,46,46029,46029954502,1400000US46029954502,MIDCOM INC,121 AIRPORT DR,WATERTOWN,SD,57201,"MIDCOM INC.121 AIRPORT DR, WATERTOWN SOUTH DAKOTA 57201 (CODINGTON)",0,C,,
57201MNNST600QU,-97.14,44.893,False,46,029,954502,46,46029,46029954502,1400000US46029954502,MINNESOTA RUBBER & PLASTICS,600 QUADEE DR,WATERTOWN,SD,57201,"MINNESOTA RUBBER & PLASTICS.600 QUADEE DR, WATERTOWN SOUTH DAKOTA 57201 (CODINGTON)",0,C,,110011680449
57201SMTHQ2601A,-97.15899999999999,44.928999999999995,False,46,029,954502,46,46029,46029954502,1400000US46029954502,MILLER ELECTRIC MANUFACTURING CO,2601 LOCKHEED AVE,WATERTOWN,SD,57201,"MILLER ELECTRIC MANUFACTURING CO.2601 LOCKHEED AVE, WATERTOWN SOUTH DAKOTA 57201 (CODINGTON)",0,C,,110000427869
57201TLLCT2813P,-97.165,44.927,False,46,029,954502,46,46029,46029954502,1400000US46029954502,TEREX TELELECT INC FGI DIV,2813 PIPER AVE,WATERTOWN,SD,57201,"TEREX TELELECT INC FGI DIV.2813 PIPER AVE, WATERTOWN SOUTH DAKOTA 57201 (CODINGTON)",0,C,,110000427878
57201TLLCT600OA,-97.137,44.895,False,46,029,954502,46,46029,46029954502,1400000US46029954502,TEREX SOUTH DAKOTA - MAIN PLANT,500 OAKWOOD RD,WATERTOWN,SD,57201,"TEREX SOUTH DAKOTA - MAIN PLANT.500 OAKWOOD RD, WATERTOWN SOUTH DAKOTA 57201 (CODINGTON)",0,C,,110000427887
57201NGSND315WA,-97.15700000000001,44.926,False,46,029,954502,46,46029,46029954502,1400000US46029954502,WORKHORSE CABS LLC DBA CRENLO ENGINEERED CABS,315 AIRPORT DR,WATERTOWN,SD,57201,"WORKHORSE CABS LLC DBA CRENLO ENGINEERED CABS.315 AIRPORT DR, WATERTOWN SOUTH DAKOTA 57201 (CODINGTON)",0,C,,110000427850
57201DKTTB221AI,-97.156,44.927,False,46,029,954502,46,46029,46029954502,1400000US46029954502,DAKOTA TUBE INC.,221 AIRPORT DR,WATERTOWN,SD,57201,"DAKOTA TUBE INC..221 AIRPORT DR, WATERTOWN SOUTH DAKOTA 57201 (CODINGTON)",0,C,,110000427832
57201PRSNN70021,-97.147,44.894,False,46,029,954502,46,46029,46029954502,1400000US46029954502,PERSONA INC,700 21ST ST SW,WATERTOWN,SD,57201,"PERSONA INC.700 21ST ST SW, WATERTOWN SOUTH DAKOTA 57201 (CODINGTON)",0,C,,
57201FLTLS505WA,-97.15899999999999,44.924,False,46,029,954502,46,46029,46029954502,1400000US46029954502,FAULTLESS-NUTTING DIV,505 W AIRPORT DR,WATERTOWN,SD,57201,"FAULTLESS-NUTTING DIV.505 W AIRPORT DR, WATERTOWN SOUTH DAKOTA 57201 (CODINGTON)",0,C,,
57201TWNCT122CE,-97.15700000000001,44.928999999999995,False,46,029,954502,46,46029,46029954502,1400000US46029954502,TWIN CITY DIE CASTINGS CO - WATERTOWN DIV,122 CESSNA ST NW,WATERTOWN,SD,57201,"TWIN CITY DIE CASTINGS CO - WATERTOWN DIV.122 CESSNA ST NW, WATERTOWN SOUTH DAKOTA 57201 (CODINGTON)",0,C,,110004947158
57201CVNCX30039,-97.163,44.891000000000005,False,46,029,954502,46,46029,46029954502,1400000US46029954502,COEV INC,3003 9TH AVENUE SW,WATERTOWN,SD,57201,"COEV INC.3003 9TH AVENUE SW, WATERTOWN SOUTH DAKOTA 57201 (CODINGTON)",0,C,,
57201MWRLD400CE,-97.162,44.926,False,46,029,954502,46,46029,46029954502,1400000US46029954502,OEM WORLDWIDE LLC,400 CESSNA ST,WATERTOWN,SD,57201,"OEM WORLDWIDE LLC.400 CESSNA ST, WATERTOWN SOUTH DAKOTA 57201 (CODINGTON)",0,C,,
57201PRSNN5154W,-97.21,44.897,False,46,029,954502,46,46029,46029954502,1400000US46029954502,PERSONA WATERTOWN WEST,5154 W HWY 212,WATERTOWN,SD,57201,"PERSONA WATERTOWN WEST.5154 W HWY 212, WATERTOWN SOUTH DAKOTA 57201 (CODINGTON)",0,C,,110064115363
57201TLLCT51021,-97.146,44.896,True,46,029,954502,46,46029,46029954502,1400000US46029954502,TELELECT INC CYLINDER PLANT,510 21ST ST,WATERTOWN,SD,57201,"TELELECT INC CYLINDER PLANT 510 21ST ST, WATERTOWN, SD, 57201",0,C,,
57201NRCPT31009,-97.065,44.89,False,46,029,954301,46,46029,46029954301,1400000US46029954301,ENERCEPT INC,3100 9TH AVE  SE,WATERTOWN,SD,572019102,"ENERCEPT INC.3100 9TH AVE  SE, WATERTOWN SOUTH DAKOTA 57201 (CODINGTON)",0,C,,
57216BGSTN1051L,-96.473,45.292,False,46,051,953100,46,46051,46051953100,1400000US46051953100,SAPUTO CHEESE USA INC,1051 LOCUST ST,BIG STONE CITY,SD,57216,"SAPUTO CHEESE USA INC.1051 LOCUST ST, BIG STONE CITY SOUTH DAKOTA 57216 (GRANT)",0,C,,
57252VLLYQ200ER,-96.637,45.221000000000004,False,46,051,953100,46,46051,46051953100,1400000US46051953100,VALLEY QUEEN CHEESE FACTORY INC,200 E RAILWAY AVE,MILBANK,SD,57252,"VALLEY QUEEN CHEESE FACTORY INC.200 E RAILWAY AVE, MILBANK SOUTH DAKOTA 57252 (GRANT)",0,C,,110000427921
57216BGSTN48450,-96.51100000000001,45.305,False,46,051,953100,46,46051,46051953100,1400000US46051953100,OTTER TAIL POWER CO BIG STONE PLANT,48450 144TH ST,BIG STONE CITY,SD,57216,"OTTER TAIL POWER CO BIG STONE PLANT.48450 144TH ST, BIG STONE CITY SOUTH DAKOTA 57216 (GRANT)",0,C,,110011493437
57216NRTHR48416,-96.51100000000001,45.301,False,46,051,953100,46,46051,46051953100,1400000US46051953100,POET BIOREFINING-BIG STONE LLC,48416 144TH ST,BIG STONE CITY,SD,57216,"POET BIOREFINING-BIG STONE LLC.48416 144TH ST, BIG STONE CITY SOUTH DAKOTA 57216 (GRANT)",0,C,,110020518992
5721WBGSTN14475,-96.49,45.291000000000004,False,46,051,953100,46,46051,46051953100,1400000US46051953100,GCC-BIG STONE CITY,14475 485TH AVE,BIG STONE CITY,SD,57216,"GCC-BIG STONE CITY.14475 485TH AVE, BIG STONE CITY SOUTH DAKOTA 57216 (GRANT)",0,C,,110055498705
57231LYLSG200IN,-97.545,44.383,False,46,077,958200,46,46077,46077958200,1400000US46077958200,LYLE SIGNS INC,200 INDUSTRIAL PARK,DE SMET,SD,57231,"LYLE SIGNS INC.200 INDUSTRIAL PARK, DE SMET SOUTH DAKOTA 57231 (KINGSBURY)",0,C,,
57248LKNRD408DA,-97.211,44.57899999999999,False,46,057,955200,46,46057,46057955200,1400000US46057955200,AGROPUR INC,408 DAKOTA ST,LAKE NORDEN,SD,57248,"AGROPUR INC.408 DAKOTA ST, LAKE NORDEN SOUTH DAKOTA 57248 (HAMLIN)",0,C,,110010952380
57274MRNJHNORTH,-97.525,45.343,False,46,037,952800,46,46037,46037952800,1400000US46037952800,MEREEN-JOHNSON MACHINE CO,N INDUSTRIAL AVE,WEBSTER,SD,57274,"MEREEN-JOHNSON MACHINE CO.N INDUSTRIAL AVE, WEBSTER SOUTH DAKOTA 57274 (DAY)",0,C,,
57274DKTFB1720C,-97.525,45.345,False,46,037,952800,46,46037,46037952800,1400000US46037952800,DAKOTA FIBERGLASS INC,1720 COMMERCE LN,WEBSTER,SD,57274,"DAKOTA FIBERGLASS INC.1720 COMMERCE LN, WEBSTER SOUTH DAKOTA 57274 (DAY)",0,C,,110002124120
57301STHDKPOBOX,-98.02,43.7,False,46,035,962900,46,46035,46035962900,1400000US46035962900,SOUTH DAKOTA CONCRETE PRODUCTS CO,901 E IVY AVE,MITCHELL,SD,573010387,"SOUTH DAKOTA CONCRETE PRODUCTS CO.901 E IVY AVE, MITCHELL SOUTH DAKOTA 57301 (DAVISON)",0,C,,
57301SYNCM1000S,-98.02,43.695,False,46,035,962900,46,46035,46035962900,1400000US46035962900,SYNCOM TECHNOLOGIES INC,1000 SYNCOM DR,MITCHELL,SD,57301,"SYNCOM TECHNOLOGIES INC.1000 SYNCOM DR, MITCHELL SOUTH DAKOTA 57301 (DAVISON)",0,C,,
57301TRLKN2200S,-98.04700000000001,43.688,False,46,035,962900,46,46035,46035962900,1400000US46035962900,TRAIL KING INDUSTRIES INC,2200 S OHLMAN ST,MITCHELL,SD,57301,"TRAIL KING INDUSTRIES INC.2200 S OHLMAN ST, MITCHELL SOUTH DAKOTA 57301 (DAVISON)",0,C,,110000427967
57301TRLKN300EA,-98.023,43.695,False,46,035,962900,46,46035,46035962900,1400000US46035962900,TRAIL KING INDUSTRIES INC,300 E NORWAY,MITCHELL,SD,57301,"TRAIL KING INDUSTRIES INC.300 E NORWAY, MITCHELL SOUTH DAKOTA 57301 (DAVISON)",0,C,,
57301DKTPR915EH,-98.014,43.702,False,46,035,962900,46,46035,46035962900,1400000US46035962900,DAKOTA PORK INDUSTRIES,915 E HAVENS,MITCHELL,SD,57301,"DAKOTA PORK INDUSTRIES.915 E HAVENS, MITCHELL SOUTH DAKOTA 57301 (DAVISON)",0,C,,
57301DKTMN1909S,-98.027,43.691,False,46,035,962900,46,46035,46035962900,1400000US46035962900,DAKOTA MFG CO INC,1909 S ROWLEY ST,MITCHELL,SD,57301,"DAKOTA MFG CO INC.1909 S ROWLEY ST, MITCHELL SOUTH DAKOTA 57301 (DAVISON)",0,C,,110000427930
57301GRPHC1700W,-98.04799999999999,43.707,False,46,035,962900,46,46035,46035962900,1400000US46035962900,GRAPHIC PACKAGING CORP,1700 WEST ASH,MITCHELL,SD,57301,"GRAPHIC PACKAGING CORP.1700 WEST ASH, MITCHELL SOUTH DAKOTA 57301 (DAVISON)",0,C,,
57301THRMSAIRPO,-98.04299999999999,43.769,False,46,035,962700,46,46035,46035962700,1400000US46035962700,THERMOSET PRODUCTS INC,5601 AIRPORT RD,MITCHELL,SD,57301,"THERMOSET PRODUCTS INC.5601 AIRPORT RD, MITCHELL SOUTH DAKOTA 57301 (DAVISON)",0,C,,
57301HNDRC5701A,-98.04299999999999,43.769,False,46,035,962700,46,46035,46035962700,1400000US46035962700,HENDRICKSON TRAILER SUSPENSION SYSTEMS,5701 AIRPORT RD,MITCHELL,SD,57301,"HENDRICKSON TRAILER SUSPENSION SYSTEMS.5701 AIRPORT RD, MITCHELL SOUTH DAKOTA 57301 (DAVISON)",0,C,,110000427958
57301TCFXLOHLMA,-98.04700000000001,43.73,False,46,035,962700,46,46035,46035962700,1400000US46035962700,TWIN CITY FAN COS MITCHELL,23RD & OHLMAN,MITCHELL,SD,57301,"TWIN CITY FAN COS MITCHELL.23RD & OHLMAN, MITCHELL SOUTH DAKOTA 57301 (DAVISON)",0,C,,110057222857
57301TRLKN5751A,-98.04299999999999,43.769,False,46,035,962700,46,46035,46035962700,1400000US46035962700,TRAIL KING INDUSTRIES INC,5751 AIRPORT RD,MITCHELL,SD,57301,"TRAIL KING INDUSTRIES INC.5751 AIRPORT RD, MITCHELL SOUTH DAKOTA 57301 (DAVISON)",1,C,,
57350DKTPR4THST,-98.19200000000001,44.361999999999995,False,46,005,957100,46,46005,46005957100,1400000US46005957100,DAKOTA PORK INDUSTRIES INC,1555 4TH ST SE,HURON,SD,57350,"DAKOTA PORK INDUSTRIES INC.1555 4TH ST SE, HURON SOUTH DAKOTA 57350 (BEADLE)",0,C,,
57350ZPFDMRTE3H,-98.17399999999999,44.363,False,46,005,957100,46,46005,46005957100,1400000US46005957100,HUBBARD FEEDS INC HURON,115 CUSTER AVE,HURON,SD,57350,"HUBBARD FEEDS INC HURON.115 CUSTER AVE, HURON SOUTH DAKOTA 57350 (BEADLE)",0,C,,110002124200
57350TLLCT601AR,-98.229,44.371,False,46,005,956800,46,46005,46005956800,1400000US46005956800,TEREX SOUTH DAKOTA INC,601 ARIZONA AVE NW,HURON,SD,57350,"TEREX SOUTH DAKOTA INC.601 ARIZONA AVE NW, HURON SOUTH DAKOTA 57350 (BEADLE)",0,C,,110000427994
57350HRNDRWESTH,-98.219,44.38399999999999,False,46,005,956800,46,46005,46005956800,1400000US46005956800,HURON DRESSED BEEF INC,WEST HWY 14,HURON,SD,57350,"HURON DRESSED BEEF INC.WEST HWY 14, HURON SOUTH DAKOTA 57350 (BEADLE)",0,C,,
57350DKTCL701LI,-98.234,44.375,False,46,005,956800,46,46005,46005956800,1400000US46005956800,DAKOTA COLD STORAGE INC,701 LINCOLN NW,HURON,SD,57350,"DAKOTA COLD STORAGE INC.701 LINCOLN NW, HURON SOUTH DAKOTA 57350 (BEADLE)",0,C,,
57350TRSSB555LI,-98.234,44.373999999999995,False,46,005,956800,46,46005,46005956800,1400000US46005956800,ASSAABLOY (DBA TRUSSBILT),555 LINCOLN AVE NW,HURON,SD,57350,"ASSAABLOY (DBA TRUSSBILT).555 LINCOLN AVE NW, HURON SOUTH DAKOTA 57350 (BEADLE)",0,C,,
57350SDKCR601LI,-98.234,44.373999999999995,False,46,005,956800,46,46005,46005956800,1400000US46005956800,MIDCOM INC,601 LINCOLN AVE NW,HURON,SD,57350,"MIDCOM INC.601 LINCOLN AVE NW, HURON SOUTH DAKOTA 57350 (BEADLE)",0,C,,
57350HRTLN694WP,-98.25299999999999,44.375,False,46,005,956800,46,46005,46005956800,1400000US46005956800,ABE SOUTH DAKOTA - HURON,694 W PARK AVE NW,HURON,SD,57350,"ABE SOUTH DAKOTA - HURON.694 W PARK AVE NW, HURON SOUTH DAKOTA 57350 (BEADLE)",0,C,,110024422622
57350BNNRN9915T,-98.21600000000001,44.385,False,46,005,956800,46,46005,46005956800,1400000US46005956800,BANNER ENGINEERING CORP,99 15TH ST NW,HURON,SD,57350,"BANNER ENGINEERING CORP.99 15TH ST NW, HURON SOUTH DAKOTA 57350 (BEADLE)",0,C,,110012704822
5735WGCCHR19213,-98.177,44.363,False,46,005,956800,46,46005,46005956800,1400000US46005956800,GCC-HURON,1921 3RD ST SE,HURON,SD,57350,"GCC-HURON.1921 3RD ST SE, HURON SOUTH DAKOTA 57350 (BEADLE)",0,C,,110010367842
5735WDKTTR28274,-98.154,44.36600000000001,False,46,005,956800,46,46005,46005956800,1400000US46005956800,DAKOTA TURKEY GROWERS,20827 403RD AVE,HURON,SD,57350,"DAKOTA TURKEY GROWERS.20827 403RD AVE, HURON SOUTH DAKOTA 57350 (BEADLE)",0,C,,110030736611
5735WTRNRT224TH,-98.21700000000001,44.37,False,46,005,956800,46,46005,46005956800,1400000US46005956800,TRUENORTH STEEL - HURON,220 4TH ST NW,HURON,SD,57350,"TRUENORTH STEEL - HURON.220 4TH ST NW, HURON SOUTH DAKOTA 57350 (BEADLE)",0,C,,110070244620
57401SHLDH715NO,-98.435,45.473,False,46,013,951400,46,46013,46013951400,1400000US46013951400,SHELDAHL INC,715 N COUNTY 19,ABERDEEN,SD,57401,"SHELDAHL INC.715 N COUNTY 19, ABERDEEN SOUTH DAKOTA 57401 (BROWN)",0,C,,
57402FMCCR33178,-98.439,45.474,False,46,013,951400,46,46013,46013951400,1400000US46013951400,FMC CORP NAVAL SYS DIV ABERDEEN FACILITY,3317 8TH AVE NE,ABERDEEN,SD,574021947,"FMC CORP NAVAL SYS DIV ABERDEEN FACILITY.3317 8TH AVE NE, ABERDEEN SOUTH DAKOTA 57402 (BROWN)",0,C,,
57401HBCTY2914I,-98.439,45.468999999999994,False,46,013,951400,46,46013,46013951400,1400000US46013951400,HUB CITY INC,2914 INDUSTRIAL AVE,ABERDEEN,SD,57401,"HUB CITY INC.2914 INDUSTRIAL AVE, ABERDEEN SOUTH DAKOTA 57401 (BROWN)",0,C,,110000428029
57401MDCMB701EN,-98.421,45.472,False,46,013,951400,46,46013,46013951400,1400000US46013951400,MIDCOM INC,701 ENTERPRISE ST N,ABERDEEN,SD,57401,"MIDCOM INC.701 ENTERPRISE ST N, ABERDEEN SOUTH DAKOTA 57401 (BROWN)",0,C,,
57401TCFRV515CO,-98.44200000000001,45.471000000000004,False,46,013,951400,46,46013,46013951400,1400000US46013951400,TWIN CITY FAN COS ABERDEEN,515 COMMERCE ST,ABERDEEN,SD,57401,"TWIN CITY FAN COS ABERDEEN.515 COMMERCE ST, ABERDEEN SOUTH DAKOTA 57401 (BROWN)",0,C,,110002124228
57401BNNRN715NC,-98.434,45.473,False,46,013,951400,46,46013,46013951400,1400000US46013951400,BANNER ENGINEERING CORP,715 N COUNTY RD 19,ABERDEEN,SD,57401,"BANNER ENGINEERING CORP.715 N COUNTY RD 19, ABERDEEN SOUTH DAKOTA 57401 (BROWN)",0,C,,110012704403
57450CSSCL44COM,-99.779,45.245,False,46,107,000100,46,46107,46107000100,1400000US46107000100,ASSOCIATED MILK PRODUCERS INC,127 COMMERCIAL AVE W,HOVEN,SD,57450,"ASSOCIATED MILK PRODUCERS INC.127 COMMERCIAL AVE W, HOVEN SOUTH DAKOTA 57450 (POTTER)",0,C,,110022521591
5744WCHSGT513EC,-99.95,45.015,False,46,107,000100,46,46107,46107000100,1400000US46107000100,CHS GETTYSBURG FEED,513 E CUSTER AVENUE,GETTYSBURG,SD,57442,"CHS GETTYSBURG FEED.513 E CUSTER AVENUE, GETTYSBURG SOUTH DAKOTA 57442 (POTTER)",0,C,,110069293062
57648MDMRCMAINS,-100.286,45.9,False,46,021,964100,46,46021,46021964100,1400000US46021964100,DAIRI CONCEPTS,104 MAIN ST,POLLOCK,SD,57648,"DAIRI CONCEPTS.104 MAIN ST, POLLOCK SOUTH DAKOTA 57648 (CAMPBELL)",0,C,,110000602063
57701GLLTT1699S,-103.177,44.07,False,46,103,010907,46,46103,46103010907,1400000US46103010907,GILLETTE DAIRY OF THE BLACK HILLS,1699 SEDIVY LN,RAPID CITY,SD,57701,"GILLETTE DAIRY OF THE BLACK HILLS.1699 SEDIVY LN, RAPID CITY SOUTH DAKOTA 57701 (PENNINGTON)",0,C,,
57709MRLLT4300S,-103.184,44.042,False,46,103,010907,46,46103,46103010907,1400000US46103010907,MIDWEST MANUFACTURING INC DBA DAKOTA PANEL,1651CULVERT ST,RAPID CITY,SD,57701,"MIDWEST MANUFACTURING INC DBA DAKOTA PANEL.1651CULVERT ST, RAPID CITY SOUTH DAKOTA 57701 (PENNINGTON)",0,C,,110010367021
57709STHDKPOBOX,-103.191,44.041000000000004,False,46,103,010907,46,46103,46103010907,1400000US46103010907,SOUTH DAKOTA CONCRETE PRODUCTS CO,4320 S HWY 79,RAPID CITY,SD,577091158,"SOUTH DAKOTA CONCRETE PRODUCTS CO.4320 S HWY 79, RAPID CITY SOUTH DAKOTA 57709 (PENNINGTON)",0,C,,
57701FRSTPRR2BO,-103.181,44.032,False,46,103,010907,46,46103,46103010907,1400000US46103010907,FOREST PRODUCTS DISTRIBUTORS INC,5400 OLD FOLSOM RD,RAPID CITY,SD,57703,"FOREST PRODUCTS DISTRIBUTORS INC.5400 OLD FOLSOM RD, RAPID CITY SOUTH DAKOTA 57703 (PENNINGTON)",0,C,,110007840408
57701HQLMN3139C,-103.18700000000001,44.055,False,46,103,010907,46,46103,46103010907,1400000US46103010907,HIQUAL MANUFACTURING USA INC,3139 CREEK DR,RAPID CITY,SD,577031453,"HIQUAL MANUFACTURING USA INC.3139 CREEK DR, RAPID CITY SOUTH DAKOTA 57703 (PENNINGTON)",0,C,,
5770WFRTRR161CU,-103.189,44.041000000000004,False,46,103,010907,46,46103,46103010907,1400000US46103010907,FORTERRA CONCRETE PRODUCTS - RAPID CITY,1601 CULVERT STREET,RAPID CITY,SD,57701,"FORTERRA CONCRETE PRODUCTS - RAPID CITY.1601 CULVERT STREET, RAPID CITY SOUTH DAKOTA 57701 (PENNINGTON)",0,C,,110069319277
5770WKGLRX165CU,-103.18700000000001,44.045,False,46,103,010907,46,46103,46103010907,1400000US46103010907,KUGLER OIL CO - RDF,1650 CULVERT ST,RAPID CITY,SD,57701,"KUGLER OIL CO - RDF.1650 CULVERT ST, RAPID CITY SOUTH DAKOTA 57701 (PENNINGTON)",0,C,,110069332074
57701LNDST405CA,-103.243,44.083999999999996,False,46,103,010200,46,46103,46103010200,1400000US46103010200,LANDSTROM'S BLACK HILLS GOLD JEWELRY,405 CANAL ST,RAPID CITY,SD,57701,"LANDSTROM'S BLACK HILLS GOLD JEWELRY.405 CANAL ST, RAPID CITY SOUTH DAKOTA 57701 (PENNINGTON)",0,C,,
57701BLCKH1330W,-103.21799999999999,44.083,False,46,103,010200,46,46103,46103010200,1400000US46103010200,BLACK HILLS PACKING CO,1330 W CHICAGO,RAPID CITY,SD,57701,"BLACK HILLS PACKING CO.1330 W CHICAGO, RAPID CITY SOUTH DAKOTA 57701 (PENNINGTON)",0,C,,
57701HBBRD426OM,-103.22399999999999,44.083,False,46,103,010200,46,46103,46103010200,1400000US46103010200,HUBBARD FEEDS INC,426 OMAHA ST,RAPID CITY,SD,57701,"HUBBARD FEEDS INC.426 OMAHA ST, RAPID CITY SOUTH DAKOTA 57701 (PENNINGTON)",0,C,,110000428083
57701SCMFG222DI,-103.21700000000001,44.105,False,46,103,011400,46,46103,46103011400,1400000US46103011400,LITTELFUSE/SYMCOM,222 DISK DR,RAPID CITY,SD,57701,"LITTELFUSE/SYMCOM.222 DISK DR, RAPID CITY SOUTH DAKOTA 57701 (PENNINGTON)",0,C,,110000428109
57702STHDK501NO,-103.272,44.09,False,46,103,011400,46,46103,46103011400,1400000US46103011400,GCC DACOTAH,501 N ST ONGE,RAPID CITY,SD,57702,"GCC DACOTAH.501 N ST ONGE, RAPID CITY SOUTH DAKOTA 57702 (PENNINGTON)",0,C,,110012173272
57702BHPLB409DE,-103.26299999999999,44.086999999999996,False,46,103,011400,46,46103,46103011400,1400000US46103011400,BLACK HILLS CORP - BEN FRENCH POWER PLANT,409 DEADWOOD AVE,RAPID CITY,SD,57701,"BLACK HILLS CORP - BEN FRENCH POWER PLANT.409 DEADWOOD AVE, RAPID CITY SOUTH DAKOTA 57701 (PENNINGTON)",0,C,,110012375599
57702PTLNS3401U,-103.281,44.11600000000001,False,46,103,011400,46,46103,46103011400,1400000US46103011400,PETE LIEN & SONS INC,3401 UNIVERSAL DR,RAPID CITY,SD,57702,"PETE LIEN & SONS INC.3401 UNIVERSAL DR, RAPID CITY SOUTH DAKOTA 57702 (PENNINGTON)",0,C,,110004948647
57702SYMCM2880N,-103.26700000000001,44.106,False,46,103,011400,46,46103,46103011400,1400000US46103011400,SYMCOM INC,2880 N PLAZA DR,RAPID CITY,SD,57702,"SYMCOM INC.2880 N PLAZA DR, RAPID CITY SOUTH DAKOTA 57702 (PENNINGTON)",1,C,,110012704831
57701LTRMX2112E,-103.15100000000001,44.107,False,46,103,011400,46,46103,46103011400,1400000US46103011400,ULTRAMAX AMMUNITION,2112 ELK VALE RD,RAPID CITY,SD,57701,"ULTRAMAX AMMUNITION.2112 ELK VALE RD, RAPID CITY SOUTH DAKOTA 57701 (PENNINGTON)",1,C,,110004949502
5770WCRLLR248DY,-103.171,44.11,False,46,103,011400,46,46103,46103011400,1400000US46103011400,CROELL 262,2480 DYESS AVE.,RAPID CITY,SD,57702,"CROELL 262.2480 DYESS AVE., RAPID CITY SOUTH DAKOTA 57702 (PENNINGTON)",0,C,,110060258493
5770WTRNRT3272L,-103.271,44.097,False,46,103,011400,46,46103,46103011400,1400000US46103011400,TRUENORTH STEEL - RAPID CITY,3272 LIEN STREET,RAPID CITY,SD,57702,"TRUENORTH STEEL - RAPID CITY.3272 LIEN STREET, RAPID CITY SOUTH DAKOTA 57702 (PENNINGTON)",0,C,,110059002145
57793WHLRC12MIL,-103.618,44.458999999999996,False,46,081,966100,46,46081,46081966100,1400000US46081966100,WHEELER LUMBER L.L.C.,HWY 14E,WHITEWOOD,SD,57793,"WHEELER LUMBER L.L.C..HWY 14E, WHITEWOOD SOUTH DAKOTA 57793 (LAWRENCE)",0,C,,110041992939
57793HBBRDPOBOX,-103.63600000000001,44.472,False,46,081,966100,46,46081,46081966100,1400000US46081966100,RIDLEY BLOCK OPERATIONS,1004 SOUTH ST,WHITEWOOD,SD,57793,"RIDLEY BLOCK OPERATIONS.1004 SOUTH ST, WHITEWOOD SOUTH DAKOTA 57793 (LAWRENCE)",0,C,,110010759447
57732SPFND2GILT,-103.70100000000001,44.318000000000005,False,46,081,966100,46,46081,46081966100,1400000US46081966100,US EPA FUND SUPERFUND SITES GILT EDGE MINE SUPERFUND SITE,11898 GILT EDGE RD,DEADWOOD,SD,57732,"US EPA FUND SUPERFUND SITES GILT EDGE MINE SUPERFUND SITE.11898 GILT EDGE RD, DEADWOOD SOUTH DAKOTA 57732 (LAWRENCE)",0,C,,110013763695
57783MWRLD125IN,-103.803,44.478,False,46,081,966100,46,46081,46081966100,1400000US46081966100,OEM WORLDWIDE LLC,125 INDUSTRIAL DR,SPEARFISH,SD,57783,"OEM WORLDWIDE LLC.125 INDUSTRIAL DR, SPEARFISH SOUTH DAKOTA 57783 (LAWRENCE)",0,C,,
57793HLLSP1421L,-103.63799999999999,44.468,False,46,081,966100,46,46081,46081966100,1400000US46081966100,HILLS PRODUCTS GROUP,1421 LAUREL ST,WHITEWOOD,SD,57793,"HILLS PRODUCTS GROUP.1421 LAUREL ST, WHITEWOOD SOUTH DAKOTA 57793 (LAWRENCE)",0,C,,110031001644
57102ZPFDM305E6,-96.72200000000001,43.551,False,46,099,000500,46,46099,46099000500,1400000US46099000500,HUBBARD FEEDS INC,305 E 6TH ST,SIOUX FALLS,SD,57103,"HUBBARD FEEDS INC.305 E 6TH ST, SIOUX FALLS SOUTH DAKOTA 57103 (MINNEHAHA)",1,C,,
57104GGRST909SO,-96.71600000000001,43.538000000000004,False,46,099,000500,46,46099,46099000500,1400000US46099000500,EGGER STEEL CO,909 S 7TH AVE,SIOUX FALLS,SD,57104,"EGGER STEEL CO.909 S 7TH AVE, SIOUX FALLS SOUTH DAKOTA 57104 (MINNEHAHA)",0,C,,
57005BRNDN9THAV,-96.574,43.603,False,46,099,010501,46,46099,46099010501,1400000US46099010501,BRANDON WOOD PRESERVING,9TH AVE N & BIRCH ST,BRANDON,SD,57005,"BRANDON WOOD PRESERVING.9TH AVE N & BIRCH ST, BRANDON SOUTH DAKOTA 57005 (MINNEHAHA)",0,C,,
57005LRCHN9ASHS,-96.579,43.607,False,46,099,010501,46,46099,46099010501,1400000US46099010501,LOU-RIC INC,900 ASH ST,BRANDON,SD,57005,"LOU-RIC INC.900 ASH ST, BRANDON SOUTH DAKOTA 57005 (MINNEHAHA)",0,C,,110004949343
57005LVRNT1200E,-96.574,43.603,False,46,099,010501,46,46099,46099010501,1400000US46099010501,CURT MANUFACTURING LLC,1200 E BIRCH ST,BRANDON,SD,57005,"CURT MANUFACTURING LLC.1200 E BIRCH ST, BRANDON SOUTH DAKOTA 57005 (MINNEHAHA)",0,C,,110004944268
5700WSPRTN129EB,-96.575,43.603,False,46,099,010501,46,46099,46099010501,1400000US46099010501,SPARTAN MOTORS USA INC,1209 E BIRCH ST,BRANDON,SD,57005,"SPARTAN MOTORS USA INC.1209 E BIRCH ST, BRANDON SOUTH DAKOTA 57005 (MINNEHAHA)",0,C,,110063999142
57005TLSHY7ERED,-96.584,43.602,False,46,099,010501,46,46099,46099010501,1400000US46099010501,GATES CORP,700 E REDWOOD BLVD,BRANDON,SD,57005,"GATES CORP.700 E REDWOOD BLVD, BRANDON SOUTH DAKOTA 57005 (MINNEHAHA)",0,C,,110059077225
57029SSCTD136EA,-97.43799999999999,43.353,False,46,067,968600,46,46067,46067968600,1400000US46067968600,ASSOCIATED MILK PRODUCERS INC,136 E RAILWAY,FREEMAN,SD,57029,"ASSOCIATED MILK PRODUCERS INC.136 E RAILWAY, FREEMAN SOUTH DAKOTA 57029 (HUTCHINSON)",0,C,,110000427609
57029WLDCT420SH,-97.42,43.351000000000006,False,46,067,968600,46,46067,46067968600,1400000US46067968600,VERMEER FREEMAN MANUFACTURING CO INC,420 S HWY 81,FREEMAN,SD,57029,"VERMEER FREEMAN MANUFACTURING CO INC.420 S HWY 81, FREEMAN SOUTH DAKOTA 57029 (HUTCHINSON)",0,C,,110008058948
57301TSHBM901NF,-98.007,43.718,False,46,035,962800,46,46035,46035962800,1400000US46035962800,TOSHIBA AMERICA BUSINESS SOLUTIONS INC TONER PRODUCTS DIV,901 N FOSTER ST,MITCHELL,SD,57301,"TOSHIBA AMERICA BUSINESS SOLUTIONS INC TONER PRODUCTS DIV.901 N FOSTER ST, MITCHELL SOUTH DAKOTA 57301 (DAVISON)",0,C,,110000427976
57039KYKRM200NO,-96.906,43.357,False,46,083,010300,46,46083,46083010300,1400000US46083010300,KOYKER MANUFACTURING CO,200 N CLEVELAND,LENNOX,SD,57039,"KOYKER MANUFACTURING CO.200 N CLEVELAND, LENNOX SOUTH DAKOTA 57039 (LINCOLN)",0,C,,110000427618
5703WWLSNT415ER,-96.89200000000001,43.342,False,46,083,010300,46,46083,46083010300,1400000US46083010300,WILSON TRAILER CO,415 E. ORIOLE AVE,LENNOX,SD,57039,"WILSON TRAILER CO.415 E. ORIOLE AVE, LENNOX SOUTH DAKOTA 57039 (LINCOLN)",0,C,,110037945819
57117HRVSTHWY42,-96.831,43.56,False,46,099,010406,46,46099,46099010406,1400000US46099010406,HARVEST STATES CO-OP,1201 N ELLIS RD,SIOUX FALLS,SD,57107,"HARVEST STATES CO-OP.1201 N ELLIS RD, SIOUX FALLS SOUTH DAKOTA 57107 (MINNEHAHA)",0,C,,
57117LNDLK1211N,-96.831,43.56,False,46,099,010406,46,46099,46099010406,1400000US46099010406,LAND O'LAKES FARMLAND FEED,1201 N ELLIS,SIOUX FALLS,SD,57117,"LAND O'LAKES FARMLAND FEED.1201 N ELLIS, SIOUX FALLS SOUTH DAKOTA 57117 (MINNEHAHA)",0,C,,
57201HBBRD1514T,-97.12200000000001,44.9,False,46,029,954400,46,46029,46029954400,1400000US46029954400,HUBBARD FEEDS INC WATERTOWN SD,151 4TH ST,WATERTOWN,SD,57201,"HUBBARD FEEDS INC WATERTOWN SD.151 4TH ST, WATERTOWN SOUTH DAKOTA 57201 (CODINGTON)",0,C,,110000768474
57401HRTLN38469,-98.53299999999999,45.458999999999996,False,46,013,951700,46,46013,46013951700,1400000US46013951700,ABE SOUTH DAKOTA LLC,38469 133RD ST,ABERDEEN,SD,57401,"ABE SOUTH DAKOTA LLC.38469 133RD ST, ABERDEEN SOUTH DAKOTA 57401 (BROWN)",0,C,,110000428038
5740WBRDNX28WHW,-98.53,45.458,False,46,013,951700,46,46013,46013951700,1400000US46013951700,GCC-ABERDEEN,2800 W HWY 12,ABERDEEN,SD,57401,"GCC-ABERDEEN.2800 W HWY 12, ABERDEEN SOUTH DAKOTA 57401 (BROWN)",0,C,,110055498714
57638WHLRM107MA,-102.16,45.941,False,46,105,968300,46,46105,46105968300,1400000US46105968300,WHEELER MANUFACTURING CO INC.,107 MAIN AVE,LEMMON,SD,57638,"WHEELER MANUFACTURING CO INC..107 MAIN AVE, LEMMON SOUTH DAKOTA 57638 (PERKINS)",0,C,,110000428056
57701NRTHC904ES,-103.20100000000001,44.068999999999996,False,46,103,010600,46,46103,46103010600,1400000US46103010600,NORTH CENTRAL SUPPLY,904 E ST ANDREW,RAPID CITY,SD,57701,"NORTH CENTRAL SUPPLY.904 E ST ANDREW, RAPID CITY SOUTH DAKOTA 57701 (PENNINGTON)",0,C,,
57001LKTCL110IO,-96.63,43.022,False,46,127,020100,46,46127,46127020100,1400000US46127020100,ALKOTA CLEANING SYSTEMS INC,110 IOWA ST,ALCESTER,SD,57001,"ALKOTA CLEANING SYSTEMS INC.110 IOWA ST, ALCESTER SOUTH DAKOTA 57001 (UNION)",0,C,,110000427547
57001LKTCL15BRA,-96.632,43.021,False,46,127,020100,46,46127,46127020100,1400000US46127020100,ALKOTA CLEANING SYSTEMS INC,105 BROAD ST,ALCESTER,SD,57001,"ALKOTA CLEANING SYSTEMS INC.105 BROAD ST, ALCESTER SOUTH DAKOTA 57001 (UNION)",0,C,,110039204517
57059BRNNT851WA,-97.726,43.147,False,46,009,967600,46,46009,46009967600,1400000US46009967600,POET RESEARCH CENTER INC,851 WASHINGTON ST,SCOTLAND,SD,57059,"POET RESEARCH CENTER INC.851 WASHINGTON ST, SCOTLAND SOUTH DAKOTA 57059 (BON HOMME)",0,C,,110010367334
57701CLMNC5125H,-103.24799999999999,44.033,False,46,103,010905,46,46103,46103010905,1400000US46103010905,COLEMAN CO,5125 HWY 16 S,RAPID CITY,SD,57701,"COLEMAN CO.5125 HWY 16 S, RAPID CITY SOUTH DAKOTA 57701 (PENNINGTON)",0,C,,110000594955
57706SDDSR1161T,-103.09299999999999,44.152,False,46,093,020200,46,46103,46093020200,1400000US46093020200,"U.S. DOD USAF, ELLSWORTH AFB",1959 SCOTT DR STE 1,ELLSWORTH AFB,SD,57706,"U.S. DOD USAF, ELLSWORTH AFB.1959 SCOTT DR STE 1, ELLSWORTH AFB SOUTH DAKOTA 57706 (PENNINGTON)",0,F,,110032904472
57385VNDYKBOX27,-98.28299999999999,44.05,False,46,111,962100,46,46111,46111962100,1400000US46111962100,VANDYKE SUPPLY,39771 SD HWY 34 E,WOONSOCKET,SD,57385,"VANDYKE SUPPLY.39771 SD HWY 34 E, WOONSOCKET SOUTH DAKOTA 57385 (SANBORN)",0,C,,110000428010
57430HRTNNINDUS,-97.751,45.803999999999995,False,46,091,950800,46,46091,46091950800,1400000US46091950800,HORTON INC,10840 423RD AVE,BRITTON,SD,57430,"HORTON INC.10840 423RD AVE, BRITTON SOUTH DAKOTA 57430 (MARSHALL)",0,C,,110000594946
57226TCHNCRR2BO,-96.664,44.778,False,46,039,953600,46,46039,46039953600,1400000US46039953600,TECH ORD,47600 180TH ST,CLEAR LAKE,SD,57226,"TECH ORD.47600 180TH ST, CLEAR LAKE SOUTH DAKOTA 57226 (DEUEL)",0,C,,110000427903
57754HMSTK630ES,-103.75200000000001,44.352,False,46,081,966600,46,46081,46081966600,1400000US46081966600,HOMESTAKE MINE,630 E SUMMIT ST,LEAD,SD,57754,"HOMESTAKE MINE.630 E SUMMIT ST, LEAD SOUTH DAKOTA 57754 (LAWRENCE)",0,C,,
57754WHRFRTROJA,-103.86200000000001,44.343999999999994,False,46,081,966600,46,46081,46081966600,1400000US46081966600,WHARF RESOURCES,10928 WHARF RD,LEAD,SD,57754,"WHARF RESOURCES.10928 WHARF RD, LEAD SOUTH DAKOTA 57754 (LAWRENCE)",0,C,,110000594973
57006GLBLP702IN,-97.131,44.371,False,46,077,958100,46,46077,46077958100,1400000US46077958100,GLOBAL POLYMER INDUSTRIES INC,702 INDUSTRIAL AVE N,ARLINGTON,SD,57212,"GLOBAL POLYMER INDUSTRIES INC.702 INDUSTRIAL AVE N, ARLINGTON SOUTH DAKOTA 57212 (KINGSBURY)",0,C,,110002123997
57703BLCKH3050E,-103.165,44.097,False,46,103,010906,46,46103,46103010906,1400000US46103010906,BLACK HILLS AMMUNITION,3050 EGLIN ST,RAPID CITY,SD,57703,"BLACK HILLS AMMUNITION.3050 EGLIN ST, RAPID CITY SOUTH DAKOTA 57703 (PENNINGTON)",0,C,,
57328PRRSTHWY28,-98.41,43.42100000000001,False,46,043,969600,46,46043,46043969600,1400000US46043969600,DAKOTA MFG CO INC,HWY 281,CORSICA,SD,57328,"DAKOTA MFG CO INC.HWY 281, CORSICA SOUTH DAKOTA 57328 (DOUGLAS)",0,C,,110007841461
5732WCHSFR145WE,-98.40899999999999,43.422,False,46,043,969600,46,46043,46043969600,1400000US46043969600,CHS FARMERS ALLIANCE - CORSICA FEED,145 WEST 6TH STREET,CORSICA,SD,57328,"CHS FARMERS ALLIANCE - CORSICA FEED.145 WEST 6TH STREET, CORSICA SOUTH DAKOTA 57328 (DOUGLAS)",0,C,,110070070108
57785DKTRM1310I,-103.557,44.42100000000001,False,46,093,020400,46,46093,46093020400,1400000US46093020400,DAKOTA ARMS,1310 INDUSTRY RD,STURGIS,SD,57785,"DAKOTA ARMS.1310 INDUSTRY RD, STURGIS SOUTH DAKOTA 57785 (MEADE)",0,C,,
57005PCMFG600SS,-96.59200000000001,43.588,False,46,099,010502,46,46099,46099010502,1400000US46099010502,ATLAS HYDRAULICS INC,700 E REDWOOD BLVD,BRANDON,SD,57005,"ATLAS HYDRAULICS INC.700 E REDWOOD BLVD, BRANDON SOUTH DAKOTA 57005 (MINNEHAHA)",0,C,,110012704387
57075DKTTH46269,-96.95299999999999,43.976000000000006,False,46,079,960300,46,46079,46079960300,1400000US46079960300,DAKOTA ETHANOL LLC,46269 SD HWY 34,WENTWORTH,SD,57075,"DAKOTA ETHANOL LLC.46269 SD HWY 34, WENTWORTH SOUTH DAKOTA 57075 (LAKE)",0,C,,110006692070
57078FRMNC8THWA,-97.39399999999999,42.876999999999995,False,46,135,966100,46,46135,46135966100,1400000US46135966100,FREEMAN CO AMG LLC,719 WALNUT ST,YANKTON,SD,57078,"FREEMAN CO AMG LLC.719 WALNUT ST, YANKTON SOUTH DAKOTA 57078 (YANKTON)",0,C,,110004944320
57107SNCRN3200S,-96.76899999999999,43.575,False,46,099,010405,46,46099,46099010405,1400000US46099010405,SENCORE INC.,3200 SENCORE DR,SIOUX FALLS,SD,57107,"SENCORE INC..3200 SENCORE DR, SIOUX FALLS SOUTH DAKOTA 57107 (MINNEHAHA)",0,C,,110006435027
5710WHNSNM4511N,-96.766,43.599,False,46,099,010405,46,46099,46099010405,1400000US46099010405,HANSEN MANUFACTURING DBA HI-ROLLER CONVEYORS,4511 N NORTHVIEW AVE,SIOUX FALLS,SD,57107,"HANSEN MANUFACTURING DBA HI-ROLLER CONVEYORS.4511 N NORTHVIEW AVE, SIOUX FALLS SOUTH DAKOTA 57107 (MINNEHAHA)",0,C,,110070100640
57301BYDSG25376,-98.147,43.706,False,46,035,962600,46,46035,46035962600,1400000US46035962600,BOYDS GUNSTOCKS INDUSTRIES INC,25376 403 RD AVE,MITCHELL,SD,57301,"BOYDS GUNSTOCKS INDUSTRIES INC.25376 403 RD AVE, MITCHELL SOUTH DAKOTA 57301 (DAVISON)",0,C,,110004950241
57301PRRTH45924,-98.105,43.803000000000004,False,46,035,962600,46,46035,46035962600,1400000US46035962600,PRAIRIE ETHANOL LLC (DBA POET BIOREFINING) MITCHELL,40509 247TH ST,MITCHELL,SD,57301,"PRAIRIE ETHANOL LLC (DBA POET BIOREFINING) MITCHELL.40509 247TH ST, MITCHELL SOUTH DAKOTA 57301 (DAVISON)",0,C,,110033218854
57747SDNPS13MIL,-103.478,43.553999999999995,False,46,033,965100,46,46033,46033965100,1400000US46033965100,US NATL PARK SERVICE WIND CAVE NATL PARK,26611 US HIGWAY 385,HOT SPRINGS,SD,57747,"US NATL PARK SERVICE WIND CAVE NATL PARK.26611 US HIGWAY 385, HOT SPRINGS SOUTH DAKOTA 57747 (CUSTER)",0,F,,110028184364
57783PPTLB1510W,-103.882,44.498000000000005,False,46,081,966301,46,46081,46081966301,1400000US46081966301,SPEARFISH FOREST PRODUCTS,1510 W OLIVER ST,SPEARFISH,SD,57783,"SPEARFISH FOREST PRODUCTS.1510 W OLIVER ST, SPEARFISH SOUTH DAKOTA 57783 (LAWRENCE)",0,C,,110012704680
57201GLCLL30120,-97.115,44.876000000000005,False,46,029,954501,46,46029,46029954501,1400000US46029954501,GLACIAL LAKES ENERGY LLC,301 20TH AVE SE,WATERTOWN,SD,57201,"GLACIAL LAKES ENERGY LLC.301 20TH AVE SE, WATERTOWN SOUTH DAKOTA 57201 (CODINGTON)",0,C,,110013292515
57201MWRLD292KE,-97.06700000000001,44.886,False,46,029,954501,46,46029,46029954501,1400000US46029954501,SPARTON ONYX LLC,2920 KELLY AVE,WATERTOWN,SD,57201,"SPARTON ONYX LLC.2920 KELLY AVE, WATERTOWN SOUTH DAKOTA 57201 (CODINGTON)",0,C,,110017614009
57201FBRGL12251,-97.09299999999999,44.886,False,46,029,954501,46,46029,46029954501,1400000US46029954501,FIBERGLASS SPECIALTIES INC,1225 14TH ST SE,WATERTOWN,SD,57201,"FIBERGLASS SPECIALTIES INC.1225 14TH ST SE, WATERTOWN SOUTH DAKOTA 57201 (CODINGTON)",0,C,,110004950946
5720WWTRTW13123,-97.07799999999999,44.885,False,46,029,954501,46,46029,46029954501,1400000US46029954501,GCC-WATERTOWN,1301 23RD ST SE,WATERTOWN,SD,57201,"GCC-WATERTOWN.1301 23RD ST SE, WATERTOWN SOUTH DAKOTA 57201 (CODINGTON)",0,C,,110055498698
57350DKTLN674WP,-98.219,44.361000000000004,False,46,005,956900,46,46005,46005956900,1400000US46005956900,DAKOTALAND FEEDS LLC,674 W PARK AVE NW,HURON,SD,57350,"DAKOTALAND FEEDS LLC.674 W PARK AVE NW, HURON SOUTH DAKOTA 57350 (BEADLE)",0,C,,110020054910
57015GRTPL27716,-96.958,43.37,False,46,125,965100,46,46125,46125965100,1400000US46125965100,POET BIOREFINING - CHANCELLOR,27716 462ND AVE,CHANCELLOR,SD,57015,"POET BIOREFINING - CHANCELLOR.27716 462ND AVE, CHANCELLOR SOUTH DAKOTA 57015 (TURNER)",0,C,,110014338582
5704WMRNNR27283,-97.273,43.435,False,46,125,965100,46,46125,46125965100,1400000US46125965100,NUGEN ENERGY LLC,27283 447TH AVE,MARION,SD,57043,"NUGEN ENERGY LLC.27283 447TH AVE, MARION SOUTH DAKOTA 57043 (TURNER)",0,C,,110058300921
57032SHWPL1ENTE,-96.704,43.442,False,46,083,010107,46,46083,46083010107,1400000US46083010107,SHOWPLACE WOOD PRODUCTS,1 ENTERPRISE ST,HARRISBURG,SD,57032,"SHOWPLACE WOOD PRODUCTS.1 ENTERPRISE ST, HARRISBURG SOUTH DAKOTA 57032 (LINCOLN)",0,C,,110001676552
57445JMSVL44251,-98.13799999999999,45.45399999999999,False,46,013,951900,46,46013,46013951900,1400000US46013951900,POET BIOREFINING - GROTON,40425 133RD ST,GROTON,SD,57445,"POET BIOREFINING - GROTON.40425 133RD ST, GROTON SOUTH DAKOTA 57445 (BROWN)",0,C,,110015598147
57034SXRVR29619,-96.477,43.097,False,46,083,010400,46,46083,46083010400,1400000US46083010400,POET BIOREFINING - HUDSON,29619 SPUR AVE,HUDSON,SD,57034,"POET BIOREFINING - HUDSON.29619 SPUR AVE, HUDSON SOUTH DAKOTA 57034 (LINCOLN)",0,C,,110017775433
57750SNTLP25216,-101.94200000000001,43.748999999999995,False,46,071,961100,46,46071,46071961100,1400000US46071961100,BADLANDS NATIONAL PARK,25216 BEN REIFEL ROAD,INTERIOR,SD,57750,"BADLANDS NATIONAL PARK.25216 BEN REIFEL ROAD, INTERIOR SOUTH DAKOTA 57750 (JACKSON)",0,F,,110022810840
57103NGSNS71ERI,-96.63799999999999,43.597,False,46,099,010403,46,46099,46099010403,1400000US46099010403,XCEL ENERGY ANGUS ANSON GENERATING PLANT,7100 E RICE ST,SIOUX FALLS,SD,57103,"XCEL ENERGY ANGUS ANSON GENERATING PLANT.7100 E RICE ST, SIOUX FALLS SOUTH DAKOTA 57103 (MINNEHAHA)",0,C,,110025317173
57260TRSTT47333,-96.725,45.873000000000005,False,46,109,940700,46,46109,46109940700,1400000US46109940700,RED RIVER ENERGY LLC,47333 104TH ST,ROSHOLT,SD,57260,"RED RIVER ENERGY LLC.47333 104TH ST, ROSHOLT SOUTH DAKOTA 57260 (ROBERTS)",0,C,,110012173263
57262WDLND2415E,-97.11,45.66,False,46,109,940700,46,46109,46109940700,1400000US46109940700,WOODLAND CABINETRY INC,2415 SD HWY 10,SISSETON,SD,57262,"WOODLAND CABINETRY INC.2415 SD HWY 10, SISSETON SOUTH DAKOTA 57262 (ROBERTS)",0,C,,110044359146
57751SNTLP13HWY,-103.45200000000001,43.881,False,46,103,011005,46,46103,46103011005,1400000US46103011005,US NATL PARK SERVICE MOUNT RUSHMORE NMEM,13000 HWY 244,KEYSTONE,SD,57751,"US NATL PARK SERVICE MOUNT RUSHMORE NMEM.13000 HWY 244, KEYSTONE SOUTH DAKOTA 57751 (PENNINGTON)",0,F,,110025404505
57005JBRNC181RA,-96.57799999999999,43.615,False,46,099,010402,46,46099,46099010402,1400000US46099010402,JEBRO INC.,1801 RAILROAD AVE,CORSON,SD,57005,"JEBRO INC..1801 RAILROAD AVE, CORSON SOUTH DAKOTA 57005 (MINNEHAHA)",0,C,,110031001626
5700WTHBRG6WILL,-96.583,43.614,False,46,099,010402,46,46099,46099010402,1400000US46099010402,HENKEL US OPERATIONS CORP,600 WILLOW ST.,BRANDON,SD,57005,"HENKEL US OPERATIONS CORP.600 WILLOW ST., BRANDON SOUTH DAKOTA 57005 (MINNEHAHA)",0,C,,110030493222
5700WMRMNN182NP,-96.586,43.614,False,46,099,010402,46,46099,46099010402,1400000US46099010402,MARMEN ENERGY CO,1820 N. PLUM AVE.,BRANDON,SD,57005,"MARMEN ENERGY CO.1820 N. PLUM AVE., BRANDON SOUTH DAKOTA 57005 (MINNEHAHA)",0,C,,110044949642
5700WCHSCR26274,-96.572,43.614,False,46,099,010402,46,46099,46099010402,1400000US46099010402,CHS CORSON FEED,26027 482ND AVENUE,CORSON,SD,57005,"CHS CORSON FEED.26027 482ND AVENUE, CORSON SOUTH DAKOTA 57005 (MINNEHAHA)",0,C,,110069292465
57049MRSPT63NDE,-96.49799999999999,42.534,False,46,127,020300,46,46127,46127020300,1400000US46127020300,ROYAL CANIN USA INC,630 N DERBY LN,NORTH SIOUX CITY,SD,57049,"ROYAL CANIN USA INC.630 N DERBY LN, NORTH SIOUX CITY SOUTH DAKOTA 57049 (UNION)",0,C,,110045562235
57469RDFLD38651,-98.501,44.912,False,46,115,000100,46,46115,46115000100,1400000US46115000100,REDFIELD ENERGY LLC,38650 171ST ST,REDFIELD,SD,57469,"REDFIELD ENERGY LLC.38650 171ST ST, REDFIELD SOUTH DAKOTA 57469 (SPINK)",0,C,,110033218881
57369DKTMF8MAIN,-98.845,43.383,False,46,023,970100,46,46023,46023970100,1400000US46023970100,DAKOTA MFG CO INC,800 MAIN AVE N,PLATTE,SD,57369,"DAKOTA MFG CO INC.800 MAIN AVE N, PLATTE SOUTH DAKOTA 57369 (CHARLES MIX)",0,C,,110004946872
5745WBRDNN13435,-98.787,45.442,False,46,045,962100,46,46045,46045962100,1400000US46045962100,ABERDEEN ENERGY LLC,13435 370TH AVENUE,MINA,SD,57451,"ABERDEEN ENERGY LLC.13435 370TH AVENUE, MINA SOUTH DAKOTA 57451 (EDMUNDS)",0,C,,110038367228
5700WBRKNG151WE,-96.809,44.323,False,46,011,958802,46,46011,46011958802,1400000US46011958802,GCC-BROOKINGS,1510 WESTERN AVE,BROOKINGS,SD,57006,"GCC-BROOKINGS.1510 WESTERN AVE, BROOKINGS SOUTH DAKOTA 57006 (BROOKINGS)",0,C,,110001994129
5725WBLLNG48692,-96.458,45.137,False,46,051,953300,46,46051,46051953300,1400000US46051953300,GCC-BELLINGHAM,48692 155TH ST,MILBANK,SD,57252,"GCC-BELLINGHAM.48692 155TH ST, MILBANK SOUTH DAKOTA 57252 (GRANT)",0,C,,110060258073
5706WLDYSR116EA,-96.916,42.787,False,46,027,965700,46,46027,46027965700,1400000US46027965700,STANDARD READY MIX VERMILLION PLANT,1016 EAST CHERRY STREET,VERMILLION,SD,57069,"STANDARD READY MIX VERMILLION PLANT.1016 EAST CHERRY STREET, VERMILLION SOUTH DAKOTA 57069 (CLAY)",0,C,,110043693937
5771WDSGNT18427,-103.854,44.729,False,46,019,967600,46,46019,46019967600,1400000US46019967600,DESIGN TANKS,18427 N HWY 85,BELLE FOURCHE,SD,57717,"DESIGN TANKS.18427 N HWY 85, BELLE FOURCHE SOUTH DAKOTA 57717 (BUTTE)",0,C,,110067546837
5735WDKTPR58WES,-98.225,44.33,False,46,005,957000,46,46005,46005957000,1400000US46005957000,DAKOTA PROVISIONS WEST,58 WEST PARK AVENUE,HURON,SD,57350,"DAKOTA PROVISIONS WEST.58 WEST PARK AVENUE, HURON SOUTH DAKOTA 57350 (BEADLE)",0,C,,110070200835
5771WPRMNT1125B,-103.86399999999999,44.684,False,46,019,967700,46,46019,46019967700,1400000US46019967700,PERMIAN TANK & MANUFACTURING INC BELLE FOURCHE PLANT,1125 BONANZA ST,BELLE FOURCHE,SD,57717,"PERMIAN TANK & MANUFACTURING INC BELLE FOURCHE PLANT.1125 BONANZA ST, BELLE FOURCHE SOUTH DAKOTA 57717 (BUTTE)",0,C,,110070244405
5710WTCCSX34ERI,-96.679,43.568000000000005,False,46,099,010404,46,46099,46099010404,1400000US46099010404,TCC - SIOUX FALLS,3400 E RICE ST,SIOUX FALLS,SD,57103,"TCC - SIOUX FALLS.3400 E RICE ST, SIOUX FALLS SOUTH DAKOTA 57103 (MINNEHAHA)",0,C,,110070550478
5711WCNCRT41ERI,-96.67399999999999,43.573,False,46,099,010404,46,46099,46099010404,1400000US46099010404,CONCRETE MATERIALS COMPANY-RICE STREET,4001 E RICE ST,SIOUX FALLS,SD,57110,"CONCRETE MATERIALS COMPANY-RICE STREET.4001 E RICE ST, SIOUX FALLS SOUTH DAKOTA 57110 (MINNEHAHA)",0,C,,110010367183
