TRIFID,LONGITUDE,LATITUDE,ESTIMATE,STATEFP,COUNTYFP,TRACTCE,STATEGEOID,COUNTYGEOID,TRACTGEOID,AFFGEOID,FACILITY_NAME,STREET,CITY,STUSPS,ZIP_CODE,FACILITY,FAC_CLOSED_IND,ASGN_FEDERAL_IND,BIA_CODE,EPA_REGISTRY_ID
84006KNNCT8362W,-112.141,40.734,False,49,035,113906,49,49035,49035113906,1400000US49035113906,KENNECOTT UTAH COPPER SMELTER & REFINERY,12000 WEST 2100 SOUTH & 11500 W 2100 S,MAGNA,UT,84044,"KENNECOTT UTAH COPPER SMELTER & REFINERY.12000 WEST 2100 SOUTH & 11500 W 2100 S, MAGNA UTAH 84044 (SALT LAKE)",0,C,,110009506347
84044NNCRB12385,-112.186,40.727,False,49,035,113906,49,49035,49035113906,1400000US49035113906,PRAXAIR INC,12385 W HWY 201,MAGNA,UT,84044,"PRAXAIR INC.12385 W HWY 201, MAGNA UTAH 84044 (SALT LAKE)",0,C,,
84116CMPQN620NO,-112.036,40.783,False,49,035,113906,49,49035,49035113906,1400000US49035113906,COMPEQ INTERNATIONAL,620 N JOHN GLENN RD,SALT LAKE CITY,UT,841164400,"COMPEQ INTERNATIONAL.620 N JOHN GLENN RD, SALT LAKE CITY UTAH 84116 (SALT LAKE)",0,C,,110022400846
84116TSCLT595WA,-112.03299999999999,40.779,False,49,035,113906,49,49035,49035113906,1400000US49035113906,TOSCA LTD UTAH,5950 W AMELIA EARHART DR,SALT LAKE CITY,UT,84116,"TOSCA LTD UTAH.5950 W AMELIA EARHART DR, SALT LAKE CITY UTAH 84116 (SALT LAKE)",0,C,,110032629715
84104PLKNG1225S,-112.027,40.744,False,49,035,113906,49,49035,49035113906,1400000US49035113906,PILKINGTON METAL FINISHING LLC,1225 S LEGACY VIEW ST,SALT LAKE CITY,UT,84104,"PILKINGTON METAL FINISHING LLC.1225 S LEGACY VIEW ST, SALT LAKE CITY UTAH 84104 (SALT LAKE)",0,C,,110020824713
84014SYRST950WE,-111.89299999999999,40.915,False,49,011,126304,49,49011,49011126304,1400000US49011126304,TRINITY HIGHWAY PRODUCTS LLC PLT NO 1033,950 W 400 SO,CENTERVILLE,UT,84014,"TRINITY HIGHWAY PRODUCTS LLC PLT NO 1033.950 W 400 SO, CENTERVILLE UTAH 84014 (DAVIS)",1,C,,110057608520
84016FBLLNPOBOX,-112.02799999999999,41.093,False,49,011,125600,49,49011,49011125600,1400000US49011125600,FABALL ENTERPRISES OF UTAH,BLDG G-9 FREEPORT CENTER,CLEARFIELD,UT,84016,"FABALL ENTERPRISES OF UTAH.BLDG G-9 FREEPORT CENTER, CLEARFIELD UTAH 84016 (DAVIS)",0,C,,
84016FTRHMBLDGH,-112.03200000000001,41.103,False,49,011,125600,49,49011,49011125600,1400000US49011125600,FUTURA INDUSTRIES,BUILDING H-11 FREEPORT CENTER,CLEARFIELD,UT,84016,"FUTURA INDUSTRIES.BUILDING H-11 FREEPORT CENTER, CLEARFIELD UTAH 84016 (DAVIS)",0,C,,110000600555
84016HRCLSFREEP,-112.031,41.104,False,49,011,125600,49,49011,49011125600,1400000US49011125600,ALLIANT TECHSYSTEMS PLANT 2,FREEPORT CENTER 14TH ST,CLEARFIELD,UT,84016,"ALLIANT TECHSYSTEMS PLANT 2.FREEPORT CENTER 14TH ST, CLEARFIELD UTAH 84016 (DAVIS)",2,C,,
84016LLDFTBUILD,-112.02799999999999,41.093,False,49,011,125600,49,49011,49011125600,1400000US49011125600,HONEYWELL INTERNATIONAL CLEARFIELD UT,BLDG. C-13 FREEPORT CENTER,CLEARFIELD,UT,84016,"HONEYWELL INTERNATIONAL CLEARFIELD UT.BLDG. C-13 FREEPORT CENTER, CLEARFIELD UTAH 84016 (DAVIS)",0,C,,110002455548
84016RRWDYH12FR,-112.02799999999999,41.093,False,49,011,125600,49,49011,49011125600,1400000US49011125600,ARROW DYNAMICS INC,H-12 FREEPORT CENTER,CLEARFIELD,UT,84016,"ARROW DYNAMICS INC.H-12 FREEPORT CENTER, CLEARFIELD UTAH 84016 (DAVIS)",0,C,,
84016TLTYTBLDGE,-112.02799999999999,41.101000000000006,False,49,011,125600,49,49011,49011125600,1400000US49011125600,UTILITY TRAILER MANUFACTURING,BLDG E-14 FREEPORT CTR,CLEARFIELD,UT,840160387,"UTILITY TRAILER MANUFACTURING.BLDG E-14 FREEPORT CTR, CLEARFIELD UTAH 84016 (DAVIS)",0,C,,
84016LLMRCFREEP,-112.02799999999999,41.093,False,49,011,125600,49,49011,49011125600,1400000US49011125600,"WEIGHT WATCHERS GOURMET FOOD, CO",BLDG A16-H,FREEPORT CENTER,UT,840160427,"WEIGHT WATCHERS GOURMET FOOD, CO.BLDG A16-H, FREEPORT CENTER UTAH 84016 (DAVIS)",0,C,,
84016WRGRCFREEP,-112.042,41.102,False,49,011,125600,49,49011,49011125600,1400000US49011125600,GCP APPLIED TECHNOLOGIES INC,"FREEPORT CENTER, BUILDING J5",CLEARFIELD,UT,84016,"GCP APPLIED TECHNOLOGIES INC.FREEPORT CENTER, BUILDING J5, CLEARFIELD UTAH 84016 (DAVIS)",0,C,,110000744008
84016SHLNDFREEP,-112.03399999999999,41.105,False,49,011,125600,49,49011,49011125600,1400000US49011125600,NEXEO SOLUTIONS LLC-CLEARFIELD,12 FREEPORT CENTER,CLEARFIELD,UT,84016,"NEXEO SOLUTIONS LLC-CLEARFIELD.12 FREEPORT CENTER, CLEARFIELD UTAH 84016 (DAVIS)",0,C,,110000619983
84054NPTCH851SW,-112.023,41.1,False,49,011,125600,49,49011,49011125600,1400000US49011125600,CP INDUSTRIES,851 S FREEPORT INDS PKY,CLEARFIELD,UT,84054,"CP INDUSTRIES.851 S FREEPORT INDS PKY, CLEARFIELD UTAH 84054 (DAVIS)",0,C,,
84016TLTYT1111S,-112.045,41.096000000000004,False,49,011,125600,49,49011,49011125600,1400000US49011125600,UTILITY TRAILER MANUFACTURING,1111 S 1000 W,CLEARFIELD,UT,84015,"UTILITY TRAILER MANUFACTURING.1111 S 1000 W, CLEARFIELD UTAH 84015 (DAVIS)",0,C,,110057506970
84016NCFPLBUILD,-112.039,41.106,False,49,011,125600,49,49011,49011125600,1400000US49011125600,NCFI POLYURETHANES SLC,"BUILDING M-9, FREEPORT CENTER",CLEARFIELD,UT,84015,"NCFI POLYURETHANES SLC.BUILDING M-9, FREEPORT CENTER, CLEARFIELD UTAH 84015 (DAVIS)",0,C,,110025331745
84016WRTHNBUILD,-112.01799999999999,41.09,False,49,011,125600,49,49011,49011125600,1400000US49011125600,WORTHINGTON FOODS INC,BUILDING A 16-H FREEPORT CENTER,CLEARFIELD,UT,84016,"WORTHINGTON FOODS INC.BUILDING A 16-H FREEPORT CENTER, CLEARFIELD UTAH 84016 (DAVIS)",0,C,,110043694801
84016MRTNTFREEP,-112.01700000000001,41.093999999999994,False,49,011,125701,49,49011,49011125701,1400000US49011125701,THIOKOL PROPULSION CLEARFIELD OPERATIONS,1298 S FREEPORT INDUSTRIAL PKWY,CLEARFIELD,UT,84015,"THIOKOL PROPULSION CLEARFIELD OPERATIONS.1298 S FREEPORT INDUSTRIAL PKWY, CLEARFIELD UTAH 84015 (DAVIS)",2,C,,
84015NPTCH851SF,-112.022,41.104,False,49,011,125701,49,49011,49011125701,1400000US49011125701,CB&I CLEARFIELD,210 E 700 S ST,CLEARFIELD,UT,84015,"CB&I CLEARFIELD.210 E 700 S ST, CLEARFIELD UTAH 84015 (DAVIS)",0,C,,110028188244
8401WMNVSNPBX16,-112.024,41.103,False,49,011,125701,49,49011,49011125701,1400000US49011125701,MINOVA USA INC.,FREEPORT CENTER BUILDING Z15,CLEARFIELD,UT,84016,"MINOVA USA INC..FREEPORT CENTER BUILDING Z15, CLEARFIELD UTAH 84016 (DAVIS)",1,C,,110041243419
84029CLMXCHIGHW,-112.553,40.68,False,49,045,130703,49,49045,49045130703,1400000US49045130703,BASIC ELEMENTS MANUFACTURING,8400 N ELLERBECK RD,GRANTSVILLE,UT,84029,"BASIC ELEMENTS MANUFACTURING.8400 N ELLERBECK RD, GRANTSVILLE UTAH 84029 (TOOELE)",0,C,,
84029HRCLSSKULL,-112.51899999999999,40.7,False,49,045,130703,49,49045,49045130703,1400000US49045130703,HERCULES INC TEKOI,SKULL VALLEY RESERVATION,GRANTSVILLE,UT,84029,"HERCULES INC TEKOI.SKULL VALLEY RESERVATION, GRANTSVILLE UTAH 84029 (TOOELE)",0,C,,
84074TLRMYSDSTE,-112.41,40.525999999999996,False,49,045,130703,49,49045,49045130703,1400000US49045130703,U.S. ARMY TOOELE ARMY DEPOT,ATTN: JMTE-GME 1 TOOELE ARMY DEPOT BLDG 501,TOOELE,UT,840745003,"U.S. ARMY TOOELE ARMY DEPOT.ATTN: JMTE-GME 1 TOOELE ARMY DEPOT BLDG 501, TOOELE UTAH 84074 (TOOELE)",0,F,,110013864078
84074SRMYXDESER,-112.345,40.3,False,49,045,130703,49,49045,49045130703,1400000US49045130703,U.S. TOOELE ARMY DEPOT SOUTH,CMDC-CO 11500 STARK RD,STOCKTON,UT,84071,"U.S. TOOELE ARMY DEPOT SOUTH.CMDC-CO 11500 STARK RD, STOCKTON UTAH 84071 (TOOELE)",0,F,,110022521608
84071BRRCKMERCU,-112.196,40.329,False,49,045,130703,49,49045,49045130703,1400000US49045130703,BARRICK RESOURCES USA INC MERCUR GOLD MINE,MERCUR CANYON RD,STOCKTON,UT,84071,"BARRICK RESOURCES USA INC MERCUR GOLD MINE.MERCUR CANYON RD, STOCKTON UTAH 84071 (TOOELE)",0,C,,
84074BRRDY2894S,-112.354,40.473,False,49,045,130703,49,49045,49045130703,1400000US49045130703,BAUER READY MIX CONCRETE,2894 S STATE RD 36,TOOELE,UT,84074,"BAUER READY MIX CONCRETE.2894 S STATE RD 36, TOOELE UTAH 84074 (TOOELE)",0,C,,110031002126
84074HNTRP51SEM,-112.339,40.519,False,49,045,130703,49,49045,49045130703,1400000US49045130703,HUNTER PANELS A DIV OF CARLISLE CONSTRUCTION MATERIALS,501 S EMERALD AVE,TOOELE,UT,84074,"HUNTER PANELS A DIV OF CARLISLE CONSTRUCTION MATERIALS.501 S EMERALD AVE, TOOELE UTAH 84074 (TOOELE)",0,C,,110031002144
8407WGNVRC29UT1,-112.368,40.567,False,49,045,130703,49,49045,49045130703,1400000US49045130703,GENEVA ROCK,2900 UT-112,TOOELE,UT,84074,"GENEVA ROCK.2900 UT-112, TOOELE UTAH 84074 (TOOELE)",0,C,,110070570072
84029NRTHMI80WE,-112.51,40.709,False,49,045,980000,49,49045,49045980000,1400000US49045980000,NORTH AMERICAN SALT CO,I-80 W EXIT 84,GRANTSVILLE,UT,84029,"NORTH AMERICAN SALT CO.I-80 W EXIT 84, GRANTSVILLE UTAH 84029 (TOOELE)",0,C,,
84074KZSLT1428J,-112.279,40.688,False,49,045,980000,49,49045,49045980000,1400000US49045980000,AKZO NOBEL SALT INC,1428 JAMES PALMER RD,LAKE POINT,UT,84074,"AKZO NOBEL SALT INC.1428 JAMES PALMER RD, LAKE POINT UTAH 84074 (TOOELE)",0,C,,
84037BRDNN100EA,-111.936,41.038000000000004,False,49,011,127100,49,49011,49011127100,1400000US49011127100,BORDEN INC SNACKS & SPECIALTY,100 E 200 N,KAYSVILLE,UT,84037,"BORDEN INC SNACKS & SPECIALTY.100 E 200 N, KAYSVILLE UTAH 84037 (DAVIS)",0,C,,
84043RCNCRPELIC,-111.887,40.409,False,49,049,010108,49,49049,49049010108,1400000US49049010108,DYNO NOBEL INC LEHI SITE B,9210 W 1750 N,SARATOGA SPRINGS,UT,84045,"DYNO NOBEL INC LEHI SITE B.9210 W 1750 N, SARATOGA SPRINGS UTAH 84045 (UTAH)",0,C,,110000468887
84043WSTRNCENTE,-111.87100000000001,40.393,False,49,049,010110,49,49049,49049010110,1400000US49049010110,WESTERN STATES ENERGY,CENTER SECTION 3 T6S R1W,LEHI,UT,84043,"WESTERN STATES ENERGY.CENTER SECTION 3 T6S R1W, LEHI UTAH 84043 (UTAH)",0,C,,
84044HRCLS4950S,-112.09200000000001,40.668,False,49,035,113907,49,49035,49035113907,1400000US49035113907,ATK LAUNCH SYSTEMS-BACCHUS,5000 S 8400 W,MAGNA,UT,84044,"ATK LAUNCH SYSTEMS-BACCHUS.5000 S 8400 W, MAGNA UTAH 84044 (SALT LAKE)",0,C,,110002380254
84047WSTRN6952S,-111.885,40.617,False,49,035,112503,49,49035,49035112503,1400000US49035112503,WESTRONIX INC,6952 S 185 W,MIDVALE,UT,84047,"WESTRONIX INC.6952 S 185 W, MIDVALE UTAH 84047 (SALT LAKE)",0,C,,
84054BGWST333WE,-111.921,40.838,False,49,011,127002,49,49011,49011127002,1400000US49011127002,BIG WEST OIL LLC,333 W CENTER ST,NORTH SALT LAKE,UT,84054,"BIG WEST OIL LLC.333 W CENTER ST, NORTH SALT LAKE UTAH 84054 (DAVIS)",0,C,,110000468921
84054CMPNN645WE,-111.927,40.846,False,49,011,127002,49,49011,49011127002,1400000US49011127002,COMPANION SYSTEMS INC,645 W 200 N,NORTH SALT LAKE,UT,84054,"COMPANION SYSTEMS INC.645 W 200 N, NORTH SALT LAKE UTAH 84054 (DAVIS)",0,C,,110006858739
84054FXVLL633WE,-111.928,40.842,False,49,011,127002,49,49011,49011127002,1400000US49011127002,FOX VALLEY TANNING INC,633 WEST CENTER ST,NORTH SALT LAKE,UT,84054,"FOX VALLEY TANNING INC.633 WEST CENTER ST, NORTH SALT LAKE UTAH 84054 (DAVIS)",0,C,,
84116CHVRN2351N,-111.92399999999999,40.825,False,49,011,127002,49,49035,49011127002,1400000US49011127002,CHEVRON PRODUCTS CO - SALT LAKE REFINERY,2351 NORTH 1100 WEST,SALT LAKE CITY,UT,84116,"CHEVRON PRODUCTS CO - SALT LAKE REFINERY.2351 NORTH 1100 WEST, SALT LAKE CITY UTAH 84116 (SALT LAKE)",0,C,,110000469485
84054FSHRC980NO,-111.912,40.86,False,49,011,127002,49,49011,49011127002,1400000US49011127002,FISHER CO,980 NORTH MAIN ST,NORTH SALT LAKE,UT,84054,"FISHER CO.980 NORTH MAIN ST, NORTH SALT LAKE UTAH 84054 (DAVIS)",0,C,,
84054MCRXX333SR,-111.93299999999999,40.836999999999996,False,49,011,127002,49,49011,49011127002,1400000US49011127002,AMCOR MASONRY PRODUCTS,333 S. REDWOOD ROAD,NORTH SALT LAKE,UT,84054,"AMCOR MASONRY PRODUCTS.333 S. REDWOOD ROAD, NORTH SALT LAKE UTAH 84054 (DAVIS)",0,C,,110008177187
84054ZRNCL200NO,-111.92399999999999,40.846,False,49,011,127002,49,49011,49011127002,1400000US49011127002,ZERO MANUFACTURING,500 W 200 N,NORTH SALT LAKE,UT,840542734,"ZERO MANUFACTURING.500 W 200 N, NORTH SALT LAKE UTAH 84054 (DAVIS)",0,C,,110000468976
84054HLLBR75N64,-111.926,40.844,False,49,011,127002,49,49011,49011127002,1400000US49011127002,HILL BROTHERS CHEMICAL CO,75 N 64 W,NORTH SALT LAKE,UT,84054,"HILL BROTHERS CHEMICAL CO.75 N 64 W, NORTH SALT LAKE UTAH 84054 (DAVIS)",0,C,,110008973003
84054JRDNP1117N,-111.90100000000001,40.861,False,49,011,127002,49,49011,49011127002,1400000US49011127002,THOMAS PETROLEUM LLC NORTH SALT LAKE,1117 N 400 E,NORTH SALT LAKE,UT,84054,"THOMAS PETROLEUM LLC NORTH SALT LAKE.1117 N 400 E, NORTH SALT LAKE UTAH 84054 (DAVIS)",0,C,,110002136643
8405WMTLBS68NRT,-111.928,40.853,False,49,011,127002,49,49011,49011127002,1400000US49011127002,INNOPHOS NUTRITION NORTH SALT LAKE,680 N 700 W,NORTH SALT LAKE,UT,84054,"INNOPHOS NUTRITION NORTH SALT LAKE.680 N 700 W, NORTH SALT LAKE UTAH 84054 (DAVIS)",0,C,,110055129132
8405WDTCHN8EUNI,-111.91,40.858000000000004,False,49,011,127002,49,49011,49011127002,1400000US49011127002,DURA-LINE,80 E UNION AVE,NORTH SALT LAKE,UT,84054,"DURA-LINE.80 E UNION AVE, NORTH SALT LAKE UTAH 84054 (DAVIS)",0,C,,110042380839
8405WRPSCM615WE,-111.926,40.858000000000004,False,49,011,127002,49,49011,49011127002,1400000US49011127002,RPS COMPOSITES-UTAH INC,615 W 900 N,NORTH SALT LAKE,UT,84054,"RPS COMPOSITES-UTAH INC.615 W 900 N, NORTH SALT LAKE UTAH 84054 (DAVIS)",0,C,,110032662152
84054KCHMT95WES,-111.914,40.861999999999995,False,49,011,127004,49,49011,49011127004,1400000US49011127004,WESTERN EMULSIONS NORTH SALT LAKE  PLANT,95 W 1100 N,NORTH SALT LAKE,UT,84054,"WESTERN EMULSIONS NORTH SALT LAKE  PLANT.95 W 1100 N, NORTH SALT LAKE UTAH 84054 (DAVIS)",0,C,,110001884523
84087CRYSN2355S,-111.911,40.866,False,49,011,127004,49,49011,49011127004,1400000US49011127004,SILVER EAGLE REFINING WOODS CROSS,2355 S 1100 W,WOODS CROSS,UT,84087,"SILVER EAGLE REFINING WOODS CROSS.2355 S 1100 W, WOODS CROSS UTAH 84087 (DAVIS)",0,C,,110000499069
84087VLLYP727SO,-111.906,40.883,False,49,011,127004,49,49011,49011127004,1400000US49011127004,VALLEY PAINT MANUFACTURING,727 S 950 W,WOODS CROSS,UT,84087,"VALLEY PAINT MANUFACTURING.727 S 950 W, WOODS CROSS UTAH 84087 (DAVIS)",0,C,,110000469145
84054CNCNR245E1,-111.906,40.861999999999995,False,49,011,127004,49,49011,49011127004,1400000US49011127004,PHILLIPS 66 CO NORTH SALT LAKE PRODUCT TERMINAL,245 E 1100 N,NORTH SALT LAKE,UT,84054,"PHILLIPS 66 CO NORTH SALT LAKE PRODUCT TERMINAL.245 E 1100 N, NORTH SALT LAKE UTAH 84054 (DAVIS)",0,C,,110000468949
84087CHMCN2465S,-111.912,40.864000000000004,False,49,011,127004,49,49011,49011127004,1400000US49011127004,CHEMCENTRAL/SALT LAKE CITY,2465 S 1100 W,WOODS CROSS,UT,84087,"CHEMCENTRAL/SALT LAKE CITY.2465 S 1100 W, WOODS CROSS UTAH 84087 (DAVIS)",0,C,,110000469127
84087SMMTR991W1,-111.90700000000001,40.875,False,49,011,127004,49,49011,49011127004,1400000US49011127004,ERGON ASPHALT & EMULSIONS INC - WOODS CROSS,991 W 1500 S,WOODS CROSS,UT,84087,"ERGON ASPHALT & EMULSIONS INC - WOODS CROSS.991 W 1500 S, WOODS CROSS UTAH 84087 (DAVIS)",0,C,,110002270881
84087RPSTH965W8,-111.906,40.881,False,49,011,127004,49,49011,49011127004,1400000US49011127004,RPS COMPOSITES UTAH,965 W 865 S,WOODS CROSS,UT,84087,"RPS COMPOSITES UTAH.965 W 865 S, WOODS CROSS UTAH 84087 (DAVIS)",0,C,,110005211449
84057GNVST1600W,-111.734,40.297,False,49,049,002201,49,49049,49049002201,1400000US49049002201,GENEVA STEEL LLC,10 S GENEVA RD,VINEYARD,UT,84058,"GENEVA STEEL LLC.10 S GENEVA RD, VINEYARD UTAH 84058 (UTAH)",0,C,,
84057HRSCCCOGEN,-111.74799999999999,40.314,False,49,049,002201,49,49049,49049002201,1400000US49049002201,HARSCO METALS PLANT 12,C/O GENEVA STEEL GENEVA WORKS,VINEYARD,UT,84058,"HARSCO METALS PLANT 12.C/O GENEVA STEEL GENEVA WORKS, VINEYARD UTAH 84058 (UTAH)",0,C,,110000600573
84057LRCHN1165N,-111.735,40.318000000000005,False,49,049,002201,49,49049,49049002201,1400000US49049002201,GENEVA NITROGEN LLC,1165 N 1600 W,VINEYARD,UT,84057,"GENEVA NITROGEN LLC.1165 N 1600 W, VINEYARD UTAH 84057 (UTAH)",1,C,,110000468994
84057MTYLT1301W,-111.727,40.304,False,49,049,002201,49,49049,49049002201,1400000US49049002201,MITY-LITE INC,1301 W 400 N,OREM,UT,84057,"MITY-LITE INC.1301 W 400 N, OREM UTAH 84057 (UTAH)",0,C,,
84057PRSHC145NO,-111.734,40.3,False,49,049,002201,49,49049,49049002201,1400000US49049002201,PARISH CHEMICAL CO,145 N GENEVA RD,VINEYARD,UT,84057,"PARISH CHEMICAL CO.145 N GENEVA RD, VINEYARD UTAH 84057 (UTAH)",0,C,,
84058BRWNM520W2,-111.708,40.260999999999996,False,49,049,002201,49,49049,49049002201,1400000US49049002201,EIDSON BROWN-MINNEAPOLIS TANK CO,520 W 2000 S,OREM,UT,84058,"EIDSON BROWN-MINNEAPOLIS TANK CO.520 W 2000 S, OREM UTAH 84058 (UTAH)",0,C,,
84057BGTHR1100N,-111.736,40.317,False,49,049,002201,49,49049,49049002201,1400000US49049002201,ALAC PROVO ASU,1100 N GENEVA RD,OREM,UT,84057,"ALAC PROVO ASU.1100 N GENEVA RD, OREM UTAH 84057 (UTAH)",0,C,,
84057FRTKN1051I,-111.729,40.316,False,49,049,002201,49,49049,49049002201,1400000US49049002201,FORT KNOX SECURITY PRODUCTS,1051 INDUSTRIAL PKWY,OREM,UT,84057,"FORT KNOX SECURITY PRODUCTS.1051 INDUSTRIAL PKWY, OREM UTAH 84057 (UTAH)",0,C,,
84059PRXRN1000N,-111.735,40.315,False,49,049,002201,49,49049,49049002201,1400000US49049002201,PRAXAIR INC,1000 N GENEVA RD,VINEYARD,UT,84059,"PRAXAIR INC.1000 N GENEVA RD, VINEYARD UTAH 84059 (UTAH)",0,C,,
84057RTMNF1186N,-111.728,40.319,False,49,049,002201,49,49049,49049002201,1400000US49049002201,RT MANUFACTURING INC,1186 N INDUSTRIAL PARK DR,OREM,UT,84057,"RT MANUFACTURING INC.1186 N INDUSTRIAL PARK DR, OREM UTAH 84057 (UTAH)",0,C,,110000469010
84042PNRPP1610W,-111.75299999999999,40.333,False,49,049,002201,49,49049,49049002201,1400000US49049002201,PIONEER PIPE,1610 W 200 S,LINDON,UT,84042,"PIONEER PIPE.1610 W 200 S, LINDON UTAH 84042 (UTAH)",0,C,,
84042CCCST1555W,-111.75299999999999,40.333,False,49,049,002201,49,49049,49049002201,1400000US49049002201,C & C CAST POLYMERS INC,1525W 275S,LINDON,UT,84042,"C & C CAST POLYMERS INC.1525W 275S, LINDON UTAH 84042 (UTAH)",0,C,,110013337656
84059MCKLM212N1,-111.727,40.301,False,49,049,002201,49,49049,49049002201,1400000US49049002201,ALABAMA METAL INDUSTRIES CORPORATION,212 N 1330 W,OREM,UT,84057,"ALABAMA METAL INDUSTRIES CORPORATION.212 N 1330 W, OREM UTAH 84057 (UTAH)",1,C,,110020078333
84057DSGNR861NI,-111.728,40.313,False,49,049,002201,49,49049,49049002201,1400000US49049002201,DESIGNER MARBLE & CONTRACTOR SERVICES,861 N INDUSTRIAL PARK DR,OREM,UT,84057,"DESIGNER MARBLE & CONTRACTOR SERVICES.861 N INDUSTRIAL PARK DR, OREM UTAH 84057 (UTAH)",0,C,,
84058WLFLC1176S,-111.73100000000001,40.275,False,49,049,002201,49,49049,49049002201,1400000US49049002201,WOLF ELECTRONIX,1226 SOUTH 1480 WEST,OREM,UT,84058,"WOLF ELECTRONIX.1226 SOUTH 1480 WEST, OREM UTAH 84058 (UTAH)",0,C,,110020516057
84058PRCSN1315W,-111.727,40.29,False,49,049,002201,49,49049,49049002201,1400000US49049002201,PRECISION ASSEMBLY INC.,1315 W 400 S,OREM,UT,840585153,"PRECISION ASSEMBLY INC..1315 W 400 S, OREM UTAH 84058 (UTAH)",0,C,,110022524204
8405WGNVRC1565W,-111.73200000000001,40.305,False,49,049,002201,49,49049,49049002201,1400000US49049002201,GENEVA ROCK PRODUCTS INC - OREM FACILITY,1565 WEST 400 NORTH,OREM,UT,84057,"GENEVA ROCK PRODUCTS INC - OREM FACILITY.1565 WEST 400 NORTH, OREM UTAH 84057 (UTAH)",0,C,,110056133633
8405WSHWCRPINEE,-111.75299999999999,40.328,False,49,049,002201,49,49049,49049002201,1400000US49049002201,SHAWCOR,1750 N PIONEER LN,VINEYARD,UT,84058,"SHAWCOR.1750 N PIONEER LN, VINEYARD UTAH 84058 (UTAH)",0,C,,110069270265
84058SGNTC1275S,-111.676,40.273,False,49,049,001300,49,49049,49049001300,1400000US49049001300,PHILIPS SEMICONDUCTORS,1275 S 800 E,OREM,UT,84058,"PHILIPS SEMICONDUCTORS.1275 S 800 E, OREM UTAH 84058 (UTAH)",0,C,,
84062GLBLC200WE,-111.744,40.355,False,49,049,000601,49,49049,49049000601,1400000US49049000601,GLOBAL COATINGS INC.,200 W 700 S,PLEASANT GROVE,UT,84062,"GLOBAL COATINGS INC..200 W 700 S, PLEASANT GROVE UTAH 84062 (UTAH)",0,C,,110010576769
84042NTRMN1085W,-111.743,40.344,False,49,049,000601,49,49049,49049000601,1400000US49049000601,VALMONT COATINGS INTERMOUNTAIN GALVANIZING,1085 WEST 400 NORTH,LINDON,UT,84042,"VALMONT COATINGS INTERMOUNTAIN GALVANIZING.1085 WEST 400 NORTH, LINDON UTAH 84042 (UTAH)",0,C,,110011800319
84042NVRSL165W4,-111.742,40.344,False,49,049,000601,49,49049,49049000601,1400000US49049000601,UNIVERSAL INDUSTRIAL SALES INC,1065 W 400 N,LINDON,UT,84042,"UNIVERSAL INDUSTRIAL SALES INC.1065 W 400 N, LINDON UTAH 84042 (UTAH)",0,C,,110064112767
8404WCMCRB15WCE,-111.742,40.338,False,49,049,000601,49,49049,49049000601,1400000US49049000601,CMC REBAR - UT - LINDON,1050 W CENTER ST,LINDON,UT,84042,"CMC REBAR - UT - LINDON.1050 W CENTER ST, LINDON UTAH 84042 (UTAH)",0,C,,110070556428
8404WSCHFF325SG,-111.738,40.330999999999996,False,49,049,000601,49,49049,49049000601,1400000US49049000601,SCHUFF STEEL,325 S GENEVA RD,LINDON,UT,84042,"SCHUFF STEEL.325 S GENEVA RD, LINDON UTAH 84042 (UTAH)",0,C,,110070550175
84062NTDCN430NO,-111.75,40.369,False,49,049,000508,49,49049,49049000508,1400000US49049000508,NORTHWEST PIPE CO,430 N 600 W,PLEASANT GROVE,UT,84062,"NORTHWEST PIPE CO.430 N 600 W, PLEASANT GROVE UTAH 84062 (UTAH)",1,C,,110001881517
84066PNNZLWESTH,-110.126,40.389,False,49,013,940600,49,49013,49013940600,1400000US49013940600,PENNZOIL PRODUCTS CO ROOSEVELT REFINERY,WEST HWY 40,ROOSEVELT,UT,84066,"PENNZOIL PRODUCTS CO ROOSEVELT REFINERY.WEST HWY 40, ROOSEVELT UTAH 84066 (DUCHESNE)",0,C,,
84067MGCRP1821W,-112.023,41.191,False,49,057,210600,49,49057,49057210600,1400000US49057210600,IOMEGA CORP,1821 W 4000 S,ROY,UT,84067,"IOMEGA CORP.1821 W 4000 S, ROY UTAH 84067 (WEBER)",0,C,,
84070DSRTM9450S,-111.891,40.58,False,49,035,112605,49,49035,49035112605,1400000US49035112605,BD MEDICAL,9450 SOUTH STATE,SANDY,UT,84070,"BD MEDICAL.9450 SOUTH STATE, SANDY UTAH 84070 (SALT LAKE)",0,C,,110000469065
84070BLLFR9479S,-111.906,40.579,False,49,035,112605,49,49035,49035112605,1400000US49035112605,BULLFROG INTERNATIONAL LC,9479 S 500 W,SANDY,UT,84070,"BULLFROG INTERNATIONAL LC.9479 S 500 W, SANDY UTAH 84070 (SALT LAKE)",0,C,,
84074MXMGNROWLE,-112.734,40.916,False,49,045,130600,49,49045,49045130600,1400000US49045130600,US MAGNESIUM LLC,12819 N SKULL VALLEY RD,GRANTSVILLE,UT,84029,"US MAGNESIUM LLC.12819 N SKULL VALLEY RD, GRANTSVILLE UTAH 84029 (TOOELE)",0,C,,110045587352
84074PPMNCI80XX,-113.208,40.825,False,49,045,130600,49,49045,49045130600,1400000US49045130600,CLEAN HARBORS GRASSY MOUNTAIN LLC,3 MILES E 7 MILES N EXIT 41 ON I-80,GRANTSVILLE,UT,84029,"CLEAN HARBORS GRASSY MOUNTAIN LLC.3 MILES E 7 MILES N EXIT 41 ON I-80, GRANTSVILLE UTAH 84029 (TOOELE)",0,C,,110013709754
84022SRMYDSTEDP,-112.75,40.22,False,49,045,130600,49,49045,49045130600,1400000US49045130600,US ARMY DUGWAY PROVING GROUND,5330 VALDEZ CIRCLE,DUGWAY,UT,84022,"US ARMY DUGWAY PROVING GROUND.5330 VALDEZ CIRCLE, DUGWAY UTAH 84022 (TOOELE)",0,F,,110042021996
84074KZSLT1428H,-112.637,40.769,False,49,045,130600,49,49045,49045130600,1400000US49045130600,CARGILL SALT,15100 W ROWLEY RD,GRANTSVILLE,UT,84029,"CARGILL SALT.15100 W ROWLEY RD, GRANTSVILLE UTAH 84029 (TOOELE)",0,C,,110000469083
84083MCRCY333S2,-114.01299999999999,40.736999999999995,False,49,045,130600,49,49045,49045130600,1400000US49045130600,IMCO RECYCLING OF UTAH,333 S 29TH ST PO BOX 640,WENDOVER,UT,84083,"IMCO RECYCLING OF UTAH.333 S 29TH ST PO BOX 640, WENDOVER UTAH 84083 (TOOELE)",0,C,,
84029NVRCRUSINT,-113.125,40.681,False,49,045,130600,49,49045,49045130600,1400000US49045130600,ENERGYSOLUTIONS LLC,US INTERSTATE 80 EXIT 49 5 MILES S OF INTERSTATE,GRANTSVILLE,UT,84029,"ENERGYSOLUTIONS LLC.US INTERSTATE 80 EXIT 49 5 MILES S OF INTERSTATE, GRANTSVILLE UTAH 84029 (TOOELE)",0,C,,110000607184
84029SFTYK11600,-112.96799999999999,40.734,False,49,045,130600,49,49045,49045130600,1400000US49045130600,CLEAN HARBORS ARAGONITE LLC,11600 NORTH APTUS ROAD,GRANTSVILLE,UT,84029,"CLEAN HARBORS ARAGONITE LLC.11600 NORTH APTUS ROAD, GRANTSVILLE UTAH 84029 (TOOELE)",0,C,,110000906985
84029TRWLY12633,-112.736,40.91,False,49,045,130600,49,49045,49045130600,1400000US49045130600,ATI ROWLEY OPERATIONS,12633 N ROWLEY RD,NORTH SKULL VALLEY,UT,84029,"ATI ROWLEY OPERATIONS.12633 N ROWLEY RD, NORTH SKULL VALLEY UTAH 84029 (TOOELE)",0,C,,110041623142
84084FSHNC5440W,-112.02,40.576,False,49,035,115209,49,49035,49035115209,1400000US49035115209,FASHION CABINET MANUFACTURING INC.,5440 W AXEL PARK RD,WEST JORDAN,UT,84088,"FASHION CABINET MANUFACTURING INC..5440 W AXEL PARK RD, WEST JORDAN UTAH 84088 (SALT LAKE)",0,C,,110012413833
84088NTRST9780S,-112.015,40.575,False,49,035,115209,49,49035,49035115209,1400000US49035115209,INTERSTATE BRICK,9780 S 5200 W,WEST JORDAN,UT,84081,"INTERSTATE BRICK.9780 S 5200 W, WEST JORDAN UTAH 84081 (SALT LAKE)",0,C,,110000469190
84088STRFR5955W,-112.03200000000001,40.577,False,49,035,115209,49,49035,49035115209,1400000US49035115209,STARFIRE IND,5955 W WELLS PARK RD,WEST JORDAN,UT,840885660,"STARFIRE IND.5955 W WELLS PARK RD, WEST JORDAN UTAH 84088 (SALT LAKE)",0,C,,
84088MRCNW5520W,-112.04899999999999,40.559,False,49,035,115209,49,49035,49035115209,1400000US49035115209,QUALITY STEEL CORP OF MS,5520 W OLD BINGHAM HWY,WEST JORDAN,UT,84081,"QUALITY STEEL CORP OF MS.5520 W OLD BINGHAM HWY, WEST JORDAN UTAH 84081 (SALT LAKE)",0,C,,110000469172
84088LMCNC5970W,-112.03299999999999,40.583,False,49,035,115209,49,49035,49035115209,1400000US49035115209,ADP LEMCO INC,5970 W DANNON WAY,WEST JORDAN,UT,840886203,"ADP LEMCO INC.5970 W DANNON WAY, WEST JORDAN UTAH 84088 (SALT LAKE)",0,C,,
84088TTSNS4980W,-112.01100000000001,40.58,False,49,035,115209,49,49035,49035115209,1400000US49035115209,OTTO & SONS WEST JORDAN DIVISION,4980 W 9470 S,WEST JORDAN,UT,840885691,"OTTO & SONS WEST JORDAN DIVISION.4980 W 9470 S, WEST JORDAN UTAH 84088 (SALT LAKE)",0,C,,110000469225
84088DNNNC6165A,-112.036,40.583,False,49,035,115209,49,49035,49035115209,1400000US49035115209,DANONE US LLC,6165 W DANNON WAY,WEST JORDAN,UT,84081,"DANONE US LLC.6165 W DANNON WAY, WEST JORDAN UTAH 84081 (SALT LAKE)",0,C,,110000469154
84088JRDNR5447W,-112.02,40.576,False,49,035,115209,49,49035,49035115209,1400000US49035115209,JORDAN RIVER GALVANIZING,5447 AXLE PARK RD,WEST JORDAN,UT,84081,"JORDAN RIVER GALVANIZING.5447 AXLE PARK RD, WEST JORDAN UTAH 84081 (SALT LAKE)",0,C,,110015780341
84084KRFTM126SP,-112.04,40.568000000000005,False,49,035,115209,49,49035,49035115209,1400000US49035115209,MRCG KRAFTMAID UTAH,10026 S PROSPERITY ST,WEST JORDAN,UT,84084,"MRCG KRAFTMAID UTAH.10026 S PROSPERITY ST, WEST JORDAN UTAH 84084 (SALT LAKE)",0,C,,110056155707
8408WWSTJR5792W,-112.027,40.574,False,49,035,115209,49,49035,49035115209,1400000US49035115209,WEST JORDAN BATCH PLANT,5792 W AXEL PARK RD,WEST JORDAN,UT,84088,"WEST JORDAN BATCH PLANT.5792 W AXEL PARK RD, WEST JORDAN UTAH 84088 (SALT LAKE)",0,C,,110070070512
84087CMPNN2415S,-111.93,40.865,False,49,011,127003,49,49011,49011127003,1400000US49011127003,COMPANION SYSTEMS INC,2415 SOUTH REDWOOD RD,WOODS CROSS,UT,84087,"COMPANION SYSTEMS INC.2415 SOUTH REDWOOD RD, WOODS CROSS UTAH 84087 (DAVIS)",0,C,,
84087PHLLP393SO,-111.905,40.885999999999996,False,49,011,127003,49,49011,49011127003,1400000US49011127003,HOLLYFRONTIER WOODS CROSS REFINING LLC,393 S 800 W,WOODS CROSS,UT,84087,"HOLLYFRONTIER WOODS CROSS REFINING LLC.393 S 800 W, WOODS CROSS UTAH 84087 (DAVIS)",0,C,,110000469136
84087CRWNS1710W,-111.93,40.861999999999995,False,49,011,127003,49,49011,49011127003,1400000US49011127003,PEAK ASPHALT LLC - COWBOY ASPHALT TERMINAL,1710 W 2600 S,WOODS CROSS,UT,84087,"PEAK ASPHALT LLC - COWBOY ASPHALT TERMINAL.1710 W 2600 S, WOODS CROSS UTAH 84087 (DAVIS)",0,C,,110058916053
84087FLXPK2425S,-111.932,40.864000000000004,False,49,011,127003,49,49011,49011127003,1400000US49011127003,FLEXPAK INC,2425 SOUTH 1894 WEST,WOODS CROSS,UT,84087,"FLEXPAK INC.2425 SOUTH 1894 WEST, WOODS CROSS UTAH 84087 (DAVIS)",0,C,,110037148529
84088FRCHL8540S,-111.98899999999999,40.597,False,49,035,113101,49,49035,49035113101,1400000US49035113101,FAIRCHILD/VSI/NATTER MANUFACTURING CO,8540 S 4080 W,WEST JORDAN,UT,84088,"FAIRCHILD/VSI/NATTER MANUFACTURING CO.8540 S 4080 W, WEST JORDAN UTAH 84088 (SALT LAKE)",2,C,,
84088PPRCL8556S,-111.986,40.596,False,49,035,113101,49,49035,49035113101,1400000US49035113101,BUCYRUS BLADES INC.,8556 S 4000 W,WEST JORDAN,UT,84088,"BUCYRUS BLADES INC..8556 S 4000 W, WEST JORDAN UTAH 84088 (SALT LAKE)",0,C,,110000469207
84088PNCPR48WFA,-111.988,40.597,False,49,035,113101,49,49035,49035113101,1400000US49035113101,PENCO PRODUCTS SALT LAKE PLANT,4080 W FARM RD,WEST JORDAN,UT,84088,"PENCO PRODUCTS SALT LAKE PLANT.4080 W FARM RD, WEST JORDAN UTAH 84088 (SALT LAKE)",0,C,,110057988637
84088NTNLS3333W,-111.97,40.588,False,49,035,112921,49,49035,49035112921,1400000US49035112921,FAIRCHILD SEMICONDUCTOR,3333 W 9000 S,WEST JORDAN,UT,840888838,"FAIRCHILD SEMICONDUCTOR.3333 W 9000 S, WEST JORDAN UTAH 84088 (SALT LAKE)",0,C,,110000469181
84088THBLD3295W,-111.971,40.595,False,49,035,112916,49,49035,49035112916,1400000US49035112916,SOUTHWIRE CO,3295 W 8600 S,WEST JORDAN,UT,840889773,"SOUTHWIRE CO.3295 W 8600 S, WEST JORDAN UTAH 84088 (SALT LAKE)",0,C,,
84101MDWGL1030S,-111.891,40.747,False,49,035,102900,49,49035,49035102900,1400000US49035102900,MEADOW GOLD DAIRIES INC,1030 S MAIN ST,SALT LAKE CITY,UT,84101,"MEADOW GOLD DAIRIES INC.1030 S MAIN ST, SALT LAKE CITY UTAH 84101 (SALT LAKE)",1,C,,
84115SLTLK1855S,-111.9,40.73,False,49,035,102900,49,49035,49035102900,1400000US49035102900,SALT LAKE EGG INC,1855 S 3RD W,SALT LAKE CITY,UT,841151804,"SALT LAKE EGG INC.1855 S 3RD W, SALT LAKE CITY UTAH 84115 (SALT LAKE)",0,C,,
84115HGHSC1937S,-111.9,40.728,False,49,035,102900,49,49035,49035102900,1400000US49035102900,HUGHES CHRISTENSEN CO,1937 S 300 W,SALT LAKE CITY,UT,84115,"HUGHES CHRISTENSEN CO.1937 S 300 W, SALT LAKE CITY UTAH 84115 (SALT LAKE)",0,C,,
84115FTZRS1436S,-111.89399999999999,40.738,False,49,035,102900,49,49035,49035102900,1400000US49035102900,FETZER'S INC,1436 SOUTH WEST TEMPLE,SALT LAKE CITY,UT,84115,"FETZER'S INC.1436 SOUTH WEST TEMPLE, SALT LAKE CITY UTAH 84115 (SALT LAKE)",0,C,,
84101SCHMD1235S,-111.9,40.742,False,49,035,102900,49,49035,49035102900,1400000US49035102900,SCHMIDT SIGN INC,1235 S 300 W,SALT LAKE CITY,UT,84101,"SCHMIDT SIGN INC.1235 S 300 W, SALT LAKE CITY UTAH 84101 (SALT LAKE)",0,C,,
84115LNRSL24W17,-111.897,40.734,False,49,035,102900,49,49035,49035102900,1400000US49035102900,LYNRUS,204 W 1700 S,SALT LAKE CITY,UT,84115,"LYNRUS.204 W 1700 S, SALT LAKE CITY UTAH 84115 (SALT LAKE)",0,C,,110020516093
84101PCKGN460WE,-111.904,40.758,False,49,035,114000,49,49035,49035114000,1400000US49035114000,PACKAGING CORP OF AMERICA,460 W 5TH S,SALT LAKE CITY,UT,84101,"PACKAGING CORP OF AMERICA.460 W 5TH S, SALT LAKE CITY UTAH 84101 (SALT LAKE)",0,C,,
84101QLTYP533WE,-111.906,40.76,False,49,035,114000,49,49035,49035114000,1400000US49035114000,QUALITY PLATING CO INC,420 SOUTH 500 WEST,SALT LAKE CITY,UT,84101,"QUALITY PLATING CO INC.420 SOUTH 500 WEST, SALT LAKE CITY UTAH 84101 (SALT LAKE)",0,C,,110009115670
84101STRFR619SO,-111.90799999999999,40.756,False,49,035,114000,49,49035,49035114000,1400000US49035114000,STARFIRE IND,619 S 600 W,SALT LAKE CITY,UT,841011093,"STARFIRE IND.619 S 600 W, SALT LAKE CITY UTAH 84101 (SALT LAKE)",0,C,,
84110BGNTR440W8,-111.905,40.751999999999995,False,49,035,114000,49,49035,49035114000,1400000US49035114000,WEIR SPECIALTY PUMPS,440 W 800 S,SALT LAKE CITY,UT,84101,"WEIR SPECIALTY PUMPS.440 W 800 S, SALT LAKE CITY UTAH 84101 (SALT LAKE)",0,C,,110012413815
84119RBBRN3459S,-111.905,40.751999999999995,False,49,035,114000,49,49035,49035114000,1400000US49035114000,WEIR MINERALS LINATEX- SALT LAKE CITY,3459 SOUTH 700 WEST,SALT LAKE CITY,UT,84119,"WEIR MINERALS LINATEX- SALT LAKE CITY.3459 SOUTH 700 WEST, SALT LAKE CITY UTAH 84119 (SALT LAKE)",0,C,,110011782133
84104MRKST455W6,-111.904,40.756,False,49,035,114000,49,49035,49035114000,1400000US49035114000,MARK STEEL CORP PIONEER PLANT,455 W 600 S,SALT LAKE CITY,UT,841012213,"MARK STEEL CORP PIONEER PLANT.455 W 600 S, SALT LAKE CITY UTAH 84101 (SALT LAKE)",0,C,,
84104VNWTR650W8,-111.91,40.751999999999995,False,49,035,114000,49,49035,49035114000,1400000US49035114000,UNIVAR USA INC - SALT LAKE CI TY,650 W  800 S,SALT LAKE CITY,UT,84104,"UNIVAR USA INC - SALT LAKE CI TY.650 W  800 S, SALT LAKE CITY UTAH 84104 (SALT LAKE)",0,C,,110000469387
8410WPRMLK67S5W,-111.905,40.755,False,49,035,114000,49,49035,49035114000,1400000US49035114000,PERMALOK A NORTHWEST PIPE CO,670 S 500 W,SALT LAKE CITY,UT,84101,"PERMALOK A NORTHWEST PIPE CO.670 S 500 W, SALT LAKE CITY UTAH 84101 (SALT LAKE)",1,C,,110063897868
84103CPNDS503NO,-111.90299999999999,40.781,False,49,035,100100,49,49035,49035100100,1400000US49035100100,CP INDUSTRIES,503 N 400 W,SALT LAKE CITY,UT,84103,"CP INDUSTRIES.503 N 400 W, SALT LAKE CITY UTAH 84103 (SALT LAKE)",0,C,,
84103MCLCM474WE,-111.904,40.789,False,49,035,100100,49,49035,49035100100,1400000US49035100100,TESORO REFINING & MARKETING COMPANY LLC - SLC,474 W 900 N,SALT LAKE CITY,UT,84103,"TESORO REFINING & MARKETING COMPANY LLC - SLC.474 W 900 N, SALT LAKE CITY UTAH 84103 (SALT LAKE)",0,C,,110000469243
84103MYFND454WE,-111.904,40.782,False,49,035,100100,49,49035,49035100100,1400000US49035100100,MAY FOUNDRY & MACHINE CO,454 W 600 N,SALT LAKE CITY,UT,84103,"MAY FOUNDRY & MACHINE CO.454 W 600 N, SALT LAKE CITY UTAH 84103 (SALT LAKE)",0,C,,110011675650
84116STKRP2080N,-111.919,40.812,False,49,035,100100,49,49035,49035100100,1400000US49035100100,STAKER & PARSON COS BECK NORTH READY MIX & ASPHALT,2080 N BECK ST,SALT LAKE CITY,UT,84116,"STAKER & PARSON COS BECK NORTH READY MIX & ASPHALT.2080 N BECK ST, SALT LAKE CITY UTAH 84116 (SALT LAKE)",0,C,,110002274501
8411WNLMTD78NRT,-111.911,40.786,False,49,035,100100,49,49035,49035100100,1400000US49035100100,UNLIMITED DESIGNS INC.,780 NORTH 700 WEST,SALT LAKE CITY,UT,841162303,"UNLIMITED DESIGNS INC..780 NORTH 700 WEST, SALT LAKE CITY UTAH 84116 (SALT LAKE)",0,C,,110039075327
8410WTSRLG475WE,-111.904,40.789,False,49,035,100100,49,49035,49035100100,1400000US49035100100,TESORO LOGISTICS-SALT LAKE CITY TERMINAL,475 W 900 N,SALT LAKE CITY,UT,84103,"TESORO LOGISTICS-SALT LAKE CITY TERMINAL.475 W 900 N, SALT LAKE CITY UTAH 84103 (SALT LAKE)",0,C,,110046279273
84104BLNCH1115S,-111.958,40.745,False,49,035,114500,49,49035,49035114500,1400000US49035114500,BLANCHARD METALS PROCESSING CO,1115 S PIONEER RD,SALT LAKE CITY,UT,84104,"BLANCHARD METALS PROCESSING CO.1115 S PIONEER RD, SALT LAKE CITY UTAH 84104 (SALT LAKE)",0,C,,110002264399
84104CNTNN1658S,-111.99799999999999,40.734,False,49,035,114500,49,49035,49035114500,1400000US49035114500,MILK SPECIALTIES GLOBAL,1658 S 4370 W,SALT LAKE CITY,UT,841044800,"MILK SPECIALTIES GLOBAL.1658 S 4370 W, SALT LAKE CITY UTAH 84104 (SALT LAKE)",1,C,,110000469261
84104CSCRT1635S,-111.939,40.734,False,49,035,114500,49,49035,49035114500,1400000US49035114500,IC SECURITY PRINTERS INC,1635 S REDWOOD RD,SALT LAKE CITY,UT,84104,"IC SECURITY PRINTERS INC.1635 S REDWOOD RD, SALT LAKE CITY UTAH 84104 (SALT LAKE)",1,C,,
84104DLTFB1235S,-111.958,40.742,False,49,035,114500,49,49035,49035114500,1400000US49035114500,MIDWESTERN FABRICATORS INC,1235 S PIONEER RD,SALT LAKE CITY,UT,84104,"MIDWESTERN FABRICATORS INC.1235 S PIONEER RD, SALT LAKE CITY UTAH 84104 (SALT LAKE)",0,C,,110000469270
84104FCTTM1900S,-111.975,40.728,False,49,035,114500,49,49035,49035114500,1400000US49035114500,PUROLATOR PRODUCTS INC,1900 S 3480 W,SALT LAKE CITY,UT,84104,"PUROLATOR PRODUCTS INC.1900 S 3480 W, SALT LAKE CITY UTAH 84104 (SALT LAKE)",0,C,,
84104HSHDT3540W,-111.975,40.728,False,49,035,114500,49,49035,49035114500,1400000US49035114500,SUN PRODUCTS CORPORATION,3540 W 1987 S,SALT LAKE CITY,UT,84104,"SUN PRODUCTS CORPORATION.3540 W 1987 S, SALT LAKE CITY UTAH 84104 (SALT LAKE)",0,C,,110037945873
84104MDWGL3730W,-111.98,40.731,False,49,035,114500,49,49035,49035114500,1400000US49035114500,SOUTHERN FOODS GROUP LLC D/B/A MEADOW GOLD DAIRIES,3730 W 1820 S,SALT LAKE CITY,UT,84104,"SOUTHERN FOODS GROUP LLC D/B/A MEADOW GOLD DAIRIES.3730 W 1820 S, SALT LAKE CITY UTAH 84104 (SALT LAKE)",0,C,,110011683151
84104NGLHR2580A,-111.96600000000001,40.736999999999995,False,49,035,114500,49,49035,49035114500,1400000US49035114500,ENGELHARD CORP,3050 ANDREW AVE,SALT LAKE CITY,UT,84104,"ENGELHARD CORP.3050 ANDREW AVE, SALT LAKE CITY UTAH 84104 (SALT LAKE)",0,C,,
84104PNRRF1520P,-111.958,40.736999999999995,False,49,035,114500,49,49035,49035114500,1400000US49035114500,ACADEMY PIONEER LLC,1520 PIONEER RD,SALT LAKE CITY,UT,84104,"ACADEMY PIONEER LLC.1520 PIONEER RD, SALT LAKE CITY UTAH 84104 (SALT LAKE)",0,C,,110000469341
84104RCKYM2363W,-111.959,40.736999999999995,False,49,035,114500,49,49035,49035114500,1400000US49035114500,ROCKY MOUNTAIN REFRACTORIES,2363 W ANDREW AVE,SALT LAKE CITY,UT,84104,"ROCKY MOUNTAIN REFRACTORIES.2363 W ANDREW AVE, SALT LAKE CITY UTAH 84104 (SALT LAKE)",0,C,,
84104SNDST1291S,-111.958,40.742,False,49,035,114500,49,49035,49035114500,1400000US49035114500,USA INDUSTRIES,1291 S PIONEER RD,SALT LAKE CITY,UT,84104,"USA INDUSTRIES.1291 S PIONEER RD, SALT LAKE CITY UTAH 84104 (SALT LAKE)",1,C,,110001881045
84104STMNC1822S,-111.945,40.73,False,49,035,114500,49,49035,49035114500,1400000US49035114500,EASTMAN CHRISTENSEN,1822 S INDL RD,SALT LAKE CITY,UT,84104,"EASTMAN CHRISTENSEN.1822 S INDL RD, SALT LAKE CITY UTAH 84104 (SALT LAKE)",0,C,,
84104STRBR976PI,-111.958,40.748000000000005,False,49,035,114500,49,49035,49035114500,1400000US49035114500,STAR FOUNDRY & MACHINE,976 PIONEER RD,SALT LAKE CITY,UT,84104,"STAR FOUNDRY & MACHINE.976 PIONEER RD, SALT LAKE CITY UTAH 84104 (SALT LAKE)",0,C,,110000469369
84104VRNMC1678S,-111.958,40.734,False,49,035,114500,49,49035,49035114500,1400000US49035114500,VAREX IMAGING CORP,1678 S PIONEER RD,SALT LAKE CITY,UT,84104,"VAREX IMAGING CORP.1678 S PIONEER RD, SALT LAKE CITY UTAH 84104 (SALT LAKE)",0,C,,110009508504
84120JHNSN4601W,-112.001,40.726,False,49,035,114500,49,49035,49035114500,1400000US49035114500,ASAHI REFINING USA INC,4601 W 2100 S,WEST VALLEY CITY,UT,84120,"ASAHI REFINING USA INC.4601 W 2100 S, WEST VALLEY CITY UTAH 84120 (SALT LAKE)",0,C,,110055233251
84127THTCH1905F,-111.945,40.742,False,49,035,114500,49,49035,49035114500,1400000US49035114500,THATCHER CO,1905 FORTUNE RD,SALT LAKE CITY,UT,84104,"THATCHER CO.1905 FORTUNE RD, SALT LAKE CITY UTAH 84104 (SALT LAKE)",0,C,,110000469671
84104TWDMB1847S,-111.958,40.729,False,49,035,114500,49,49035,49035114500,1400000US49035114500,ATWOOD MOBILE PRODUCTS,1874 S PIONEER RD,SALT LAKE CITY,UT,84104,"ATWOOD MOBILE PRODUCTS.1874 S PIONEER RD, SALT LAKE CITY UTAH 84104 (SALT LAKE)",1,C,,110043645918
84104CLSSC1830S,-111.96799999999999,40.73,False,49,035,114500,49,49035,49035114500,1400000US49035114500,CLASSIC CABINETS,1830 S 3230 W,SALT LAKE CITY,UT,84104,"CLASSIC CABINETS.1830 S 3230 W, SALT LAKE CITY UTAH 84104 (SALT LAKE)",0,C,,
84104CLSSC2587W,-111.964,40.746,False,49,035,114500,49,49035,49035114500,1400000US49035114500,CLASSIC CABINETS INC,3045 WEST DIRECTORS ROW,SALT LAKE CITY,UT,84104,"CLASSIC CABINETS INC.3045 WEST DIRECTORS ROW, SALT LAKE CITY UTAH 84104 (SALT LAKE)",0,C,,
84104WSTRN4340W,-111.99600000000001,40.751,False,49,035,114500,49,49035,49035114500,1400000US49035114500,OWENS CORNING INSULATING SYSTEM LLC-SALT LAKE CITY,4340 W 850 S,SALT LAKE CITY,UT,841044465,"OWENS CORNING INSULATING SYSTEM LLC-SALT LAKE CITY.4340 W 850 S, SALT LAKE CITY UTAH 84104 (SALT LAKE)",0,C,,110000469403
84120THLTG4603W,-112.0,40.724000000000004,False,49,035,114500,49,49035,49035114500,1400000US49035114500,HONEYWELL INTERNATIONAL  INC,4603 WEST 2100 SOUTH,SALT LAKE CITY,UT,84120,"HONEYWELL INTERNATIONAL  INC.4603 WEST 2100 SOUTH, SALT LAKE CITY UTAH 84120 (SALT LAKE)",0,C,,110000469644
84104PLKNG4088W,-111.98899999999999,40.731,False,49,035,114500,49,49035,49035114500,1400000US49035114500,PILKINGTON METAL FINISHING LLC,4088 W 1820 S,SALT LAKE CITY,UT,84104,"PILKINGTON METAL FINISHING LLC.4088 W 1820 S, SALT LAKE CITY UTAH 84104 (SALT LAKE)",0,C,,
84104GRTWS2334W,-111.95200000000001,40.746,False,49,035,114500,49,49035,49035114500,1400000US49035114500,BRENNTAG PACIFIC INC,2334 W DIRECTORS ROW,SALT LAKE CITY,UT,84104,"BRENNTAG PACIFIC INC.2334 W DIRECTORS ROW, SALT LAKE CITY UTAH 84104 (SALT LAKE)",0,C,,110009506178
84104RGSNT1177S,-111.95100000000001,40.744,False,49,035,114500,49,49035,49035114500,1400000US49035114500,AIRGAS INTERMOUNTAIN,1177 S SWANER RD,SALT LAKE CITY,UT,84104,"AIRGAS INTERMOUNTAIN.1177 S SWANER RD, SALT LAKE CITY UTAH 84104 (SALT LAKE)",0,C,,
84104FLCTR1751S,-112.006,40.731,False,49,035,114500,49,49035,49035114500,1400000US49035114500,SCHNEIDER ELECTRIC USA INC,1751 S 4800 W,SALT LAKE CITY,UT,84104,"SCHNEIDER ELECTRIC USA INC.1751 S 4800 W, SALT LAKE CITY UTAH 84104 (SALT LAKE)",1,C,,110015583082
84104CRCTG1120S,-111.95100000000001,40.745,False,49,035,114500,49,49035,49035114500,1400000US49035114500,CIRCUIT GRAPHICS INC,1120 S SWANER RD,SALT LAKE CITY,UT,84104,"CIRCUIT GRAPHICS INC.1120 S SWANER RD, SALT LAKE CITY UTAH 84104 (SALT LAKE)",0,C,,
84157STKRP3313W,-111.97,40.746,False,49,035,114500,49,49035,49035114500,1400000US49035114500,STAKER & PARSON CALIFORNIA READY-MIX CONCRETE,3313 W DIRECTORS ROW,SALT LAKE CITY,UT,84104,"STAKER & PARSON CALIFORNIA READY-MIX CONCRETE.3313 W DIRECTORS ROW, SALT LAKE CITY UTAH 84104 (SALT LAKE)",0,C,,110020516100
84104RGSPN1211S,-111.958,40.743,False,49,035,114500,49,49035,49035114500,1400000US49035114500,AIRGAS USA LLC,1211 S. PIONEER ROAD,SALT LAKE CITY,UT,84104,"AIRGAS USA LLC.1211 S. PIONEER ROAD, SALT LAKE CITY UTAH 84104 (SALT LAKE)",0,C,,110022524213
84104CHLTD331W9,-111.969,40.75,False,49,035,114500,49,49035,49035114500,1400000US49035114500,CHELATED MINERALS CORP,3310 WEST 900 SOUTH,SALT LAKE CITY,UT,84104,"CHELATED MINERALS CORP.3310 WEST 900 SOUTH, SALT LAKE CITY UTAH 84104 (SALT LAKE)",0,C,,110001882918
8410WSFTYK166SP,-111.958,40.747,False,49,035,114500,49,49035,49035114500,1400000US49035114500,SAFETY-KLEEN SYSTEMS SALT LAKE CITY (SLC),1066 S PIONEER RD,SALT LAKE CITY,UT,84104,"SAFETY-KLEEN SYSTEMS SALT LAKE CITY (SLC).1066 S PIONEER RD, SALT LAKE CITY UTAH 84104 (SALT LAKE)",0,C,,110000620025
8410WGNVPP3355W,-111.97,40.75,False,49,035,114500,49,49035,49035114500,1400000US49035114500,GENEVA PIPE CO INC,3355 W 900 S,SALT LAKE CITY,UT,84104,"GENEVA PIPE CO INC.3355 W 900 S, SALT LAKE CITY UTAH 84104 (SALT LAKE)",0,C,,110070070946
8410WPLKNG192S4,-112.00200000000001,40.729,False,49,035,114500,49,49035,49035114500,1400000US49035114500,PILKINGTON METAL FINISHING LLC SITE 3,1920 S 4650 W,SALT LAKE CITY,UT,84104,"PILKINGTON METAL FINISHING LLC SITE 3.1920 S 4650 W, SALT LAKE CITY UTAH 84104 (SALT LAKE)",0,C,,110070070646
8410WTHRMF3545W,-111.975,40.758,False,49,035,114500,49,49035,49035114500,1400000US49035114500,THERMO FLUIDS INC - SALT LAKE,3545 WEST 500 SOUTH,SALT LAKE CITY,UT,84104,"THERMO FLUIDS INC - SALT LAKE.3545 WEST 500 SOUTH, SALT LAKE CITY UTAH 84104 (SALT LAKE)",0,C,,110046248066
84104LYMPS1537S,-111.911,40.735,False,49,035,102802,49,49035,49035102802,1400000US49035102802,OLYMPIA SALES CO,1537 S 700 W ST,SALT LAKE CITY,UT,84104,"OLYMPIA SALES CO.1537 S 700 W ST, SALT LAKE CITY UTAH 84104 (SALT LAKE)",0,C,,
84104MCPRC669WE,-111.911,40.765,False,49,035,102500,49,49035,49035102500,1400000US49035102500,EIMCO PROCESS EQUIPMENT,669 W 200 SOUTH,SALT LAKE CITY,UT,841011160,"EIMCO PROCESS EQUIPMENT.669 W 200 SOUTH, SALT LAKE CITY UTAH 84101 (SALT LAKE)",1,C,,
84104CYTZY134S7,-111.911,40.766999999999996,False,49,035,102500,49,49035,49035102500,1400000US49035102500,CYTOZYME LABORATORIES INC,134 S 700 W,SALT LAKE CITY,UT,84104,"CYTOZYME LABORATORIES INC.134 S 700 W, SALT LAKE CITY UTAH 84104 (SALT LAKE)",0,C,,110011667419
8410WGNVRC748WE,-111.913,40.763000000000005,False,49,035,102500,49,49035,49035102500,1400000US49035102500,GENEVA ROCK PRODUCTS INC-DOWNTOWN FACILITY,748 W 300 S,SALT LAKE CITY,UT,84104,"GENEVA ROCK PRODUCTS INC-DOWNTOWN FACILITY.748 W 300 S, SALT LAKE CITY UTAH 84104 (SALT LAKE)",0,C,,110020076460
84107KRMNK6000S,-111.902,40.64,False,49,035,112202,49,49035,49035112202,1400000US49035112202,KARMAN KITCHENS INC,6000 S STRATLER ST,SALT LAKE CITY,UT,84107,"KARMAN KITCHENS INC.6000 S STRATLER ST, SALT LAKE CITY UTAH 84107 (SALT LAKE)",0,C,,
84107PWRLN6020S,-111.898,40.64,False,49,035,112202,49,49035,49035112202,1400000US49035112202,POWER LINE CHEMICAL,6020 S 300 W,SALT LAKE CITY,UT,84107,"POWER LINE CHEMICAL.6020 S 300 W, SALT LAKE CITY UTAH 84107 (SALT LAKE)",0,C,,
84107XXLCR5975S,-111.902,40.64,False,49,035,112202,49,49035,49035112202,1400000US49035112202,EXXEL CORP,5975 STRATLER,SALT LAKE CITY,UT,84107,"EXXEL CORP.5975 STRATLER, SALT LAKE CITY UTAH 84107 (SALT LAKE)",0,C,,
84107TTNST4315S,-111.9,40.678000000000004,False,49,035,112100,49,49035,49035112100,1400000US49035112100,EXPRESS METAL FABRICATORS LLC-ST GEORGE STEEL DIV,4315 S 300 W,MURRAY,UT,84107,"EXPRESS METAL FABRICATORS LLC-ST GEORGE STEEL DIV.4315 S 300 W, MURRAY UTAH 84107 (SALT LAKE)",0,C,,110002380496
84107BHNRC5200S,-111.89200000000001,40.676,False,49,035,112100,49,49035,49035112100,1400000US49035112100,BUEHNER CORP,5200 S MAIN ST,SALT LAKE CITY,UT,84107,"BUEHNER CORP.5200 S MAIN ST, SALT LAKE CITY UTAH 84107 (SALT LAKE)",0,C,,
84107SMPSN120WF,-111.895,40.678000000000004,False,49,035,112100,49,49035,49035112100,1400000US49035112100,"SIMPSON STEEL FABRICATORS &, ERECTORS INC",120 W FIRECLAY AVE,MURRAY,UT,84107,"SIMPSON STEEL FABRICATORS &, ERECTORS INC.120 W FIRECLAY AVE, MURRAY UTAH 84107 (SALT LAKE)",0,C,,
84123BRDGP542WC,-111.90700000000001,40.678000000000004,False,49,035,112100,49,49035,49035112100,1400000US49035112100,BRIDGEPOINT SYSTEMS,542 W CONFLUENCE AVE,SALT LAKE CITY,UT,84123,"BRIDGEPOINT SYSTEMS.542 W CONFLUENCE AVE, SALT LAKE CITY UTAH 84123 (SALT LAKE)",0,C,,110025404596
84123BRDGP4282S,-111.90799999999999,40.678000000000004,False,49,035,112100,49,49035,49035112100,1400000US49035112100,BRIDGEPOINT SYSTEMS,4282 S 590 W,SALT LAKE CITY,UT,84123,"BRIDGEPOINT SYSTEMS.4282 S 590 W, SALT LAKE CITY UTAH 84123 (SALT LAKE)",0,C,,110037148574
84115CTNNR1930S,-111.88799999999999,40.728,False,49,035,103200,49,49035,49035103200,1400000US49035103200,OC TANNER MANUFACTURING CO,1930 S STATE ST,SALT LAKE CITY,UT,84115,"OC TANNER MANUFACTURING CO.1930 S STATE ST, SALT LAKE CITY UTAH 84115 (SALT LAKE)",0,C,,110000469467
84115DCRPR2645S,-111.9,40.713,False,49,035,111500,49,49035,49035111500,1400000US49035111500,EDO CORP WESTERN DIV,2645 S 300 W,SALT LAKE CITY,UT,84115,"EDO CORP WESTERN DIV.2645 S 300 W, SALT LAKE CITY UTAH 84115 (SALT LAKE)",0,C,,110000469476
84115PRCSN2970S,-111.89299999999999,40.707,False,49,035,111500,49,49035,49035111500,1400000US49035111500,PRECISION TECHNOLOGY INC,65 W CENTURY PKWY,SALT LAKE CITY,UT,84115,"PRECISION TECHNOLOGY INC.65 W CENTURY PKWY, SALT LAKE CITY UTAH 84115 (SALT LAKE)",0,C,,110064119555
84115DLBTS2150S,-111.9,40.724000000000004,False,49,035,111500,49,49035,49035111500,1400000US49035111500,DALEBOOT USA,2150 S 300 W,SALT LAKE CITY,UT,84115,"DALEBOOT USA.2150 S 300 W, SALT LAKE CITY UTAH 84115 (SALT LAKE)",0,C,,
84119DWTCH2700S,-111.917,40.713,False,49,035,111500,49,49035,49035111500,1400000US49035111500,DAW TECHNOLOGIES,2700 SOUTH 900 WEST,SALT LAKE CITY,UT,84119,"DAW TECHNOLOGIES.2700 SOUTH 900 WEST, SALT LAKE CITY UTAH 84119 (SALT LAKE)",0,C,,
8451WHDSPP25S3W,-111.9,40.717,False,49,035,111500,49,49035,49035111500,1400000US49035111500,"HD SUPPLY CONSTRUCTION SUPPLY, LTD (UT006-6149)",2503 SOUTH 300 WEST,SOUTH SALT LAKE,UT,84115,"HD SUPPLY CONSTRUCTION SUPPLY, LTD (UT006-6149).2503 SOUTH 300 WEST, SOUTH SALT LAKE UTAH 84115 (SALT LAKE)",0,C,,110039495551
8411WCRMTC2425S,-111.917,40.718,False,49,035,111500,49,49035,49035111500,1400000US49035111500,CERAMATEC INC,2425 SOUTH 900 WEST,SALT LAKE CITY,UT,841191517,"CERAMATEC INC.2425 SOUTH 900 WEST, SALT LAKE CITY UTAH 84119 (SALT LAKE)",0,C,,110002280255
8411WBHNRB28SWT,-111.895,40.71,False,49,035,111500,49,49035,49035111500,1400000US49035111500,BUEHNER BLOCK CO,2800 S W TEMPLE,SALT LAKE CITY,UT,841153504,"BUEHNER BLOCK CO.2800 S W TEMPLE, SALT LAKE CITY UTAH 84115 (SALT LAKE)",0,C,,110002278543
8411WCYTZY27SUT,-111.90700000000001,40.713,False,49,035,111500,49,49035,49035111500,1400000US49035111500,CYTOZYME LABORATORIES INC,2700 S 600 W,SALT LAKE CITY,UT,84115,"CYTOZYME LABORATORIES INC.2700 S 600 W, SALT LAKE CITY UTAH 84115 (SALT LAKE)",0,C,,110060259517
84116CMLCT5416A,-112.021,40.775999999999996,False,49,035,980000,49,49035,49035980000,1400000US49035980000,ACME ELECTRIC CORP POWER PRODS GROUP,5416 AMELIA EARHART DR,SALT LAKE CITY,UT,841163799,"ACME ELECTRIC CORP POWER PRODS GROUP.5416 AMELIA EARHART DR, SALT LAKE CITY UTAH 84116 (SALT LAKE)",0,C,,
84116DCRPR506NB,-112.015,40.779,False,49,035,980000,49,49035,49035980000,1400000US49035980000,EDO CORP FIBER SCIENCE DIV,506 N BILLY MITCHELL RD,SALT LAKE CITY,UT,84116,"EDO CORP FIBER SCIENCE DIV.506 N BILLY MITCHELL RD, SALT LAKE CITY UTAH 84116 (SALT LAKE)",0,C,,
84116LKTHX594NB,-112.01299999999999,40.782,False,49,035,980000,49,49035,49035980000,1400000US49035980000,VIKTRON UTAH,594 N BILLY MITCHELL RD,SALT LAKE CITY,UT,84116,"VIKTRON UTAH.594 N BILLY MITCHELL RD, SALT LAKE CITY UTAH 84116 (SALT LAKE)",0,C,,
84116LTTNG2211W,-111.954,40.771,False,49,035,980000,49,49035,49035980000,1400000US49035980000,NORTHROP GRUMMAN SYSTEMS COPORATION,2211 W NORTH TEMPLE,SALT LAKE CITY,UT,84116,"NORTHROP GRUMMAN SYSTEMS COPORATION.2211 W NORTH TEMPLE, SALT LAKE CITY UTAH 84116 (SALT LAKE)",0,C,,110000896772
84116NSYSS322NO,-111.954,40.783,False,49,035,980000,49,49035,49035980000,1400000US49035980000,PARAMAX SYSTEMS CORP PARAMAX,640 N 2200 W,SALT LAKE CITY,UT,84116,"PARAMAX SYSTEMS CORP PARAMAX.640 N 2200 W, SALT LAKE CITY UTAH 84116 (SALT LAKE)",0,C,,
84116RCKWL5520W,-112.023,40.781,False,49,035,980000,49,49035,49035980000,1400000US49035980000,ROCKWELL INTL CORP,5520 W HAROLD GATTY DR,SALT LAKE CITY,UT,84116,"ROCKWELL INTL CORP.5520 W HAROLD GATTY DR, SALT LAKE CITY UTAH 84116 (SALT LAKE)",0,C,,
84116STNLM5040W,-112.01100000000001,40.781,False,49,035,980000,49,49035,49035980000,1400000US49035980000,EASTON TECHNICAL PRODUCTS,5040 WEST HAROLD GATTY DR.,SALT LAKE CITY,UT,84116,"EASTON TECHNICAL PRODUCTS.5040 WEST HAROLD GATTY DR., SALT LAKE CITY UTAH 84116 (SALT LAKE)",0,C,,110010797218
84116SRXMD5725W,-112.025,40.778,False,49,035,980000,49,49035,49035980000,1400000US49035980000,STERIGENICS-SALT LAKE CITY FACILITY,5725 W HAROLD GATTY DR,SALT LAKE CITY,UT,84116,"STERIGENICS-SALT LAKE CITY FACILITY.5725 W HAROLD GATTY DR, SALT LAKE CITY UTAH 84116 (SALT LAKE)",0,C,,110000469528
84104STLCT410SO,-111.956,40.779,False,49,035,980000,49,49035,49035980000,1400000US49035980000,STEEL COATINGS INC,410 S 2650 W,SALT LAKE CITY,UT,84104,"STEEL COATINGS INC.410 S 2650 W, SALT LAKE CITY UTAH 84104 (SALT LAKE)",0,C,,110002299441
84116L3CMM640N2,-111.954,40.783,False,49,035,980000,49,49035,49035980000,1400000US49035980000,L3 TECHNOLOGIES INC COMMUNICATION SYSTEMS - WEST,640 NORTH 2200 WEST,SALT LAKE CITY,UT,84116,"L3 TECHNOLOGIES INC COMMUNICATION SYSTEMS - WEST.640 NORTH 2200 WEST, SALT LAKE CITY UTAH 84116 (SALT LAKE)",0,C,,110001882936
84116SRFRC765N2,-111.955,40.786,False,49,035,980000,49,49035,49035980000,1400000US49035980000,"U.S. DOD, USAF, UTAH ANG BASE",765 N 2200 W,SALT LAKE CITY,UT,841162999,"U.S. DOD, USAF, UTAH ANG BASE.765 N 2200 W, SALT LAKE CITY UTAH 84116 (SALT LAKE)",0,F,,110037148556
84116RCKYM1125W,-111.925,40.817,False,49,035,114700,49,49035,49035114700,1400000US49035114700,ROCKY MOUNTAIN FABRICATION,1125 W 2300 N,SALT LAKE CITY,UT,84116,"ROCKY MOUNTAIN FABRICATION.1125 W 2300 N, SALT LAKE CITY UTAH 84116 (SALT LAKE)",0,C,,110000469519
8411WNRTHS111W2,-111.92299999999999,40.817,False,49,035,114700,49,49035,49035114700,1400000US49035114700,NORTH SALT LAKE BATCH PLANT,1110 W 2300 N,SALT LAKE CITY,UT,84116,"NORTH SALT LAKE BATCH PLANT.1110 W 2300 N, SALT LAKE CITY UTAH 84116 (SALT LAKE)",0,C,,110046339048
84119MNTNR3415S,-111.911,40.696999999999996,False,49,035,111600,49,49035,49035111600,1400000US49035111600,AIRGAS MOUNTAIN INC (DBA UTAH WELDERS SUPPLY CO,3415 S 700 W,SALT LAKE CITY,UT,84119,"AIRGAS MOUNTAIN INC (DBA UTAH WELDERS SUPPLY CO.3415 S 700 W, SALT LAKE CITY UTAH 84119 (SALT LAKE)",0,C,,
84119VRMXN660WE,-111.896,40.694,False,49,035,111600,49,49035,49035111600,1400000US49035111600,VERMAX,660 W 3560 S,SALT LAKE CITY,UT,84119,"VERMAX.660 W 3560 S, SALT LAKE CITY UTAH 84119 (SALT LAKE)",0,C,,
84123CSCRT4080S,-111.905,40.683,False,49,035,111600,49,49035,49035111600,1400000US49035111600,IC GROUP - IC SECURITY PRINTERS INC.,4080 S 500 W SUITE 300,MURRAY,UT,84123,"IC GROUP - IC SECURITY PRINTERS INC..4080 S 500 W SUITE 300, MURRAY UTAH 84123 (SALT LAKE)",0,C,,110000469662
84119FBRNT643WE,-111.896,40.694,False,49,035,111600,49,49035,49035111600,1400000US49035111600,FABRI-NETICS,643 W 3560 S,SALT LAKE CITY,UT,841194127,"FABRI-NETICS.643 W 3560 S, SALT LAKE CITY UTAH 84119 (SALT LAKE)",0,C,,
84119SLDSR3575S,-111.911,40.694,False,49,035,111600,49,49035,49035111600,1400000US49035111600,VERMAX KITCHEN & BATH,3575 S 700 W,SALT LAKE CITY,UT,84119,"VERMAX KITCHEN & BATH.3575 S 700 W, SALT LAKE CITY UTAH 84119 (SALT LAKE)",0,C,,
8410WGNVRC39SUT,-111.90100000000001,40.687,False,49,035,111600,49,49035,49035111600,1400000US49035111600,GENEVE ROCK PRODUCTS INC 3900 SOUTH FACILITY,350 W 3900 S,SALT LAKE CITY,UT,84107,"GENEVE ROCK PRODUCTS INC 3900 SOUTH FACILITY.350 W 3900 S, SALT LAKE CITY UTAH 84107 (SALT LAKE)",0,C,,110005197090
84119SLTLK2036W,-111.945,40.721,False,49,035,113305,49,49035,49035113305,1400000US49035113305,SALT LAKE CIRCUITS,2036 W 2300 S,SALT LAKE CITY,UT,84119,"SALT LAKE CIRCUITS.2036 W 2300 S, SALT LAKE CITY UTAH 84119 (SALT LAKE)",0,C,,110020076647
84119NTRCN1811W,-111.941,40.719,False,49,035,113305,49,49035,49035113305,1400000US49035113305,INTERCON INC,1811 W ALEXANDER ST,WEST VALLEY CITY,UT,84119,"INTERCON INC.1811 W ALEXANDER ST, WEST VALLEY CITY UTAH 84119 (SALT LAKE)",0,C,,
841193FRMX23W23,-111.95100000000001,40.721,False,49,035,113305,49,49035,49035113305,1400000US49035113305,3FORM,2300 S 2300 W,SALT LAKE CITY,UT,84119,"3FORM.2300 S 2300 W, SALT LAKE CITY UTAH 84119 (SALT LAKE)",0,C,,110037148565
84119SYSTM2268S,-111.969,40.721,False,49,035,113307,49,49035,49035113307,1400000US49035113307,E-SYSTEMS INC MONTEK DIV,2268 S 3270 W,SALT LAKE CITY,UT,841191193,"E-SYSTEMS INC MONTEK DIV.2268 S 3270 W, SALT LAKE CITY UTAH 84119 (SALT LAKE)",0,C,,
84120THRML3790W,-111.969,40.715,False,49,035,113307,49,49035,49035113307,1400000US49035113307,FIRESTONE BUILDING PRODUCTS CO,3790 W 2555 S,WEST VALLEY CITY,UT,84120,"FIRESTONE BUILDING PRODUCTS CO.3790 W 2555 S, WEST VALLEY CITY UTAH 84120 (SALT LAKE)",0,C,,110000469653
84119BNNVL2269S,-111.969,40.721,False,49,035,113307,49,49035,49035113307,1400000US49035113307,BONNEVILLE CANNING CO,2269 S 3270 W,WEST VALLEY CITY,UT,84119,"BONNEVILLE CANNING CO.2269 S 3270 W, WEST VALLEY CITY UTAH 84119 (SALT LAKE)",0,C,,
84119NTRMN2190S,-111.969,40.724000000000004,False,49,035,113307,49,49035,49035113307,1400000US49035113307,INTERMOUNTAIN DESIGN INC,2190 S 3270 W,SALT LAKE CITY,UT,84119,"INTERMOUNTAIN DESIGN INC.2190 S 3270 W, SALT LAKE CITY UTAH 84119 (SALT LAKE)",0,C,,
84119PRKRP2220S,-111.977,40.722,False,49,035,113307,49,49035,49035113307,1400000US49035113307,PARKER HANNIFIN CORP EPS DIV,2220 S 3600 W,SALT LAKE CITY,UT,84119,"PARKER HANNIFIN CORP EPS DIV.2220 S 3600 W, SALT LAKE CITY UTAH 84119 (SALT LAKE)",0,C,,110011676775
84119RDTHR361S3,-111.977,40.705,False,49,035,113307,49,49035,49035113307,1400000US49035113307,GREENFIBER SLC INC,3061 S 3600 W,SALT LAKE CITY,UT,84119,"GREENFIBER SLC INC.3061 S 3600 W, SALT LAKE CITY UTAH 84119 (SALT LAKE)",0,C,,110024887336
84120WNDRD4400W,-111.99600000000001,40.681999999999995,False,49,035,113505,49,49035,49035113505,1400000US49035113505,WINDER DAIRY INC,4400 W 4100 S,WEST VALLEY CITY,UT,84120,"WINDER DAIRY INC.4400 W 4100 S, WEST VALLEY CITY UTAH 84120 (SALT LAKE)",0,C,,
84123BBTTC4455A,-111.92299999999999,40.674,False,49,035,113512,49,49035,49035113512,1400000US49035113512,ABBOTT CRITICAL CARE SYSTEMS,4455 ATHERTON DR,SALT LAKE CITY,UT,841232584,"ABBOTT CRITICAL CARE SYSTEMS.4455 ATHERTON DR, SALT LAKE CITY UTAH 84123 (SALT LAKE)",0,C,,
84302MRTNT1080N,-112.015,41.53,False,49,003,960602,49,49003,49003960602,1400000US49003960602,THIOKOL CORP STRATEGIC OPS,1080 N MAIN,BRIGHAM CITY,UT,84302,"THIOKOL CORP STRATEGIC OPS.1080 N MAIN, BRIGHAM CITY UTAH 84302 (BOX ELDER)",0,C,,
84302MRTNT9160N,-112.432,41.663000000000004,False,49,003,960100,49,49003,49003960100,1400000US49003960100,ATK LAUNCH SYSTEMS PROMONTORY,9160 N HWY 83,PROMONTORY,UT,84307,"ATK LAUNCH SYSTEMS PROMONTORY.9160 N HWY 83, PROMONTORY UTAH 84307 (BOX ELDER)",0,C,,110032607329
84330NCRST7285W,-112.196,41.883,False,49,003,960100,49,49003,49003960100,1400000US49003960100,NUCOR STEEL - A DIV OF NUCOR CORP,7825 W 21200 N,PLYMOUTH,UT,84330,"NUCOR STEEL - A DIV OF NUCOR CORP.7825 W 21200 N, PLYMOUTH UTAH 84330 (BOX ELDER)",0,C,,110020079537
84330FRTND7285W,-112.191,41.876999999999995,False,49,003,960100,49,49003,49003960100,1400000US49003960100,FRIT INDUSTRIES INC,7825 W 21200 N,PLYMOUTH,UT,84330,"FRIT INDUSTRIES INC.7825 W 21200 N, PLYMOUTH UTAH 84330 (BOX ELDER)",1,C,,
84029SRFRC18MIL,-112.891,41.13399999999999,False,49,003,960100,49,49003,49003960100,1400000US49003960100,"U.S. DOD, USAF, HILL AFB UTTR ACTIVITIES, RANGE",18 MILES N OF EXIT 62 I-80,UTTR,UT,84029,"U.S. DOD, USAF, HILL AFB UTTR ACTIVITIES, RANGE.18 MILES N OF EXIT 62 I-80, UTTR UTAH 84029 (BOX ELDER)",0,F,,110000916206
84330MSSTLPOBOX,-112.20100000000001,41.893,False,49,003,960100,49,49003,49003960100,1400000US49003960100,TMS INTERNATIONAL LLC,7285 W 21200 N,PLYMOUTH,UT,84330,"TMS INTERNATIONAL LLC.7285 W 21200 N, PLYMOUTH UTAH 84330 (BOX ELDER)",0,C,,110024422711
84319MLLRN410NO,-111.861,41.644,False,49,005,001402,49,49005,49005001402,1400000US49005001402,SWIFT BEEF CO,410 N 200 W,HYRUM,UT,84319,"SWIFT BEEF CO.410 N 200 W, HYRUM UTAH 84319 (CACHE)",0,C,,110000469699
8431WWSTPN57N5W,-111.868,41.647,False,49,005,001402,49,49005,49005001402,1400000US49005001402,WEST POINT DAIRY PRODUCTS INC,570 N 500 W,HYRUM,UT,84319,"WEST POINT DAIRY PRODUCTS INC.570 N 500 W, HYRUM UTAH 84319 (CACHE)",0,C,,110057312395
84321BRNSN1400N,-111.859,41.758,False,49,005,000300,49,49005,49005000300,1400000US49005000300,BOURNS NETWORKS,1400 N 1000 W,LOGAN,UT,84321,"BOURNS NETWORKS.1400 N 1000 W, LOGAN UTAH 84321 (CACHE)",0,C,,
84321GSSNR1051N,-111.859,41.751000000000005,False,49,005,000300,49,49005,49005000300,1400000US49005000300,GOSSNER FOODS INC (CHEESE),1051 N 1000 W,LOGAN,UT,843216852,"GOSSNER FOODS INC (CHEESE).1051 N 1000 W, LOGAN UTAH 84321 (CACHE)",0,C,,110011677373
84335CCHVL6350N,-111.887,41.848,False,49,005,000300,49,49005,49005000300,1400000US49005000300,UTAH PROTEIN LLC,6350 N 2150 W,SMITHFIELD,UT,84335,"UTAH PROTEIN LLC.6350 N 2150 W, SMITHFIELD UTAH 84335 (CACHE)",0,C,,
84321JRDNP1070W,-111.86200000000001,41.736000000000004,False,49,005,000300,49,49005,49005000300,1400000US49005000300,THOMAS PETROLEUM LLC LOGAN,1070 W 200 N,LOGAN,UT,84321,"THOMAS PETROLEUM LLC LOGAN.1070 W 200 N, LOGAN UTAH 84321 (CACHE)",0,C,,110002136965
84321CNHLT1500S,-111.86,41.705,False,49,005,000300,49,49005,49005000300,1400000US49005000300,ICON HEALTH & FITNESS  INC,1500 S 1000 W,LOGAN,UT,84321,"ICON HEALTH & FITNESS  INC.1500 S 1000 W, LOGAN UTAH 84321 (CACHE)",0,C,,
84321CMPBL815W1,-111.855,41.765,False,49,005,000300,49,49005,49005000300,1400000US49005000300,CAMPBELL SCIENTIFIC INC,815 W 1800 N,LOGAN,UT,843211784,"CAMPBELL SCIENTIFIC INC.815 W 1800 N, LOGAN UTAH 84321 (CACHE)",0,C,,110002155701
84321NVRNC1073W,-111.86,41.763999999999996,False,49,005,000300,49,49005,49005000300,1400000US49005000300,INOVAR INC,1073 WEST 1700 NORTH,LOGAN,UT,84321,"INOVAR INC.1073 WEST 1700 NORTH, LOGAN UTAH 84321 (CACHE)",0,C,,110012702370
84321BCRXX1895N,-111.84899999999999,41.766999999999996,False,49,005,000300,49,49005,49005000300,1400000US49005000300,BAICOR,1895 N 600 W,LOGAN,UT,84321,"BAICOR.1895 N 600 W, LOGAN UTAH 84321 (CACHE)",0,C,,110020516119
84321YNGLC1651N,-111.859,41.763000000000005,False,49,005,000300,49,49005,49005000300,1400000US49005000300,PRISMVIEW LLC,1651 N 1000 W,LOGAN,UT,84321,"PRISMVIEW LLC.1651 N 1000 W, LOGAN UTAH 84321 (CACHE)",0,C,,110037072173
84335SCHRB218W6,-111.89,41.851000000000006,False,49,005,000300,49,49005,49005000300,1400000US49005000300,SCHREIBER FOODS INC,2180 W 6550 N,SMITHFIELD,UT,84335,"SCHREIBER FOODS INC.2180 W 6550 N, SMITHFIELD UTAH 84335 (CACHE)",0,C,,110005209568
8432WGNVRC2151N,-111.84899999999999,41.771,False,49,005,000300,49,49005,49005000300,1400000US49005000300,GENEVA ROCK PRODUCTS INC,2151 NORTH 600 WEST,LOGAN,UT,84321,"GENEVA ROCK PRODUCTS INC.2151 NORTH 600 WEST, LOGAN UTAH 84321 (CACHE)",0,C,,110039623271
8434WNVRXX75EAS,-111.855,41.705,False,49,005,000300,49,49005,49005000300,1400000US49005000300,INOVAR,750 EAST 1600 NORTH,NORTH LOGAN CITY,UT,84341,"INOVAR.750 EAST 1600 NORTH, NORTH LOGAN CITY UTAH 84341 (CACHE)",0,C,,110070550348
84321BRNSN693W1,-111.85,41.703,False,49,005,001202,49,49005,49005001202,1400000US49005001202,BOURNS INC,693 W 1700 S,LOGAN,UT,84321,"BOURNS INC.693 W 1700 S, LOGAN UTAH 84321 (CACHE)",0,C,,
84321CNHLT695WE,-111.85,41.703,False,49,005,001202,49,49005,49005001202,1400000US49005001202,ICON HEALTH & FITNESS RPS,695 W 1700 S,LOGAN,UT,84321,"ICON HEALTH & FITNESS RPS.695 W 1700 S, LOGAN UTAH 84321 (CACHE)",0,C,,
84321WSCRN17S37,-111.845,41.702,False,49,005,001202,49,49005,49005001202,1400000US49005001202,WESCOR INC,1700 S 370 W,LOGAN,UT,84321,"WESCOR INC.1700 S 370 W, LOGAN UTAH 84321 (CACHE)",0,C,,110041626489
84321LNDHL710NO,-111.85,41.745,False,49,005,000502,49,49005,49005000502,1400000US49005000502,TTM TECHNOLOGIES INC,710 N 600 W,LOGAN,UT,84321,"TTM TECHNOLOGIES INC.710 N 600 W, LOGAN UTAH 84321 (CACHE)",0,C,,110012347193
84321LGNCC870WE,-111.85600000000001,41.747,False,49,005,000502,49,49005,49005000502,1400000US49005000502,LOGAN COACH INC,870 W 800 N,LOGAN,UT,843217837,"LOGAN COACH INC.870 W 800 N, LOGAN UTAH 84321 (CACHE)",0,C,,
84321SCHRB885N6,-111.851,41.748000000000005,False,49,005,000502,49,49005,49005000502,1400000US49005000502,SCHREIBER FOODS INC,885 N 600 W,LOGAN,UT,84321,"SCHREIBER FOODS INC.885 N 600 W, LOGAN UTAH 84321 (CACHE)",0,C,,110058164392
84333PPPRD901NO,-111.815,41.927,False,49,005,000101,49,49005,49005000101,1400000US49005000101,PEPPERIDGE FARM INC,901 N 200 W,RICHMOND,UT,84333,"PEPPERIDGE FARM INC.901 N 200 W, RICHMOND UTAH 84333 (CACHE)",0,C,,
84335DLMNT521SO,-111.833,41.826,False,49,005,000201,49,49005,49005000201,1400000US49005000201,DEL MONTE FOODS PLANT #140,521 S MAIN,SMITHFIELD,UT,84335,"DEL MONTE FOODS PLANT #140.521 S MAIN, SMITHFIELD UTAH 84335 (CACHE)",0,C,,
84335SMTHF67NHW,-111.83200000000001,41.855,False,49,005,000201,49,49005,49005000201,1400000US49005000201,SMITHFIELD PIT,6700 N HWY 91,SMITHFIELD,UT,84335,"SMITHFIELD PIT.6700 N HWY 91, SMITHFIELD UTAH 84335 (CACHE)",0,C,,110025317574
84337LZBYT350W1,-112.17299999999999,41.728,False,49,003,960200,49,49003,49003960200,1400000US49003960200,LA-Z-BOY UTAH,350 W 1000 N,TREMONTON,UT,84337,"LA-Z-BOY UTAH.350 W 1000 N, TREMONTON UTAH 84337 (BOX ELDER)",0,C,,
84337NCXXX1360N,-112.182,41.733000000000004,False,49,003,960200,49,49003,49003960200,1400000US49003960200,AUTOLIV ASP INC,1360 N 1000 W,TREMONTON,UT,84337,"AUTOLIV ASP INC.1360 N 1000 W, TREMONTON UTAH 84337 (BOX ELDER)",0,C,,110024412713
84401CRLFD220W3,-111.98299999999999,41.211000000000006,False,49,057,201200,49,49057,49057201200,1400000US49057201200,GRAIN CRAFT,220 W 30TH ST,OGDEN,UT,84401,"GRAIN CRAFT.220 W 30TH ST, OGDEN UTAH 84401 (WEBER)",0,C,,110000469804
84401GSCFN2738C,-112.01799999999999,41.216,False,49,057,201900,49,49057,49057201900,1400000US49057201900,GSC FOUNDRIES,2738 COMMERCE WAY,OGDEN,UT,84401,"GSC FOUNDRIES.2738 COMMERCE WAY, OGDEN UTAH 84401 (WEBER)",0,C,,110011868782
84401KNXMC815W2,-111.999,41.223,False,49,057,201900,49,49057,49057201900,1400000US49057201900,WILBUR-ELLIS CO,815 W 24TH ST,OGDEN,UT,84401,"WILBUR-ELLIS CO.815 W 24TH ST, OGDEN UTAH 84401 (WEBER)",0,C,,110000469831
84402CCCLB2860P,-112.006,41.213,False,49,057,201900,49,49057,49057201900,1400000US49057201900,COCA-COLA BOTTLING CO OF OGDEN UTAH,2860 PENN AVE,OGDEN,UT,84402,"COCA-COLA BOTTLING CO OF OGDEN UTAH.2860 PENN AVE, OGDEN UTAH 84402 (WEBER)",0,C,,
84403WLLMS3450S,-112.01,41.201,False,49,057,201900,49,49057,49057201900,1400000US49057201900,WILLIAMS INTERNATIONAL CO LLC OGDEN,3450 SAM WILLIAMS DR,OGDEN,UT,84401,"WILLIAMS INTERNATIONAL CO LLC OGDEN.3450 SAM WILLIAMS DR, OGDEN UTAH 84401 (WEBER)",0,C,,110002304845
84409JTWYN3100S,-112.006,41.208999999999996,False,49,057,201900,49,49057,49057201900,1400000US49057201900,JBT AEROTECH JETWAY SYSTEMS,3100 S PENNSYLVANIA AVE,OGDEN,UT,84401,"JBT AEROTECH JETWAY SYSTEMS.3100 S PENNSYLVANIA AVE, OGDEN UTAH 84401 (WEBER)",0,C,,110009506711
84409LVLRN1330W,-112.01299999999999,41.205,False,49,057,201900,49,49057,49057201900,1400000US49057201900,LEVOLOR-KIRSCH WINDOW FASHIONS,1330 W 3300 S,OGDEN,UT,84401,"LEVOLOR-KIRSCH WINDOW FASHIONS.1330 W 3300 S, OGDEN UTAH 84401 (WEBER)",0,C,,
84401LBNLB2332B,-111.991,41.224,False,49,057,201900,49,49057,49057201900,1400000US49057201900,OGDEN LIQUID PRODUCTS,2332 B AVE,OGDEN,UT,84401,"OGDEN LIQUID PRODUCTS.2332 B AVE, OGDEN UTAH 84401 (WEBER)",0,C,,110000469840
84401PLLSB2780G,-111.99799999999999,41.215,False,49,057,201900,49,49057,49057201900,1400000US49057201900,ARDENT MILLS LLC,2780 G AVE,OGDEN,UT,84401,"ARDENT MILLS LLC.2780 G AVE, OGDEN UTAH 84401 (WEBER)",0,C,,110000469868
84402FLMCN2951P,-112.006,41.211000000000006,False,49,057,201900,49,49057,49057201900,1400000US49057201900,BARNES AEROSPACE OGDEN DIV,2951 PENNSYLVANIA AVE,OGDEN,UT,84401,"BARNES AEROSPACE OGDEN DIV.2951 PENNSYLVANIA AVE, OGDEN UTAH 84401 (WEBER)",0,C,,
84401CRGLL2850F,-111.99700000000001,41.216,False,49,057,201900,49,49057,49057201900,1400000US49057201900,CARGILL FEED & NUTRITION OGDEN,2850 F AVE,OGDEN,UT,84401,"CARGILL FEED & NUTRITION OGDEN.2850 F AVE, OGDEN UTAH 84401 (WEBER)",0,C,,110000771273
84401MRTNT3350A,-112.001,41.205,False,49,057,201900,49,49057,49057201900,1400000US49057201900,AUTOLIV NOTH AMERICA (OGDEN),3350 AIRPORT RD,OGDEN,UT,84405,"AUTOLIV NOTH AMERICA (OGDEN).3350 AIRPORT RD, OGDEN UTAH 84405 (WEBER)",0,C,,
84401KLTRN1675W,-112.02,41.216,False,49,057,201900,49,49057,49057201900,1400000US49057201900,INNOPHOS NUTRITION OGDEN,1675 W 2750 S,OGDEN,UT,84401,"INNOPHOS NUTRITION OGDEN.1675 W 2750 S, OGDEN UTAH 84401 (WEBER)",0,C,,110000469822
84402HCDYC450EX,-111.98899999999999,41.224,False,49,057,201900,49,49057,49057201900,1400000US49057201900,BRENNTAG PACIFIC INC,450 EXCHANGE RD,OGDEN,UT,84401,"BRENNTAG PACIFIC INC.450 EXCHANGE RD, OGDEN UTAH 84401 (WEBER)",0,C,,110009507060
84401LBNMF2774S,-112.022,41.215,False,49,057,201900,49,49057,49057201900,1400000US49057201900,ALBION MANUFACTURING TECHNOLOGIES,2774 S 1760 W,OGDEN,UT,84401,"ALBION MANUFACTURING TECHNOLOGIES.2774 S 1760 W, OGDEN UTAH 84401 (WEBER)",0,C,,110001885933
84401RGSNT1731W,-112.022,41.218,False,49,057,201900,49,49057,49057201900,1400000US49057201900,AIRGAS INTERMOUNTAIN INC,1731 W 2650 S,OGDEN,UT,84401,"AIRGAS INTERMOUNTAIN INC.1731 W 2650 S, OGDEN UTAH 84401 (WEBER)",0,C,,
84401HRCND200WE,-111.98200000000001,41.203,False,49,057,201800,49,49057,49057201800,1400000US49057201800,HURCO INDUSTRIES,200 WEST 33 RD ST,OGDEN,UT,84401,"HURCO INDUSTRIES.200 WEST 33 RD ST, OGDEN UTAH 84401 (WEBER)",0,C,,
84401VLVGM1000W,-111.954,41.20399999999999,False,49,057,201600,49,49057,49057201600,1400000US49057201600,VOLVO GM HEAVY TRUCK CORP,1000 W 33RD ST,OGDEN,UT,84401,"VOLVO GM HEAVY TRUCK CORP.1000 W 33RD ST, OGDEN UTAH 84401 (WEBER)",0,C,,
84404BRNSN2533N,-112.016,41.303999999999995,False,49,057,210402,49,49057,49057210402,1400000US49057210402,BOURNS SENSORS/CONTROLS INC,2533 N 1500 W,OGDEN,UT,84404,"BOURNS SENSORS/CONTROLS INC.2533 N 1500 W, OGDEN UTAH 84404 (WEBER)",0,C,,
84404CHRML2150N,-112.01299999999999,41.297,False,49,057,210402,49,49057,49057210402,1400000US49057210402,CHROMALOX INC,2150 N RULON WHITE BLVD,OGDEN,UT,84404,"CHROMALOX INC.2150 N RULON WHITE BLVD, OGDEN UTAH 84404 (WEBER)",0,C,,110000469895
84404KMBRL2010N,-112.01,41.293,False,49,057,210402,49,49057,49057210402,1400000US49057210402,KIMBERLY-CLARK CORP OGDEN PLANT,2010 N RULON WHITE BLVD,OGDEN,UT,844040715,"KIMBERLY-CLARK CORP OGDEN PLANT.2010 N RULON WHITE BLVD, OGDEN UTAH 84404 (WEBER)",0,C,,
84404LRNCK2520N,-112.015,41.303999999999995,False,49,057,210402,49,49057,49057210402,1400000US49057210402,LOREN COOK CO,2520 N 1500 W,OGDEN,UT,84404,"LOREN COOK CO.2520 N 1500 W, OGDEN UTAH 84404 (WEBER)",0,C,,
84404PRKRH1425W,-112.01299999999999,41.306000000000004,False,49,057,210402,49,49057,49057210402,1400000US49057210402,PARKER HANNIFIN CORP CSD OGDEN,1425 W 2675 N,OGDEN,UT,844042696,"PARKER HANNIFIN CORP CSD OGDEN.1425 W 2675 N, OGDEN UTAH 84404 (WEBER)",0,C,,110005199800
84404CRRWR1160W,-112.007,41.297,False,49,057,210402,49,49057,49057210402,1400000US49057210402,CERRO WIRE LLC,1160 W 2150 N,OGDEN,UT,84404,"CERRO WIRE LLC.1160 W 2150 N, OGDEN UTAH 84404 (WEBER)",0,C,,110000469902
84404TLVSP1973N,-112.01100000000001,41.294,False,49,057,210402,49,49057,49057210402,1400000US49057210402,AUTOLIV ASP,1973 RULON WHITE BLVD,NORTH OGDEN,UT,84404,"AUTOLIV ASP.1973 RULON WHITE BLVD, NORTH OGDEN UTAH 84404 (WEBER)",0,C,,
84404MCRPR81W12,-111.99799999999999,41.244,False,49,057,210402,49,49057,49057210402,1400000US49057210402,OLDCASTLE PRECAST INC,801 W 12TH ST,OGDEN,UT,84404,"OLDCASTLE PRECAST INC.801 W 12TH ST, OGDEN UTAH 84404 (WEBER)",0,C,,110022524231
84404GRTSL765N1,-112.22399999999999,41.27,False,49,057,210403,49,49057,49057210403,1400000US49057210403,COMPASS MINERALS OGDEN INC,765 N 10500 W,OGDEN,UT,84404,"COMPASS MINERALS OGDEN INC.765 N 10500 W, OGDEN UTAH 84404 (WEBER)",0,C,,110000469920
84404WSTRN10000,-112.23100000000001,41.26,False,49,057,210403,49,49057,49057210403,1400000US49057210403,WESTERN ZIRCONIUM,"10,000 W 900 S",OGDEN,UT,84404,"WESTERN ZIRCONIUM.10,000 W 900 S, OGDEN UTAH 84404 (WEBER)",0,C,,110000758378
84404PTRSN1527N,-112.02799999999999,41.285,False,49,057,210403,49,49057,49057210403,1400000US49057210403,PETERSEN INC,1527 N 2000 W,FARR WEST,UT,84404,"PETERSEN INC.1527 N 2000 W, FARR WEST UTAH 84404 (WEBER)",0,C,,110000469939
84404WSTRN1225W,-111.978,41.242,False,49,057,200400,49,49057,49057200400,1400000US49057200400,WESTERN DAIRYMEN CO-OP INC,1225 WALL AVE,OGDEN,UT,84404,"WESTERN DAIRYMEN CO-OP INC.1225 WALL AVE, OGDEN UTAH 84404 (WEBER)",0,C,,
84404FRSNS475W1,-111.988,41.242,False,49,057,200400,49,49057,49057200400,1400000US49057200400,FRESENIUS MEDICAL CARE,475 WEST 13TH STREET,OGDEN,UT,84404,"FRESENIUS MEDICAL CARE.475 WEST 13TH STREET, OGDEN UTAH 84404 (WEBER)",0,C,,110020094832
84404MCRPR1625W,-111.978,41.239,False,49,057,200400,49,49057,49057200400,1400000US49057200400,OLDCASTLE PRECAST INC,1625 WALL AVE,OGDEN,UT,84404,"OLDCASTLE PRECAST INC.1625 WALL AVE, OGDEN UTAH 84404 (WEBER)",0,C,,110022524222
84501WNDNC206W2,-110.814,39.596,False,49,007,000200,49,49007,49007000200,1400000US49007000200,WEN-DON CORP,206 W 2ND ST,PRICE,UT,84501,"WEN-DON CORP.206 W 2ND ST, PRICE UTAH 84501 (CARBON)",1,C,,
84501CSTLC352WM,-110.81700000000001,39.6,False,49,007,000200,49,49007,49007000200,1400000US49007000200,CASTLE COUNTRY OIL,352 W MAIN ST,PRICE,UT,84501,"CASTLE COUNTRY OIL.352 W MAIN ST, PRICE UTAH 84501 (CARBON)",0,C,,110031002180
84601CRCNC388EA,-111.652,40.222,False,49,049,002801,49,49049,49049002801,1400000US49049002801,POWDER RIVER INC,388 E 900 S,PROVO,UT,84606,"POWDER RIVER INC.388 E 900 S, PROVO UTAH 84606 (UTAH)",0,C,,
84601LBRTY316W7,-111.664,40.225,False,49,049,002801,49,49049,49049002801,1400000US49049002801,LIBERTY SAFE & SECURITY INC,316 W 700 SOUTH,PROVO,UT,84601,"LIBERTY SAFE & SECURITY INC.316 W 700 SOUTH, PROVO UTAH 84601 (UTAH)",0,C,,
84606STRMN201EA,-111.656,40.215,False,49,049,002801,49,49049,49049002801,1400000US49049002801,STREAM INTL INC PROVO MFG PLANT,201 E BAY BLVD,PROVO,UT,84606,"STREAM INTL INC PROVO MFG PLANT.201 E BAY BLVD, PROVO UTAH 84606 (UTAH)",0,C,,
84601PCFCS2550S,-111.632,40.2,False,49,049,002802,49,49049,49049002802,1400000US49049002802,MCWANE DUCTILE-UTAH,2550 S INDUSTRIAL PKWY,PROVO,UT,84606,"MCWANE DUCTILE-UTAH.2550 S INDUSTRIAL PKWY, PROVO UTAH 84606 (UTAH)",0,C,,110000470026
84603PTTDS700SO,-111.649,40.224000000000004,False,49,049,002802,49,49049,49049002802,1400000US49049002802,CHICAGO BRIDGE & IRON CONSTRUCTORS INC,700 S 550 E,PROVO,UT,84603,"CHICAGO BRIDGE & IRON CONSTRUCTORS INC.700 S 550 E, PROVO UTAH 84603 (UTAH)",0,C,,110000470035
84663STFFR815WE,-111.625,40.191,False,49,049,002802,49,49049,49049002802,1400000US49049002802,NESTLE USA-PREPARED FOODS DIV INC,815 W RAYMOND KLAUCK WAY,SPRINGVILLE,UT,84663,"NESTLE USA-PREPARED FOODS DIV INC.815 W RAYMOND KLAUCK WAY, SPRINGVILLE UTAH 84663 (UTAH)",0,C,,110000470115
84606PRVST1400S,-111.63600000000001,40.215,False,49,049,002802,49,49049,49049002802,1400000US49049002802,PRO-STEEL,1400 S STATE ST,PROVO,UT,84606,"PRO-STEEL.1400 S STATE ST, PROVO UTAH 84606 (UTAH)",0,C,,
84606NTLLS2241S,-111.62799999999999,40.201,False,49,049,002802,49,49049,49049002802,1400000US49049002802,NOV  INTELLISERV PROVO,2241 S. LARSEN PKWY,PROVO,UT,84606,"NOV  INTELLISERV PROVO.2241 S. LARSEN PKWY, PROVO UTAH 84606 (UTAH)",0,C,,110024830101
84601PPSCL362SO,-111.65899999999999,40.229,False,49,049,002400,49,49049,49049002400,1400000US49049002400,PEPSI-COLA 7-UP BOTTLING CO,362 S UNIVERSITY AVE,PROVO,UT,84601,"PEPSI-COLA 7-UP BOTTLING CO.362 S UNIVERSITY AVE, PROVO UTAH 84601 (UTAH)",0,C,,
84606RLLYN2555S,-111.65799999999999,40.234,False,49,049,002400,49,49049,49049002400,1400000US49049002400,REILLY INDUSTRIES INC,2555 S INDUSTRIAL PKY,PROVO,UT,84606,"REILLY INDUSTRIES INC.2555 S INDUSTRIAL PKY, PROVO UTAH 84606 (UTAH)",0,C,,
84604SMTHM275WE,-111.663,40.264,False,49,049,001401,49,49049,49049001401,1400000US49049001401,SMITH MEGADIAMOND,275 W 2230 N,PROVO,UT,84604,"SMITH MEGADIAMOND.275 W 2230 N, PROVO UTAH 84604 (UTAH)",0,C,,
84648STHWSHIWAY,-112.197,39.564,False,49,023,010200,49,49023,49023010200,1400000US49023010200,ASH GROVE CEMENT- LEAMINGTON UTAH,HWY 132 6 MILES E OF LEAMINGTON,LEAMINGTON,UT,84638,"ASH GROVE CEMENT- LEAMINGTON UTAH.HWY 132 6 MILES E OF LEAMINGTON, LEAMINGTON UTAH 84638 (JUAB)",0,C,,110002463717
8464WFBRTK2762S,-111.84899999999999,39.67,False,49,023,010200,49,49023,49023010200,1400000US49023010200,OWENS CORNING INSULATING SYSTEMS LLC - NEPHI,2762 S. MAIN STREET,NEPHI,UT,84648,"OWENS CORNING INSULATING SYSTEMS LLC - NEPHI.2762 S. MAIN STREET, NEPHI UTAH 84648 (JUAB)",0,C,,110039135389
8464WBRNSB38NRT,-111.834,39.843,False,49,023,010200,49,49049,49023010200,1400000US49023010200,BARNES BULLETS,38 N FRONTAGE RD,MONA,UT,84645,"BARNES BULLETS.38 N FRONTAGE RD, MONA UTAH 84645 (UTAH)",0,C,,110064401730
84651GNNPR700NO,-111.725,40.054,False,49,049,003401,49,49049,49049003401,1400000US49049003401,GENERAL PARTS CO - RAYLOC,700 N 500 E,PAYSON,UT,84651,"GENERAL PARTS CO - RAYLOC.700 N 500 E, PAYSON UTAH 84651 (UTAH)",0,C,,110002274048
84657SGYPSHWY24,-111.96799999999999,38.841,False,49,041,975200,49,49041,49041975200,1400000US49041975200,US GYPSUM CO SIGURD UTAH,78 N STATE ST,SIGURD,UT,84657,"US GYPSUM CO SIGURD UTAH.78 N STATE ST, SIGURD UTAH 84657 (SEVIER)",0,C,,110007186892
84657GRGPC200SO,-111.96700000000001,38.836999999999996,False,49,041,975200,49,49041,49041975200,1400000US49041975200,GEORGIA-PACIFIC SIGURD GYPSUM,200 S STATE ST,SIGURD,UT,84657,"GEORGIA-PACIFIC SIGURD GYPSUM.200 S STATE ST, SIGURD UTAH 84657 (SEVIER)",0,C,,
84660TLFLX1800N,-111.662,40.133,False,49,049,010503,49,49049,49049010503,1400000US49049010503,KLUNE INDUSTRIES INC,1800 N 300 W,SPANISH FORK,UT,84660,"KLUNE INDUSTRIES INC.1800 N 300 W, SPANISH FORK UTAH 84660 (UTAH)",0,C,,110000842866
84660TLFLX609WE,-111.666,40.134,False,49,049,010503,49,49049,49049010503,1400000US49049010503,TELEFLEX PRECISION CASTING,609 W 1900 N,SPANISH FORK,UT,84660,"TELEFLEX PRECISION CASTING.609 W 1900 N, SPANISH FORK UTAH 84660 (UTAH)",0,C,,
8466WJCKBP2276N,-111.65,40.138000000000005,False,49,049,010503,49,49049,49049010503,1400000US49049010503,JACK B PARSON SPANISH FORK,2276 NORTH 200 EAST,SPANISH FORK,UT,84660,"JACK B PARSON SPANISH FORK.2276 NORTH 200 EAST, SPANISH FORK UTAH 84660 (UTAH)",0,C,,110041626504
84660TRJNCJUNCT,-111.583,40.083,False,49,049,010305,49,49049,49049010305,1400000US49049010305,ENSIGN-BICKFORD CO,8305 S HWY 6,SPANISH FORK,UT,84660,"ENSIGN-BICKFORD CO.8305 S HWY 6, SPANISH FORK UTAH 84660 (UTAH)",0,C,,110000600635
84663FBRTK1230N,-111.631,40.186,False,49,049,002901,49,49049,49049002901,1400000US49049002901,ALCOA COMPOSITES INC FIBERTEK DIV,1180 N MOUNTAIN SPRINGS PKY,SPRINGVILLE,UT,846630910,"ALCOA COMPOSITES INC FIBERTEK DIV.1180 N MOUNTAIN SPRINGS PKY, SPRINGVILLE UTAH 84663 (UTAH)",1,C,,
84663MCSPP1295W,-111.637,40.185,False,49,049,002901,49,49049,49049002901,1400000US49049002901,MACA SUPPLY CO,1415 W SPRING CREEK PL,SPRINGVILLE,UT,84663,"MACA SUPPLY CO.1415 W SPRING CREEK PL, SPRINGVILLE UTAH 84663 (UTAH)",0,C,,110000470106
84663VLTKN1MOUN,-111.631,40.186,False,49,049,002901,49,49049,49049002901,1400000US49049002901,FLOWSERVE/SPRINGVILLE,1350 N MOUNTAIN SPRINGS PKWY,SPRINGVILLE,UT,84663,"FLOWSERVE/SPRINGVILLE.1350 N MOUNTAIN SPRINGS PKWY, SPRINGVILLE UTAH 84663 (UTAH)",0,C,,110000470124
8466WWNGNT1325W,-111.635,40.188,False,49,049,002901,49,49049,49049002901,1400000US49049002901,WING ENTERPRISES INC,1198 SPRING CREEK PL,SPRINGVILLE,UT,84663,"WING ENTERPRISES INC.1198 SPRING CREEK PL, SPRINGVILLE UTAH 84663 (UTAH)",0,C,,110011672136
84713CCHVL330WE,-112.93,38.211,False,49,001,100200,49,49001,49001100200,1400000US49001100200,DAIRY FARMERS OF AMERICA INC BEAVER UT,330 WEST 300 SOUTH,BEAVER,UT,84713,"DAIRY FARMERS OF AMERICA INC BEAVER UT.330 WEST 300 SOUTH, BEAVER UTAH 84713 (BEAVER)",0,C,,110001132809
84751MRPHY585E6,-112.999,38.389,False,49,001,100200,49,49001,49001100200,1400000US49001100200,MURPHY-BROWN LLC CIRCLE 4 FEED MILL,585 E 6TH AVE,MILFORD,UT,84751,"MURPHY-BROWN LLC CIRCLE 4 FEED MILL.585 E 6TH AVE, MILFORD UTAH 84751 (BEAVER)",0,C,,110002159690
84752SMTHF36WTH,-112.92399999999999,38.214,False,49,001,100200,49,49001,49001100200,1400000US49001100200,SMITHFIELD BIOENERGY LLC,3600 W THERMO RD,MINERSVILLE,UT,84752,"SMITHFIELD BIOENERGY LLC.3600 W THERMO RD, MINERSVILLE UTAH 84752 (BEAVER)",0,C,,110024887620
84020CTTNW12757,-111.891,40.52,False,49,035,112817,49,49035,49035112817,1400000US49035112817,COTTONWOOD CABINETS,12757 S MINUTEMAN DR,DRAPER,UT,84020,"COTTONWOOD CABINETS.12757 S MINUTEMAN DR, DRAPER UTAH 84020 (SALT LAKE)",0,C,,
84020BLLRD12050,-111.896,40.532,False,49,035,112817,49,49035,49035112817,1400000US49035112817,BALLARD MEDICAL PRODUCTS,12050 LONE PEAK PKWY,DRAPER,UT,84020,"BALLARD MEDICAL PRODUCTS.12050 LONE PEAK PKWY, DRAPER UTAH 84020 (SALT LAKE)",0,C,,110000468841
84070NLMTD1175S,-111.891,40.551,False,49,035,112817,49,49035,49035112817,1400000US49035112817,UNLIMITED DESIGNS INC.,11075 S STATE SUITE 30,SANDY,UT,84070,"UNLIMITED DESIGNS INC..11075 S STATE SUITE 30, SANDY UTAH 84070 (SALT LAKE)",0,C,,110037148510
8402WGNVRC15547,-111.90100000000001,40.541,False,49,035,112817,49,49035,49035112817,1400000US49035112817,GENEVA ROCK PRODUCTS INC,15547 SOUTH 300 WEST,DRAPER,UT,84020,"GENEVA ROCK PRODUCTS INC.15547 SOUTH 300 WEST, DRAPER UTAH 84020 (SALT LAKE)",0,C,,110005210388
84044HRCLS6800W,-112.054,40.654,False,49,035,113525,49,49035,49035113525,1400000US49035113525,HEXCEL CORP,5400 S 6800 W,WEST VALLEY CITY,UT,84119,"HEXCEL CORP.5400 S 6800 W, WEST VALLEY CITY UTAH 84119 (SALT LAKE)",0,C,,110020094351
84118BRDYC4825S,-112.037,40.665,False,49,035,113525,49,49035,49035113525,1400000US49035113525,BRODY CHEMICAL,6125 W DOUBLE EAGLE CIR,SALT LAKE CITY,UT,84118,"BRODY CHEMICAL.6125 W DOUBLE EAGLE CIR, SALT LAKE CITY UTAH 84118 (SALT LAKE)",0,C,,110042338832
84118RCTNC6301W,-112.04,40.668,False,49,035,113525,49,49035,49035113525,1400000US49035113525,FRITO-LAY INC.,6301 W 4700 S,WEST VALLEY CITY,UT,84118,"FRITO-LAY INC..6301 W 4700 S, WEST VALLEY CITY UTAH 84118 (SALT LAKE)",0,C,,110009508568
84118SPSTC5195W,-112.014,40.668,False,49,035,113539,49,49035,49035113539,1400000US49035113539,SPS TECHS INC,5195 W 4700 S,SALT LAKE CITY,UT,84118,"SPS TECHS INC.5195 W 4700 S, SALT LAKE CITY UTAH 84118 (SALT LAKE)",0,C,,
84302VLCRF1875W,-112.05799999999999,41.532,False,49,003,960500,49,49003,49003960500,1400000US49003960500,NUCOR CORP VULCRAFT DIV,1875 W HWY 13,BRIGHAM CITY,UT,84302,"NUCOR CORP VULCRAFT DIV.1875 W HWY 13, BRIGHAM CITY UTAH 84302 (BOX ELDER)",0,C,,110000771291
84302MRTNT250AM,-112.03,41.516000000000005,False,49,003,960500,49,49003,49003960500,1400000US49003960500,AUTOLIV NA,250 AMERICAN WAY,BRIGHAM CITY,UT,84302,"AUTOLIV NA.250 AMERICAN WAY, BRIGHAM CITY UTAH 84302 (BOX ELDER)",0,C,,110000469680
84302STHRN920W6,-112.031,41.522,False,49,003,960500,49,49003,49003960500,1400000US49003960500,CMC SOUTHERN POST UTAH,920 W 600 N,BRIGHAM CITY,UT,84302,"CMC SOUTHERN POST UTAH.920 W 600 N, BRIGHAM CITY UTAH 84302 (BOX ELDER)",0,C,,110000495394
84302STRMP165S8,-112.02799999999999,41.507,False,49,003,960500,49,49003,49003960500,1400000US49003960500,STORM PRODUCTS INC.,165 S 800 W,BRIGHAM CITY,UT,84302,"STORM PRODUCTS INC..165 S 800 W, BRIGHAM CITY UTAH 84302 (BOX ELDER)",0,C,,110013327435
84302NCRBL15NWA,-112.04899999999999,41.526,False,49,003,960500,49,49003,49003960500,1400000US49003960500,NUCOR BUILDING SYSTEMS LLC-UTAH,1050 N WATERY LN,BRIGHAM CITY,UT,84302,"NUCOR BUILDING SYSTEMS LLC-UTAH.1050 N WATERY LN, BRIGHAM CITY UTAH 84302 (BOX ELDER)",0,C,,110039075336
84402FLMCB1483W,-112.015,41.22,False,49,057,210505,49,49057,49057210505,1400000US49057210505,BARNES AEROSPACE OGDEN DIV,1025 S. DEPOT DRIVE,OGDEN,UT,84404,"BARNES AEROSPACE OGDEN DIV.1025 S. DEPOT DRIVE, OGDEN UTAH 84404 (WEBER)",0,C,,110008176320
84402WLLSN1741W,-112.022,41.22,False,49,057,210505,49,49057,49057210505,1400000US49057210505,WELLS INDUSTRIES INC,1741 W 2550 S,OGDEN,UT,844021619,"WELLS INDUSTRIES INC.1741 W 2550 S, OGDEN UTAH 84402 (WEBER)",0,C,,
84401STKRP2350S,-112.02600000000001,41.225,False,49,057,210505,49,49057,49057210505,1400000US49057210505,"SEMMATERIALS, L.P. - OGDEN UT",2350 S 1900 W,OGDEN,UT,84401,"SEMMATERIALS, L.P. - OGDEN UT.2350 S 1900 W, OGDEN UTAH 84401 (WEBER)",0,C,,110002470200
8440WWSTHV16S25,-112.029,41.233999999999995,False,49,057,210505,49,49057,49057210505,1400000US49057210505,WEST HAVEN BATCH PLANT,1600 S 2050 W,OGDEN,UT,84401,"WEST HAVEN BATCH PLANT.1600 S 2050 W, OGDEN UTAH 84401 (WEBER)",0,C,,110046339084
84501KLFGL1510S,-110.81,39.6,False,49,007,000300,49,49007,49007000300,1400000US49007000300,KILFOYLE KRAFTS,1510 S CARBON ON HAY 10,PRICE,UT,845010917,"KILFOYLE KRAFTS.1510 S CARBON ON HAY 10, PRICE UTAH 84501 (CARBON)",0,C,,110000469993
84720MRCNZ10622,-113.113,37.795,False,49,021,110200,49,49021,49021110200,1400000US49021110200,AMERICAN PACIFIC CORP UTAH OPERATIONS,10622 W 6400 N,CEDAR CITY,UT,84721,"AMERICAN PACIFIC CORP UTAH OPERATIONS.10622 W 6400 N, CEDAR CITY UTAH 84721 (IRON)",0,C,,110000566593
84010TNKNW525WE,-111.87,40.893,False,49,011,126500,49,49011,49011126500,1400000US49011126500,HK SYSTEMS INC,525 W 350 N,WEST BOUNTIFUL,UT,84101,"HK SYSTEMS INC.525 W 350 N, WEST BOUNTIFUL UTAH 84101 (DAVIS)",0,C,,
84043GNRLR2200N,-111.869,40.417,False,49,049,010214,49,49049,49049010214,1400000US49049010214,UTAH REFRACTORIES CORP,2200 N 1200 W,LEHI,UT,84043,"UTAH REFRACTORIES CORP.2200 N 1200 W, LEHI UTAH 84043 (UTAH)",0,C,,110064205444
84104PRSRC977SO,-111.911,40.748000000000005,False,49,035,102801,49,49035,49035102801,1400000US49035102801,PRS INC,977 S 700 W,SALT LAKE CITY,UT,84104,"PRS INC.977 S 700 W, SALT LAKE CITY UTAH 84104 (SALT LAKE)",0,C,,
84115PXCXX580W1,-111.90799999999999,40.742,False,49,035,102801,49,49035,49035102801,1400000US49035102801,PAX CO,580 W 13TH ST,SALT LAKE CITY,UT,841155197,"PAX CO.580 W 13TH ST, SALT LAKE CITY UTAH 84115 (SALT LAKE)",0,C,,
84720GRMNF2695W,-113.105,37.685,False,49,021,110701,49,49021,49021110701,1400000US49021110701,GOER MFG CO,2695 W HWY 56,CEDAR CITY,UT,84720,"GOER MFG CO.2695 W HWY 56, CEDAR CITY UTAH 84720 (IRON)",0,C,,
84720NDRSN1033N,-113.095,37.695,False,49,021,110701,49,49021,49021110701,1400000US49021110701,ANDERSON HICKEY CO,1033 N PRODUCTION RD,CEDAR CITY,UT,84720,"ANDERSON HICKEY CO.1033 N PRODUCTION RD, CEDAR CITY UTAH 84720 (IRON)",0,C,,
84720MTLCR498N2,-113.102,37.685,False,49,021,110701,49,49021,49021110701,1400000US49021110701,METALCRAFT TECHNOLOGIES INC,498 N 2774 W,CEDAR CITY,UT,84720,"METALCRAFT TECHNOLOGIES INC.498 N 2774 W, CEDAR CITY UTAH 84720 (IRON)",0,C,,
84720WSTRN997NO,-113.089,37.694,False,49,021,110701,49,49021,49021110701,1400000US49021110701,WESTERN QUALITY FOODS LLC,997 N AIRPORT RD,CEDAR CITY,UT,84721,"WESTERN QUALITY FOODS LLC.997 N AIRPORT RD, CEDAR CITY UTAH 84721 (IRON)",0,C,,110000470142
84720MTLCR597N1,-113.08200000000001,37.685,False,49,021,110701,49,49021,49021110701,1400000US49021110701,METALCRAFT PRECISION COMPONENTS LC,597 N 1500 W,CEDAR CITY,UT,84720,"METALCRAFT PRECISION COMPONENTS LC.597 N 1500 W, CEDAR CITY UTAH 84720 (IRON)",0,C,,
84720CDRCT145NB,-113.079,37.703,False,49,021,110701,49,49021,49021110701,1400000US49021110701,CEDAR CITY ASPHALT & CONCRETE PLANTS,1405 N BULLDOG RD,CEDAR CITY,UT,84721,"CEDAR CITY ASPHALT & CONCRETE PLANTS.1405 N BULLDOG RD, CEDAR CITY UTAH 84721 (IRON)",0,C,,110025331996
84720SFRST1635N,-113.087,37.708,False,49,021,110701,49,49021,49021110701,1400000US49021110701,U.S. FOREST SERVICE CEDAR CITY AIRTANKER BASE,1635 N AIRPORT RD,CEDAR CITY,UT,84720,"U.S. FOREST SERVICE CEDAR CITY AIRTANKER BASE.1635 N AIRPORT RD, CEDAR CITY UTAH 84720 (IRON)",0,F,,110025332012
84720WHTWV2172W,-113.09,37.693000000000005,False,49,021,110701,49,49021,49021110701,1400000US49021110701,WHITEWAVE FOODS,2172 W INDUSTRY WAY,CEDAR CITY,UT,84720,"WHITEWAVE FOODS.2172 W INDUSTRY WAY, CEDAR CITY UTAH 84720 (IRON)",0,C,,110006624206
8472WCDRCT197NB,-113.079,37.713,False,49,021,110701,49,49021,49021110701,1400000US49021110701,CEDAR CITY,1970 N BULLDOG RD,CEDAR CITY,UT,84721,"CEDAR CITY.1970 N BULLDOG RD, CEDAR CITY UTAH 84721 (IRON)",0,C,,110070566213
84003NTNLS620SO,-111.789,40.364000000000004,False,49,049,000400,49,49049,49049000400,1400000US49049000400,NATIONAL SECURITY SAFE CO,620 S 380 E,AMERICAN FORK,UT,84003,"NATIONAL SECURITY SAFE CO.620 S 380 E, AMERICAN FORK UTAH 84003 (UTAH)",0,C,,
84041SMTHS500NS,-111.988,41.067,False,49,011,126002,49,49011,49011126002,1400000US49011126002,KROGER CORP SMITHS FOOD & DRUG DAIRY DIV,500 N SUGAR ST,LAYTON,UT,84041,"KROGER CORP SMITHS FOOD & DRUG DAIRY DIV.500 N SUGAR ST, LAYTON UTAH 84041 (DAVIS)",0,C,,110000468850
84117GLLLB1011E,-111.86200000000001,40.666,False,49,035,111904,49,49035,49035111904,1400000US49035111904,GULL LABORATORIES INC,1011 EAST 4800 SOUTH,SALT LAKE CITY,UT,84117,"GULL LABORATORIES INC.1011 EAST 4800 SOUTH, SALT LAKE CITY UTAH 84117 (SALT LAKE)",0,C,,
84321LGNCC290S4,-111.846,41.726000000000006,False,49,005,001002,49,49005,49005001002,1400000US49005001002,LOGAN COACH INC,290 S 400 W,LOGAN,UT,84321,"LOGAN COACH INC.290 S 400 W, LOGAN UTAH 84321 (CACHE)",0,C,,
84321BCRXX710W2,-111.852,41.735,False,49,005,001002,49,49005,49005001002,1400000US49005001002,BAICOR,710 W 200 N,LOGAN,UT,84321,"BAICOR.710 W 200 N, LOGAN UTAH 84321 (CACHE)",0,C,,
84648NPHRB255WE,-111.839,39.725,False,49,023,010100,49,49023,49023010100,1400000US49023010100,NRPJONESLLC,255 W 1100 N,NEPHI,UT,84648,"NRPJONESLLC.255 W 1100 N, NEPHI UTAH 84648 (JUAB)",0,C,,110011800275
84770VRXSY3301D,-113.51799999999999,37.115,False,49,053,271100,49,49053,49053271100,1400000US49053271100,OMG APEX,15 MILES W HWY 91,SAINT GEORGE,UT,84770,"OMG APEX.15 MILES W HWY 91, SAINT GEORGE UTAH 84770 (WASHINGTON)",0,C,,
84790CBNTC188N3,-113.521,37.115,False,49,053,271100,49,49053,49053271100,1400000US49053271100,CABINETEC,188 N 3050 E,SAINT GEORGE,UT,84790,"CABINETEC.188 N 3050 E, SAINT GEORGE UTAH 84790 (WASHINGTON)",0,C,,110001883793
84780HNSNP99S1E,-113.508,37.116,False,49,053,271100,49,49053,49053271100,1400000US49053271100,HANSON PIPE & PRECAST INC WASHINGTON UT,990 S 100 E,WASHINGTON,UT,84780,"HANSON PIPE & PRECAST INC WASHINGTON UT.990 S 100 E, WASHINGTON UTAH 84780 (WASHINGTON)",0,C,,110031018351
84016LFTMPBUILD,-112.03299999999999,41.083999999999996,False,49,011,125406,49,49011,49011125406,1400000US49011125406,LIFETIME PRODUCTS INC,FREEPORT CENTER BUILDING D-11,CLEARFIELD,UT,84016,"LIFETIME PRODUCTS INC.FREEPORT CENTER BUILDING D-11, CLEARFIELD UTAH 84016 (DAVIS)",0,C,,110000746587
84088NTTRM4080W,-111.95,40.596,False,49,035,112920,49,49035,49035112920,1400000US49035112920,NATTER MANUFACTURING INC,4080 W 8540 S,WEST JORDAN,UT,84088,"NATTER MANUFACTURING INC.4080 W 8540 S, WEST JORDAN UTAH 84088 (SALT LAKE)",2,C,,
84107VCTNV4231S,-111.88799999999999,40.679,False,49,035,112001,49,49035,49035112001,1400000US49035112001,VACATION VILLAGE INC.,4231 S STATE ST,SALT LAKE CITY,UT,84107,"VACATION VILLAGE INC..4231 S STATE ST, SALT LAKE CITY UTAH 84107 (SALT LAKE)",0,C,,110000469449
84116MRKST1230W,-111.928,40.765,False,49,035,102702,49,49035,49035102702,1400000US49035102702,MARK STEEL CORP JORDAN RIVER PLANT,1230 WEST 200 SOUTH,SALT LAKE CITY,UT,84104,"MARK STEEL CORP JORDAN RIVER PLANT.1230 WEST 200 SOUTH, SALT LAKE CITY UTAH 84104 (SALT LAKE)",0,C,,110005197072
84339MVMWL185E3,-111.93,41.645,False,49,005,001300,49,49005,49005001300,1400000US49005001300,MVM WELLSVILLE DAIRY,185 E 300 N,WELLSVILLE,UT,84339,"MVM WELLSVILLE DAIRY.185 E 300 N, WELLSVILLE UTAH 84339 (CACHE)",0,C,,
84068LCSWS6125S,-111.48200000000001,40.721,False,49,043,964102,49,49043,49043964102,1400000US49043964102,LUCAS AEROSPACE GEARED SYSTEMS,6125 SILVER CREEK DR,PARK CITY,UT,840680910,"LUCAS AEROSPACE GEARED SYSTEMS.6125 SILVER CREEK DR, PARK CITY UTAH 84068 (SUMMIT)",0,C,,
84068PPRMP6280S,-111.48200000000001,40.721,False,49,043,964102,49,49043,49043964102,1400000US49043964102,"PIPER IMPACT INC, UTAH DIV",6280 SILVER CREEK DR,PARK CITY,UT,840681990,"PIPER IMPACT INC, UTAH DIV.6280 SILVER CREEK DR, PARK CITY UTAH 84068 (SUMMIT)",0,C,,
8406WGNVRC248AT,-111.461,40.686,False,49,043,964102,49,49043,49043964102,1400000US49043964102,GENEVA ROCK PRODUCTS INC - PARK CITY FACILITY,248 ATKINSON ROAD,PARK CITY,UT,84060,"GENEVA ROCK PRODUCTS INC - PARK CITY FACILITY.248 ATKINSON ROAD, PARK CITY UTAH 84060 (SUMMIT)",0,C,,110067127479
84302MRTNT9160A,-112.227,41.575,False,49,003,960400,49,49003,49003960400,1400000US49003960400,AUTOLIV ASP INC PROMONTORY,16700 W HWY 83 ASP-4,PROMONTORY,UT,84307,"AUTOLIV ASP INC PROMONTORY.16700 W HWY 83 ASP-4, PROMONTORY UTAH 84307 (BOX ELDER)",0,C,,110015675599
8430WPRCTR5NRTH,-112.17299999999999,41.598,False,49,003,960400,49,49003,49003960400,1400000US49003960400,THE PROCTER & GAMBLE PAPER PRODUCTS CO,5000 NORTH IOWA STRING RD,BEAR RIVER CITY,UT,84301,"THE PROCTER & GAMBLE PAPER PRODUCTS CO.5000 NORTH IOWA STRING RD, BEAR RIVER CITY UTAH 84301 (BOX ELDER)",0,C,,110043263544
84414DMRLB2700N,-112.00299999999999,41.308,False,49,057,210304,49,49057,49057210304,1400000US49057210304,ADMIRAL BEVERAGE CORP,2751 N 1000 W,OGDEN,UT,844142144,"ADMIRAL BEVERAGE CORP.2751 N 1000 W, OGDEN UTAH 84414 (WEBER)",0,C,,
84660CRSSN1550N,-111.64399999999999,40.13,False,49,049,010304,49,49049,49049010304,1400000US49049010304,SAPA EXTRUSIONS INC,1550 NORTH KIRBY LN,SPANISH FORK,UT,84660,"SAPA EXTRUSIONS INC.1550 NORTH KIRBY LN, SPANISH FORK UTAH 84660 (UTAH)",0,C,,110000470099
84770QRSKT516NI,-113.56,37.117,False,49,053,271200,49,49053,49053271200,1400000US49053271200,AQUARIUS KITCHEN & BATH,516 N INDUSTRIAL RD,SAINT GEORGE,UT,84770,"AQUARIUS KITCHEN & BATH.516 N INDUSTRIAL RD, SAINT GEORGE UTAH 84770 (WASHINGTON)",0,C,,
84770STGRG1301E,-113.557,37.12,False,49,053,271200,49,49053,49053271200,1400000US49053271200,ST GEORGE STEEL LLC,1301 E 700 N,SAINT GEORGE,UT,84770,"ST GEORGE STEEL LLC.1301 E 700 N, SAINT GEORGE UTAH 84770 (WASHINGTON)",0,C,,110000470151
84770RMNMR451N1,-113.557,37.116,False,49,053,271200,49,49053,49053271200,1400000US49053271200,ROMAN MARBLE CO INC,451 N 1300 E,SAINT GEORGE,UT,84770,"ROMAN MARBLE CO INC.451 N 1300 E, SAINT GEORGE UTAH 84770 (WASHINGTON)",0,C,,
84770HYCCK845NI,-113.557,37.121,False,49,053,271200,49,49053,49053271200,1400000US49053271200,THOMAS PETROLEUM SAINT GEORGE BULK PLANT,845 N INDUSTRIAL RD,SAINT GEORGE,UT,84770,"THOMAS PETROLEUM SAINT GEORGE BULK PLANT.845 N INDUSTRIAL RD, SAINT GEORGE UTAH 84770 (WASHINGTON)",0,C,,110056978677
84056SRFRC7274W,-112.021,41.128,False,49,011,125200,49,49011,49011125200,1400000US49011125200,US DOD USAF HILL AFB,6044 DOGWOOD AVE,HILL AFB,UT,84056,"US DOD USAF HILL AFB.6044 DOGWOOD AVE, HILL AFB UTAH 84056 (DAVIS)",0,F,,110064299085
84058WSTRN1625N,-111.69,40.328,False,49,049,000708,49,49049,49049000708,1400000US49049000708,WESTERN PIPE COATERS,1610 N 250 W,VINEYARD,UT,84058,"WESTERN PIPE COATERS.1610 N 250 W, VINEYARD UTAH 84058 (UTAH)",0,C,,
84062SKYLN382WE,-111.74700000000001,40.365,False,49,049,000509,49,49049,49049000509,1400000US49049000509,SKYLINE IND,382 W CENTER ST,PLEASANT GROVE,UT,84062,"SKYLINE IND.382 W CENTER ST, PLEASANT GROVE UTAH 84062 (UTAH)",0,C,,
84062TMTRP35WCE,-111.74700000000001,40.365,False,49,049,000509,49,49049,49049000509,1400000US49049000509,AUTO METER PRODUCTS  PLEASANT GROVE FACILITY,350 W CENTER ST,PLEASANT GROVE,UT,84062,"AUTO METER PRODUCTS  PLEASANT GROVE FACILITY.350 W CENTER ST, PLEASANT GROVE UTAH 84062 (UTAH)",0,C,,110009506169
84070HRMNM8670S,-111.905,40.593,False,49,035,112403,49,49035,49035112403,1400000US49035112403,HARMAN MUSIC GROUP INC,8670 S SANDY PKWY,SANDY,UT,84070,"HARMAN MUSIC GROUP INC.8670 S SANDY PKWY, SANDY UTAH 84070 (SALT LAKE)",0,C,,110010576830
84115CNXSP580WE,-111.87200000000001,40.784,False,49,035,101000,49,49035,49035101000,1400000US49035101000,CENEX SUPPLY & MARKETING INC,580 W 13TH ST,SALT LAKE CITY,UT,841155197,"CENEX SUPPLY & MARKETING INC.580 W 13TH ST, SALT LAKE CITY UTAH 84115 (SALT LAKE)",0,C,,
84407SDDDF500W1,-112.0,41.25899999999999,False,49,057,200300,49,49057,49057200300,1400000US49057200300,"US DEFENSE LOGISTICS AGENCY, OGDEN DISTRIBUTION DEPOT",500 W 12TH ST,OGDEN,UT,844075803,"US DEFENSE LOGISTICS AGENCY, OGDEN DISTRIBUTION DEPOT.500 W 12TH ST, OGDEN UTAH 84407 (WEBER)",1,F,,
84315NTRPC736WH,-111.99600000000001,41.284,False,49,057,200300,49,49057,49057200300,1400000US49057200300,INTERPACE HOLDINGS LLC,736 W HARRISVILLE RD,HARRISVILLE,UT,84404,"INTERPACE HOLDINGS LLC.736 W HARRISVILLE RD, HARRISVILLE UTAH 84404 (WEBER)",0,C,,110001881786
84404LKYWS551SD,-111.99700000000001,41.253,False,49,057,200300,49,49057,49057200300,1400000US49057200300,ELKAY PLUMBING PRODUCTS CO,551 S DEPOT DR,OGDEN,UT,84404,"ELKAY PLUMBING PRODUCTS CO.551 S DEPOT DR, OGDEN UTAH 84404 (WEBER)",0,C,,110039204802
8440WBRNSR125SU,-111.995,41.247,False,49,057,200300,49,49057,49057200300,1400000US49057200300,BARNES AEROSPACE OGDEN DIV,1025 S DEPOT DR,OGDEN,UT,84404,"BARNES AEROSPACE OGDEN DIV.1025 S DEPOT DR, OGDEN UTAH 84404 (WEBER)",0,C,,110037445921
8440WRLCRP215N7,-111.995,41.266000000000005,False,49,057,200300,49,49057,49057200300,1400000US49057200300,RALCORP FROZEN BAKERY INC (TREEHOUSE FOODS),215 N 700 W,OGDEN,UT,84404,"RALCORP FROZEN BAKERY INC (TREEHOUSE FOODS).215 N 700 W, OGDEN UTAH 84404 (WEBER)",0,C,,110069293687
84050HLNMN6055E,-111.53200000000001,41.063,False,49,029,970100,49,49029,49029970100,1400000US49029970100,HOLCIM (US) INC DEVIL'S SLIDE PLANT,6055 E CROYDON RD,MORGAN,UT,84050,"HOLCIM (US) INC DEVIL'S SLIDE PLANT.6055 E CROYDON RD, MORGAN UTAH 84050 (MORGAN)",0,C,,110012414128
84050BRWNN1BROW,-111.76899999999999,41.148999999999994,False,49,029,970100,49,49029,49029970100,1400000US49029970100,BROWNING ARMS CO,1 BROWNING PL,MORGAN,UT,84050,"BROWNING ARMS CO.1 BROWNING PL, MORGAN UTAH 84050 (MORGAN)",0,C,,110012700737
84335CNSMT935SO,-111.833,41.818000000000005,False,49,005,000202,49,49005,49005000202,1400000US49005000202,ICON SMITHFIELD SOUTH,935 S MAIN,SMITHFIELD,UT,84335,"ICON SMITHFIELD SOUTH.935 S MAIN, SMITHFIELD UTAH 84335 (CACHE)",0,C,,
84335STKRP250N3,-111.824,41.842,False,49,005,000202,49,49005,49005000202,1400000US49005000202,STAKER & PARSON COMPANIES SMITHFIELD PLANT,250 N 300 E,SMITHFIELD,UT,84335,"STAKER & PARSON COMPANIES SMITHFIELD PLANT.250 N 300 E, SMITHFIELD UTAH 84335 (CACHE)",0,C,,110001880572
84060PRKCT248EH,-111.82,41.842,False,49,005,000202,49,49043,49005000202,1400000US49005000202,PARK CITY READY-MIX CONCRETE,248 E HWY 40,PARK CITY,UT,84060,"PARK CITY READY-MIX CONCRETE.248 E HWY 40, PARK CITY UTAH 84060 (SUMMIT)",0,C,,110002322157
84784BRNTW689NS,-113.0,37.001999999999995,False,49,053,270100,49,49053,49053270100,1400000US49053270100,BRENTWOOD IND INC,689 N STATE ST,HILDALE,UT,84784,"BRENTWOOD IND INC.689 N STATE ST, HILDALE UTAH 84784 (WASHINGTON)",1,C,,
84784FRSTW138WF,-113.005,37.001999999999995,False,49,053,270100,49,49053,49053270100,1400000US49053270100,FORESTWOOD INDUSTRIAL INC.,1380 W FIELD AVE,HILDALE,UT,84784,"FORESTWOOD INDUSTRIAL INC..1380 W FIELD AVE, HILDALE UTAH 84784 (WASHINGTON)",0,C,,110020516128
84767SNTLPZINNA,-112.988,37.2,False,49,053,270100,49,49053,49053270100,1400000US49053270100,U.S. NATL. PARK SERVICE ZION NATIONAL PARK (ZION),ZION NATIONAL PARK SR9,SPRINGDALE,UT,84767,"U.S. NATL. PARK SERVICE ZION NATIONAL PARK (ZION).ZION NATIONAL PARK SR9, SPRINGDALE UTAH 84767 (WASHINGTON)",0,F,,110006883051
84646MRNFD350SO,-111.594,39.519,False,49,039,972200,49,49039,49039972200,1400000US49039972200,MORONI TURKEY PROCESSING,350 S 300 W,MORONI,UT,84646,"MORONI TURKEY PROCESSING.350 S 300 W, MORONI UTAH 84646 (SANPETE)",0,C,,110000470062
8464WFDMLL15EAS,-111.58200000000001,39.501,False,49,039,972200,49,49039,49039972200,1400000US49039972200,FEED MILL,15 E 1900 S FEED MILL RD,MORONI,UT,84646,"FEED MILL.15 E 1900 S FEED MILL RD, MORONI UTAH 84646 (SANPETE)",0,C,,110064460266
84737PCMRC210NH,-113.417,37.172,False,49,053,270902,49,49053,49053270902,1400000US49053270902,PACE AMERICAN OF UTAH,210 N HWY 91,HURRICANE,UT,84737,"PACE AMERICAN OF UTAH.210 N HWY 91, HURRICANE UTAH 84737 (WASHINGTON)",0,C,,
8473WSSSTL2292W,-113.33,37.184,False,49,053,270902,49,49053,49053270902,1400000US49053270902,S&S STEEL FABRICATION,2292 WEST 500 NORTH,HURRICANE,UT,84737,"S&S STEEL FABRICATION.2292 WEST 500 NORTH, HURRICANE UTAH 84737 (WASHINGTON)",0,C,,
8473WSNRCC155NR,-113.42299999999999,37.169000000000004,False,49,053,270902,49,49053,49053270902,1400000US49053270902,SUNROC CORP,155 NORTH OLD HIGHWAY 91,HURRICANE,UT,84737,"SUNROC CORP.155 NORTH OLD HIGHWAY 91, HURRICANE UTAH 84737 (WASHINGTON)",0,C,,110027235301
84006KNNCT12300,-112.15,40.516999999999996,False,49,035,113105,49,49035,49035113105,1400000US49035113105,KENNECOTT UTAH COPPER MINE CONCENTRATORS & POWER PLANT,8362 WEST 10200 SOUTH,BINGHAM CANYON,UT,84006,"KENNECOTT UTAH COPPER MINE CONCENTRATORS & POWER PLANT.8362 WEST 10200 SOUTH, BINGHAM CANYON UTAH 84006 (SALT LAKE)",0,C,,110000468805
84006KNNCT8200S,-112.09899999999999,40.584,False,49,035,113105,49,49035,49035113105,1400000US49035113105,KENNECOTT BARNEYS CANYON MINING CO,8200 SOUTH 9600 WEST,COPPERTON,UT,840060311,"KENNECOTT BARNEYS CANYON MINING CO.8200 SOUTH 9600 WEST, COPPERTON UTAH 84006 (SALT LAKE)",0,C,,110042022085
84078BNNZP12500,-109.28399999999999,40.086,False,49,047,940201,49,49047,49047940201,1400000US49047940201,BONANZA POWER PLANT,12500 E 25500 S,VERNAL,UT,84078,"BONANZA POWER PLANT.12500 E 25500 S, VERNAL UTAH 84078 (UINTAH)",0,C,687,110015757670
8406WRLDYN4269E,-109.92,40.302,False,49,047,940201,49,49047,49047940201,1400000US49047940201,RELADYNE WEST,4269 E MAIN STREET,BALLARD,UT,84066,"RELADYNE WEST.4269 E MAIN STREET, BALLARD UTAH 84066 (UINTAH)",0,C,,110070068326
84118BSCPR6087W,-112.035,40.653,False,49,035,113526,49,49035,49035113526,1400000US49035113526,FORTERRA STRUCTURAL SPECIALTY PRODUCTS - WEST VALLEY,6087 W 5400 S,WEST VALLEY CITY,UT,84118,"FORTERRA STRUCTURAL SPECIALTY PRODUCTS - WEST VALLEY.6087 W 5400 S, WEST VALLEY CITY UTAH 84118 (SALT LAKE)",0,C,,110000469555
8411WWSTVL6685W,-112.051,40.653,False,49,035,113526,49,49035,49035113526,1400000US49035113526,WEST VALLEY,6685 W 5400 S,WEST VALLEY CITY,UT,84118,"WEST VALLEY.6685 W 5400 S, WEST VALLEY CITY UTAH 84118 (SALT LAKE)",0,C,,110070070514
8411WGNVRC62S64,-112.041,40.639,False,49,035,113526,49,49035,49035113526,1400000US49035113526,GENEVA ROCK PRODUCTS   BACCHUS PIT,4699 S 6400 W,WEST VALLEY CITY,UT,84128,"GENEVA ROCK PRODUCTS   BACCHUS PIT.4699 S 6400 W, WEST VALLEY CITY UTAH 84128 (SALT LAKE)",0,C,,110002160063
84513PCFCR3MILE,-111.029,39.173,False,49,015,976300,49,49015,49015976300,1400000US49015976300,PACIFICORP HUNTER PLANT,3 MILES S OF CASTLE DALE ON STATE HIGHTWAY 10,CASTLE DALE,UT,84513,"PACIFICORP HUNTER PLANT.3 MILES S OF CASTLE DALE ON STATE HIGHTWAY 10, CASTLE DALE UTAH 84513 (EMERY)",0,C,,110000600608
84537TRLMNWONHW,-111.189,39.316,False,49,015,976300,49,49015,49015976300,1400000US49015976300,TRAIL MOUNTAIN COTTONWOOD MINE,W ON HWY 29 FOR 10 MILES COTTONWOOD CANYON,ORANGEVILLE,UT,84537,"TRAIL MOUNTAIN COTTONWOOD MINE.W ON HWY 29 FOR 10 MILES COTTONWOOD CANYON, ORANGEVILLE UTAH 84537 (EMERY)",0,C,,
84526PCFCRINTER,-110.865,39.727,False,49,007,000600,49,49007,49007000600,1400000US49007000600,PACIFICORP CARBON PLANT,INTERSECTION HWY 6 & 191,HELPER,UT,84526,"PACIFICORP CARBON PLANT.INTERSECTION HWY 6 & 191, HELPER UTAH 84526 (CARBON)",0,C,,110000607200
84539SNNYSONEPO,-110.391,39.548,False,49,007,000600,49,49007,49007000600,1400000US49007000600,SUNNYSIDE COGENERATION ASSOCIATES,ONE POWER PLANT RD,SUNNYSIDE,UT,84539,"SUNNYSIDE COGENERATION ASSOCIATES.ONE POWER PLANT RD, SUNNYSIDE UTAH 84539 (CARBON)",0,C,,110000470008
8454WCVLNG1865W,-110.772,39.525999999999996,False,49,007,000600,49,49007,49007000600,1400000US49007000600,BRC WELLINGTON LLC,1865 W RIDGE RD,WELLINGTON,UT,84542,"BRC WELLINGTON LLC.1865 W RIDGE RD, WELLINGTON UTAH 84542 (CARBON)",0,C,,110016685522
8452WTHMRC794CC,-110.439,39.615,False,49,007,000600,49,49007,49007000600,1400000US49007000600,UTAH AMERICAN ENERGY - WESTRIDGE,794 C CANYON ROAD,EAST CARBON,UT,84520,"UTAH AMERICAN ENERGY - WESTRIDGE.794 C CANYON ROAD, EAST CARBON UTAH 84520 (CARBON)",0,C,,110055499919
84528PCFCR10MIL,-111.07,39.376,False,49,015,976200,49,49015,49015976200,1400000US49015976200,PACIFICORP ENERGY-HUNTINGTON PLANT,10 MILES W OF HUNTINGTON,HUNTINGTON,UT,84528,"PACIFICORP ENERGY-HUNTINGTON PLANT.10 MILES W OF HUNTINGTON, HUNTINGTON UTAH 84528 (EMERY)",0,C,,110020101922
84624BRSHW10MIL,-112.43799999999999,39.467,False,49,027,974100,49,49027,49027974100,1400000US49027974100,MATERION NATURAL RESOURCES INC MILL,10 MILES N HWY 6,DELTA,UT,84624,"MATERION NATURAL RESOURCES INC MILL.10 MILES N HWY 6, DELTA UTAH 84624 (MILLARD)",0,C,,110008175232
84624BRSHW47MIN,-112.574,39.494,False,49,027,974100,49,49023,49027974100,1400000US49027974100,MATERION NATURAL RESOURCES MINE,47 MI NW OF DELTA ON HWY 174,DELTA,UT,84624,"MATERION NATURAL RESOURCES MINE.47 MI NW OF DELTA ON HWY 174, DELTA UTAH 84624 (JUAB)",0,C,,110064500286
84624NTRMN850BR,-112.58,39.51,False,49,027,974100,49,49027,49027974100,1400000US49027974100,INTERMOUNTAIN POWER GENERATING STATION,850 W BRUSH WELLMAN RD,DELTA,UT,84624,"INTERMOUNTAIN POWER GENERATING STATION.850 W BRUSH WELLMAN RD, DELTA UTAH 84624 (MILLARD)",0,C,,110000470053
8462WRLDYN444W2,-112.585,39.356,False,49,027,974100,49,49027,49027974100,1400000US49027974100,RELADYNE WEST,444 W 200 N,DELTA,UT,84624,"RELADYNE WEST.444 W 200 N, DELTA UTAH 84624 (MILLARD)",0,C,,110070244631
84108WTSNL575CH,-111.824,40.757,False,49,035,101400,49,49035,49035101400,1400000US49035101400,ACTAVIS LABORATORIES UT INC,575 577 579 CHIPETA WAY,SALT LAKE CITY,UT,84108,"ACTAVIS LABORATORIES UT INC.575 577 579 CHIPETA WAY, SALT LAKE CITY UTAH 84108 (SALT LAKE)",0,C,,110009506267
84108SNMNS560AR,-111.829,40.757,False,49,035,101400,49,49035,49035101400,1400000US49035101400,SANMINA-SCI,560 ARAPEEN DR,SALT LAKE CITY,UT,84108,"SANMINA-SCI.560 ARAPEEN DR, SALT LAKE CITY UTAH 84108 (SALT LAKE)",0,C,,
8410WBFRDG515CL,-111.821,40.758,False,49,035,101400,49,49035,49035101400,1400000US49035101400,BIOFIRE DIAGNOSTICS,515 COLOROW DRIVE - UNIVERSITY OF UTAH,SALT LAKE CITY,UT,84108,"BIOFIRE DIAGNOSTICS.515 COLOROW DRIVE - UNIVERSITY OF UTAH, SALT LAKE CITY UTAH 84108 (SALT LAKE)",0,C,,110064030622
84634VLMNT550NC,-111.806,39.163000000000004,False,49,039,972300,49,49039,49039972300,1400000US49039972300,APPLIED COMPOSITE TECHNOLOGY MANUFACTURING,550 N CEMETERY RD,GUNNISON,UT,84634,"APPLIED COMPOSITE TECHNOLOGY MANUFACTURING.550 N CEMETERY RD, GUNNISON UTAH 84634 (SANPETE)",0,C,,
84622CNTRF35E4N,-111.811,39.134,False,49,039,972300,49,49039,49039972300,1400000US49039972300,CENTERFIELD,350 E 400 N,CENTERFIELD,UT,84622,"CENTERFIELD.350 E 400 N, CENTERFIELD UTAH 84622 (SANPETE)",0,C,,110017765961
84029CHMCLOLDHW,-112.47200000000001,40.617,False,49,045,130800,49,49045,49045130800,1400000US49045130800,CHEMICAL LIME GRANTSVILLE PLANT,HWY 40,GRANTSVILLE,UT,84029,"CHEMICAL LIME GRANTSVILLE PLANT.HWY 40, GRANTSVILLE UTAH 84029 (TOOELE)",0,C,,110002469356
84074HLLBRMAINS,-112.46799999999999,40.597,False,49,045,130800,49,49045,49045130800,1400000US49045130800,HILL BROTHERS CHEMICAL CO,MAIN ST,ROWLEY,UT,84074,"HILL BROTHERS CHEMICAL CO.MAIN ST, ROWLEY UTAH 84074 (TOOELE)",0,C,,
84043MCRNT1550E,-111.824,40.429,False,49,049,010216,49,49049,49049010216,1400000US49049010216,IM FLASH TECHNOLOGIES LLC,4000 N FLASH DR,LEHI,UT,84043,"IM FLASH TECHNOLOGIES LLC.4000 N FLASH DR, LEHI UTAH 84043 (UTAH)",0,C,,110056968376
84624GRYMN32MIL,-112.81700000000001,38.939,False,49,027,974300,49,49027,49027974300,1400000US49027974300,GRAYMONT WESTERN U.S. INC CRICKET MTN LIME PRODUCTION,32 MILES SW OF DELTA HWY 257,DELTA,UT,84624,"GRAYMONT WESTERN U.S. INC CRICKET MTN LIME PRODUCTION.32 MILES SW OF DELTA HWY 257, DELTA UTAH 84624 (MILLARD)",0,C,,110008061239
84721SLLVN5080W,-113.154,37.689,False,49,021,110300,49,49021,49021110300,1400000US49021110300,BMCA CEDAR CITY LLC (BMCA),5080 W HWY 56,CEDAR CITY,UT,84721,"BMCA CEDAR CITY LLC (BMCA).5080 W HWY 56, CEDAR CITY UTAH 84721 (IRON)",0,C,,110064118976
84720CRRCP888N5,-113.162,37.698,False,49,021,110300,49,49021,49021110300,1400000US49021110300,CERRO FLOW PRODUCTS LLC CEDAR CITY FACILITY,888 N 5300 W,CEDAR CITY,UT,847211170,"CERRO FLOW PRODUCTS LLC CEDAR CITY FACILITY.888 N 5300 W, CEDAR CITY UTAH 84721 (IRON)",1,C,,110005212046
84720MSKTC441NW,-113.249,37.76,False,49,021,110300,49,49021,49021110300,1400000US49021110300,MUSKET CEDAR CITY BULK PLANT,4410 N WECCO RD,CEDAR CITY,UT,84720,"MUSKET CEDAR CITY BULK PLANT.4410 N WECCO RD, CEDAR CITY UTAH 84720 (IRON)",0,C,,110030493525
84016THSTMF5SEC,-112.04899999999999,41.096000000000004,False,49,011,125503,49,49011,49011125503,1400000US49011125503,UTAH STAMPING CO,F5 SECTION 3 5TH ST FREEPORT W INDUSTRIAL PARK,CLEARFIELD,UT,840160423,"UTAH STAMPING CO.F5 SECTION 3 5TH ST FREEPORT W INDUSTRIAL PARK, CLEARFIELD UTAH 84016 (DAVIS)",0,C,,110006528980
84078CHMPN2060S,-109.5,40.446,False,49,047,968200,49,49047,49047968200,1400000US49047968200,NALCO COMPANY-VERNAL 532,2060 S 1500 E,VERNAL,UT,84078,"NALCO COMPANY-VERNAL 532.2060 S 1500 E, VERNAL UTAH 84078 (UINTAH)",1,C,,110005208284
84078QDRCH1575S,-109.49700000000001,40.434,False,49,047,968200,49,49047,49047968200,1400000US49047968200,BRENNTAG PACIFIC INC,1575 S 1625 E,VERNAL,UT,84078,"BRENNTAG PACIFIC INC.1575 S 1625 E, VERNAL UTAH 84078 (UINTAH)",0,C,,110025317556
8407WPLTTH1521S,-109.5,40.446,False,49,047,968200,49,49047,49047968200,1400000US49047968200,PILOT THOMAS LOGISTICS - VERNAL,1521 S 1500 E,VERNAL,UT,84078,"PILOT THOMAS LOGISTICS - VERNAL.1521 S 1500 E, VERNAL UTAH 84078 (UINTAH)",0,C,,110069311667
84084KWMLC7172S,-111.999,40.621,False,49,035,114300,49,49035,49035114300,1400000US49035114300,KWM ELECTRONICS CORP,7172 S AIRPORT RD,WEST JORDAN,UT,840847803,"KWM ELECTRONICS CORP.7172 S AIRPORT RD, WEST JORDAN UTAH 84084 (SALT LAKE)",0,C,,
84116CRWNS1251W,-111.929,40.772,False,49,035,100600,49,49035,49035100600,1400000US49035100600,PEAK ASPHALT LLC GADSBY ASPHALT TERMINAL,1251 W N TEMPLE,SALT LAKE CITY,UT,84116,"PEAK ASPHALT LLC GADSBY ASPHALT TERMINAL.1251 W N TEMPLE, SALT LAKE CITY UTAH 84116 (SALT LAKE)",0,C,,110009508808
84532BLCKL995NH,-109.56200000000001,38.589,False,49,019,000200,49,49019,49019000200,1400000US49019000200,BLACK OIL CO,995 N HWY 191,MOAB,UT,84532,"BLACK OIL CO.995 N HWY 191, MOAB UTAH 84532 (GRAND)",0,C,,
84535BLCKL33NMA,-109.34299999999999,37.873000000000005,False,49,037,978100,49,00000,49037978100,1400000US49037978100,BLACK OIL CO MONTICELLO BULK PLANT,33 N MAIN,MONTICELLO,UT,84535,"BLACK OIL CO MONTICELLO BULK PLANT.33 N MAIN, MONTICELLO UTAH 84535 (SAN JUAN MUNICIPIO)",0,C,,110002315370
84530LSBNV92SCU,-109.29,38.266,False,49,037,978100,49,49049,49037978100,1400000US49037978100,LISBON VALLEY MINING CO LLC,920 S COUNTY RD 313,LA SAL,UT,84530,"LISBON VALLEY MINING CO LLC.920 S COUNTY RD 313, LA SAL UTAH 84530 (UTAH)",0,C,,110025331843
84020MTRLS15567,-111.912,40.466,False,49,035,112810,49,49035,49035112810,1400000US49035112810,MATERIALS PACKAGING CORP,15567 SOUTH MINUTEMAN DR,RIVERTON,UT,84020,"MATERIALS PACKAGING CORP.15567 SOUTH MINUTEMAN DR, RIVERTON UTAH 84020 (SALT LAKE)",0,C,,110023128818
84065PWRLN14717,-111.912,40.484,False,49,035,112810,49,49035,49035112810,1400000US49035112810,POWER LINE INDUSTRIES INC,14773 S HERITAGECREST WAY,RIVERTON,UT,84065,"POWER LINE INDUSTRIES INC.14773 S HERITAGECREST WAY, RIVERTON UTAH 84065 (SALT LAKE)",0,C,,110015679201
84065BLLFR668WE,-111.90899999999999,40.486,False,49,035,112810,49,49035,49035112810,1400000US49035112810,BULLFROG INTERNATIONAL LC,668 W 14600 S,BLUFFDALE,UT,84065,"BULLFROG INTERNATIONAL LC.668 W 14600 S, BLUFFDALE UTAH 84065 (SALT LAKE)",0,C,,110020516066
8406WBLFFD15299,-111.90899999999999,40.475,False,49,035,112810,49,49035,49035112810,1400000US49035112810,BLUFFDALE BATCH PLANT,15299 S 700 W,RIVERTON,UT,84065,"BLUFFDALE BATCH PLANT.15299 S 700 W, RIVERTON UTAH 84065 (SALT LAKE)",0,C,,110070247449
84043STKRP11700,-111.90299999999999,40.451,False,49,049,010212,49,49049,49049010212,1400000US49049010212,POINT WEST READY-MIX CONCRETE,11700 N FRONTAGE RD,LEHI,UT,84043,"POINT WEST READY-MIX CONCRETE.11700 N FRONTAGE RD, LEHI UTAH 84043 (UTAH)",0,C,,110001882491
84066BJSRV1661W,-110.023,40.277,False,49,013,940500,49,49013,49013940500,1400000US49013940500,MULTI-CHEM GROUP ROOSEVELT UT FACILITY,1661 W HWY 40,ROOSEVELT,UT,84066,"MULTI-CHEM GROUP ROOSEVELT UT FACILITY.1661 W HWY 40, ROOSEVELT UTAH 84066 (DUCHESNE)",0,C,,110015679210
8406WBJCHM1382S,-110.029,40.274,False,49,013,940500,49,49013,49013940500,1400000US49013940500,BJ CHEMICAL SERVICES,1382 SOUTH 2300 WEST,ROOSEVELT,UT,84066,"BJ CHEMICAL SERVICES.1382 SOUTH 2300 WEST, ROOSEVELT UTAH 84066 (DUCHESNE)",0,C,,110039018719
84532MGBLN132SH,-109.53200000000001,38.554,False,49,019,000300,49,49019,49019000300,1400000US49019000300,MEGA BLUE INC,1324 S HIGHWAY 191,MOAB,UT,845323102,"MEGA BLUE INC.1324 S HIGHWAY 191, MOAB UTAH 84532 (GRAND)",0,C,,110018856709
84532SNTLP2282S,-109.51,38.537,False,49,019,000300,49,49019,49019000300,1400000US49019000300,US NATL PARK SERVICE CANYONLANDS NATIONAL PARK,2282 SW RESOURCE BLVD,MOAB,UT,84532,"US NATL PARK SERVICE CANYONLANDS NATIONAL PARK.2282 SW RESOURCE BLVD, MOAB UTAH 84532 (GRAND)",0,F,,
84603CTNTR1281W,-111.68,40.236,False,49,049,002000,49,49049,49049002000,1400000US49049002000,ACTION TARGET,1281 W 200 N,PROVO,UT,84603,"ACTION TARGET.1281 W 200 N, PROVO UTAH 84603 (UTAH)",0,C,,110018910115
84043STKRP1262N,-111.913,40.461999999999996,False,49,035,112820,49,49035,49035112820,1400000US49035112820,STAKER & PARSON COS POINT EAST,120620 N 10560 W,DRAPER,UT,84020,"STAKER & PARSON COS POINT EAST.120620 N 10560 W, DRAPER UTAH 84020 (SALT LAKE)",0,C,,110038031634
84790WLLSD131EC,-113.556,37.038000000000004,False,49,053,271702,49,49053,49053271702,1400000US49053271702,DEAN FOODS ICE  CREAM,1310 E COMMERCE DR,SAINT GEORGE,UT,84790,"DEAN FOODS ICE  CREAM.1310 E COMMERCE DR, SAINT GEORGE UTAH 84790 (WASHINGTON)",0,C,,110013360736
84770STKRP1843E,-113.544,37.038000000000004,False,49,053,271702,49,49053,49053271702,1400000US49053271702,STAKER & PARSON COS ST GEORGE READY-MIX & ASPHALT,1843 E 4150 S,SAINT GEORGE,UT,84790,"STAKER & PARSON COS ST GEORGE READY-MIX & ASPHALT.1843 E 4150 S, SAINT GEORGE UTAH 84790 (WASHINGTON)",0,C,,110022811885
8479WHDSPP3884S,-113.556,37.042,False,49,053,271702,49,49053,49053271702,1400000US49053271702,HD SUPPLY CONSTRUCTION SUPPLY LTD (UT007 6162),3884 S RIVER RD,SAINT GEORGE,UT,84790,"HD SUPPLY CONSTRUCTION SUPPLY LTD (UT007 6162).3884 S RIVER RD, SAINT GEORGE UTAH 84790 (WASHINGTON)",0,C,,110031367777
8479WSNRCC1825E,-113.53299999999999,37.043,False,49,053,271702,49,49053,49053271702,1400000US49053271702,SUNROC CORP - FORT PIERCE FACILITY,1825 EAST 3860 SOUTH,SAINT GEORGE,UT,847909998,"SUNROC CORP - FORT PIERCE FACILITY.1825 EAST 3860 SOUTH, SAINT GEORGE UTAH 84790 (WASHINGTON)",0,C,,110060280583
84037KYSVL376N6,-111.95299999999999,41.041000000000004,False,49,011,126104,49,49011,49011126104,1400000US49011126104,KAYSVILLE READY MIX CONCRETE,376 N 650 W,KAYSVILLE,UT,84037,"KAYSVILLE READY MIX CONCRETE.376 N 650 W, KAYSVILLE UTAH 84037 (DAVIS)",0,C,,110020098491
84037LPPRT55NKA,-111.958,41.043,False,49,011,126104,49,49011,49011126104,1400000US49011126104,"LIPPERT COMPONENTS, INC. - PLANT 48",505 NORTH KAYS DRIVE,KAYSVILLE,UT,84037,"LIPPERT COMPONENTS, INC. - PLANT 48.505 NORTH KAYS DRIVE, KAYSVILLE UTAH 84037 (DAVIS)",0,C,,110039204795
84043PNTST1262N,-111.852,40.403,False,49,049,000104,49,49049,49049000104,1400000US49049000104,POINT SOUTH READY-MIX CONCRETE,12062 N 10560 W,LEHI,UT,84043,"POINT SOUTH READY-MIX CONCRETE.12062 N 10560 W, LEHI UTAH 84043 (UTAH)",0,C,,110025331807
84074BRXXX5MILE,-112.304,40.556,False,49,045,130900,49,49045,49045130900,1400000US49045130900,BAUER,5 MILES S OF TOOELE HWY 6,TOOELE,UT,84074,"BAUER.5 MILES S OF TOOELE HWY 6, TOOELE UTAH 84074 (TOOELE)",0,C,,110025317547
84319TRMNT592W1,-112.15899999999999,41.696999999999996,False,49,003,960300,49,49003,49003960300,1400000US49003960300,TREMONTON,5920 W 10400 N,ELWOOD,UT,84319,"TREMONTON.5920 W 10400 N, ELWOOD UTAH 84319 (BOX ELDER)",0,C,,110025317565
84337WSTLB845N2,-112.196,41.723,False,49,003,960300,49,49003,49003960300,1400000US49003960300,WEST LIBERTY FOODS TREMONTON,705 N 2000 W,TREMONTON,UT,84337,"WEST LIBERTY FOODS TREMONTON.705 N 2000 W, TREMONTON UTAH 84337 (BOX ELDER)",0,C,,110030747761
84405STHWB7425S,-111.90899999999999,41.156000000000006,False,49,057,211201,49,49011,49057211201,1400000US49057211201,SOUTH WEBER,7425 S 2900 E,SOUTH WEBER,UT,84405,"SOUTH WEBER.7425 S 2900 E, SOUTH WEBER UTAH 84405 (DAVIS)",0,C,,110041583836
84501DTTHL4722S,-110.77799999999999,39.57,False,49,007,000100,49,49007,49007000100,1400000US49007000100,DTE UTAH II LLC,4722 S 2000 E RD,PRICE,UT,84501,"DTE UTAH II LLC.4722 S 2000 E RD, PRICE UTAH 84501 (CARBON)",1,C,,110025331834
84655KGLYS1237S,-111.804,40.006,False,49,049,010504,49,49049,49049010504,1400000US49049010504,KEIGLEY ASPHALT PLANT,12370 SW MOUNTAIN HWY,GENOLA,UT,84655,"KEIGLEY ASPHALT PLANT.12370 SW MOUNTAIN HWY, GENOLA UTAH 84655 (UTAH)",0,C,,110001881474
84651LBRTY1199W,-111.756,40.044000000000004,False,49,049,010504,49,49049,49049010504,1400000US49049010504,LIBERTY SAFE & SECURITY INC,1199 WEST UTAH AVENUE,PAYSON,UT,84651,"LIBERTY SAFE & SECURITY INC.1199 WEST UTAH AVENUE, PAYSON UTAH 84651 (UTAH)",0,C,,110041906122
8465WGNVRC1325N,-111.73200000000001,40.063,False,49,049,010504,49,49049,49049010504,1400000US49049010504,GENEVA ROCK PRODUCTS INC - PAYSON FACILITY,1325 NORTH MAIN,PAYSON,UT,84651,"GENEVA ROCK PRODUCTS INC - PAYSON FACILITY.1325 NORTH MAIN, PAYSON UTAH 84651 (UTAH)",0,C,,110067123525
84660SPNSH7434D,-111.666,40.094,False,49,049,010406,49,49049,49049010406,1400000US49049010406,SPANISH FORK READY-MIX CONCRETE,7434 DEL MONTE RD,SPANISH FORK,UT,84660,"SPANISH FORK READY-MIX CONCRETE.7434 DEL MONTE RD, SPANISH FORK UTAH 84660 (UTAH)",0,C,,110025331898
84775SNTLPHC7BX,-111.262,38.291,False,49,055,979100,49,49055,49055979100,1400000US49055979100,U.S. NATL. PARK SERVICE CAPITOL REEF NATIONAL PARK (CARE),JUNCTION OF STATE RD 24,TORREY,UT,84775,"U.S. NATL. PARK SERVICE CAPITOL REEF NATIONAL PARK (CARE).JUNCTION OF STATE RD 24, TORREY UTAH 84775 (WAYNE)",0,F,,110006883266
84780SRNSN411SL,-113.461,37.135,False,49,053,270801,49,49053,49053270801,1400000US49053270801,SORENSON READY-MIX CONCRETE,411 S LANDFIELD RD,WASHINGTON,UT,84780,"SORENSON READY-MIX CONCRETE.411 S LANDFIELD RD, WASHINGTON UTAH 84780 (WASHINGTON)",0,C,,110025332049
84663HLMRK165N1,-111.682,40.256,False,49,049,002101,49,49049,49049002101,1400000US49049002101,HAULMARK INDUSTRIES INC.,1650 N 1350 W,SPRINGVILLE,UT,84663,"HAULMARK INDUSTRIES INC..1650 N 1350 W, SPRINGVILLE UTAH 84663 (UTAH)",0,C,,110031002206
84065SRMYC178SR,-111.925,40.437,False,49,049,980100,49,49035,49049980100,1400000US49049980100,US ARMY NATIONAL GUARD CAMP WILLIAMS RANGES,17800 S. CAMP WILLIAMS RD,RIVERTON,UT,84065,"US ARMY NATIONAL GUARD CAMP WILLIAMS RANGES.17800 S. CAMP WILLIAMS RD, RIVERTON UTAH 84065 (SALT LAKE)",0,F,,110037148501
8407WNLCVR1465E,-109.501,40.431999999999995,False,49,047,968402,49,49047,49047968402,1400000US49047968402,NALCO COMPANY-VERNAL 0408,1465 E 1650 S,VERNAL,UT,84078,"NALCO COMPANY-VERNAL 0408.1465 E 1650 S, VERNAL UTAH 84078 (UINTAH)",0,C,,110038227843
8452WTHMRCLILAM,-110.34700000000001,39.427,False,49,015,976500,49,49007,49015976500,1400000US49015976500,UTAHAMERICAN ENERGY INC - LILA MINE,"LILA MINE, E. OF MILE POST 271 HIGHWAY 6/191",EAST CARBON,UT,84520,"UTAHAMERICAN ENERGY INC - LILA MINE.LILA MINE, E. OF MILE POST 271 HIGHWAY 6/191, EAST CARBON UTAH 84520 (CARBON)",0,C,,110064788680
8401WLBNCL11NMA,-112.02600000000001,41.11600000000001,False,49,011,125702,49,49057,49011125702,1400000US49011125702,ALBION CLEARFIELD,101 N. MAIN STREET,CLEARFIELD,UT,84015,"ALBION CLEARFIELD.101 N. MAIN STREET, CLEARFIELD UTAH 84015 (WEBER)",1,C,,110020097312
8404WGNVRC75EAS,-112.084,41.103,False,49,011,125401,49,49011,49011125401,1400000US49011125401,GENEVA ROCK PRODUCTS INC LAYTON FACILITY,750 E 3000 N,LAYTON,UT,84041,"GENEVA ROCK PRODUCTS INC LAYTON FACILITY.750 E 3000 N, LAYTON UTAH 84041 (DAVIS)",0,C,,110001880661
8412WGRNTC691SU,-111.796,40.624,False,49,035,111002,49,49035,49035111002,1400000US49035111002,GRANITE CONSTRUCTION CO-COTTONWOOD ASPHALT PLANT FACI,6901 S WASATCH BLVD,SALT LAKE CITY,UT,84121,"GRANITE CONSTRUCTION CO-COTTONWOOD ASPHALT PLANT FACI.6901 S WASATCH BLVD, SALT LAKE CITY UTAH 84121 (SALT LAKE)",0,C,,110001881170
8451WMLYCR1877E,-109.444,37.614000000000004,False,49,037,978200,49,00000,49037978200,1400000US49037978200,MOLYCORP RARE METALS UTAH,1877 EAST HARRIS LANE,BLANDING,UT,84511,"MOLYCORP RARE METALS UTAH.1877 EAST HARRIS LANE, BLANDING UTAH 84511 (SAN JUAN MUNICIPIO)",0,C,,110002154221
8451WRLDYN1261S,-109.479,37.607,False,49,037,978200,49,00000,49037978200,1400000US49037978200,RELADYNE WEST BLANDING UT,1261 S MAIN ST,BLANDING,UT,84511,"RELADYNE WEST BLANDING UT.1261 S MAIN ST, BLANDING UTAH 84511 (SAN JUAN MUNICIPIO)",0,C,,110070550492
8400WMRCNF618E1,-111.78399999999999,40.344,False,49,049,010112,49,49049,49049010112,1400000US49049010112,AMERICAN FORK BATCH PLANT,618 E 1700 S,AMERICAN FORK,UT,84003,"AMERICAN FORK BATCH PLANT.618 E 1700 S, AMERICAN FORK UTAH 84003 (UTAH)",0,C,,110070070513
8404WRLDYN8137S,-111.891,40.605,False,49,035,112402,49,49035,49035112402,1400000US49035112402,RELADYNE WEST,8137 S STATE ST,MIDVALE,UT,84047,"RELADYNE WEST.8137 S STATE ST, MIDVALE UTAH 84047 (SALT LAKE)",0,C,,110070068329
8408WSPHLT7961S,-111.925,40.606,False,49,035,114200,49,49035,49035114200,1400000US49035114200,ASPHALT MATERIALS INC,7961 SOUTH  1300 WEST,WEST JORDAN,UT,84088,"ASPHALT MATERIALS INC.7961 SOUTH  1300 WEST, WEST JORDAN UTAH 84088 (SALT LAKE)",0,C,,110001880849
8430WSTKRP33S9E,-112.00200000000001,41.497,False,49,003,960702,49,49003,49003960702,1400000US49003960702,STAKER PARSON BRIGHAM CITY,33 S 900 E,BRIGHAM CITY,UT,84302,"STAKER PARSON BRIGHAM CITY.33 S 900 E, BRIGHAM CITY UTAH 84302 (BOX ELDER)",0,C,,110070070846
8410WNSTLD85EAS,-111.866,40.725,False,49,035,114100,49,49035,49035114100,1400000US49035114100,NESTLE DREYERS ICE CREAM SLOC,850 EAST 2100 SOUTH,SALT LAKE CITY,UT,84106,"NESTLE DREYERS ICE CREAM SLOC.850 EAST 2100 SOUTH, SALT LAKE CITY UTAH 84106 (SALT LAKE)",0,C,,110002349263
8404WGNVRC1565N,-111.869,40.26,False,49,049,010113,49,49049,49049010113,1400000US49049010113,GENEVA ROCK/PELICAN POINT/ROCKWELL,1565 NORTH REDWOOD ROAD; WEST SIDE OF UTAH LAKE,LEHI,UT,84043,"GENEVA ROCK/PELICAN POINT/ROCKWELL.1565 NORTH REDWOOD ROAD; WEST SIDE OF UTAH LAKE, LEHI UTAH 84043 (UTAH)",0,C,,110007199254
8430WGNVRC6W3SX,-112.03399999999999,41.455,False,49,003,960802,49,49003,49003960802,1400000US49003960802,GENEVA ROCK PRODUCTS PERRY,600 W 3000 S,BRIGHAM CITY,UT,84302,"GENEVA ROCK PRODUCTS PERRY.600 W 3000 S, BRIGHAM CITY UTAH 84302 (BOX ELDER)",0,C,,110069471155
8440WGNVRC2SUTH,-111.999,41.193000000000005,False,49,057,210511,49,49057,49057210511,1400000US49057210511,GENEVA ROCK OGDEN BATCH PLANT,2000 SOUTH 800 WEST,OGDEN,UT,84404,"GENEVA ROCK OGDEN BATCH PLANT.2000 SOUTH 800 WEST, OGDEN UTAH 84404 (WEBER)",0,C,,110038773075
