TRIFID,LONGITUDE,LATITUDE,ESTIMATE,STATEFP,COUNTYFP,TRACTCE,STATEGEOID,COUNTYGEOID,TRACTGEOID,AFFGEOID,FACILITY_NAME,STREET,CITY,STUSPS,ZIP_CODE,FACILITY,FAC_CLOSED_IND,ASGN_FEDERAL_IND,BIA_CODE,EPA_REGISTRY_ID
24740CLTTNPOBOX,-81.084,37.364000000000004,False,54,055,001300,54,54055,54055001300,1400000US54055001300,FOSROC INC,301 ROGERS ST,PRINCETON,WV,24740,"FOSROC INC.301 ROGERS ST, PRINCETON WEST VIRGINIA 24740 (MERCER)",0,C,,
24740SWNSN401LA,-81.08800000000001,37.368,False,54,055,001300,54,54055,54055001300,1400000US54055001300,INDUSTRIAL PLATING & MACHINE I NC,301 PRINCETON AVE,PRINCETON,WV,24740,"INDUSTRIAL PLATING & MACHINE I NC.301 PRINCETON AVE, PRINCETON WEST VIRGINIA 24740 (MERCER)",0,C,,110000344155
24740CMWDPROGER,-81.084,37.361999999999995,False,54,055,002300,54,54055,54055002300,1400000US54055002300,ACME WOOD PRESERVING INC,200 ROSELAND AVE,PRINCETON,WV,24740,"ACME WOOD PRESERVING INC.200 ROSELAND AVE, PRINCETON WEST VIRGINIA 24740 (MERCER)",0,C,,110000344137
24740PPSCLROGER,-81.07300000000001,37.365,False,54,055,002300,54,54055,54055002300,1400000US54055002300,BOTTLING GROUP LLC PEPSI BOTTLING GROUP,730 ROGERS ST,PRINCETON,WV,247403650,"BOTTLING GROUP LLC PEPSI BOTTLING GROUP.730 ROGERS ST, PRINCETON WEST VIRGINIA 24740 (MERCER)",0,C,,
24740GRGPC577CL,-81.12899999999999,37.32,False,54,055,002300,54,54055,54055002300,1400000US54055002300,ALLEGHENY WOOD PRODUCTS INC MILL 9,577 CLOVER DEW DAIRY RD,PRINCETON,WV,24739,"ALLEGHENY WOOD PRODUCTS INC MILL 9.577 CLOVER DEW DAIRY RD, PRINCETON WEST VIRGINIA 24739 (MERCER)",0,C,,110012707589
24740CNNWLUSROU,-81.02,37.429,False,54,055,001100,54,54055,54055001100,1400000US54055001100,CONN-WELD INC,US RT 460 315 WABASH,PRINCETON,WV,24740,"CONN-WELD INC.US RT 460 315 WABASH, PRINCETON WEST VIRGINIA 24740 (MERCER)",0,C,,110007875282
24920HWSLTRT250,-79.806,38.545,False,54,075,960102,54,54075,54075960102,1400000US54075960102,HOWES LEATHER CO INC,US RTE 250,FRANK,WV,24920,"HOWES LEATHER CO INC.US RTE 250, FRANK WEST VIRGINIA 24920 (POCAHONTAS)",0,C,,
24954HNVRS3002N,-80.09100000000001,38.226,False,54,075,960200,54,54075,54075960200,1400000US54075960200,HANOVER SHOE CO MARLINTON PLANT,300 2ND AVE,MARLINTON,WV,24954,"HANOVER SHOE CO MARLINTON PLANT.300 2ND AVE, MARLINTON WEST VIRGINIA 24954 (POCAHONTAS)",0,C,,
2628WSTRBRHC58B,-80.07600000000001,38.426,False,54,075,960200,54,54083,54075960200,1400000US54075960200,STAR BRIDGE PREPARATION PLANT,HC 58 BOX 200,MILL CREEK,WV,26280,"STAR BRIDGE PREPARATION PLANT.HC 58 BOX 200, MILL CREEK WEST VIRGINIA 26280 (RANDOLPH)",0,C,,110060279988
24983BFGDRRT5BO,-80.531,37.618,False,54,063,950200,54,54063,54063950200,1400000US54063950200,GOODRICH CORP DEICING & SPECIALTY SYSTEMS DIV,225 STRINGTOWN RD,UNION,WV,24983,"GOODRICH CORP DEICING & SPECIALTY SYSTEMS DIV.225 STRINGTOWN RD, UNION WEST VIRGINIA 24983 (MONROE)",0,C,,110000344173
24910SDPTFGLENR,-80.654,37.725,False,54,063,950200,54,54063,54063950200,1400000US54063950200,US BUREAU OF PRISONS ALDERSON FEDERAL PRISON CAMP,GLEN RAY RD,ALDERSON,WV,24910,"US BUREAU OF PRISONS ALDERSON FEDERAL PRISON CAMP.GLEN RAY RD, ALDERSON WEST VIRGINIA 24910 (MONROE)",0,F,,110000782065
25002LKMMTBOX61,-81.274,38.137,False,54,019,020800,54,54019,54019020800,1400000US54019020800,WVA MANUFACTURING LLC,RT 60 E,ALLOY,WV,25002,"WVA MANUFACTURING LLC.RT 60 E, ALLOY WEST VIRGINIA 25002 (FAYETTE)",0,C,,110000585849
25031PPLCHUSRTE,-81.24,38.153,False,54,019,020800,54,54019,54019020800,1400000US54019020800,APPALACHIAN FUELS LLC,US RT 60,BOOMER,WV,25031,"APPALACHIAN FUELS LLC.US RT 60, BOOMER WEST VIRGINIA 25031 (FAYETTE)",0,C,,110008055120
25015CCDNTDUPON,-81.546,38.236999999999995,False,54,039,011500,54,54039,54039011500,1400000US54039011500,OCCIDENTAL CHEMICAL CORP,DUPONT AVE,BELLE,WV,25015,"OCCIDENTAL CHEMICAL CORP.DUPONT AVE, BELLE WEST VIRGINIA 25015 (KANAWHA)",0,C,,
25015DPNTB901WE,-81.553,38.242,False,54,039,011500,54,54039,54039011500,1400000US54039011500,CHEMOURS BELLE PLANT,901 W DUPONT AVE,BELLE,WV,25015,"CHEMOURS BELLE PLANT.901 W DUPONT AVE, BELLE WEST VIRGINIA 25015 (KANAWHA)",0,C,,110000344182
2501WKRHPG91WES,-81.553,38.242,False,54,039,011500,54,54039,54039011500,1400000US54039011500,KUREHA PGA LLC,901 W DUPONT AVE,BELLE,WV,25015,"KUREHA PGA LLC.901 W DUPONT AVE, BELLE WEST VIRGINIA 25015 (KANAWHA)",0,C,,110057312233
2501WPTMBL91WDU,-81.551,38.243,False,54,039,011500,54,54039,54039011500,1400000US54039011500,OPTIMA BELLE LLC,901 W DUPONT AVE-BLDGS 114&216 - BUILDINGS 114 & 216,BELLE,WV,25015,"OPTIMA BELLE LLC.901 W DUPONT AVE-BLDGS 114&216 - BUILDINGS 114 & 216, BELLE WEST VIRGINIA 25015 (KANAWHA)",0,C,,110064659515
25112FMCCRRT25X,-81.768,38.381,False,54,039,010400,54,54039,54039010400,1400000US54039010400,FMC CORP,RTE 25,INSTITUTE,WV,25112,"FMC CORP.RTE 25, INSTITUTE WEST VIRGINIA 25112 (KANAWHA)",0,C,,
25112NNCRBRTE25,-81.777,38.383,False,54,039,010400,54,54039,54039010400,1400000US54039010400,UNION CARBIDE CORP INSTITUTE FACILITY,WV STATE RT 25,INSTITUTE,WV,25112,"UNION CARBIDE CORP INSTITUTE FACILITY.WV STATE RT 25, INSTITUTE WEST VIRGINIA 25112 (KANAWHA)",0,C,,110043803676
25112RHNPLROUTE,-81.777,38.383,False,54,039,010400,54,54039,54039010400,1400000US54039010400,BAYER CROPSCIENCE LP,ROUTE 25 AT I-64,INSTITUTE,WV,25112,"BAYER CROPSCIENCE LP.ROUTE 25 AT I-64, INSTITUTE WEST VIRGINIA 25112 (KANAWHA)",1,C,,110069544390
25112CWSTVROUTE,-81.777,38.383,False,54,039,010400,54,54039,54039010400,1400000US54039010400,BAYER MATERIALSCIENCE LLC,RT 25,INSTITUTE,WV,25112,"BAYER MATERIALSCIENCE LLC.RT 25, INSTITUTE WEST VIRGINIA 25112 (KANAWHA)",2,C,,
25143CTLYS1580F,-81.783,38.389,False,54,039,010400,54,54039,54039010400,1400000US54039010400,CATALYST REFINERS INC,1580 FIRST AVE S,NITRO,WV,25143,"CATALYST REFINERS INC.1580 FIRST AVE S, NITRO WEST VIRGINIA 25143 (KANAWHA)",0,C,,110002098131
2511WSPCLTRUTE2,-81.77600000000001,38.383,False,54,039,010400,54,54039,54039010400,1400000US54039010400,SPECIALTY PRODUCTS US LLC - POLYOX PLANT,ROUTE 25 - BUILDING 71,INSTITUTE,WV,25112,"SPECIALTY PRODUCTS US LLC - POLYOX PLANT.ROUTE 25 - BUILDING 71, INSTITUTE WEST VIRGINIA 25112 (KANAWHA)",0,C,,110070492327
25143FMCCRPLANT,-81.847,38.435,False,54,079,020500,54,54079,54079020500,1400000US54079020500,GREAT LAKES CHEMICAL CORP,200 PICKENS RD,NITRO,WV,25143,"GREAT LAKES CHEMICAL CORP.200 PICKENS RD, NITRO WEST VIRGINIA 25143 (PUTNAM)",0,C,,
25143KNCDNPLANT,-81.843,38.428000000000004,False,54,079,020500,54,54079,54079020500,1400000US54079020500,KINCAID ENTERPRISES INC,PLANT RD,NITRO,WV,25143,"KINCAID ENTERPRISES INC.PLANT RD, NITRO WEST VIRGINIA 25143 (PUTNAM)",0,C,,
25143MNSNT1MONS,-81.844,38.437,False,54,079,020500,54,54079,54079020500,1400000US54079020500,FLEXSYS AMERICA LP,1 MONSANTO RD,NITRO,WV,25143,"FLEXSYS AMERICA LP.1 MONSANTO RD, NITRO WEST VIRGINIA 25143 (PUTNAM)",1,C,,
25143PPSCLHUBIN,-81.83800000000001,38.441,False,54,079,020500,54,54079,54079020500,1400000US54079020500,BOTTLING GROUP LLC PEPSI BOTTLING GROUP,100 INDEPENDENCE AVE,NITRO,WV,25143,"BOTTLING GROUP LLC PEPSI BOTTLING GROUP.100 INDEPENDENCE AVE, NITRO WEST VIRGINIA 25143 (PUTNAM)",0,C,,
25159WSTVRWRIGH,-81.817,38.455,False,54,079,020500,54,54079,54079020500,1400000US54079020500,WEST VIRGINIA STEEL CORP.,300 WRIGHT RD,POCA,WV,25159,"WEST VIRGINIA STEEL CORP..300 WRIGHT RD, POCA WEST VIRGINIA 25159 (PUTNAM)",0,C,,110000585901
25143MNSNT1MONA,-81.844,38.437,False,54,079,020500,54,54079,54079020500,1400000US54079020500,MONSANTO CO NITRO,1 MONSANTO RD,NITRO,WV,25143,"MONSANTO CO NITRO.1 MONSANTO RD, NITRO WEST VIRGINIA 25143 (PUTNAM)",1,C,,
25143SLTPR1MONS,-81.844,38.437,False,54,079,020500,54,54079,54079020500,1400000US54079020500,SOLUTIA-OPS AT FLEXSYS NITRO,1 MONSANTO RD,NITRO,WV,25143,"SOLUTIA-OPS AT FLEXSYS NITRO.1 MONSANTO RD, NITRO WEST VIRGINIA 25143 (PUTNAM)",2,C,,
25143PBSCHPLANT,-81.846,38.428000000000004,False,54,079,020500,54,54039,54079020500,1400000US54079020500,BRENNTAG MID-SOUTH INC.,PLANT RD,NITRO,WV,25143,"BRENNTAG MID-SOUTH INC..PLANT RD, NITRO WEST VIRGINIA 25143 (KANAWHA)",0,C,,110000710302
25143TWNSL19IND,-81.836,38.44,False,54,079,020500,54,54079,54079020500,1400000US54079020500,ITW INSULATION SYSTEMS  NITRO PLANT,19 INDEPENDENT AVE,NITRO,WV,25143,"ITW INSULATION SYSTEMS  NITRO PLANT.19 INDEPENDENT AVE, NITRO WEST VIRGINIA 25143 (PUTNAM)",0,C,,
25159SFTYK15HAR,-81.82,38.451,False,54,079,020500,54,54079,54079020500,1400000US54079020500,SAFETY-KLEEN SYSTEMS POCA (POC),111 HARRIS DR,POCA,WV,25159,"SAFETY-KLEEN SYSTEMS POCA (POC).111 HARRIS DR, POCA WEST VIRGINIA 25159 (PUTNAM)",0,C,,110000830352
25143PTRLM2VISC,-81.85,38.425,False,54,079,020500,54,54079,54079020500,1400000US54079020500,PETROLEUM PRODUCTS NITRO BULK PLANT 09,200 VISCOSE RD,NITRO,WV,25143,"PETROLEUM PRODUCTS NITRO BULK PLANT 09.200 VISCOSE RD, NITRO WEST VIRGINIA 25143 (PUTNAM)",0,C,,110046424464
2514WNVRMN43321,-81.832,38.443000000000005,False,54,079,020500,54,54079,54079020500,1400000US54079020500,ENVIROMINE INC,4332 1ST AVE,NITRO,WV,25143,"ENVIROMINE INC.4332 1ST AVE, NITRO WEST VIRGINIA 25143 (PUTNAM)",0,C,,110069275867
25265MRCNLRT62X,-81.927,38.958,False,54,053,954802,54,54053,54053954802,1400000US54053954802,AMERICAN ALLOYS  INC,US RT 33 E,NEW HAVEN,WV,252650218,"AMERICAN ALLOYS  INC.US RT 33 E, NEW HAVEN WEST VIRGINIA 25265 (MASON)",0,C,,
25265MNTNRRTE33,-81.93700000000001,38.977,False,54,053,954802,54,54053,54053954802,1400000US54053954802,AMERICAN ELECTRIC POWER MOUNTAINEER PLANT,RTE 33,NEW HAVEN,WV,25265,"AMERICAN ELECTRIC POWER MOUNTAINEER PLANT.RTE 33, NEW HAVEN WEST VIRGINIA 25265 (MASON)",0,C,,110067041837
25265MRCNLSTATE,-81.92299999999999,38.967,False,54,053,954802,54,54053,54053954802,1400000US54053954802,AMERICAN ELECTRIC POWER PHILIP SPORN PLANT,STATE RT 33,NEW HAVEN,WV,25265,"AMERICAN ELECTRIC POWER PHILIP SPORN PLANT.STATE RT 33, NEW HAVEN WEST VIRGINIA 25265 (MASON)",1,C,,110015743846
25265FLMNPUSRT6,-81.926,38.958,False,54,053,954802,54,54053,54053954802,1400000US54053954802,FELMAN PRODUCTION INC,4442 GRAHAM STATION ROAD,LETART,WV,25253,"FELMAN PRODUCTION INC.4442 GRAHAM STATION ROAD, LETART WEST VIRGINIA 25253 (MASON)",0,C,,110045453031
25265RSHGSRT62G,-81.93700000000001,38.977,False,54,053,954802,54,54053,54053954802,1400000US54053954802,ERSHIGS MOUNTAINEER PROJECT,RT 62 GRAHAM STATION,NEW HAVEN,WV,25265,"ERSHIGS MOUNTAINEER PROJECT.RT 62 GRAHAM STATION, NEW HAVEN WEST VIRGINIA 25265 (MASON)",0,C,,110000585910
25276BRKPRROUTE,-81.406,38.868,False,54,087,962800,54,54087,54087962800,1400000US54087962800,STELLA-JONES CORPORATION,3424 PARKERSBURG ROAD,SPENCER,WV,25270,"STELLA-JONES CORPORATION.3424 PARKERSBURG ROAD, SPENCER WEST VIRGINIA 25270 (ROANE)",0,C,,110006551007
25276NNDSTROANE,-81.30199999999999,38.792,False,54,087,962800,54,54087,54087962800,1400000US54087962800,NI IND INC,ROANE COUNTY INDUSTRIAL PARK,SPENCER,WV,25276,"NI IND INC.ROANE COUNTY INDUSTRIAL PARK, SPENCER WEST VIRGINIA 25276 (ROANE)",1,C,,
25302BRGHT114VI,-81.646,38.358000000000004,False,54,039,000800,54,54039,54039000800,1400000US54039000800,"BROUGHTON FOODS CO, FOODS DIV",114 VIRGINIA ST W,CHARLESTON,WV,25302,"BROUGHTON FOODS CO, FOODS DIV.114 VIRGINIA ST W, CHARLESTON WEST VIRGINIA 25302 (KANAWHA)",1,C,,
25302BRDNN508RO,-81.646,38.363,False,54,039,000800,54,54039,54039000800,1400000US54039000800,UNITED DAIRY INC.  (VALLEY BELL),508 ROANE ST,CHARLESTON,WV,25302,"UNITED DAIRY INC.  (VALLEY BELL).508 ROANE ST, CHARLESTON WEST VIRGINIA 25302 (KANAWHA)",0,C,,110000344271
25303FMCCR3200M,-81.703,38.366,False,54,039,012900,54,54039,54039012900,1400000US54039012900,FMC CORP SPRING HILL PLANT,3200 MACCORKLE AVE,SOUTH CHARLESTON,WV,253031448,"FMC CORP SPRING HILL PLANT.3200 MACCORKLE AVE, SOUTH CHARLESTON WEST VIRGINIA 25303 (KANAWHA)",0,C,,
25303LNCRP95MAC,-81.706,38.365,False,54,039,012900,54,54039,54039012900,1400000US54039012900,CLEARON CORP,95 MACCORKLE AVE SW,SOUTH CHARLESTON,WV,25303,"CLEARON CORP.95 MACCORKLE AVE SW, SOUTH CHARLESTON WEST VIRGINIA 25303 (KANAWHA)",0,C,,110020047545
25303NNCRB437MA,-81.683,38.369,False,54,039,012900,54,54039,54039012900,1400000US54039012900,UNION CARBIDE CORP SOUTH CHARLESTON FACILITY,437 MACCORKLE AVE SW,SOUTH CHARLESTON,WV,25303,"UNION CARBIDE CORP SOUTH CHARLESTON FACILITY.437 MACCORKLE AVE SW, SOUTH CHARLESTON WEST VIRGINIA 25303 (KANAWHA)",0,C,,110000745114
25303CWSTV437MA,-81.686,38.368,False,54,039,012900,54,54039,54039012900,1400000US54039012900,COVESTRO LLC,437 MACCORKLE AVE,SOUTH CHARLESTON,WV,25303,"COVESTRO LLC.437 MACCORKLE AVE, SOUTH CHARLESTON WEST VIRGINIA 25303 (KANAWHA)",0,C,,110013764266
25303TXSST437XX,-81.686,38.368,False,54,039,012900,54,54039,54039012900,1400000US54039012900,EASTMAN CHEMICAL CO EASTMAN FACILITY,437 MACCORKLE AVE SW,SOUTH CHARLESTON,WV,25303,"EASTMAN CHEMICAL CO EASTMAN FACILITY.437 MACCORKLE AVE SW, SOUTH CHARLESTON WEST VIRGINIA 25303 (KANAWHA)",0,C,,
25303STHCH3100M,-81.703,38.363,False,54,039,012900,54,54039,54039012900,1400000US54039012900,SOUTH CHARLESTON STAMPING & MANUFACTURING CO,3100 MACCORKLE AVE SW,SOUTH CHARLESTON,WV,25303,"SOUTH CHARLESTON STAMPING & MANUFACTURING CO.3100 MACCORKLE AVE SW, SOUTH CHARLESTON WEST VIRGINIA 25303 (KANAWHA)",0,C,,
25303NNCRB32003,-81.707,38.354,False,54,039,012800,54,54039,54039012800,1400000US54039012800,UNION CARBIDE CORP TECHNOLOGY PARK OPERATIONS,2001 UNION CARBIDE DRIVE,SOUTH CHARLESTON,WV,25303,"UNION CARBIDE CORP TECHNOLOGY PARK OPERATIONS.2001 UNION CARBIDE DRIVE, SOUTH CHARLESTON WEST VIRGINIA 25303 (KANAWHA)",0,C,,110000344324
2530WNVTNT11SCI,-81.706,38.356,False,54,039,012800,54,54039,54039012800,1400000US54039012800,UNIVATION TECHNOLOGIES LLC,1100 SCIENCE PARK DRIVE,SOUTH CHARLESTON,WV,25303,"UNIVATION TECHNOLOGIES LLC.1100 SCIENCE PARK DRIVE, SOUTH CHARLESTON WEST VIRGINIA 25303 (KANAWHA)",0,C,,110043228833
25304KRGRC6313M,-81.563,38.306,False,54,039,001700,54,54039,54039001700,1400000US54039001700,KROGER CO,6313 MACCORKLE AVE SE,CHARLESTON,WV,25304,"KROGER CO.6313 MACCORKLE AVE SE, CHARLESTON WEST VIRGINIA 25304 (KANAWHA)",0,C,,
25315LQDCR10637,-81.56,38.239000000000004,False,54,039,012200,54,54039,54039012200,1400000US54039012200,PRAXAIR COM,10637 MACCORKLE AVE,MARMET,WV,25315,"PRAXAIR COM.10637 MACCORKLE AVE, MARMET WEST VIRGINIA 25315 (KANAWHA)",0,C,,110000344342
25507CTNRY5914C,-81.45100000000001,38.139,False,54,039,012200,54,54039,54039012200,1400000US54039012200,PANTHER CREEK - SAMPLES,100 TOM'S FORK RD,ESKDALE,WV,25075,"PANTHER CREEK - SAMPLES.100 TOM'S FORK RD, ESKDALE WEST VIRGINIA 25075 (KANAWHA)",0,C,,110054877870
25035PCWST14989,-81.5,38.196,False,54,039,012200,54,54039,54039012200,1400000US54039012200,PC WEST VIRGINIA SYNTHETIC FUEL #1 LLC,14989 MACCORKLE AVE,CHELYAN,WV,25035,"PC WEST VIRGINIA SYNTHETIC FUEL #1 LLC.14989 MACCORKLE AVE, CHELYAN WEST VIRGINIA 25035 (KANAWHA)",1,C,,110002098122
25061PNTHRWETBR,-81.47800000000001,38.165,False,54,039,012200,54,54039,54039012200,1400000US54039012200,PANTHER LLC,WET BRANCH RD,DRYBRANCH,WV,25061,"PANTHER LLC.WET BRANCH RD, DRYBRANCH WEST VIRGINIA 25061 (KANAWHA)",0,C,,
25067RMNGTSLAUG,-81.529,38.091,False,54,039,012200,54,54039,54039012200,1400000US54039012200,REMINGTON LLC,RT 61 SLAUGHTER'S CREEK RD,OHLEY,WV,25147,"REMINGTON LLC.RT 61 SLAUGHTER'S CREEK RD, OHLEY WEST VIRGINIA 25147 (KANAWHA)",0,C,,
25401CPTLCSOUTH,-77.97800000000001,39.435,False,54,003,971900,54,54003,54003971900,1400000US54003971900,ARGOS USA - MARTINSBURG,1826 S QUEEN ST,MARTINSBURG,WV,25401,"ARGOS USA - MARTINSBURG.1826 S QUEEN ST, MARTINSBURG WEST VIRGINIA 25401 (BERKELEY)",0,C,,110000585929
25401CRNNGROUTE,-78.015,39.388000000000005,False,54,003,971900,54,54003,54003971900,1400000US54003971900,WORLD KITCHEN INC MARTINSBURG PLANT,157 CORNING WAY,MARTINSBURG,WV,254012519,"WORLD KITCHEN INC MARTINSBURG PLANT.157 CORNING WAY, MARTINSBURG WEST VIRGINIA 25401 (BERKELEY)",0,C,,
25401BRNTW2011I,-78.024,39.39,False,54,003,971900,54,54003,54003971900,1400000US54003971900,BRENTWOOD INDUSTRIES INC,793 CORNING WAY,MARTINSBURG,WV,25401,"BRENTWOOD INDUSTRIES INC.793 CORNING WAY, MARTINSBURG WEST VIRGINIA 25401 (BERKELEY)",0,C,,
25428GRDNFI81TA,-78.023,39.406,False,54,003,971900,54,54003,54003971900,1400000US54003971900,KNAUF INSULATION INC,4812 TABLER STATION RD,INWOOD,WV,25428,"KNAUF INSULATION INC.4812 TABLER STATION RD, INWOOD WEST VIRGINIA 25428 (BERKELEY)",0,C,,110041052339
25401CHMPK242CO,-78.017,39.389,False,54,003,971900,54,54003,54003971900,1400000US54003971900,CHEM-PAK INC,242 CORNING WAY,MARTINSBURG,WV,25405,"CHEM-PAK INC.242 CORNING WAY, MARTINSBURG WEST VIRGINIA 25405 (BERKELEY)",0,C,,110012177839
25405SSCTD855CR,-78.025,39.39,False,54,003,971900,54,54003,54003971900,1400000US54003971900,ASSOCIATED ASPHALT MARTINSBURG LLC,855 CORNING WAY,MARTINSBURG,WV,25405,"ASSOCIATED ASPHALT MARTINSBURG LLC.855 CORNING WAY, MARTINSBURG WEST VIRGINIA 25405 (BERKELEY)",0,C,,110029527778
2542WLLMNP2DEVE,-78.01100000000001,39.402,False,54,003,971900,54,54003,54003971900,1400000US54003971900,ALLMINE PAVING LLC,1042 DEVELOPMENT DRIVE,INWOOD,WV,25428,"ALLMINE PAVING LLC.1042 DEVELOPMENT DRIVE, INWOOD WEST VIRGINIA 25428 (BERKELEY)",0,C,,110056954407
2540WMRCSTCRNIN,-78.02,39.389,False,54,003,971900,54,54003,54003971900,1400000US54003971900,CONCRETE PIPE & PRECAST LLC-MARTINSBURG PRECAST PLANT,CORNING WAY,MARTINSBURG,WV,25405,"CONCRETE PIPE & PRECAST LLC-MARTINSBURG PRECAST PLANT.CORNING WAY, MARTINSBURG WEST VIRGINIA 25405 (BERKELEY)",0,C,,110064435062
25401KRPLS2011M,-77.95,39.497,False,54,003,971300,54,54003,54003971300,1400000US54003971300,MAAX US CORP,718 MIDATLANTIC  PKWY,MARTINSBURG,WV,25401,"MAAX US CORP.718 MIDATLANTIC  PKWY, MARTINSBURG WEST VIRGINIA 25401 (BERKELEY)",0,C,,110040877806
25401QDGRP855CA,-77.947,39.506,False,54,003,971300,54,54003,54003971300,1400000US54003971300,QUAD/GRAPHICS INC,855 CAPERTON BLVD ATTN: ENVIRON. COORD.,MARTINSBURG,WV,25403,"QUAD/GRAPHICS INC.855 CAPERTON BLVD ATTN: ENVIRON. COORD., MARTINSBURG WEST VIRGINIA 25403 (BERKELEY)",0,C,,110000344388
25414MNNSTPOBOX,-77.993,39.304,False,54,037,972800,54,54037,54037972800,1400000US54037972800,CREO MANUFACTURING AMERICA LLC,1 GRACE ST,MIDDLEWAY,WV,25430,"CREO MANUFACTURING AMERICA LLC.1 GRACE ST, MIDDLEWAY WEST VIRGINIA 25430 (JEFFERSON)",1,C,,110046604279
25419DPNTPROUTE,-77.883,39.55,False,54,003,971101,54,54003,54003971101,1400000US54003971101,FASLOC INC POTOMAC RIVER PLANT,447 DUPONT RD,MARTINSBURG,WV,25404,"FASLOC INC POTOMAC RIVER PLANT.447 DUPONT RD, MARTINSBURG WEST VIRGINIA 25404 (BERKELEY)",0,C,,110000585938
25420NTNLFRTE1B,-78.079,39.366,False,54,003,971800,54,54003,54003971800,1400000US54003971800,NATIONAL FRUIT PRODUCT CO INC,RT 1,GERRARDSTOWN,WV,25420,"NATIONAL FRUIT PRODUCT CO INC.RT 1, GERRARDSTOWN WEST VIRGINIA 25420 (BERKELEY)",0,C,,
2540WGNRLH1612A,-78.043,39.42,False,54,003,971800,54,54003,54003971800,1400000US54003971800,GENERAL HYDROPONICS,10612 APPLE HARVEST DR,MARTINSBURG,WV,25403,"GENERAL HYDROPONICS.10612 APPLE HARVEST DR, MARTINSBURG WEST VIRGINIA 25403 (BERKELEY)",0,C,,110064434811
25430DLBNC105IN,-77.878,39.349000000000004,False,54,037,972402,54,54037,54037972402,1400000US54037972402,DALB INC,105 INDUSTRIAL BLVD,KEARNEYSVILLE,WV,25430,"DALB INC.105 INDUSTRIAL BLVD, KEARNEYSVILLE WEST VIRGINIA 25430 (JEFFERSON)",0,C,,110000344413
25430RYLVN201IN,-77.877,39.348,False,54,037,972402,54,54037,54037972402,1400000US54037972402,ROYAL VENDORS,426 INDUSTRIAL BLVD,KEARNEYSVILLE,WV,25430,"ROYAL VENDORS.426 INDUSTRIAL BLVD, KEARNEYSVILLE WEST VIRGINIA 25430 (JEFFERSON)",0,C,,110041526462
25438NVRSLPOBOX,-77.859,39.312,False,54,037,972402,54,54037,54037972402,1400000US54037972402,UFP RANSON LLC,249 16TH AVENUE,RANSON,WV,25438,"UFP RANSON LLC.249 16TH AVENUE, RANSON WEST VIRGINIA 25438 (JEFFERSON)",0,C,,110007879297
25430TMTDM109WB,-77.866,39.357,False,54,037,972402,54,54037,54037972402,1400000US54037972402,AUTOMATED MERCHANDISING SYSTEMS INC,255 W BURR BLVD,KEARNEYSVILLE,WV,25430,"AUTOMATED MERCHANDISING SYSTEMS INC.255 W BURR BLVD, KEARNEYSVILLE WEST VIRGINIA 25430 (JEFFERSON)",0,C,,110002098159
25438DXNRCNLAWR,-77.863,39.293,False,54,037,972401,54,54037,54037972401,1400000US54037972401,DIXIE-NARCO INC,N LAWRENCE ST,RANSON,WV,25438,"DIXIE-NARCO INC.N LAWRENCE ST, RANSON WEST VIRGINIA 25438 (JEFFERSON)",1,C,,
25438BDGRPNMILD,-77.86399999999999,39.297,False,54,037,972401,54,54037,54037972401,1400000US54037972401,UTC FIRE & SECURITY,215 N MILDRED ST,RANSON,WV,25438,"UTC FIRE & SECURITY.215 N MILDRED ST, RANSON WEST VIRGINIA 25438 (JEFFERSON)",0,C,,110024432238
25438KDDFR2EXEC,-77.863,39.292,False,54,037,972401,54,54037,54037972401,1400000US54037972401,UTC FIRE & SECURITY,351 W 2ND AVE,RANSON,WV,25438,"UTC FIRE & SECURITY.351 W 2ND AVE, RANSON WEST VIRGINIA 25438 (JEFFERSON)",0,C,,110022294177
25502GDYRTSTRT2,-82.17,38.664,False,54,053,955102,54,54053,54053955102,1400000US54053955102,APG POLYTECH LLC,STATE RT 2,APPLE GROVE,WV,25502,"APG POLYTECH LLC.STATE RT 2, APPLE GROVE WEST VIRGINIA 25502 (MASON)",0,C,,110000585956
25504RYBCH514JA,-82.463,38.411,False,54,011,002100,54,54011,54011002100,1400000US54011002100,RAYBO CHEMICAL CO,641 JACKSON AVE,HUNTINGTON,WV,25701,"RAYBO CHEMICAL CO.641 JACKSON AVE, HUNTINGTON WEST VIRGINIA 25701 (CABELL)",1,C,,110005552222
25507MRCNNMAINH,-82.559,38.391999999999996,False,54,099,020300,54,54099,54099020300,1400000US54099020300,AMERICAN NATIONAL RUBBER,MAIN & HIGH ST,CEREDO,WV,25507,"AMERICAN NATIONAL RUBBER.MAIN & HIGH ST, CEREDO WEST VIRGINIA 25507 (WAYNE)",0,C,,110000585965
25530KNVCH21STB,-82.585,38.407,False,54,099,020300,54,54099,54099020300,1400000US54099020300,WILLERT HOME PRODUCTS,100 21ST ST,KENOVA,WV,25530,"WILLERT HOME PRODUCTS.100 21ST ST, KENOVA WEST VIRGINIA 25530 (WAYNE)",0,C,,110000585974
25507KNWHRMAINS,-82.55799999999999,38.397,False,54,099,020300,54,54099,54099020300,1400000US54099020300,KANAWHA RIVER TERMINALS INC,MAIN ST RIVER,CEREDO,WV,25507,"KANAWHA RIVER TERMINALS INC.MAIN ST RIVER, CEREDO WEST VIRGINIA 25507 (WAYNE)",0,C,,
2553WMRTHN23RDS,-82.59,38.406,False,54,099,020300,54,54099,54099020300,1400000US54099020300,MPLX TERMINALS LLC - KENOVA WV TERMINAL,227 23RD ST,KENOVA,WV,25530,"MPLX TERMINALS LLC - KENOVA WV TERMINAL.227 23RD ST, KENOVA WEST VIRGINIA 25530 (WAYNE)",0,C,,110043670319
25510SRVCW300DA,-82.052,38.416,False,54,011,010600,54,54011,54011010600,1400000US54011010600,SERVICE WIRE CULLODEN,300 DAVIS RD,CULLODEN,WV,25510,"SERVICE WIRE CULLODEN.300 DAVIS RD, CULLODEN WEST VIRGINIA 25510 (CABELL)",0,C,,110000344459
25515KZCHMSTATE,-82.206,38.772,False,54,053,955101,54,54053,54053955101,1400000US54053955101,ICL-IP AMERICA INC,11636 HUNTINGTON,GALLIPOLIS FERRY,WV,25515,"ICL-IP AMERICA INC.11636 HUNTINGTON, GALLIPOLIS FERRY WEST VIRGINIA 25515 (MASON)",0,C,,110000607772
25530RSTCHOLDBI,-82.594,38.358000000000004,False,54,099,020400,54,54099,54099020400,1400000US54099020400,BRASKEM AMERICA INC NEAL PLANT,200 BIG SANDY RIVER RD,KENOVA,WV,25530,"BRASKEM AMERICA INC NEAL PLANT.200 BIG SANDY RIVER RD, KENOVA WEST VIRGINIA 25530 (WAYNE)",0,C,,110043805950
25530SHLNDBIGSA,-82.59299999999999,38.367,False,54,099,020400,54,54099,54099020400,1400000US54099020400,ASHLAND LLC-NEAL WV,100 BIG SANDY RIVER RD,KENOVA,WV,25530,"ASHLAND LLC-NEAL WV.100 BIG SANDY RIVER RD, KENOVA WEST VIRGINIA 25530 (WAYNE)",0,C,,110018936071
25701WNSLL8THAV,-82.46799999999999,38.414,False,54,011,000900,54,54011,54011000900,1400000US54011000900,OWENS-BROCKWAY GLASS CONTAINER INC,8TH AVE & 5TH ST W,HUNTINGTON,WV,25711,"OWENS-BROCKWAY GLASS CONTAINER INC.8TH AVE & 5TH ST W, HUNTINGTON WEST VIRGINIA 25711 (CABELL)",0,C,,
25702JHFLT707WE,-82.46600000000001,38.414,False,54,011,000900,54,54011,54011000900,1400000US54011000900,J H FLETCHER & CO,707 W 7TH ST,HUNTINGTON,WV,25702,"J H FLETCHER & CO.707 W 7TH ST, HUNTINGTON WEST VIRGINIA 25702 (CABELL)",0,C,,
25704CNTRY12013,-82.479,38.415,False,54,011,000900,54,54011,54011000900,1400000US54011000900,FUCHS LUBRICANTS CO HUNTINGTON,120 13TH ST W,HUNTINGTON,WV,25704,"FUCHS LUBRICANTS CO HUNTINGTON.120 13TH ST W, HUNTINGTON WEST VIRGINIA 25704 (CABELL)",0,C,,110000499700
25703MRCNM22122,-82.42,38.427,False,54,011,000300,54,54011,54011000300,1400000US54011000300,AMERICAN MEDICAL INDL SUPPLY INC,221 22ND ST,HUNTINGTON,WV,25701,"AMERICAN MEDICAL INDL SUPPLY INC.221 22ND ST, HUNTINGTON WEST VIRGINIA 25701 (CABELL)",0,C,,
25710CFNDS2300T,-82.41799999999999,38.427,False,54,011,000300,54,54011,54011000300,1400000US54011000300,ACF HUNTINGTON INC.,2300 3RD AVE,HUNTINGTON,WV,25703,"ACF HUNTINGTON INC..2300 3RD AVE, HUNTINGTON WEST VIRGINIA 25703 (CABELL)",0,C,,110000344538
25703RBRLT2501G,-82.413,38.431,False,54,011,000300,54,54011,54011000300,1400000US54011000300,RUBBERLITE INC,2501 GUYAN AVE,HUNTINGTON,WV,25703,"RUBBERLITE INC.2501 GUYAN AVE, HUNTINGTON WEST VIRGINIA 25703 (CABELL)",0,C,,110020506237
25703STLFW17THS,-82.43299999999999,38.425,False,54,011,000600,54,54011,54011000600,1400000US54011000600,SWVA INC,2ND AVE & 17TH ST,HUNTINGTON,WV,25703,"SWVA INC.2ND AVE & 17TH ST, HUNTINGTON WEST VIRGINIA 25703 (CABELL)",0,C,,110056972370
25703TRNSFKYLEL,-82.30799999999999,38.459,False,54,011,010300,54,54011,54011010300,1400000US54011010300,TRANSFAB INC,KYLE LN & RTE 2,HUNTINGTON,WV,25703,"TRANSFAB INC.KYLE LN & RTE 2, HUNTINGTON WEST VIRGINIA 25703 (CABELL)",0,C,,
25702LCNLB6065K,-82.30799999999999,38.46,False,54,011,010300,54,54011,54011010300,1400000US54011010300,ALCON RESEARCH LTD.,6065 KYLE LN,HUNTINGTON,WV,25702,"ALCON RESEARCH LTD..6065 KYLE LN, HUNTINGTON WEST VIRGINIA 25702 (CABELL)",0,C,,110000344486
25704CLMBP641JA,-82.465,38.411,False,54,011,001100,54,54011,54011001100,1400000US54011001100,COLUMBIA PAINT CORP,641 JACKSON AVE,HUNTINGTON,WV,25704,"COLUMBIA PAINT CORP.641 JACKSON AVE, HUNTINGTON WEST VIRGINIA 25704 (CABELL)",0,C,,110000344495
25704HNTNG625MO,-82.464,38.412,False,54,011,001100,54,54011,54011001100,1400000US54011001100,HUNTINGTON PLATING INC,625 MONROE AVEUNE,HUNTINGTON,WV,25704,"HUNTINGTON PLATING INC.625 MONROE AVEUNE, HUNTINGTON WEST VIRGINIA 25704 (CABELL)",0,C,,110000344501
25704PPSCL1531M,-82.48,38.408,False,54,011,001000,54,54011,54011001000,1400000US54011001000,BOTTLING GROUP LLC PEPSI BOTTLING GROUP,1531 MONROE AVE,HUNTINGTON,WV,25704,"BOTTLING GROUP LLC PEPSI BOTTLING GROUP.1531 MONROE AVE, HUNTINGTON WEST VIRGINIA 25704 (CABELL)",0,C,,
25710HNTNG9465T,-82.44200000000001,38.42,False,54,011,010900,54,54011,54011010900,1400000US54011010900,HUNTINGTON PUBLISHING CO,946 5TH AVE,HUNTINGTON,WV,257100525,"HUNTINGTON PUBLISHING CO.946 5TH AVE, HUNTINGTON WEST VIRGINIA 25710 (CABELL)",0,C,,
25701BKNGN3THIR,-82.45299999999999,38.42,False,54,011,010900,54,54011,54011010900,1400000US54011010900,BEK ENGINEERING CO (DBA LEVEL 1 FASTENERS),300 THIRD AVE,HUNTINGTON,WV,25701,"BEK ENGINEERING CO (DBA LEVEL 1 FASTENERS).300 THIRD AVE, HUNTINGTON WEST VIRGINIA 25701 (CABELL)",0,C,,110005554685
25720NCLLYRIVER,-82.384,38.414,False,54,011,000101,54,54011,54011000101,1400000US54011000101,THISTLE PROCESSING LLC,3190 RIVERSIDE DR,HUNTINGTON,WV,25705,"THISTLE PROCESSING LLC.3190 RIVERSIDE DR, HUNTINGTON WEST VIRGINIA 25705 (CABELL)",0,C,,110000344547
25705JHFLT402HI,-82.369,38.417,False,54,011,000101,54,54011,54011000101,1400000US54011000101,JH FLETCHER & CO,402 HIGH ST,HUNTINGTON,WV,25705,"JH FLETCHER & CO.402 HIGH ST, HUNTINGTON WEST VIRGINIA 25705 (CABELL)",0,C,,110000344529
25722BSFCR24THS,-82.415,38.424,False,54,011,000400,54,54011,54011000400,1400000US54011000400,FLINT GROUP PRINTING SYSTEMS US LLC,2401 5TH AVE,HUNTINGTON,WV,25703,"FLINT GROUP PRINTING SYSTEMS US LLC.2401 5TH AVE, HUNTINGTON WEST VIRGINIA 25703 (CABELL)",1,C,,110056969419
26003CRNTF225MC,-80.721,40.08,False,54,069,000700,54,54069,54069000700,1400000US54069000700,CORONET FOODS INC EAST,225 MCCOLLOCH ST,WHEELING,WV,26003,"CORONET FOODS INC EAST.225 MCCOLLOCH ST, WHEELING WEST VIRGINIA 26003 (OHIO)",0,C,,
26003WHLDN98PEN,-80.717,40.077,False,54,069,000700,54,54069,54069000700,1400000US54069000700,WHEELING MACHINE & FOUNDRY CO,98 PENINSULA ST,WHEELING,WV,26003,"WHEELING MACHINE & FOUNDRY CO.98 PENINSULA ST, WHEELING WEST VIRGINIA 26003 (OHIO)",1,C,,
26003HBCBR3INDU,-80.717,40.077,False,54,069,000700,54,54069,54069000700,1400000US54069000700,HUBCO BRONZE LLC,3 INDUSTRIAL DR,WHEELING,WV,26003,"HUBCO BRONZE LLC.3 INDUSTRIAL DR, WHEELING WEST VIRGINIA 26003 (OHIO)",0,C,,110000344592
26003SFTYK10IND,-80.719,40.077,False,54,069,000700,54,54069,54069000700,1400000US54069000700,SAFETY-KLEEN SYSTEMS WHEELING (WHE),10 IND US TRIAL PARK DR,WHEELING,WV,26003,"SAFETY-KLEEN SYSTEMS WHEELING (WHE).10 IND US TRIAL PARK DR, WHEELING WEST VIRGINIA 26003 (OHIO)",0,C,,110000344609
26003HSSCN7020T,-80.721,40.061,False,54,069,002600,54,54069,54069002600,1400000US54069002600,HESS CO INDUSTRIES OF WV INC,70-20TH ST,WHEELING,WV,26003,"HESS CO INDUSTRIES OF WV INC.70-20TH ST, WHEELING WEST VIRGINIA 26003 (OHIO)",0,C,,
26003WHLNG31STS,-80.722,40.056,False,54,069,002600,54,54069,54069002600,1400000US54069002600,WHEELING-PITTSBURGH STEEL CORP LABELLE PLANT,31ST ST,WHEELING,WV,26003,"WHEELING-PITTSBURGH STEEL CORP LABELLE PLANT.31ST ST, WHEELING WEST VIRGINIA 26003 (OHIO)",0,C,,
26003HVLLY20THS,-80.72,40.061,False,54,069,002600,54,54069,54069002600,1400000US54069002600,OHIO VALLEY STEEL CO FABRICATION DIV,20TH ST,WHEELING,WV,26003,"OHIO VALLEY STEEL CO FABRICATION DIV.20TH ST, WHEELING WEST VIRGINIA 26003 (OHIO)",0,C,,
26003PSCLN33RDC,-80.726,40.049,False,54,069,002600,54,54069,54069002600,1400000US54069002600,POSI CLEAN INC,3301 CHAPLINE ST,WHEELING,WV,260031911,"POSI CLEAN INC.3301 CHAPLINE ST, WHEELING WEST VIRGINIA 26003 (OHIO)",0,C,,
26003BLRBB2321M,-80.726,40.058,False,54,069,002600,54,54069,54069002600,1400000US54069002600,BLUE RIBBON PAINT CO,2321 MAIN ST,WHEELING,WV,260030809,"BLUE RIBBON PAINT CO.2321 MAIN ST, WHEELING WEST VIRGINIA 26003 (OHIO)",0,C,,
26003SWSHR4000W,-80.727,40.042,False,54,069,002600,54,54069,54069002600,1400000US54069002600,SWISHER INTERNATIONAL INC,4000 WATER ST,WHEELING,WV,26003,"SWISHER INTERNATIONAL INC.4000 WATER ST, WHEELING WEST VIRGINIA 26003 (OHIO)",0,C,,110001930769
2600WNLCTY27WDS,-80.723,40.054,False,54,069,002600,54,54069,54069002600,1400000US54069002600,NAIL CITY BRONZE,2700 WOOD ST,WHEELING,WV,26003,"NAIL CITY BRONZE.2700 WOOD ST, WHEELING WEST VIRGINIA 26003 (OHIO)",0,C,,110001931116
26003HVLLYCOMMU,-80.663,40.046,False,54,069,001800,54,54069,54069001800,1400000US54069001800,OHIO VALLEY STEEL CO BUMGARDNER FNDY DIV,COMMUNITY ST,WHEELING,WV,26003,"OHIO VALLEY STEEL CO BUMGARDNER FNDY DIV.COMMUNITY ST, WHEELING WEST VIRGINIA 26003 (OHIO)",0,C,,
26003CSTMM90ECO,-80.665,40.038000000000004,False,54,069,001800,54,54069,54069001800,1400000US54069001800,CUSTOM MARBLE CORP,90 E COVE AVE EXT,WHEELING,WV,26003,"CUSTOM MARBLE CORP.90 E COVE AVE EXT, WHEELING WEST VIRGINIA 26003 (OHIO)",0,C,,110000344583
26030WHLNGROUTE,-80.652,40.226,False,54,009,031700,54,54009,54009031700,1400000US54009031700,RG STEEL WHEELING LLC - BEECH BOTTOM PLANT,WEST VIRGINIA ROUTE 2,BEECH BOTTOM,WV,26030,"RG STEEL WHEELING LLC - BEECH BOTTOM PLANT.WEST VIRGINIA ROUTE 2, BEECH BOTTOM WEST VIRGINIA 26030 (BROOKE)",1,C,,110042081939
26034RCNDSRTE2S,-80.553,40.582,False,54,029,021500,54,54029,54029021500,1400000US54029021500,BOC INDUSTRIAL GASES,RTE #2 S,CHESTER,WV,260340247,"BOC INDUSTRIAL GASES.RTE #2 S, CHESTER WEST VIRGINIA 26034 (HANCOCK)",0,C,,
26034RRNHF1100M,-80.554,40.618,False,54,029,021500,54,54029,54029021500,1400000US54029021500,CONGO CORP,1100 MEMORIAL DR,CHESTER,WV,26034,"CONGO CORP.1100 MEMORIAL DR, CHESTER WEST VIRGINIA 26034 (HANCOCK)",0,C,,
26037FLLNS1STAT,-80.607,40.34,False,54,009,031200,54,54009,54009031200,1400000US54009031200,FOLLANSBEE STEEL CO,1 STATE ST PO BOX 610,FOLLANSBEE,WV,26037,"FOLLANSBEE STEEL CO.1 STATE ST PO BOX 610, FOLLANSBEE WEST VIRGINIA 26037 (BROOKE)",0,C,,110000344618
26037KPPRSKOPPE,-80.607,40.34,False,54,009,031200,54,54009,54009031200,1400000US54009031200,KOPPERS FOLLANSBEE TAR PLANT,810 KOPPERS RD,FOLLANSBEE,WV,26037,"KOPPERS FOLLANSBEE TAR PLANT.810 KOPPERS RD, FOLLANSBEE WEST VIRGINIA 26037 (BROOKE)",0,C,,110000586027
26037WHLNGPENNM,-80.6,40.328,False,54,009,031200,54,54009,54009031200,1400000US54009031200,WHEELING-NISSHIN,400 PENN & MAIN,FOLLANSBEE,WV,26037,"WHEELING-NISSHIN.400 PENN & MAIN, FOLLANSBEE WEST VIRGINIA 26037 (BROOKE)",0,C,,110042081779
26037WHLNGROUTE,-80.607,40.344,False,54,009,031200,54,54009,54009031200,1400000US54009031200,MOUNTAIN STATE CARBON LLC,1851 MAIN ST,FOLLANSBEE,WV,26037,"MOUNTAIN STATE CARBON LLC.1851 MAIN ST, FOLLANSBEE WEST VIRGINIA 26037 (BROOKE)",0,C,,110042081939
26038TRNGL1701W,-80.753,39.934,False,54,051,020702,54,54051,54051020702,1400000US54051020702,TRIANGLE WIRE & CABLE INC,1701 WHEELING AVE,GLEN DALE,WV,26038,"TRIANGLE WIRE & CABLE INC.1701 WHEELING AVE, GLEN DALE WEST VIRGINIA 26038 (MARSHALL)",0,C,,
26038WRRND61BAL,-80.758,39.948,False,54,051,020702,54,54051,54051020702,1400000US54051020702,WARREN DISTRIBUTION INC,601 BALTIMORE AVE,GLEN DALE,WV,26038,"WARREN DISTRIBUTION INC.601 BALTIMORE AVE, GLEN DALE WEST VIRGINIA 26038 (MARSHALL)",0,C,,110031431010
26041CLMBNROUTE,-80.82300000000001,39.797,False,54,051,020900,54,54051,54051020900,1400000US54051020900,COLUMBIAN CHEMICALS CO,"RT 2, BOX 229",PROCTOR,WV,26055,"COLUMBIAN CHEMICALS CO.RT 2, BOX 229, PROCTOR WEST VIRGINIA 26055 (MARSHALL)",0,C,,110010443029
26041LCPCHROUTE,-80.801,39.907,False,54,051,020900,54,54051,54051020900,1400000US54051020900,HANLIN CHEMICALS WEST VIRGINIA INC,ST RTE 2,MOUNDSVILLE,WV,26041,"HANLIN CHEMICALS WEST VIRGINIA INC.ST RTE 2, MOUNDSVILLE WEST VIRGINIA 26041 (MARSHALL)",0,C,,
26155PPGNDSTATE,-80.852,39.747,False,54,051,020900,54,54051,54051020900,1400000US54051020900,EAGLE NATRIUM LLC,15696 ENERGY RD,PROCTOR,WV,26055,"EAGLE NATRIUM LLC.15696 ENERGY RD, PROCTOR WEST VIRGINIA 26055 (MARSHALL)",0,C,,110000875367
26041KMMRPRTE2X,-80.817,39.83,False,54,051,020900,54,54051,54051020900,1400000US54051020900,AMERICAN ELECTRIC POWER KAMMER/MITCHELL PLANT,RT # 2,MOUNDSVILLE,WV,26041,"AMERICAN ELECTRIC POWER KAMMER/MITCHELL PLANT.RT # 2, MOUNDSVILLE WEST VIRGINIA 26041 (MARSHALL)",0,C,,110013725077
26041VNTRCRTE2S,-80.822,39.833,False,54,051,020900,54,54051,54051020900,1400000US54051020900,RAIN CII CARBON  LLC,8245 ENERGY ROAD,MOUNDSVILLE,WV,26041,"RAIN CII CARBON  LLC.8245 ENERGY ROAD, MOUNDSVILLE WEST VIRGINIA 26041 (MARSHALL)",0,C,,110056973486
26055PBSCHRTE2B,-80.86,39.76,False,54,051,020900,54,54051,54051020900,1400000US54051020900,P B & S CHEMICAL CO INC PROCTOR PLANT,RTE 2 BOX 2,PROCTOR,WV,26055,"P B & S CHEMICAL CO INC PROCTOR PLANT.RTE 2 BOX 2, PROCTOR WEST VIRGINIA 26055 (MARSHALL)",0,C,,
26041DTNDY5ENER,-80.818,39.833,False,54,051,020900,54,54051,54051020900,1400000US54051020900,DTE INDY COKE LLC,5 ENERGY RD,MOUNDSVILLE,WV,26041,"DTE INDY COKE LLC.5 ENERGY RD, MOUNDSVILLE WEST VIRGINIA 26041 (MARSHALL)",1,C,,110038175603
26041RSHGSWVIRG,-80.817,39.829,False,54,051,020900,54,54051,54051020900,1400000US54051020900,ERSHIGS MITCHELL PROJECT,W VIRGINIA RTE 2 AEP MITCHELL PLANT,MOUNDSVILLE,WV,26041,"ERSHIGS MITCHELL PROJECT.W VIRGINIA RTE 2 AEP MITCHELL PLANT, MOUNDSVILLE WEST VIRGINIA 26041 (MARSHALL)",0,C,,110067041105
2605WCRTNT72ENE,-80.811,39.815,False,54,051,020900,54,54051,54051020900,1400000US54051020900,CERTAINTEED GYPSUM,9622 ENERGY ROAD,PROCTOR,WV,26055,"CERTAINTEED GYPSUM.9622 ENERGY ROAD, PROCTOR WEST VIRGINIA 26055 (MARSHALL)",0,C,,110038917367
2611WLMNTSRUTE2,-80.83,39.728,False,54,051,020900,54,54051,54051020900,1400000US54051020900,ELEMENTIS SPECIATIES INC,17595 ENERGY RD,PROCTOR,WV,26055,"ELEMENTIS SPECIATIES INC.17595 ENERGY RD, PROCTOR WEST VIRGINIA 26055 (MARSHALL)",0,C,,110064455888
26050HMRLGSIXTH,-80.607,40.62,False,54,029,020900,54,54029,54029020900,1400000US54029020900,HOMER LAUGHLIN CHINA CO,672 FIESTA DR,NEWELL,WV,26050,"HOMER LAUGHLIN CHINA CO.672 FIESTA DR, NEWELL WEST VIRGINIA 26050 (HANCOCK)",0,C,,110000586054
26050NWLLSPOBOX,-80.649,40.575,False,54,029,020900,54,54029,54029020900,1400000US54029020900,"NEWCHEM, INC.",7743 OHIO RIVER BLVD,NEW CUMBERLAND,WV,26047,"NEWCHEM, INC..7743 OHIO RIVER BLVD, NEW CUMBERLAND WEST VIRGINIA 26047 (HANCOCK)",0,C,,110010720229
26050QKRSTRT2XX,-80.624,40.617,False,54,029,020900,54,54029,54029020900,1400000US54029020900,PENNZOIL-QUAKER STATE (DBA SOPUS PRODUCTS),155 QUAKER STATE RD,NEWELL,WV,26050,"PENNZOIL-QUAKER STATE (DBA SOPUS PRODUCTS).155 QUAKER STATE RD, NEWELL WEST VIRGINIA 26050 (HANCOCK)",0,C,,110014423659
26050RGNWSSTATE,-80.631,40.611,False,54,029,020900,54,54029,54029020900,1400000US54029020900,ERGON WEST VIRGINIA INC,9995 OHIO RIVER BLVD,NEWELL,WV,26050,"ERGON WEST VIRGINIA INC.9995 OHIO RIVER BLVD, NEWELL WEST VIRGINIA 26050 (HANCOCK)",0,C,,110027982565
26050DTCNV2567C,-80.63600000000001,40.608000000000004,False,54,029,020900,54,54029,54029020900,1400000US54029020900,CAMPBELL TRANSPORTATION CO INC,2567 CONGO ARROYO RD,NEWELL,WV,26050,"CAMPBELL TRANSPORTATION CO INC.2567 CONGO ARROYO RD, NEWELL WEST VIRGINIA 26050 (HANCOCK)",0,C,,110007886109
26062LPPTF1000H,-80.62,40.39,False,54,009,031101,54,54009,54009031101,1400000US54009031101,NESTLE PURINA PETCARE,1000 HAMILTON RD,WEIRTON,WV,260625140,"NESTLE PURINA PETCARE.1000 HAMILTON RD, WEIRTON WEST VIRGINIA 26062 (BROOKE)",1,C,,110000344672
26062LVLRL2898B,-80.615,40.387,False,54,009,031101,54,54009,54009031101,1400000US54009031101,LEVOLOR CO WEIRTON PLANT,2898 BIRCH DR,WEIRTON,WV,26062,"LEVOLOR CO WEIRTON PLANT.2898 BIRCH DR, WEIRTON WEST VIRGINIA 26062 (BROOKE)",0,C,,
26062NCHRH3011B,-80.62100000000001,40.388000000000005,False,54,009,031101,54,54009,54009031101,1400000US54009031101,CROWN CORK & SEAL CO (USA) INC CROWN CLOSURE DIV,3011 BIRCH DR,WEIRTON,WV,26062,"CROWN CORK & SEAL CO (USA) INC CROWN CLOSURE DIV.3011 BIRCH DR, WEIRTON WEST VIRGINIA 26062 (BROOKE)",0,C,,110000344681
26062SCNCM3028B,-80.627,40.389,False,54,009,031101,54,54009,54009031101,1400000US54009031101,BALL AEROSOL & SPECIALTY CONTAINER INC,3028 BIRCH DR,WEIRTON,WV,26062,"BALL AEROSOL & SPECIALTY CONTAINER INC.3028 BIRCH DR, WEIRTON WEST VIRGINIA 26062 (BROOKE)",0,C,,110000344725
26062SGNDC3015B,-80.62100000000001,40.388000000000005,False,54,009,031101,54,54009,54009031101,1400000US54009031101,SIGNODE METALS GROUP,3015 BIRCH DR,WEIRTON,WV,26062,"SIGNODE METALS GROUP.3015 BIRCH DR, WEIRTON WEST VIRGINIA 26062 (BROOKE)",1,C,,
26062STRKS3030B,-80.623,40.389,False,54,009,031101,54,54009,54009031101,1400000US54009031101,ARDAGH METAL PACKAGING USA INC,3030 BIRCH DR HALF MOON INDUSTRIAL PARK,WEIRTON,WV,26062,"ARDAGH METAL PACKAGING USA INC.3030 BIRCH DR HALF MOON INDUSTRIAL PARK, WEIRTON WEST VIRGINIA 26062 (BROOKE)",0,C,,110005551615
26062NNDST3025B,-80.628,40.39,False,54,009,031101,54,54009,54009031101,1400000US54009031101,NEO INDUSTRIES (WEIRTON) INC,3025 BIRCH DR,WEIRTON,WV,26062,"NEO INDUSTRIES (WEIRTON) INC.3025 BIRCH DR, WEIRTON WEST VIRGINIA 26062 (BROOKE)",0,C,,110000344690
26062HKNCN3010B,-80.623,40.389,False,54,009,031101,54,54009,54009031101,1400000US54009031101,BALL METAL FOOD CONTAINER LLC,3010 BIRCH DR,WEIRTON,WV,26062,"BALL METAL FOOD CONTAINER LLC.3010 BIRCH DR, WEIRTON WEST VIRGINIA 26062 (BROOKE)",1,C,,110000344663
26062CHRMD2894B,-80.613,40.387,False,54,009,031101,54,54009,54009031101,1400000US54009031101,CHROME DEPOSIT CORP,2894 BIRCH DR HALF MOON INDUSTRIAL PARK,WEIRTON,WV,260625142,"CHROME DEPOSIT CORP.2894 BIRCH DR HALF MOON INDUSTRIAL PARK, WEIRTON WEST VIRGINIA 26062 (BROOKE)",0,C,,110000344645
26062PPLDD200FO,-80.617,40.389,False,54,009,031101,54,54009,54009031101,1400000US54009031101,APPLIED DYNAMICS,200 FORT STEUBEN RD,WEIRTON,WV,260625193,"APPLIED DYNAMICS.200 FORT STEUBEN RD, WEIRTON WEST VIRGINIA 26062 (BROOKE)",0,C,,
26062RLLCT4502F,-80.60600000000001,40.387,False,54,009,031101,54,54009,54009031101,1400000US54009031101,PRECOAT METALS,4502 FREEDOM WAY,WEIRTON,WV,26062,"PRECOAT METALS.4502 FREEDOM WAY, WEIRTON WEST VIRGINIA 26062 (BROOKE)",0,C,,110000344716
26062SLCHM3036B,-80.623,40.389,False,54,009,031101,54,54009,54009031101,1400000US54009031101,SAL CHEMICAL CO INC,3036 BIRCH DR,WEIRTON,WV,26062,"SAL CHEMICAL CO INC.3036 BIRCH DR, WEIRTON WEST VIRGINIA 26062 (BROOKE)",0,C,,110000344743
26062HLCMS4996F,-80.61,40.383,False,54,009,031101,54,54009,54009031101,1400000US54009031101,HOLCIM (US) INC.,4996 FREEDOM WAY,WEIRTON,WV,26062,"HOLCIM (US) INC..4996 FREEDOM WAY, WEIRTON WEST VIRGINIA 26062 (BROOKE)",0,C,,110012707623
2606WMPLMN31BIR,-80.623,40.389,False,54,009,031101,54,54009,54009031101,1400000US54009031101,MAPLE MANUFACTURING LLC,3010 BIRCH DR,WEIRTON,WV,26062,"MAPLE MANUFACTURING LLC.3010 BIRCH DR, WEIRTON WEST VIRGINIA 26062 (BROOKE)",0,C,,110070247029
26062PRNTRLEEAV,-80.59100000000001,40.417,False,54,029,021400,54,54029,54029021400,1400000US54029021400,PORI INTERNATIONAL INC,LEE AVE & RAIL RD,WEIRTON,WV,26062,"PORI INTERNATIONAL INC.LEE AVE & RAIL RD, WEIRTON WEST VIRGINIA 26062 (HANCOCK)",0,C,,
26062RPRDC4THAN,-80.59899999999999,40.43,False,54,029,021400,54,54029,54029021400,1400000US54029021400,AIR PRODUCTS & CHEMICALS INC WEIRTON WV FACILITY,4TH & ST JOHNS RD,WEIRTON,WV,26062,"AIR PRODUCTS & CHEMICALS INC WEIRTON WV FACILITY.4TH & ST JOHNS RD, WEIRTON WEST VIRGINIA 26062 (HANCOCK)",0,C,,
26062WRTNS400TH,-80.609,40.43,False,54,029,021400,54,54029,54029021400,1400000US54029021400,MITTAL STEEL USA WEIRTON INC,400 THREE SPRINGS DR,WEIRTON,WV,26062,"MITTAL STEEL USA WEIRTON INC.400 THREE SPRINGS DR, WEIRTON WEST VIRGINIA 26062 (HANCOCK)",1,C,,110000492618
26062RCLRM1PENN,-80.59,40.419000000000004,False,54,029,021400,54,54029,54029021400,1400000US54029021400,ARCELORMITTAL WEIRTON LLC,100 PENNSYLVANIA AVE,WEIRTON,WV,26062,"ARCELORMITTAL WEIRTON LLC.100 PENNSYLVANIA AVE, WEIRTON WEST VIRGINIA 26062 (HANCOCK)",0,C,,110057387420
26070GLMNF24THC,-80.611,40.287,False,54,009,031400,54,54009,54009031400,1400000US54009031400,EAGLE MANUFACTURING CO,24TH & CHARLES ST,WELLSBURG,WV,26070,"EAGLE MANUFACTURING CO.24TH & CHARLES ST, WELLSBURG WEST VIRGINIA 26070 (BROOKE)",0,C,,
26070BNNRFWVAST,-80.608,40.285,False,54,009,031400,54,54009,54009031400,1400000US54009031400,BANNER FIBREBOARD CO,22ND & COMMERCE ST,WELLSBURG,WV,260700390,"BANNER FIBREBOARD CO.22ND & COMMERCE ST, WELLSBURG WEST VIRGINIA 26070 (BROOKE)",0,C,,
26101CRNNG1624S,-81.538,39.259,False,54,107,000701,54,54107,54107000701,1400000US54107000701,SCHOTT SCIENTIFIC GLASS,1624 STAUNTON AVE,PARKERSBURG,WV,26101,"SCHOTT SCIENTIFIC GLASS.1624 STAUNTON AVE, PARKERSBURG WEST VIRGINIA 26101 (WOOD)",0,C,,
26101WLKRD620DE,-81.554,39.262,False,54,107,000701,54,54107,54107000701,1400000US54107000701,WALKER SYSTEMS INC,620 DEPOT ST,PARKERSBURG,WV,26101,"WALKER SYSTEMS INC.620 DEPOT ST, PARKERSBURG WEST VIRGINIA 26101 (WOOD)",1,C,,
26101MSCPL3301C,-81.53699999999999,39.251,False,54,107,000801,54,54107,54107000801,1400000US54107000801,AMES CO PLANT #2,3301 CAMDEN AVE,PARKERSBURG,WV,26101,"AMES CO PLANT #2.3301 CAMDEN AVE, PARKERSBURG WEST VIRGINIA 26101 (WOOD)",0,C,,
26101MSCPL3801C,-81.531,39.246,False,54,107,000801,54,54107,54107000801,1400000US54107000801,AMES TRUE TEMPER PLANT 1,3801 CAMDEN AVE,PARKERSBURG,WV,261011774,"AMES TRUE TEMPER PLANT 1.3801 CAMDEN AVE, PARKERSBURG WEST VIRGINIA 26101 (WOOD)",0,C,,
26101CHLLN3401C,-81.536,39.25,False,54,107,000801,54,54107,54107000801,1400000US54107000801,"CHALLENGER ELECTRICAL, EQUIPMENT CORP",3401 CAMDEN AVE,PARKERSBURG,WV,26101,"CHALLENGER ELECTRICAL, EQUIPMENT CORP.3401 CAMDEN AVE, PARKERSBURG WEST VIRGINIA 26101 (WOOD)",1,C,,
26105MNVLL29053,-81.55199999999999,39.326,False,54,107,010400,54,54107,54107010400,1400000US54107010400,JOHNS MANVILLE CORP,2905 3RD AVE,VIENNA,WV,26105,"JOHNS MANVILLE CORP.2905 3RD AVE, VIENNA WEST VIRGINIA 26105 (WOOD)",0,C,,
26147BFGDRRT1BO,-81.079,38.935,False,54,013,962600,54,54013,54013962600,1400000US54013962600,BFGOODRICH AEROSPACE,STUMPTOWN RD,GRANTSVILLE,WV,261479707,"BFGOODRICH AEROSPACE.STUMPTOWN RD, GRANTSVILLE WEST VIRGINIA 26147 (CALHOUN)",0,C,,
26147RBBRCROUTE,-81.093,38.935,False,54,013,962600,54,54013,54013962600,1400000US54013962600,RUBBER CRAFTERS INC,RTE 5,GRANTSVILLE,WV,26147,"RUBBER CRAFTERS INC.RTE 5, GRANTSVILLE WEST VIRGINIA 26147 (CALHOUN)",0,C,,
26155MBYCRSTATE,-80.827,39.719,False,54,103,030400,54,54051,54103030400,1400000US54103030400,COVESTRO,17595 ENERGY RD,PROCTOR,WV,26055,"COVESTRO.17595 ENERGY RD, PROCTOR WEST VIRGINIA 26055 (MARSHALL)",0,C,,110000608030
26159CRNNGFIRST,-80.94,39.604,False,54,095,961800,54,54095,54095961800,1400000US54095961800,CORNING INC,FIRST AVE,PADEN CITY,WV,26159,"CORNING INC.FIRST AVE, PADEN CITY WEST VIRGINIA 26159 (TYLER)",0,C,,
26175PRCSN435BU,-80.998,39.56,False,54,095,961800,54,54095,54095961800,1400000US54095961800,PRECISION INTERNATIONAL LLC,435 BURT ST,SISTERSVILLE,WV,26175,"PRECISION INTERNATIONAL LLC.435 BURT ST, SISTERSVILLE WEST VIRGINIA 26175 (TYLER)",0,C,,110005566636
26164KSRLMPOBOX,-81.82300000000001,38.931,False,54,035,963400,54,54035,54035963400,1400000US54035963400,CENTURY ALUMINUM OF WEST VIRGINIA INC,CENTURY RD,RAVENSWOOD,WV,26164,"CENTURY ALUMINUM OF WEST VIRGINIA INC.CENTURY RD, RAVENSWOOD WEST VIRGINIA 26164 (JACKSON)",0,C,,110032631267
25262PLSMPJACKS,-81.839,38.904,False,54,035,963400,54,54035,54035963400,1400000US54035963400,PLASMA PROCESSING CORP,"JACKSON COUNTY IND PARK, ST RTE 2",MILLWOOD,WV,25262,"PLASMA PROCESSING CORP.JACKSON COUNTY IND PARK, ST RTE 2, MILLWOOD WEST VIRGINIA 25262 (JACKSON)",0,C,,
2526WRMSTR141SE,-81.837,38.908,False,54,035,963400,54,54035,54035963400,1400000US54035963400,ARMSTRONG WORLD INDUSTRIES INC MILLWOOD WV,141 SENSENICH DR,MILLWOOD,WV,25262,"ARMSTRONG WORLD INDUSTRIES INC MILLWOOD WV.141 SENSENICH DR, MILLWOOD WEST VIRGINIA 25262 (JACKSON)",0,C,,110055497788
26175NNCRBSTATE,-81.07600000000001,39.482,False,54,095,961900,54,54095,54095961900,1400000US54095961900,MPM SILICONES LLC,10851 ENERGY HWY,FRIENDLY,WV,26146,"MPM SILICONES LLC.10851 ENERGY HWY, FRIENDLY WEST VIRGINIA 26146 (TYLER)",0,C,,110000344814
26135BNSRNSTATE,-81.10600000000001,39.468,False,54,095,961900,54,54095,54095961900,1400000US54095961900,REAL ALLOY RECYCLING BENS RUN LLC,4203 S STATE RT 2,FRIENDLY,WV,26146,"REAL ALLOY RECYCLING BENS RUN LLC.4203 S STATE RT 2, FRIENDLY WEST VIRGINIA 26146 (TYLER)",1,C,,110006149514
26146LMTCH3816S,-81.11,39.463,False,54,095,961900,54,54095,54095961900,1400000US54095961900,REAL ALLOY RECYCLING LLC,283 INDUSTRIAL PARK ROAD,FRIENDLY,WV,26146,"REAL ALLOY RECYCLING LLC.283 INDUSTRIAL PARK ROAD, FRIENDLY WEST VIRGINIA 26146 (TYLER)",0,C,,110056954345
2614WPRVRN62IND,-81.101,39.476,False,54,095,961900,54,54095,54095961900,1400000US54095961900,PROVIRON INC,62 INDUSTRIAL PARK RD,FRIENDLY,WV,26146,"PROVIRON INC.62 INDUSTRIAL PARK RD, FRIENDLY WEST VIRGINIA 26146 (TYLER)",0,C,,110064454674
26180DPNTWDUPON,-81.66199999999999,39.272,False,54,107,010901,54,54107,54107010901,1400000US54107010901,DUPONT WASHINGTON WORKS,8480 DUPONT RD,WASHINGTON,WV,26181,"DUPONT WASHINGTON WORKS.8480 DUPONT RD, WASHINGTON WEST VIRGINIA 26181 (WOOD)",0,C,,110000586081
26181BRGWRSTATE,-81.679,39.26,False,54,107,010901,54,54107,54107010901,1400000US54107010901,SABIC INNOVATIVE PLASTICS US LLC,9226 DUPONT RD,WASHINGTON,WV,26181,"SABIC INNOVATIVE PLASTICS US LLC.9226 DUPONT RD, WASHINGTON WEST VIRGINIA 26181 (WOOD)",1,C,,110056962997
26181GGSNCDUPON,-81.685,39.246,False,54,107,010901,54,54107,54107010901,1400000US54107010901,AGA GAS INC,DUPONT RD,WASHINGTON,WV,26181,"AGA GAS INC.DUPONT RD, WASHINGTON WEST VIRGINIA 26181 (WOOD)",0,C,,110002438167
26181LBFSTRTE89,-81.684,39.251999999999995,False,54,107,010901,54,54107,54107010901,1400000US54107010901,NORTHWEST PIPE CO,183 NORTHWEST DR,WASHINGTON,WV,26181,"NORTHWEST PIPE CO.183 NORTHWEST DR, WASHINGTON WEST VIRGINIA 26181 (WOOD)",0,C,,110000745141
2618WCHMRS848DU,-81.66199999999999,39.272,False,54,107,010901,54,54107,54107010901,1400000US54107010901,CHEMOURS WASHINGTON WORKS,8480 DUPONT RD BUILDING 1,WASHINGTON,WV,26181,"CHEMOURS WASHINGTON WORKS.8480 DUPONT RD BUILDING 1, WASHINGTON WEST VIRGINIA 26181 (WOOD)",0,C,,110064436533
26184CBTCRSTATE,-81.391,39.335,False,54,107,010601,54,54073,54107010601,1400000US54107010601,CABOT CORP,1 CABOT DR,WAVERLY,WV,26184,"CABOT CORP.1 CABOT DR, WAVERLY WEST VIRGINIA 26184 (PLEASANTS)",0,C,,110000499719
26187THFNT700EL,-81.459,39.4,False,54,107,010200,54,54107,54107010200,1400000US54107010200,FENTON ART GLASS CO,700 ELIZABETH ST,WILLIAMSTOWN,WV,26187,"FENTON ART GLASS CO.700 ELIZABETH ST, WILLIAMSTOWN WEST VIRGINIA 26187 (WOOD)",0,C,,110000344832
26187FRRMN200AR,-81.444,39.404,False,54,107,010200,54,54107,54107010200,1400000US54107010200,FARR MANUFACTURING & ENGINEERING CO,200 ARMSTRONG AVE,WILLIAMSTOWN,WV,26187,"FARR MANUFACTURING & ENGINEERING CO.200 ARMSTRONG AVE, WILLIAMSTOWN WEST VIRGINIA 26187 (WOOD)",0,C,,110000344823
26187WLKRS1000I,-81.467,39.393,False,54,107,010200,54,54107,54107010200,1400000US54107010200,WALKER SYSTEMS INC,1000 INNOVATION DR,WILLIAMSTOWN,WV,26187,"WALKER SYSTEMS INC.1000 INNOVATION DR, WILLIAMSTOWN WEST VIRGINIA 26187 (WOOD)",0,C,,
26190MRCNCSTRT2,-81.3,39.356,False,54,073,962200,54,54073,54073962200,1400000US54073962200,CYTEC INDUSTRIES INC,1 HEILMAN AVE,WILLOW ISLAND,WV,26134,"CYTEC INDUSTRIES INC.1 HEILMAN AVE, WILLOW ISLAND WEST VIRGINIA 26134 (PLEASANTS)",0,C,,110000344850
26170MDTLN201BA,-81.207,39.387,False,54,073,962200,54,54073,54073962200,1400000US54073962200,ST MARYS REFINING CO,201 BARKWILL ST,SAINT MARYS,WV,26170,"ST MARYS REFINING CO.201 BARKWILL ST, SAINT MARYS WEST VIRGINIA 26170 (PLEASANTS)",1,C,,
26134MRCNC1DUGG,-81.32,39.358000000000004,False,54,073,962200,54,54073,54073962200,1400000US54073962200,ZOETIS LLC,1 DUGGAR DR,WILLOW ISLAND,WV,26134,"ZOETIS LLC.1 DUGGAR DR, WILLOW ISLAND WEST VIRGINIA 26134 (PLEASANTS)",0,C,,110000344789
26134PLSNTNO1PO,-81.3,39.367,False,54,073,962200,54,54073,54073962200,1400000US54073962200,PLEASANTS WILLOW ISLAND POWER STATIONS,1 POWER STATION BLVD RT 2,WILLOW ISLAND,WV,26134,"PLEASANTS WILLOW ISLAND POWER STATIONS.1 POWER STATION BLVD RT 2, WILLOW ISLAND WEST VIRGINIA 26134 (PLEASANTS)",0,C,,110020047554
26134CRTRN74CAT,-81.26899999999999,39.376,False,54,073,962200,54,54073,54073962200,1400000US54073962200,AXENS NA INC,74 CATALYST DR,BELMONT,WV,26134,"AXENS NA INC.74 CATALYST DR, BELMONT WEST VIRGINIA 26134 (PLEASANTS)",0,C,,110056954167
26134RSHGS1PWER,-81.294,39.37,False,54,073,962200,54,54073,54073962200,1400000US54073962200,ERSHIGS ALLEGHENY PLEASANTS PROJECT,1 POWER STATION BLVD RT 2,WILLOW ISLAND,WV,26134,"ERSHIGS ALLEGHENY PLEASANTS PROJECT.1 POWER STATION BLVD RT 2, WILLOW ISLAND WEST VIRGINIA 26134 (PLEASANTS)",1,C,,110031260061
2613WLLNXS252HE,-81.308,39.359,False,54,073,962200,54,54073,54073962200,1400000US54073962200,ALLNEX USA INC,252 HEILMAN AVE,BELMONT,WV,26134,"ALLNEX USA INC.252 HEILMAN AVE, BELMONT WEST VIRGINIA 26134 (PLEASANTS)",0,C,,110060257742
26201CRHRTROUTE,-80.244,39.0,False,54,097,966600,54,54097,54097966600,1400000US54097966600,CORHART REFRACTORIES,87 CORHART RD,BUCKHANNON,WV,26201,"CORHART REFRACTORIES.87 CORHART RD, BUCKHANNON WEST VIRGINIA 26201 (UPSHUR)",0,C,,110000344869
26201SVNLM35TUR,-80.227,39.043,False,54,097,966600,54,54097,54097966600,1400000US54097966600,SAVIN LUMBER,35 TURKEY RUN RD,BUCKHANNON,WV,26201,"SAVIN LUMBER.35 TURKEY RUN RD, BUCKHANNON WEST VIRGINIA 26201 (UPSHUR)",0,C,,
2620WCSCBC178AL,-80.275,39.008,False,54,097,966600,54,54097,54097966600,1400000US54097966600,CSC BUCKHANNON RMC,178 ALCON RD,BUCKHANNON,WV,26201,"CSC BUCKHANNON RMC.178 ALCON RD, BUCKHANNON WEST VIRGINIA 26201 (UPSHUR)",0,C,,110055497804
26202SMRTCSTARR,-80.584,38.228,False,54,067,950600,54,54067,54067950600,1400000US54067950600,SMR TECHNOLOGIES INC,93 NETTIE FENWICK RD,FENWICK,WV,26202,"SMR TECHNOLOGIES INC.93 NETTIE FENWICK RD, FENWICK WEST VIRGINIA 26202 (NICHOLAS)",0,C,,110000586090
26676GRNVLPOBOX,-80.696,38.101,False,54,067,950600,54,54067,54067950600,1400000US54067950600,GREEN VALLEY COAL CO,RT 20,LEIVASY,WV,26676,"GREEN VALLEY COAL CO.RT 20, LEIVASY WEST VIRGINIA 26676 (NICHOLAS)",0,C,,
26261GRGPC108EM,-80.525,38.225,False,54,067,950600,54,54067,54067950600,1400000US54067950600,COLLINS HARDWOOD RICHWOOD WV,108 E MAIN ST,RICHWOOD,WV,26261,"COLLINS HARDWOOD RICHWOOD WV.108 E MAIN ST, RICHWOOD WEST VIRGINIA 26261 (NICHOLAS)",0,C,,110007875157
26259CNCSTRTES2,-79.891,38.784,False,54,083,966400,54,54083,54083966400,1400000US54083966400,CONCAST METAL PRODS CO,RTES 219 & 250,DAILEY,WV,26259,"CONCAST METAL PRODS CO.RTES 219 & 250, DAILEY WEST VIRGINIA 26259 (RANDOLPH)",0,C,,
26253BRCHRRTE25,-79.882,38.813,False,54,083,966400,54,54083,54083966400,1400000US54083966400,ARMSTRONG HARDWOOD FLOORING CO,RT 250 S,BEVERLY,WV,26253,"ARMSTRONG HARDWOOD FLOORING CO.RT 250 S, BEVERLY WEST VIRGINIA 26253 (RANDOLPH)",0,C,,110000775019
26241GTTMNRTE21,-79.862,38.861,False,54,083,966400,54,54083,54083966400,1400000US54083966400,GUTTMAN OIL CO,RT 219 & 250 S,ELKINS,WV,26241,"GUTTMAN OIL CO.RT 219 & 250 S, ELKINS WEST VIRGINIA 26241 (RANDOLPH)",0,C,,110000586107
26259CSTLLHWY25,-79.89399999999999,38.802,False,54,083,966400,54,54083,54083966400,1400000US54083966400,EASTERN HARDWOODS - DAILEY SAWMILL,HWY 250 S,DAILEY,WV,26259,"EASTERN HARDWOODS - DAILEY SAWMILL.HWY 250 S, DAILEY WEST VIRGINIA 26259 (RANDOLPH)",0,C,,110006861431
26259CSTLLHWY2A,-79.893,38.8,False,54,083,966400,54,54083,54083966400,1400000US54083966400,NORTHWEST HARDWOODS INC-DAILEY YARD,HWY 250S,DAILEY,WV,26259,"NORTHWEST HARDWOODS INC-DAILEY YARD.HWY 250S, DAILEY WEST VIRGINIA 26259 (RANDOLPH)",0,C,,110006861431
26287PRSNS222DA,-79.678,39.095,False,54,093,965400,54,54093,54093965400,1400000US54093965400,PARSONS FOOTWEAR INC,222 DAVIS ST,PARSONS,WV,26287,"PARSONS FOOTWEAR INC.222 DAVIS ST, PARSONS WEST VIRGINIA 26287 (TUCKER)",0,C,,
26287KNGSFPOBOX,-79.69,39.078,False,54,093,965400,54,54093,54093965400,1400000US54093965400,KINGSFORD MANUFACTURING CO,S RTE 219,PARSONS,WV,26287,"KINGSFORD MANUFACTURING CO.S RTE 219, PARSONS WEST VIRGINIA 26287 (TUCKER)",0,C,,110010443494
26301GLCNV423TU,-80.319,39.272,False,54,033,031000,54,54033,54033031000,1400000US54033031000,EUROPTEC USA INC,423 TUNA ST,CLARKSBURG,WV,26301,"EUROPTEC USA INC.423 TUNA ST, CLARKSBURG WEST VIRGINIA 26301 (HARRISON)",0,C,,110000344878
26330PRBNNRTE1B,-80.25,39.311,False,54,033,032102,54,54033,54033032102,1400000US54033032102,PREBENA NA FASTENER CORP,RTE 1 BOX 47A,BRIDGEPORT,WV,26330,"PREBENA NA FASTENER CORP.RTE 1 BOX 47A, BRIDGEPORT WEST VIRGINIA 26330 (HARRISON)",0,C,,
26330PRTTWBENED,-80.219,39.298,False,54,033,032101,54,54033,54033032101,1400000US54033032101,PRATT & WHITNEY ENGINE SERVICES INC,1525 MIDWAY PARK RD,BRIDGEPORT,WV,26330,"PRATT & WHITNEY ENGINE SERVICES INC.1525 MIDWAY PARK RD, BRIDGEPORT WEST VIRGINIA 26330 (HARRISON)",0,C,,110002044555
26378PTTSBPOBOX,-80.39399999999999,39.101,False,54,041,967400,54,54041,54041967400,1400000US54041967400,PTC ALLIANCE JANE LEW PLANT,533 INDUSTRIAL PARK RD,JANE LEW,WV,26378,"PTC ALLIANCE JANE LEW PLANT.533 INDUSTRIAL PARK RD, JANE LEW WEST VIRGINIA 26378 (LEWIS)",0,C,,110042084295
26452LGLSS631EA,-80.453,39.037,False,54,041,967400,54,54041,54041967400,1400000US54041967400,GLASS WORKS WV LLC,395 RT 33 E,WESTON,WV,26452,"GLASS WORKS WV LLC.395 RT 33 E, WESTON WEST VIRGINIA 26452 (LEWIS)",0,C,,
26378VKNGP439IN,-80.40100000000001,39.101,False,54,041,967400,54,54041,54041967400,1400000US54041967400,LATHAM POOL PRODUCTS INC D/B/A VIKING POOLS-WV,176 VIKING DR,JANE LEW,WV,26378,"LATHAM POOL PRODUCTS INC D/B/A VIKING POOLS-WV.176 VIKING DR, JANE LEW WEST VIRGINIA 26378 (LEWIS)",0,C,,110008055503
26378CMPST473IN,-80.399,39.103,False,54,041,967400,54,54041,54041967400,1400000US54041967400,COMPOSITE POOL CORP,473 INDUSTRIAL PARK RD,JANE LEW,WV,26378,"COMPOSITE POOL CORP.473 INDUSTRIAL PARK RD, JANE LEW WEST VIRGINIA 26378 (LEWIS)",0,C,,
26505MYLNP781CH,-79.958,39.659,False,54,061,010600,54,54061,54061010600,1400000US54061010600,MYLAN PHARMACEUTICALS INC,781 CHESTNUT RIDGE RD,MORGANTOWN,WV,265054310,"MYLAN PHARMACEUTICALS INC.781 CHESTNUT RIDGE RD, MORGANTOWN WEST VIRGINIA 26505 (MONONGALIA)",0,C,,
26505STRLNROUTE,-79.926,39.62,False,54,061,010902,54,54061,54061010902,1400000US54061010902,STERLING PLUMBING GROUP INC,2001 EARL CORE RD,MORGANTOWN,WV,265070798,"STERLING PLUMBING GROUP INC.2001 EARL CORE RD, MORGANTOWN WEST VIRGINIA 26507 (MONONGALIA)",1,C,,
26505WSTMR1000D,-79.971,39.6,False,54,061,011100,54,54061,54061011100,1400000US54061011100,ADDIVANT USA LLC - SOUTH PLANT,"1000 MORGANTOWN INDUSTRIAL PARK,   BLG 816",MORGANTOWN,WV,26501,"ADDIVANT USA LLC - SOUTH PLANT.1000 MORGANTOWN INDUSTRIAL PARK,   BLG 816, MORGANTOWN WEST VIRGINIA 26501 (MONONGALIA)",0,C,,110067426486
26505WSTMRMORGA,-79.97399999999999,39.61,False,54,061,011100,54,54061,54061011100,1400000US54061011100,ADDIVANT USA LLC-NORTH PLANT,1000 MORGANTOWN INDUSTRIAL PARK,MORGANTOWN,WV,26501,"ADDIVANT USA LLC-NORTH PLANT.1000 MORGANTOWN INDUSTRIAL PARK, MORGANTOWN WEST VIRGINIA 26501 (MONONGALIA)",0,C,,110000572782
2650WCSCWS7998M,-79.97399999999999,39.604,False,54,061,011100,54,54061,54061011100,1400000US54061011100,CSC WESTOVER RMC,1300 MORGANTOWN INDSUTRIAL PARK RD,MORGANTOWN,WV,26501,"CSC WESTOVER RMC.1300 MORGANTOWN INDSUTRIAL PARK RD, MORGANTOWN WEST VIRGINIA 26501 (MONONGALIA)",0,C,,110055497831
26537SHDWBSISLE,-79.697,39.471,False,54,077,964000,54,54077,54077964000,1400000US54077964000,MATTHEWS INTERNATIONAL CORP,125 SISLER ST,KINGWOOD,WV,26537,"MATTHEWS INTERNATIONAL CORP.125 SISLER ST, KINGWOOD WEST VIRGINIA 26537 (PRESTON)",0,C,,110000344949
26519LBRGHRTE26,-79.637,39.489000000000004,False,54,077,964000,54,54077,54077964000,1400000US54077964000,ALLEGHENY ENERGY INC ALBRIGHT POWER STATION,RTE 26,ALBRIGHT,WV,26519,"ALLEGHENY ENERGY INC ALBRIGHT POWER STATION.RTE 26, ALBRIGHT WEST VIRGINIA 26519 (PRESTON)",1,C,,110000586143
26537CSTLC84ALB,-79.673,39.471,False,54,077,964000,54,54077,54077964000,1400000US54077964000,COASTAL COAL CO LLC ALBRIGHT PLANT,84 ALBRIGHT RD,KINGWOOD,WV,26537,"COASTAL COAL CO LLC ALBRIGHT PLANT.84 ALBRIGHT RD, KINGWOOD WEST VIRGINIA 26537 (PRESTON)",0,C,,
26537YRKBRKINNE,-79.708,39.478,False,54,077,964000,54,54077,54077964000,1400000US54077964000,MATTHEWS INTERNATIONAL CORP,106 GRACE CHAPEL RD,KINGWOOD,WV,26537,"MATTHEWS INTERNATIONAL CORP.106 GRACE CHAPEL RD, KINGWOOD WEST VIRGINIA 26537 (PRESTON)",1,C,,110042046791
26537LLGHNINTER,-79.64699999999999,39.466,False,54,077,964000,54,54077,54077964000,1400000US54077964000,ALLEGHENY WOOD PRODUCTS INC MILL 5,342 MILL RD,KINGWOOD,WV,26537,"ALLEGHENY WOOD PRODUCTS INC MILL 5.342 MILL RD, KINGWOOD WEST VIRGINIA 26537 (PRESTON)",0,C,,110022522509
26547HLLNCROUTE,-79.805,39.507,False,54,077,964300,54,54077,54077964300,1400000US54077964300,SUPERIOR FIBERS,456 SOUTH ROBERT STONE WAY,REEDSVILLE,WV,26547,"SUPERIOR FIBERS.456 SOUTH ROBERT STONE WAY, REEDSVILLE WEST VIRGINIA 26547 (PRESTON)",0,C,,110007876940
26554HLMCK8THBE,-80.148,39.471,False,54,049,020200,54,54049,54049020200,1400000US54049020200,HELMICK CORP,10 TH ST & MINOR AVE,FAIRMONT,WV,26554,"HELMICK CORP.10 TH ST & MINOR AVE, FAIRMONT WEST VIRGINIA 26554 (MARION)",0,C,,110000782966
26554MPNTRRTE73,-80.2,39.419000000000004,False,54,049,021200,54,54049,54049021200,1400000US54049021200,"MAP INTL INC, OF WEST VIRGINIA",RTE 73 S,FAIRMONT,WV,26554,"MAP INTL INC, OF WEST VIRGINIA.RTE 73 S, FAIRMONT WEST VIRGINIA 26554 (MARION)",1,C,,
26554NDSTR1INDU,-80.203,39.457,False,54,049,021200,54,54049,54049021200,1400000US54049021200,INDUSTRIAL RESOURCES INC,1 INDUSTRIAL RD,FAIRMONT,WV,26554,"INDUSTRIAL RESOURCES INC.1 INDUSTRIAL RD, FAIRMONT WEST VIRGINIA 26554 (MARION)",0,C,,
2655WFRMNT25RDE,-80.207,39.418,False,54,049,021200,54,54049,54049021200,1400000US54049021200,FAIRMONT SERVICE CENTER,25 RODEO DR,FAIRMONT,WV,26554,"FAIRMONT SERVICE CENTER.25 RODEO DR, FAIRMONT WEST VIRGINIA 26554 (MARION)",0,C,,110005575225
26554PHLPSHOULT,-80.115,39.497,False,54,049,020700,54,54049,54049020700,1400000US54049020700,PHILIPS LIGHTING CO,RT 3 BOX 505 HOULT RD,FAIRMONT,WV,26554,"PHILIPS LIGHTING CO.RT 3 BOX 505 HOULT RD, FAIRMONT WEST VIRGINIA 26554 (MARION)",0,C,,110000843874
26555LCNRLSPEED,-80.107,39.488,False,54,049,020700,54,54049,54049020700,1400000US54049020700,NOVELIS CORP,1800 SPEEDWAY,FAIRMONT,WV,26554,"NOVELIS CORP.1800 SPEEDWAY, FAIRMONT WEST VIRGINIA 26554 (MARION)",0,C,,110000344985
26554THCRT1100H,-80.126,39.501999999999995,False,54,049,020700,54,54049,54049020700,1400000US54049020700,CREATIVE LABEL CO,1100 HOULT RD,FAIRMONT,WV,26554,"CREATIVE LABEL CO.1100 HOULT RD, FAIRMONT WEST VIRGINIA 26554 (MARION)",0,C,,
26601PPLCHOLDFA,-80.7,38.662,False,54,007,968100,54,54007,54007968100,1400000US54007968100,APPALACHIAN TIMBER SERVICES LLC,393 EDGAR GIVEN PKWY,SUTTON,WV,26601,"APPALACHIAN TIMBER SERVICES LLC.393 EDGAR GIVEN PKWY, SUTTON WEST VIRGINIA 26601 (BRAXTON)",0,C,,110000345001
26722KPPRSRAILR,-78.625,39.534,False,54,027,968400,54,54027,54027968400,1400000US54027968400,KOPPERS INC (GREEN SPRING WV),785 RAILROAD ST,GREEN SPRING,WV,26722,"KOPPERS INC (GREEN SPRING WV).785 RAILROAD ST, GREEN SPRING WEST VIRGINIA 26722 (HAMPSHIRE)",0,C,,110042081859
26757RMNYSDRAWE,-78.756,39.355,False,54,027,968400,54,54027,54027968400,1400000US54027968400,ROMNEY SHOE CO,51 INDUSTRIAL PARK,ROMNEY,WV,26757,"ROMNEY SHOE CO.51 INDUSTRIAL PARK, ROMNEY WEST VIRGINIA 26757 (HAMPSHIRE)",0,C,,
26726KSSLLSTARR,-78.986,39.428000000000004,False,54,057,010500,54,54057,54057010500,1400000US54057010500,KESSEL LUMBER SUPPLY INC,HC 84 BOX 4,KEYSER,WV,26726,"KESSEL LUMBER SUPPLY INC.HC 84 BOX 4, KEYSER WEST VIRGINIA 26726 (MINERAL)",0,C,,
26726NCHRGWAXLE,-78.958,39.459,False,54,057,010500,54,54057,54057010500,1400000US54057010500,ANCHOR GLASS CONTAINER CORP,WAXLER RD,KEYSER,WV,26726,"ANCHOR GLASS CONTAINER CORP.WAXLER RD, KEYSER WEST VIRGINIA 26726 (MINERAL)",0,C,,
26726CRRLLWAXLE,-78.953,39.44,False,54,057,010500,54,54057,54057010500,1400000US54057010500,CARROLL MFG INTERNATIONAL,WAXLER RD,KEYSER,WV,26726,"CARROLL MFG INTERNATIONAL.WAXLER RD, KEYSER WEST VIRGINIA 26726 (MINERAL)",0,C,,
26726PRSTNRTE5B,-78.98100000000001,39.437,False,54,057,010500,54,54057,54057010500,1400000US54057010500,PRO STAINLESS INC,RTE 5 BOX 830,KEYSER,WV,26726,"PRO STAINLESS INC.RTE 5 BOX 830, KEYSER WEST VIRGINIA 26726 (MINERAL)",0,C,,
26726LLGNYWESTV,-78.844,39.561,False,54,057,010200,54,54057,54057010200,1400000US54057010200,ALLEGANY BALLISTICS LAB (NIROP),210 WV STATE RT 956,ROCKET CENTER,WV,26726,"ALLEGANY BALLISTICS LAB (NIROP).210 WV STATE RT 956, ROCKET CENTER WEST VIRGINIA 26726 (MINERAL)",0,C,,110000345010
26807HNVRSRTE22,-79.35600000000001,38.609,False,54,071,970500,54,54071,54071970500,1400000US54071970500,HANOVER SHOE CO FRANKLIN PLANT,RTE 220 S,FRANKLIN,WV,26807,"HANOVER SHOE CO FRANKLIN PLANT.RTE 220 S, FRANKLIN WEST VIRGINIA 26807 (PENDLETON)",0,C,,
26836CPNVLBEANS,-78.975,39.056,False,54,031,970300,54,54031,54031970300,1400000US54031970300,CAPON VALLEY MARBLE,137 BEANS LN,MOOREFIELD,WV,26836,"CAPON VALLEY MARBLE.137 BEANS LN, MOOREFIELD WEST VIRGINIA 26836 (HARDY)",0,C,,110000345038
26836MRCNWROUTE,-78.987,39.041,False,54,031,970300,54,54031,54031970300,1400000US54031970300,AMERICAN WOODMARK HARDY COUNTY PLANT,390 INDUSTRIAL PARK RD,MOOREFIELD,WV,26836,"AMERICAN WOODMARK HARDY COUNTY PLANT.390 INDUSTRIAL PARK RD, MOOREFIELD WEST VIRGINIA 26836 (HARDY)",0,C,,110000345056
26836WMPLRHWY22,-78.98899999999999,39.041,False,54,031,970300,54,54031,54031970300,1400000US54031970300,PILGRIM'S PRIDE CORP MOOREFIELD FEEDMILL,194  INDUSTRIAL PARK ROAD,MOOREFIELD,WV,26836,"PILGRIM'S PRIDE CORP MOOREFIELD FEEDMILL.194  INDUSTRIAL PARK ROAD, MOOREFIELD WEST VIRGINIA 26836 (HARDY)",0,C,,110013807452
26836HSTRN104SM,-78.973,39.056999999999995,False,54,031,970200,54,54031,54031970200,1400000US54031970200,PILGRIM'S PRIDE CORP MOOREFIELD PREPARED FOODS PLANT,214 S MAIN ST,MOOREFIELD,WV,26836,"PILGRIM'S PRIDE CORP MOOREFIELD PREPARED FOODS PLANT.214 S MAIN ST, MOOREFIELD WEST VIRGINIA 26836 (HARDY)",0,C,,110000753523
26836RCKNGPOTOM,-78.971,39.059,False,54,031,970200,54,54031,54031970200,1400000US54031970200,PILGRIM'S PRIDE CORP MOOREFIELD FRESH FACILITY,129 POTOMAC ST,MOOREFIELD,WV,26836,"PILGRIM'S PRIDE CORP MOOREFIELD FRESH FACILITY.129 POTOMAC ST, MOOREFIELD WEST VIRGINIA 26836 (HARDY)",0,C,,110000345065
26836MRCNW117SF,-78.965,39.061,False,54,031,970200,54,54031,54031970200,1400000US54031970200,AMERICAN WOODMARK MOOREFIELD PLANT,117 S FORK RD,MOOREFIELD,WV,26836,"AMERICAN WOODMARK MOOREFIELD PLANT.117 S FORK RD, MOOREFIELD WEST VIRGINIA 26836 (HARDY)",0,C,,110001929842
26836MRCNW587RB,-78.941,39.075,False,54,031,970200,54,54031,54031970200,1400000US54031970200,AMERICAN WOODMARK CORP SOUTH BRANCH PLANT,587 ROBERT C. BYRD INDUSTRIAL PARK RD,MOOREFIELD,WV,26836,"AMERICAN WOODMARK CORP SOUTH BRANCH PLANT.587 ROBERT C. BYRD INDUSTRIAL PARK RD, MOOREFIELD WEST VIRGINIA 26836 (HARDY)",0,C,,110018883289
24701TBRMCRT52N,-81.25,37.284,False,54,055,001700,54,54055,54055001700,1400000US54055001700,TABOR MACHINE CO,RT 52 1 MILE N OF BLUEFIELD,BLUEFIELD,WV,24701,"TABOR MACHINE CO.RT 52 1 MILE N OF BLUEFIELD, BLUEFIELD WEST VIRGINIA 24701 (MERCER)",0,C,,
24701MCCLMRTE52,-81.25,37.282,False,54,055,001700,54,54055,54055001700,1400000US54055001700,EIMCO LLC,1712 COAL HERITIAGE RD,BLUEFIELD,WV,24701,"EIMCO LLC.1712 COAL HERITIAGE RD, BLUEFIELD WEST VIRGINIA 24701 (MERCER)",0,C,,
24970JFFYFRIVER,-80.476,37.741,False,54,025,950700,54,54025,54025950700,1400000US54025950700,AMERICAN FOAM TECHNOLOGIES,RIVER RD,RONCEVERTE,WV,24970,"AMERICAN FOAM TECHNOLOGIES.RIVER RD, RONCEVERTE WEST VIRGINIA 24970 (GREENBRIER)",0,C,,
25143CSNCXWEST1,-81.845,38.424,False,54,039,010600,54,54079,54039010600,1400000US54039010600,AC&S INC,W 19TH ST,NITRO,WV,25143,"AC&S INC.W 19TH ST, NITRO WEST VIRGINIA 25143 (PUTNAM)",0,C,,110013694038
25143RPBLCVISCO,-81.844,38.422,False,54,039,010600,54,54039,54039010600,1400000US54039010600,REPUBLIC CONTAINER CO,VISCOSE RD,NITRO,WV,25143,"REPUBLIC CONTAINER CO.VISCOSE RD, NITRO WEST VIRGINIA 25143 (KANAWHA)",0,C,,
25143PCBLNPLANT,-81.844,38.415,False,54,039,010600,54,54079,54039010600,1400000US54039010600,POCA BLENDING LLC,PLANT RD PAR INDUSTRIAL PARK BLDG 1,NITRO,WV,25143,"POCA BLENDING LLC.PLANT RD PAR INDUSTRIAL PARK BLDG 1, NITRO WEST VIRGINIA 25143 (PUTNAM)",0,C,,110043694446
2514WPLLLN81STA,-81.822,38.391999999999996,False,54,039,010600,54,54039,54039010600,1400000US54039010600,APOLLO OIL - NITRO FACILITY,800 1ST AVE S,NITRO,WV,25143,"APOLLO OIL - NITRO FACILITY.800 1ST AVE S, NITRO WEST VIRGINIA 25143 (KANAWHA)",0,C,,110070556462
25276BFXXXROANE,-81.33800000000001,38.793,False,54,087,963000,54,54087,54087963000,1400000US54087963000,GOODRICH AIRCRAFT INTERIOR PRODUCTS,190 BFGOODRICH DR,SPENCER,WV,25276,"GOODRICH AIRCRAFT INTERIOR PRODUCTS.190 BFGOODRICH DR, SPENCER WEST VIRGINIA 25276 (ROANE)",0,C,,
25276MNRCH388MA,-81.35300000000001,38.804,False,54,087,963000,54,54087,54087963000,1400000US54087963000,ARMACELL LLC,100 LOCUST AVE,SPENCER,WV,25276,"ARMACELL LLC.100 LOCUST AVE, SPENCER WEST VIRGINIA 25276 (ROANE)",0,C,,110000344253
2527WRMCLL19MUS,-81.33800000000001,38.793,False,54,087,963000,54,54087,54087963000,1400000US54087963000,ARMACELL LLC,190 MUSTANG WAY,SPENCER,WV,25276,"ARMACELL LLC.190 MUSTANG WAY, SPENCER WEST VIRGINIA 25276 (ROANE)",0,C,,110070557754
25401SXTNCFAIRF,-77.959,39.45,False,54,003,971500,54,54003,54003971500,1400000US54003971500,SEXTON CAN CO INC,FAIRFAX AVE,MARTINSBURG,WV,25401,"SEXTON CAN CO INC.FAIRFAX AVE, MARTINSBURG WEST VIRGINIA 25401 (BERKELEY)",0,C,,
25504STRMD1305M,-82.287,38.409,False,54,011,010400,54,54011,54011010400,1400000US54011010400,STURM RAPID RESPONSE CENTER,1305 MAIN STEET,BARBOURSVILLE,WV,255040277,"STURM RAPID RESPONSE CENTER.1305 MAIN STEET, BARBOURSVILLE WEST VIRGINIA 25504 (CABELL)",0,C,,
25702DNSTRKYLEL,-82.37700000000001,38.426,False,54,011,000200,54,54011,54011000200,1400000US54011000200,D & E INDUSTRIES INC,KYLE LN & RT 2 N,HUNTINGTON,WV,257020089,"D & E INDUSTRIES INC.KYLE LN & RT 2 N, HUNTINGTON WEST VIRGINIA 25702 (CABELL)",0,C,,
26031LCLDS8THMC,-80.735,40.015,False,54,051,020500,54,54051,54051020500,1400000US54051020500,LACLEDE STEEL BENWOOD,8TH & MCMECHEN ST,BENWOOD,WV,26031,"LACLEDE STEEL BENWOOD.8TH & MCMECHEN ST, BENWOOD WEST VIRGINIA 26031 (MARSHALL)",0,C,,
26031CNSLDRTE2X,-80.733,40.025999999999996,False,54,051,020500,54,54051,54051020500,1400000US54051020500,SHOEMAKER MINE,RT 2,BENWOOD,WV,26031,"SHOEMAKER MINE.RT 2, BENWOOD WEST VIRGINIA 26031 (MARSHALL)",0,C,,
2603WNRTHM748MC,-80.734,40.015,False,54,051,020500,54,54051,54051020500,1400000US54051020500,NORTH AMERICAN GALVANIZING COMPANY -WHEELING,"748 MCMECHEN ST, #11",BENWOOD,WV,26031,"NORTH AMERICAN GALVANIZING COMPANY -WHEELING.748 MCMECHEN ST, #11, BENWOOD WEST VIRGINIA 26031 (MARSHALL)",1,C,,110038917900
26301WVRGSSTADI,-80.35,39.284,False,54,033,030100,54,54033,54033030100,1400000US54033030100,WEST VIRGINIA WELDING (DBA WEST VIRGINIA WELDING),1 STADIUM DR,CLARKSBURG,WV,26301,"WEST VIRGINIA WELDING (DBA WEST VIRGINIA WELDING).1 STADIUM DR, CLARKSBURG WEST VIRGINIA 26301 (HARRISON)",0,C,,
26323CRCRBPHILI,-80.291,39.255,False,54,033,031100,54,54033,54033031100,1400000US54033031100,ADVANCED GRAPHITE MATERIALS LLC,2698 PHILIPPI PIKE,ANMOORE,WV,26323,"ADVANCED GRAPHITE MATERIALS LLC.2698 PHILIPPI PIKE, ANMOORE WEST VIRGINIA 26323 (HARRISON)",0,C,,110056958608
26554MCCLM2030P,-80.157,39.445,False,54,049,020900,54,54049,54049020900,1400000US54049020900,RUSKIN CO,2030 PLEASANT VALLEY RD,FAIRMONT,WV,265549295,"RUSKIN CO.2030 PLEASANT VALLEY RD, FAIRMONT WEST VIRGINIA 26554 (MARION)",0,C,,110000344976
2655WTHMSP212MY,-80.15,39.446,False,54,049,020900,54,54049,54049020900,1400000US54049020900,THOMAS PETROLEUM LLC WEST VIRGINIA,2012 MYERS DR,PLEASANT VALLEY,WV,26554,"THOMAS PETROLEUM LLC WEST VIRGINIA.2012 MYERS DR, PLEASANT VALLEY WEST VIRGINIA 26554 (MARION)",0,C,,110064436347
25638WPCLCRTE44,-81.999,37.725,False,54,045,956600,54,54045,54045956600,1400000US54045956600,WHEELING-PITTSBURGH COAL CO,RTE 44 S,OMAR,WV,25638,"WHEELING-PITTSBURGH COAL CO.RTE 44 S, OMAR WEST VIRGINIA 25638 (LOGAN)",0,C,,
25674KRMTLPOBOX,-82.34700000000001,37.871,False,54,059,957100,54,54059,54059957100,1400000US54059957100,KERMIT LUMBER CO,RTE 52,KERMIT,WV,25674,"KERMIT LUMBER CO.RTE 52, KERMIT WEST VIRGINIA 25674 (MINGO)",0,C,,
26003CNTRF74WAR,-80.70100000000001,40.105,False,54,069,000200,54,54069,54069000200,1400000US54069000200,CENTRE FOUNDRY & MACHINE CO,74 WARWOOD AVE WARWOOD,WHEELING,WV,26003,"CENTRE FOUNDRY & MACHINE CO.74 WARWOOD AVE WARWOOD, WHEELING WEST VIRGINIA 26003 (OHIO)",0,C,,
26003PSTCH170NO,-80.702,40.118,False,54,069,000200,54,54069,54069000200,1400000US54069000200,POSITECH INTERNATIONAL INC,170 N 17TH ST,WHEELING,WV,260037073,"POSITECH INTERNATIONAL INC.170 N 17TH ST, WHEELING WEST VIRGINIA 26003 (OHIO)",0,C,,
26178RBBRCROUTE,-81.077,39.095,False,54,085,962400,54,54085,54085962400,1400000US54085962400,RPR IND INC,RTE 47,SMITHVILLE,WV,26178,"RPR IND INC.RTE 47, SMITHVILLE WEST VIRGINIA 26178 (RITCHIE)",0,C,,
26337RBBRCROUTE,-81.153,39.23,True,54,085,962400,54,54085,54085962400,1400000US54085962400,RUBBER CRAFTERS INC,RTE 31,CAIRO,WV,26337,"RUBBER CRAFTERS INC RTE 31, CAIRO, WV, 26337",0,C,,
26261RBBRC24COM,-80.535,38.222,False,54,067,950500,54,54067,54067950500,1400000US54067950500,RUBBER CRAFTERS INC,24 COMMERCIAL AVE,RICHWOOD,WV,26261,"RUBBER CRAFTERS INC.24 COMMERCIAL AVE, RICHWOOD WEST VIRGINIA 26261 (NICHOLAS)",0,C,,
26505SWNSNSTATE,-80.001,39.532,False,54,061,011900,54,54061,54061011900,1400000US54061011900,SWANSON PLATING CORP INC,2608 SMITHTOWN RD,MORGANTOWN,WV,26508,"SWANSON PLATING CORP INC.2608 SMITHTOWN RD, MORGANTOWN WEST VIRGINIA 26508 (MONONGALIA)",0,C,,110000344912
26541CRSCBGOSHE,-79.97800000000001,39.529,False,54,061,011900,54,54061,54061011900,1400000US54061011900,CORESCO INC BOOTHS CREEK FACILITY,GOSHEN RD,EVERETTVILLE,WV,26541,"CORESCO INC BOOTHS CREEK FACILITY.GOSHEN RD, EVERETTVILLE WEST VIRGINIA 26541 (MONONGALIA)",0,C,,110015681332
24740PCFCN4TURN,-81.043,37.371,False,54,055,002400,54,54055,54055002400,1400000US54055002400,PACIFIC ENCORE EAST INC,4 TURNPIKE INDL PARK,PRINCETON,WV,24740,"PACIFIC ENCORE EAST INC.4 TURNPIKE INDL PARK, PRINCETON WEST VIRGINIA 24740 (MERCER)",1,C,,
24701FSRCNRTE29,-81.09899999999999,37.292,False,54,055,002400,54,54055,54055002400,1400000US54055002400,MINOVA USA INC,394 SHOTT CT,BLUEFIELD,WV,24701,"MINOVA USA INC.394 SHOTT CT, BLUEFIELD WEST VIRGINIA 24701 (MERCER)",0,C,,110000344128
24701GMRKSRTE29,-81.105,37.287,False,54,055,002400,54,54055,54055002400,1400000US54055002400,GEMARK SERVICES OF WEST VIRGINIA INC,RT 290 CUMBERLAND INDUSTRIAL PARK,BLUEFIELD,WV,24701,"GEMARK SERVICES OF WEST VIRGINIA INC.RT 290 CUMBERLAND INDUSTRIAL PARK, BLUEFIELD WEST VIRGINIA 24701 (MERCER)",0,C,,110015681190
24920JDYFNBOX97,-79.77600000000001,38.541,False,54,075,960101,54,54075,54075960101,1400000US54075960101,JUDY FENCECRAFT INC,BOX 97,BARTOW,WV,24920,"JUDY FENCECRAFT INC.BOX 97, BARTOW WEST VIRGINIA 24920 (POCAHONTAS)",0,C,,
25401VRFRM1403C,-77.959,39.434,False,54,003,972000,54,54003,54003972000,1400000US54003972000,VARIFORM,91 VARIFORM DR,MARTINSBURG,WV,25405,"VARIFORM.91 VARIFORM DR, MARTINSBURG WEST VIRGINIA 25405 (BERKELEY)",0,C,,110000344397
25401CNTNN154CH,-77.957,39.433,False,54,003,972000,54,54003,54003972000,1400000US54003972000,CONTINENTAL BRICK CO,154 CHARLES TOWN RD,MARTINSBURG,WV,25405,"CONTINENTAL BRICK CO.154 CHARLES TOWN RD, MARTINSBURG WEST VIRGINIA 25405 (BERKELEY)",0,C,,110008055077
25401CLBNC942BA,-77.90100000000001,39.415,False,54,003,972000,54,54003,54003972000,1400000US54003972000,ECOLAB INC,942 BAKER RD,MARTINSBURG,WV,25405,"ECOLAB INC.942 BAKER RD, MARTINSBURG WEST VIRGINIA 25405 (BERKELEY)",0,C,,110005575779
25401SDJBR244NE,-77.917,39.418,False,54,003,972000,54,54003,54003972000,1400000US54003972000,BUREAU OF ALCOHOL TOBACCO FIREARMS & EXPLOSIVES,244 NEEDY RD,MARTINSBURG,WV,25405,"BUREAU OF ALCOHOL TOBACCO FIREARMS & EXPLOSIVES.244 NEEDY RD, MARTINSBURG WEST VIRGINIA 25405 (BERKELEY)",0,F,,110022811199
25411SLYPN522SO,-78.266,39.556999999999995,False,54,065,971000,54,54065,54065971000,1400000US54065971000,TOM SEELY FURNITURE,RTE 522 S,BERKELEY SPRINGS,WV,25411,"TOM SEELY FURNITURE.RTE 522 S, BERKELEY SPRINGS WEST VIRGINIA 25411 (MORGAN)",0,C,,
25411LPPRT63JRH,-78.304,39.474000000000004,False,54,065,971000,54,54065,54065971000,1400000US54065971000,LIPPERT COMPONENTS INC PLANT 21,63 JR HAWVERMALE WAY BERKELEY SPRINGS INDUSTRIAL P,BERKELEY SPRINGS,WV,25411,"LIPPERT COMPONENTS INC PLANT 21.63 JR HAWVERMALE WAY BERKELEY SPRINGS INDUSTRIAL P, BERKELEY SPRINGS WEST VIRGINIA 25411 (MORGAN)",0,C,,
25701XCLPR2140P,-82.45200000000001,38.389,False,54,011,010102,54,54011,54011010102,1400000US54011010102,XCEL-PREMET INC,2140 PLEASANT VALLEY RD,HUNTINGTON,WV,25701,"XCEL-PREMET INC.2140 PLEASANT VALLEY RD, HUNTINGTON WEST VIRGINIA 25701 (CABELL)",0,C,,
25880LNTXNPRICE,-81.186,37.88,False,54,081,001400,54,54081,54081001400,1400000US54081001400,CUE OF WEST VIRGINIA LLC,250 PRICE HILL ROAD,MOUNT HOPE,WV,25880,"CUE OF WEST VIRGINIA LLC.250 PRICE HILL ROAD, MOUNT HOPE WEST VIRGINIA 25880 (RALEIGH)",0,C,,110000344565
25880BXLYC177NS,-81.243,37.858000000000004,False,54,081,001400,54,54081,54081001400,1400000US54081001400,CSC BECKLEY RMC PLANT,1707 N SANDBRANCH RD,MOUNT HOPE,WV,25880,"CSC BECKLEY RMC PLANT.1707 N SANDBRANCH RD, MOUNT HOPE WEST VIRGINIA 25880 (RALEIGH)",0,C,,110055497797
26003HBCNC21418,-80.714,40.063,False,54,069,002700,54,54069,54069002700,1400000US54069002700,HUBCO BRONZE INC.,214 18TH ST,WHEELING,WV,26003,"HUBCO BRONZE INC..214 18TH ST, WHEELING WEST VIRGINIA 26003 (OHIO)",0,C,,110000740510
26301LCKHDBRIDG,-80.308,39.278,False,54,033,030300,54,54033,54033030300,1400000US54033030300,LOCKHEED MARTIN AERONAUTICAL SYSTEMS CO,BRIDGE PORT HILL RD,CLARKSBURG,WV,26301,"LOCKHEED MARTIN AERONAUTICAL SYSTEMS CO.BRIDGE PORT HILL RD, CLARKSBURG WEST VIRGINIA 26301 (HARRISON)",0,C,,
26369CLRKSRTE19,-80.334,39.333,False,54,033,030800,54,54033,54033030800,1400000US54033030800,AURORA ACQUISITION CORP (DBA CLARKSBURG CASKET CO),RTE 19 N,HEPZIBAH,WV,26369,"AURORA ACQUISITION CORP (DBA CLARKSBURG CASKET CO).RTE 19 N, HEPZIBAH WEST VIRGINIA 26369 (HARRISON)",1,C,,
26438MDWBRMAINS,-80.319,39.339,False,54,033,030800,54,54033,54033030800,1400000US54033030800,MEADOWBROOK CO,MAIN ST,SPELTER,WV,26438,"MEADOWBROOK CO.MAIN ST, SPELTER WEST VIRGINIA 26438 (HARRISON)",1,C,,
2630WSTCKM2CLUM,-80.294,39.282,False,54,033,030800,54,54033,54033030800,1400000US54033030800,STOCKMEIER URETHANES USA INC,20 COLUMBIA BOULEVARD,CLARKSBURG,WV,26301,"STOCKMEIER URETHANES USA INC.20 COLUMBIA BOULEVARD, CLARKSBURG WEST VIRGINIA 26301 (HARRISON)",0,C,,110015664538
26354RXHDNCOUNT,-80.048,39.364000000000004,False,54,091,964600,54,54091,54091964600,1400000US54091964600,REX-HIDE INDUSTRIES INC,COUNTRY CLUB RD,GRAFTON,WV,26354,"REX-HIDE INDUSTRIES INC.COUNTRY CLUB RD, GRAFTON WEST VIRGINIA 26354 (TAYLOR)",0,C,,110000607497
25159VRGNWSTATE,-81.834,38.497,False,54,079,020100,54,54079,54079020100,1400000US54079020100,"AIRGAS USA, LLC",ROUTE 62 NORTH,POCA,WV,25159,"AIRGAS USA, LLC.ROUTE 62 NORTH, POCA WEST VIRGINIA 25159 (PUTNAM)",0,C,,110002453764
25159VSPLTMANIL,-81.79899999999999,38.510999999999996,False,54,079,020100,54,54079,54079020100,1400000US54079020100,AZZ GALVANIZING-PILOT,1626 MANILLA CREEK RD,POCA,WV,25159,"AZZ GALVANIZING-PILOT.1626 MANILLA CREEK RD, POCA WEST VIRGINIA 25159 (PUTNAM)",0,C,,110007879714
26164HRTLYRTE68,-81.753,38.941,False,54,035,963300,54,54035,54035963300,1400000US54035963300,HARTLEY MANUFACTURING CO,RTE 68 S,MURRAYSVILLE,WV,26164,"HARTLEY MANUFACTURING CO.RTE 68 S, MURRAYSVILLE WEST VIRGINIA 26164 (JACKSON)",0,C,,
26726KNGSFRTE46,-79.066,39.477,False,54,057,010700,54,54057,54057010700,1400000US54057010700,KINGSFORD MANUFACTURING CO,RTE 46,KEYSER,WV,26726,"KINGSFORD MANUFACTURING CO.RTE 46, KEYSER WEST VIRGINIA 26726 (MINERAL)",0,C,,110000586205
25537PRKSC7850O,-82.28399999999999,38.556,False,54,011,010700,54,54011,54011010700,1400000US54011010700,RUSTOLEUM CORP,7850 OHIO RIVER RD,LESAGE,WV,25537,"RUSTOLEUM CORP.7850 OHIO RIVER RD, LESAGE WEST VIRGINIA 25537 (CABELL)",0,C,,110000344477
26143WRTNFPIKES,-81.408,39.064,False,54,105,030101,54,54105,54105030101,1400000US54105030101,MUSTANG SURVIVAL MFG INC.,PIKE ST STATE RT 14,ELIZABETH,WV,26143,"MUSTANG SURVIVAL MFG INC..PIKE ST STATE RT 14, ELIZABETH WEST VIRGINIA 26143 (WIRT)",1,C,,110000586072
25880GRGPC79NOR,-81.182,37.898,False,54,019,020400,54,54019,54019020400,1400000US54019020400,GEORGIA-PACIFIC WOOD PRODUCTS LLC - MT. HOPE OSB,79 N PAX AVE,MOUNT HOPE,WV,25880,"GEORGIA-PACIFIC WOOD PRODUCTS LLC - MT. HOPE OSB.79 N PAX AVE, MOUNT HOPE WEST VIRGINIA 25880 (FAYETTE)",0,C,,110000344556
26627WYRHSUSHWY,-80.655,38.762,False,54,007,967900,54,54007,54007967900,1400000US54007967900,WEYERHAEUSER NR CO - SUTTON OSB,3601 GAULEY TURNPIKE,HEATERS,WV,26627,"WEYERHAEUSER NR CO - SUTTON OSB.3601 GAULEY TURNPIKE, HEATERS WEST VIRGINIA 26627 (BRAXTON)",0,C,,110000586189
25301WSTVR900BR,-81.624,38.35,False,54,039,001200,54,54039,54039001200,1400000US54039001200,WEST VIRGINIA STEEL CORP,900 BROOKS ST,CHARLESTON,WV,25301,"WEST VIRGINIA STEEL CORP.900 BROOKS ST, CHARLESTON WEST VIRGINIA 25301 (KANAWHA)",0,C,,110000344262
24726HRNDNWVRTE,-81.365,37.519,False,54,109,003200,54,54109,54109003200,1400000US54109003200,HERNDON PROCESSING CO LLC KEYSTONE NO 2 PREP PLANT,WV RT 10,HERNDON,WV,24726,"HERNDON PROCESSING CO LLC KEYSTONE NO 2 PREP PLANT.WV RT 10, HERNDON WEST VIRGINIA 24726 (WYOMING)",0,C,,
24726TLNMFRTE10,-81.335,37.503,False,54,109,003200,54,54109,54109003200,1400000US54109003200,TALON MANUFACTURING CO INC,1 INDUSTRIAL PLAZA HC 69 BOX 99,HERNDON,WV,24726,"TALON MANUFACTURING CO INC.1 INDUSTRIAL PLAZA HC 69 BOX 99, HERNDON WEST VIRGINIA 24726 (WYOMING)",0,C,,110007872640
24852KYSTNRTE52,-81.45100000000001,37.416,False,54,047,954503,54,54047,54047954503,1400000US54047954503,KEYSTONE PLANT # 1,RTE 52,KEYSTONE,WV,24852,"KEYSTONE PLANT # 1.RTE 52, KEYSTONE WEST VIRGINIA 24852 (MCDOWELL)",0,C,,
24829PCWSTEUREK,-81.464,37.391,False,54,047,954503,54,54047,54047954503,1400000US54047954503,PC WEST VIRGINIA SYNTHETIC FUEL #3 LLC,EUREKA HOLLOW,ECKMAN,WV,24829,"PC WEST VIRGINIA SYNTHETIC FUEL #3 LLC.EUREKA HOLLOW, ECKMAN WEST VIRGINIA 24829 (MCDOWELL)",0,C,,110012148826
2480WFCMCD11FED,-81.586,37.433,False,54,047,954503,54,54047,54047954503,1400000US54047954503,FCI MCDOWELL,101 FEDERAL DRIVE,WELCH,WV,24801,"FCI MCDOWELL.101 FEDERAL DRIVE, WELCH WEST VIRGINIA 24801 (MCDOWELL)",0,F,,110043670300
24874KPLRPRTE97,-81.57,37.577,False,54,109,003100,54,54109,54109003100,1400000US54109003100,KEPLER PROCESSING CO POCAHONTAS NO 51 COAL PREP PLANT,RTE 97 W OF PINEVILLE,PINEVILLE,WV,24874,"KEPLER PROCESSING CO POCAHONTAS NO 51 COAL PREP PLANT.RTE 97 W OF PINEVILLE, PINEVILLE WEST VIRGINIA 24874 (WYOMING)",0,C,,110010443706
24874SSTLMPINNA,-81.499,37.547,False,54,109,003100,54,54109,54109003100,1400000US54109003100,PINNACLE MINING CO LLC  - PINNACLE MINE,PINNACLE CREEK RD,PINEVILLE,WV,24874,"PINNACLE MINING CO LLC  - PINNACLE MINE.PINNACLE CREEK RD, PINEVILLE WEST VIRGINIA 24874 (WYOMING)",0,C,,110000604016
24874DTSMTPINNA,-81.516,37.573,False,54,109,003100,54,54109,54109003100,1400000US54109003100,DTE SMITH BRANCH LLC,PINNACLE CREEK RD,PINEVILLE,WV,24874,"DTE SMITH BRANCH LLC.PINNACLE CREEK RD, PINEVILLE WEST VIRGINIA 24874 (WYOMING)",1,C,,110012603619
2487WCVLFLPINNA,-81.532,37.568000000000005,False,54,109,003100,54,54109,54109003100,1400000US54109003100,"COVOL FUELS NO.4, LLC - PINNACLE PLANT",PINNACLE CREEK RD/ROUTE 16,PINEVILLE,WV,24874,"COVOL FUELS NO.4, LLC - PINNACLE PLANT.PINNACLE CREEK RD/ROUTE 16, PINEVILLE WEST VIRGINIA 24874 (WYOMING)",0,C,,110039204045
25019PCHCHRTE16,-81.112,38.382,False,54,015,958100,54,54015,54015958100,1400000US54015958100,FOLA COAL CO LLC PREPARATION PLANT,300 FOLA RD,BICKMORE,WV,25019,"FOLA COAL CO LLC PREPARATION PLANT.300 FOLA RD, BICKMORE WEST VIRGINIA 25019 (CLAY)",1,C,,
25019SRFCMRTE16,-81.112,38.382,False,54,015,958100,54,54015,54015958100,1400000US54015958100,FOLA COAL CO LLC SURFACE MINES #1 2 & 3,300 FOLA RD,BICKMORE,WV,25019,"FOLA COAL CO LLC SURFACE MINES #1 2 & 3.300 FOLA RD, BICKMORE WEST VIRGINIA 25019 (CLAY)",1,C,,
25019VNDLRCOUNT,-81.071,38.379,False,54,015,958100,54,54015,54015958100,1400000US54015958100,VANDALIA RESOURCES INC,COUNTY RTE 17,BICKMORE,WV,25019,"VANDALIA RESOURCES INC.COUNTY RTE 17, BICKMORE WEST VIRGINIA 25019 (CLAY)",0,C,,
25086MRCNLRTE60,-81.421,38.205,False,54,039,011800,54,54039,54039011800,1400000US54039011800,AMERICAN ELECTRIC POWER KANAWHA RIVER PLANT,RTE 60 E,GLASGOW,WV,25086,"AMERICAN ELECTRIC POWER KANAWHA RIVER PLANT.RTE 60 E, GLASGOW WEST VIRGINIA 25086 (KANAWHA)",1,C,,110000604025
25015LTTLC2978E,-81.477,38.205,False,54,039,011800,54,54039,54039011800,1400000US54039011800,LITTLE CREEK DOCK CO,2978 E DUPONT AVE  RT 60,SHREWSBURY,WV,25015,"LITTLE CREEK DOCK CO.2978 E DUPONT AVE  RT 60, SHREWSBURY WEST VIRGINIA 25015 (KANAWHA)",0,C,,
25130HBTMNUSRT1,-81.84899999999999,38.114000000000004,False,54,005,958300,54,54005,54005958300,1400000US54005958300,ERP ENVIRONMENTAL - BETH STATION PREP,US RT 119 S SHAFFER RD EXIT,MADISON,WV,25130,"ERP ENVIRONMENTAL - BETH STATION PREP.US RT 119 S SHAFFER RD EXIT, MADISON WEST VIRGINIA 25130 (BOONE)",0,C,,110000585885
25130MRMNNRTE85,-81.661,38.037,False,54,005,958501,54,54005,54005958501,1400000US54005958501,OMAR MINING CO,ROBINSON CREEK RD,MADISON,WV,25130,"OMAR MINING CO.ROBINSON CREEK RD, MADISON WEST VIRGINIA 25130 (BOONE)",0,C,,
25177PBSCH319FI,-81.855,38.407,False,54,039,013800,54,54039,54039013800,1400000US54039013800,BRENNTAG MID-SOUTH INC,319 FIRST ST N,SAINT ALBANS,WV,25177,"BRENNTAG MID-SOUTH INC.319 FIRST ST N, SAINT ALBANS WEST VIRGINIA 25177 (KANAWHA)",0,C,,110000344226
25177MRCNS400OL,-81.85,38.405,False,54,039,013800,54,54039,54039013800,1400000US54039013800,AMERICAN STONE-MIX INC,400 OLIVER ST,SAINT ALBANS,WV,25177,"AMERICAN STONE-MIX INC.400 OLIVER ST, SAINT ALBANS WEST VIRGINIA 25177 (KANAWHA)",0,C,,
25193LKRNCPOBOX,-81.53399999999999,37.983000000000004,False,54,005,958600,54,54005,54005958600,1400000US54005958600,ELK RUN COAL CO LLC,31754 COAL RIVER RD,SYLVESTER,WV,25193,"ELK RUN COAL CO LLC.31754 COAL RIVER RD, SYLVESTER WEST VIRGINIA 25193 (BOONE)",0,C,,110000775242
25213JHNMS1530W,-81.82300000000001,38.473,False,54,079,020400,54,54079,54079020400,1400000US54079020400,AMERICAN ELECTRIC POWER AMOS PLANT,1530 WINFIELD RD,WINFIELD,WV,25213,"AMERICAN ELECTRIC POWER AMOS PLANT.1530 WINFIELD RD, WINFIELD WEST VIRGINIA 25213 (PUTNAM)",0,C,,110042086505
25213RSHGS153WI,-81.836,38.478,False,54,079,020400,54,54079,54079020400,1400000US54079020400,ERSHIGS AMOS PROJECT,1530 WINFIELD RD WINFIELD,WINFIELD,WV,25213,"ERSHIGS AMOS PROJECT.1530 WINFIELD RD WINFIELD, WINFIELD WEST VIRGINIA 25213 (PUTNAM)",1,C,,110067040687
25311PNNZL1015B,-81.60600000000001,38.368,False,54,039,011301,54,54039,54039011301,1400000US54039011301,PENNZOIL-QUAKER STATE CO ETOWAH TERMINAL,1015 BARLOW DR,CHARLESTON,WV,25311,"PENNZOIL-QUAKER STATE CO ETOWAH TERMINAL.1015 BARLOW DR, CHARLESTON WEST VIRGINIA 25311 (KANAWHA)",0,C,,
25314XXNCHSTAND,-81.645,38.35,False,54,039,002000,54,54039,54039002000,1400000US54039002000,MPLX TERMINALS LLC - CHARLESTON WV TERMINAL,204 FERRY ST,CHARLESTON,WV,25314,"MPLX TERMINALS LLC - CHARLESTON WV TERMINAL.204 FERRY ST, CHARLESTON WEST VIRGINIA 25314 (KANAWHA)",0,C,,110064209440
26206VRGRNRTE82,-80.429,38.422,False,54,101,970300,54,54101,54101970300,1400000US54101970300,ICG EASTERN LLC BIRCH RIVER MINE,RT 82 W,COWEN,WV,26206,"ICG EASTERN LLC BIRCH RIVER MINE.RT 82 W, COWEN WEST VIRGINIA 26206 (WEBSTER)",0,C,,110007888198
2620WLLGHN155LW,-80.531,38.405,False,54,101,970300,54,54101,54101970300,1400000US54101970300,ALLEGHENY WOOD PRODUCTS INC MILL 2,185 LESLIE SAWMILL RD,COWEN,WV,26206,"ALLEGHENY WOOD PRODUCTS INC MILL 2.185 LESLIE SAWMILL RD, COWEN WEST VIRGINIA 26206 (WEBSTER)",0,C,,110046123645
26366HRRSNRTE20,-80.332,39.385,False,54,033,032000,54,54033,54033032000,1400000US54033032000,HARRISON POWER STATION,RT 20,HAYWOOD,WV,26366,"HARRISON POWER STATION.RT 20, HAYWOOD WEST VIRGINIA 26366 (HARRISON)",0,C,,110000586125
2633WCSCSLRUTE2,-80.222,39.351,False,54,033,032000,54,54033,54033032000,1400000US54033032000,CSC SALTWELL,4923 BENEDUM DR,BRIDGEPORT,WV,26330,"CSC SALTWELL.4923 BENEDUM DR, BRIDGEPORT WEST VIRGINIA 26330 (HARRISON)",0,C,,110057521686
26504PTRTM1090C,-80.03,39.645,False,54,061,011500,54,54061,54061011500,1400000US54061011500,PATRIOT MINING CO INC OSAGE MINE,1090 CHAPLIN RD,STAR CITY,WV,26504,"PATRIOT MINING CO INC OSAGE MINE.1090 CHAPLIN RD, STAR CITY WEST VIRGINIA 26504 (MONONGALIA)",0,C,,
26541FRTMRRTE53,-79.928,39.711,False,54,061,011500,54,54061,54061011500,1400000US54061011500,FORT MARTIN POWER STATION,RT 53,MAIDSVILLE,WV,26541,"FORT MARTIN POWER STATION.RT 53, MAIDSVILLE WEST VIRGINIA 26541 (MONONGALIA)",0,C,,110043799501
26504PTRTM12MIA,-80.071,39.639,False,54,061,011500,54,54061,54061011500,1400000US54061011500,PATRIOT MINING CO INC  DENTS RUN MINE,12 MILES SW OF OSAGE,STAR CITY,WV,26504,"PATRIOT MINING CO INC  DENTS RUN MINE.12 MILES SW OF OSAGE, STAR CITY WEST VIRGINIA 26504 (MONONGALIA)",0,C,,
26541CRSCNRTE10,-79.969,39.707,False,54,061,011500,54,54061,54061011500,1400000US54061011500,CORESCO LLC MAIDSVILLE COMPLEX,RT 100,MAIDSVILLE,WV,26541,"CORESCO LLC MAIDSVILLE COMPLEX.RT 100, MAIDSVILLE WEST VIRGINIA 26541 (MONONGALIA)",0,C,,110007886626
26541CRWDD2141L,-80.003,39.708,False,54,061,011500,54,54061,54061011500,1400000US54061011500,CRAWDAD PORTAL B,2141 LAZZELLE UNION RD,MAIDSVILLE,WV,26541,"CRAWDAD PORTAL B.2141 LAZZELLE UNION RD, MAIDSVILLE WEST VIRGINIA 26541 (MONONGALIA)",0,C,,
26546PTRTMUSRTE,-80.064,39.673,False,54,061,011500,54,54061,54061011500,1400000US54061011500,PATRIOT MINING CO INC  GUSTON RUN MINE,US RTE 19,PURSGLOVE,WV,26546,"PATRIOT MINING CO INC  GUSTON RUN MINE.US RTE 19, PURSGLOVE WEST VIRGINIA 26546 (MONONGALIA)",0,C,,
26527PTRTMSTATE,-80.055,39.671,False,54,061,011500,54,54061,54061011500,1400000US54061011500,PATRIOT MINING COMPANY INC GUSTON RUN SOUTH,STATE RT 7 NEAR CASSVILLE WV,CASSVILLE,WV,26527,"PATRIOT MINING COMPANY INC GUSTON RUN SOUTH.STATE RT 7 NEAR CASSVILLE WV, CASSVILLE WEST VIRGINIA 26527 (MONONGALIA)",0,C,,110015681323
26507CRKDRWVCUN,-79.969,39.717,False,54,061,011500,54,54061,54061011500,1400000US54061011500,MEPCO INC CROOKED RUN FACILITY,WV COUNTY RT 53,MAIDSVILLE,WV,26507,"MEPCO INC CROOKED RUN FACILITY.WV COUNTY RT 53, MAIDSVILLE WEST VIRGINIA 26507 (MONONGALIA)",0,C,,
26507CRFTR1MILE,-79.98100000000001,39.704,False,54,061,011500,54,54061,54061011500,1400000US54061011500,CRAFT RUN MINE FACILITY,1 MILE N OF MAIDSVILLE,MAIDSVILLE,WV,26507,"CRAFT RUN MINE FACILITY.1 MILE N OF MAIDSVILLE, MAIDSVILLE WEST VIRGINIA 26507 (MONONGALIA)",0,C,,110022811206
26507CRWDD1MILE,-80.0,39.705999999999996,False,54,061,011500,54,54061,54061011500,1400000US54061011500,CRAWDAD PORTAL A FACILITY,1 MILE N OF MAIDSVILLE,MAIDSVILLE,WV,26507,"CRAWDAD PORTAL A FACILITY.1 MILE N OF MAIDSVILLE, MAIDSVILLE WEST VIRGINIA 26507 (MONONGALIA)",0,C,,110043973536
2654WLNGVW1375F,-79.953,39.703,False,54,061,011500,54,54061,54061011500,1400000US54061011500,LONGVIEW POWER,1375 FORT MARTIN RD,MAIDSVILLE,WV,26541,"LONGVIEW POWER.1375 FORT MARTIN RD, MAIDSVILLE WEST VIRGINIA 26541 (MONONGALIA)",0,C,,110040576267
2650WHMPHRRUTE1,-79.985,39.678000000000004,False,54,061,011500,54,54061,54061011500,1400000US54061011500,HUMPHREY NO 7,RT 100,MAIDSVILLE,WV,26541,"HUMPHREY NO 7.RT 100, MAIDSVILLE WEST VIRGINIA 26541 (MONONGALIA)",0,C,,110060280002
26505MRGNT555BE,-79.961,39.64,False,54,061,010102,54,54061,54061010102,1400000US54061010102,MORGANTOWN ENERGY ASSOCIATES,555 BEECHURST AVE,MORGANTOWN,WV,26505,"MORGANTOWN ENERGY ASSOCIATES.555 BEECHURST AVE, MORGANTOWN WEST VIRGINIA 26505 (MONONGALIA)",0,C,,110000344903
26554MRCNF702AF,-80.128,39.495,False,54,049,020500,54,54049,54049020500,1400000US54049020500,ND FAIRMONT LLC,702 AFR DR,FAIRMONT,WV,26554,"ND FAIRMONT LLC.702 AFR DR, FAIRMONT WEST VIRGINIA 26554 (MARION)",0,C,,110000344958
26570LVRDGCOUNT,-80.266,39.604,False,54,049,021600,54,54049,54049021600,1400000US54049021600,LOVERIDGE MINE,COUNTY RD 17 2 MI. N OF FAIRVIEW,FAIRVIEW,WV,26570,"LOVERIDGE MINE.COUNTY RD 17 2 MI. N OF FAIRVIEW, FAIRVIEW WEST VIRGINIA 26570 (MARION)",0,C,,110005561999
26570STRNS1044M,-80.264,39.669000000000004,False,54,061,011400,54,54061,54061011400,1400000US54061011400,FEDERAL #2 PREPARATION PLANT,COUNTY RD 17 RTE 1,FAIRVIEW,WV,26570,"FEDERAL #2 PREPARATION PLANT.COUNTY RD 17 RTE 1, FAIRVIEW WEST VIRGINIA 26570 (MONONGALIA)",0,C,,110006148686
26590BLCKSRTE7W,-80.294,39.708,False,54,061,011400,54,54061,54061011400,1400000US54061011400,BLACKSVILLE #2 MINE,RT 7 W,WANA,WV,26590,"BLACKSVILLE #2 MINE.RT 7 W, WANA WEST VIRGINIA 26590 (MONONGALIA)",0,C,,110005570827
2659WTHMNN99SHA,-80.291,39.71,False,54,061,011400,54,54061,54061011400,1400000US54061011400,THE MONONGALIA COUNTY COAL CO,99 SHAMROCK ROAD,WANA,WV,26590,"THE MONONGALIA COUNTY COAL CO.99 SHAMROCK ROAD, WANA WEST VIRGINIA 26590 (MONONGALIA)",0,C,,110060259312
26574MRCNBRTE17,-80.164,39.561,False,54,049,021500,54,54049,54049021500,1400000US54049021500,AMERICAN BITUMINOUS POWER PARTNERS LP,ROUTE 17,GRANT TOWN,WV,26574,"AMERICAN BITUMINOUS POWER PARTNERS LP.ROUTE 17, GRANT TOWN WEST VIRGINIA 26574 (MARION)",0,C,,110007881998
26588RVSVLJACKS,-80.113,39.531,False,54,049,021500,54,54049,54049021500,1400000US54049021500,ALLEGHENY ENERGY INC RIVESVILLE POWER STATION,JACKSON ST,RIVESVILLE,WV,26588,"ALLEGHENY ENERGY INC RIVESVILLE POWER STATION.JACKSON ST, RIVESVILLE WEST VIRGINIA 26588 (MARION)",1,C,,110000604114
26651PRLSSCAMPF,-80.90899999999999,38.279,False,54,067,950200,54,54067,54067950200,1400000US54067950200,PEERLESS EAGLE PLANT NO 1,CAMP FORK RD,SUMMERSVILLE,WV,26651,"PEERLESS EAGLE PLANT NO 1.CAMP FORK RD, SUMMERSVILLE WEST VIRGINIA 26651 (NICHOLAS)",0,C,,
26651PTRLM3428T,-80.903,38.309,False,54,067,950200,54,54067,54067950200,1400000US54067950200,PETROLEUM PRODUCTS SUMMERSVILLE BULK PLANT 11,3428 TURNPIKE RD,SUMMERSVILLE,WV,26651,"PETROLEUM PRODUCTS SUMMERSVILLE BULK PLANT 11.3428 TURNPIKE RD, SUMMERSVILLE WEST VIRGINIA 26651 (NICHOLAS)",0,C,,110010874116
26707BFFLCRTE90,-79.298,39.150999999999996,False,54,023,969400,54,54023,54023969400,1400000US54023969400,BUFFALO COAL CO INC C-1,RT 90,BAYARD,WV,267070310,"BUFFALO COAL CO INC C-1.RT 90, BAYARD WEST VIRGINIA 26707 (GRANT)",0,C,,
26707BFFLCRTE9A,-79.318,39.213,False,54,023,969400,54,54023,54023969400,1400000US54023969400,VINDEX ENERGY CORP A-34 PREP PLANT,RT 90,BAYARD,WV,26707,"VINDEX ENERGY CORP A-34 PREP PLANT.RT 90, BAYARD WEST VIRGINIA 26707 (GRANT)",0,C,,110016620487
26739MTSTRHC76B,-79.265,39.2,False,54,023,969400,54,54023,54023969400,1400000US54023969400,MOUNT STORM POWER STATION,436 DOMINION BLVD,MOUNT STORM,WV,26739,"MOUNT STORM POWER STATION.436 DOMINION BLVD, MOUNT STORM WEST VIRGINIA 26739 (GRANT)",0,C,,110007876637
26720NRTHB2000E,-79.332,39.262,False,54,023,969400,54,54023,54023969400,1400000US54023969400,DOMINION NORTH BRANCH POWER STATION,2000 ENERGY WAY,GORMANIA,WV,26720,"DOMINION NORTH BRANCH POWER STATION.2000 ENERGY WAY, GORMANIA WEST VIRGINIA 26720 (GRANT)",0,C,,110002098293
2673WVNDXNWVRUT,-79.301,39.205999999999996,False,54,023,969400,54,54023,54023969400,1400000US54023969400,VINDEX ENERGY CORP PREPARATION PLANT & REFUSE SITE,WV RT 42,MOUNT STORM,WV,26739,"VINDEX ENERGY CORP PREPARATION PLANT & REFUSE SITE.WV RT 42, MOUNT STORM WEST VIRGINIA 26739 (GRANT)",0,C,,110043670328
24815MNTPRSTATE,-81.654,37.208,False,54,047,954200,54,54047,54047954200,1400000US54047954200,AMONATE PREPARATION PLANT,STATE RT 16,VALLSCREEK,WV,24815,"AMONATE PREPARATION PLANT.STATE RT 16, VALLSCREEK WEST VIRGINIA 24815 (MCDOWELL)",0,C,,
25033TYTMT1SUGA,-82.00200000000001,38.592,False,54,079,020200,54,54079,54079020200,1400000US54079020200,TOYOTA MOTOR MANUFACTURING WEST VIRGINIA INC,1 SUGAR MAPLE LN,BUFFALO,WV,25033,"TOYOTA MOTOR MANUFACTURING WEST VIRGINIA INC.1 SUGAR MAPLE LN, BUFFALO WEST VIRGINIA 25033 (PUTNAM)",0,C,,110001933169
25070DMNDLSTRT6,-81.948,38.542,False,54,079,020200,54,54079,54079020200,1400000US54079020200,DIAMOND ELECTRIC MANUFACTURING CORP,ST RT. 62,ELEANOR,WV,25070,"DIAMOND ELECTRIC MANUFACTURING CORP.ST RT. 62, ELEANOR WEST VIRGINIA 25070 (PUTNAM)",0,C,,110012707598
26164PCHNYROUTE,-81.663,38.928000000000004,False,54,035,963200,54,54035,54035963200,1400000US54035963200,CONSTELLIUM ROLLED PRODUCTS RAVENSWOOD LLC,RT 2 S,RAVENSWOOD,WV,26164,"CONSTELLIUM ROLLED PRODUCTS RAVENSWOOD LLC.RT 2 S, RAVENSWOOD WEST VIRGINIA 26164 (JACKSON)",0,C,,110027376382
25428KNSFDOLDRT,-78.038,39.37,False,54,003,972102,54,54003,54003972102,1400000US54003972102,KNOUSE FOODS CO-OP INC,OLD RT 51 TRUE APPLE WAY,INWOOD,WV,254280070,"KNOUSE FOODS CO-OP INC.OLD RT 51 TRUE APPLE WAY, INWOOD WEST VIRGINIA 25428 (BERKELEY)",0,C,,110007881587
25550SDFNS2601M,-82.132,38.87,False,54,053,955000,54,54053,54053955000,1400000US54053955000,US DEFENSE NATIONAL STOCKPILE CENTER POINT PLEASANT DEPOT,2601 MADISON AVE,POINT PLEASANT,WV,25550,"US DEFENSE NATIONAL STOCKPILE CENTER POINT PLEASANT DEPOT.2601 MADISON AVE, POINT PLEASANT WEST VIRGINIA 25550 (MASON)",0,F,,
26205JLDWN600JE,-80.661,38.342,False,54,067,950400,54,54067,54067950400,1400000US54067950400,JELD-WEN,600 JELD-WEN RD,CRAIGSVILLE,WV,26205,"JELD-WEN.600 JELD-WEN RD, CRAIGSVILLE WEST VIRGINIA 26205 (NICHOLAS)",0,C,,110008055558
26205CLMBW111CA,-80.663,38.339,False,54,067,950400,54,54067,54067950400,1400000US54067950400,COLUMBIA FOREST PRODUCTS COLUMBIA WEST VIRGINIA CORP,242 COLUMBIA FOREST PRODUCTS RD,CRAIGSVILLE,WV,26205,"COLUMBIA FOREST PRODUCTS COLUMBIA WEST VIRGINIA CORP.242 COLUMBIA FOREST PRODUCTS RD, CRAIGSVILLE WEST VIRGINIA 26205 (NICHOLAS)",0,C,,110012706777
26504PTRTM12MIL,-80.032,39.633,False,54,061,011300,54,54061,54061011300,1400000US54061011300,PATRIOT MINING CO INC  METZ MINE,12 MILES SW OF OSAGE,STAR CITY,WV,26504,"PATRIOT MINING CO INC  METZ MINE.12 MILES SW OF OSAGE, STAR CITY WEST VIRGINIA 26504 (MONONGALIA)",0,C,,
26504PTRTM22MIL,-80.097,39.588,False,54,061,011300,54,54061,54061011300,1400000US54061011300,PATRIOT MINING CO INC CROWN MINE,22 MILES NW OF EVERETTVILLE,STAR CITY,WV,26504,"PATRIOT MINING CO INC CROWN MINE.22 MILES NW OF EVERETTVILLE, STAR CITY WEST VIRGINIA 26504 (MONONGALIA)",0,C,,
26667PWRMNNO2JE,-81.001,38.302,False,54,067,950300,54,54067,54067950300,1400000US54067950300,POWER MOUNTAIN COAL CO PREPARATION PLANT,2 JERRY FORK RD,DRENNEN,WV,26667,"POWER MOUNTAIN COAL CO PREPARATION PLANT.2 JERRY FORK RD, DRENNEN WEST VIRGINIA 26667 (NICHOLAS)",0,C,,110001930000
26814GRRNDRT33X,-79.388,38.775999999999996,False,54,071,970400,54,54071,54071970400,1400000US54071970400,GREER INDUSTRIES INC DBA GREER LIME CO,1088 GERMANY VALLEY LIMESTONE ROAD,RIVERTON,WV,26814,"GREER INDUSTRIES INC DBA GREER LIME CO.1088 GERMANY VALLEY LIMESTONE ROAD, RIVERTON WEST VIRGINIA 26814 (PENDLETON)",0,C,,110025331200
26814LLGHNUSRT2,-79.446,38.731,False,54,071,970400,54,54071,54071970400,1400000US54071970400,ALLEGHENY WOOD PRODUCTS INC MILL 1,15075 MOUNTAINEER DR,RIVERTON,WV,26814,"ALLEGHENY WOOD PRODUCTS INC MILL 1.15075 MOUNTAINEER DR, RIVERTON WEST VIRGINIA 26814 (PENDLETON)",0,C,,110010874483
24902PPLCH100AE,-80.47,37.78,False,54,025,950600,54,54025,54025950600,1400000US54025950600,APPALACHIAN ELECTRONIC INSTRUM ENTS INC,428 AEI DRIVE,LEWISBURG,WV,24901,"APPALACHIAN ELECTRONIC INSTRUM ENTS INC.428 AEI DRIVE, LEWISBURG WEST VIRGINIA 24901 (GREENBRIER)",0,C,,110012706759
25204PRGRSCUNTY,-81.60300000000001,37.92,False,54,005,958700,54,54005,54005958700,1400000US54005958700,PROGRESS COAL CO,COUNTY RT 26 AT JAMES CREEK,BANDYTOWN,WV,25204,"PROGRESS COAL CO.COUNTY RT 26 AT JAMES CREEK, BANDYTOWN WEST VIRGINIA 25204 (BOONE)",0,C,,
25028JPTRHWVRTE,-81.70100000000001,37.94,False,54,005,958700,54,54005,54005958700,1400000US54005958700,POND FORK PREPARATION PLANT,WV RT 85 PO BOX 70,BOB WHITE,WV,25028,"POND FORK PREPARATION PLANT.WV RT 85 PO BOX 70, BOB WHITE WEST VIRGINIA 25028 (BOONE)",0,C,,
25130NDRNCHC78P,-81.74600000000001,37.918,False,54,005,958700,54,54005,54005958700,1400000US54005958700,ENDURANCE MINING,HC 78  PO BOX 1802,MADISON,WV,25130,"ENDURANCE MINING.HC 78  PO BOX 1802, MADISON WEST VIRGINIA 25130 (BOONE)",0,C,,
25690PRDCTRT655,-82.125,37.7,False,54,059,957300,54,54059,54059957300,1400000US54059957300,PRODUCTION EFFICIENCY CORP,RT 65-5 PO BOX 250,RAGLAND,WV,25690,"PRODUCTION EFFICIENCY CORP.RT 65-5 PO BOX 250, RAGLAND WEST VIRGINIA 25690 (MINGO)",0,C,,
25962GRGPCSNAKE,-80.765,37.977,False,54,025,950300,54,54025,54025950300,1400000US54025950300,GEORGIA-PACIFIC CORP RAINELLE WV,SNAKE ISLAND RD,RAINELLE,WV,25962,"GEORGIA-PACIFIC CORP RAINELLE WV.SNAKE ISLAND RD, RAINELLE WEST VIRGINIA 25962 (GREENBRIER)",0,C,,
25984WSTVC2007T,-80.69,37.961999999999996,False,54,025,950200,54,54025,54025950200,1400000US54025950200,MEADWESTVACO CORP RUPERT AREA,200 SEVENTH ST,RUPERT,WV,25984,"MEADWESTVACO CORP RUPERT AREA.200 SEVENTH ST, RUPERT WEST VIRGINIA 25984 (GREENBRIER)",0,C,,
26201CSTLLFIFTH,-80.219,38.997,False,54,097,966800,54,54097,54097966800,1400000US54097966800,COASTAL LUMBER CO - BUCKH ANNON,FIFTH ST,BUCKHANNON,WV,26201,"COASTAL LUMBER CO - BUCKH ANNON.FIFTH ST, BUCKHANNON WEST VIRGINIA 26201 (UPSHUR)",0,C,,110006861618
2620WNLCCM193WE,-80.218,39.004,False,54,097,966800,54,54097,54097966800,1400000US54097966800,NALCO COMPANY-BUCKHANNON,193 WEATHERFORD BLVD,BUCKHANNON,WV,26201,"NALCO COMPANY-BUCKHANNON.193 WEATHERFORD BLVD, BUCKHANNON WEST VIRGINIA 26201 (UPSHUR)",0,C,,110054876648
2620WWYRHS41TJM,-80.204,39.008,False,54,097,966800,54,54097,54097966800,1400000US54097966800,WEYERHAEUSER NR CO - BUCKHANNON ELP,41 TJM DRIVE,BUCKHANNON,WV,26201,"WEYERHAEUSER NR CO - BUCKHANNON ELP.41 TJM DRIVE, BUCKHANNON WEST VIRGINIA 26201 (UPSHUR)",0,C,,110058207658
26222CSTLLWVRTE,-80.39399999999999,38.641999999999996,False,54,101,970100,54,54101,54101970100,1400000US54101970100,COASTAL LUMBER CO - HACKE R VALLEY,WV RT 20,HACKER VALLEY,WV,26222,"COASTAL LUMBER CO - HACKE R VALLEY.WV RT 20, HACKER VALLEY WEST VIRGINIA 26222 (WEBSTER)",0,C,,110007892174
26203BRKSR61MIS,-80.613,38.518,False,54,101,970100,54,54101,54101970100,1400000US54101970100,BROOKS RUN COAL PREPARATION PLANT,61 MISSOURI RUN RD,ERBACON,WV,26203,"BROOKS RUN COAL PREPARATION PLANT.61 MISSOURI RUN RD, ERBACON WEST VIRGINIA 26203 (WEBSTER)",0,C,,
26241CSTLL1105U,-79.83800000000001,38.913000000000004,False,54,083,966000,54,54083,54083966000,1400000US54083966000,COASTAL LUMBER CO - POE RUN SAWMILL,1105 US 33 E,ELKINS,WV,26241,"COASTAL LUMBER CO - POE RUN SAWMILL.1105 US 33 E, ELKINS WEST VIRGINIA 26241 (RANDOLPH)",0,C,,110015681289
26241CSTLLFIFTE,-79.851,38.915,False,54,083,966000,54,54083,54083966000,1400000US54083966000,COASTAL LUMBER CO ELKINS YARD,FIFTEENTH ST,ELKINS,WV,26241,"COASTAL LUMBER CO ELKINS YARD.FIFTEENTH ST, ELKINS WEST VIRGINIA 26241 (RANDOLPH)",0,C,,
26241WSTVC525CE,-79.844,38.92,False,54,083,966100,54,54083,54083966100,1400000US54083966100,MEADWESTVACO CORP ELKINS AREA,525 CENTER ST  PO BOX 1394,ELKINS,WV,26241,"MEADWESTVACO CORP ELKINS AREA.525 CENTER ST  PO BOX 1394, ELKINS WEST VIRGINIA 26241 (RANDOLPH)",0,C,,
26436CSTLLHWY50,-80.718,39.286,False,54,017,965000,54,54017,54017965000,1400000US54017965000,COASTAL LUMBER CO - SMITHBURG,HWY 50W,SMITHBURG,WV,26436,"COASTAL LUMBER CO - SMITHBURG.HWY 50W, SMITHBURG WEST VIRGINIA 26436 (DODDRIDGE)",0,C,,110012604020
26525CSTLL249HA,-79.524,39.671,False,54,077,963800,54,54077,54077963800,1400000US54077963800,COASTAL LUMBER CO - HAZELTON YARD,249 HAZELTON RD,BRUCETON MILLS,WV,26525,"COASTAL LUMBER CO - HAZELTON YARD.249 HAZELTON RD, BRUCETON MILLS WEST VIRGINIA 26525 (PRESTON)",0,C,,110006860995
26525SPHZL164SK,-79.499,39.674,False,54,077,963800,54,54077,54077963800,1400000US54077963800,FCC HAZELTON,1640 SKY VIEW DR,BRUCETON MILLS,WV,26525,"FCC HAZELTON.1640 SKY VIEW DR, BRUCETON MILLS WEST VIRGINIA 26525 (PRESTON)",0,F,,110041625925
26623CSTLLHC61B,-80.85,38.648,False,54,007,968000,54,54007,54007968000,1400000US54007968000,COASTAL LUMBER CO - FRAMETOWN,"HC 61, BOX 56D",FRAMETOWN,WV,26623,"COASTAL LUMBER CO - FRAMETOWN.HC 61, BOX 56D, FRAMETOWN WEST VIRGINIA 26623 (BRAXTON)",0,C,,110002478382
26624CSTLLRTE4X,-80.84,38.655,False,54,007,968000,54,54007,54007968000,1400000US54007968000,COASTAL LUMBER CO GASSAWAY SAWMILL,RTE 4,GASSAWAY,WV,26624,"COASTAL LUMBER CO GASSAWAY SAWMILL.RTE 4, GASSAWAY WEST VIRGINIA 26624 (BRAXTON)",0,C,,
26716CSTLLRTE1B,-79.514,39.269,False,54,077,964200,54,54077,54077964200,1400000US54077964200,COASTAL LUMBER CO - HORSE SHOE RUN,"RT 1, BOX 295",HORSE SHOE RUN,WV,26716,"COASTAL LUMBER CO - HORSE SHOE RUN.RT 1, BOX 295, HORSE SHOE RUN WEST VIRGINIA 26716 (PRESTON)",0,C,,110015681350
26537SRMYC24ARM,-79.67399999999999,39.446,False,54,077,964200,54,54077,54077964200,1400000US54077964200,US ARMY NATIONAL GUARD CAMP DAWSON,1001 MILITARY ROAD,KINGWOOD,WV,26537,"US ARMY NATIONAL GUARD CAMP DAWSON.1001 MILITARY ROAD, KINGWOOD WEST VIRGINIA 26537 (PRESTON)",0,F,,110010858214
2653WCMPDW11ARM,-79.665,39.453,False,54,077,964200,54,54077,54077964200,1400000US54077964200,US ARMY NATIONAL GUARD CAMP DAWSON RANGES,1001 ARMY ROAD,KINGWOOD,WV,265371092,"US ARMY NATIONAL GUARD CAMP DAWSON RANGES.1001 ARMY ROAD, KINGWOOD WEST VIRGINIA 26537 (PRESTON)",0,F,,110007887929
24701RGSMD1620C,-81.249,37.281,False,54,055,002000,54,54055,54055002000,1400000US54055002000,AIRGAS MID AMERICA,1620 COAL HERITAGE RD,BLUEFIELD,WV,24701,"AIRGAS MID AMERICA.1620 COAL HERITAGE RD, BLUEFIELD WEST VIRGINIA 24701 (MERCER)",0,C,,110015681207
25130NDPNDHC98B,-81.75399999999999,38.016,False,54,005,958502,54,54005,54005958502,1400000US54005958502,INDEPENDENCE COAL CO INC,RT 85 S ROBINSON CREEK RD,MADISON,WV,25130,"INDEPENDENCE COAL CO INC.RT 85 S ROBINSON CREEK RD, MADISON WEST VIRGINIA 25130 (BOONE)",0,C,,110015681252
25401GRFFTBOYDA,-77.972,39.461999999999996,False,54,003,971600,54,54037,54003971600,1400000US54003971600,GRIFFITH ENERGY SERVICES INC BOYD AVE WV,BOYD AVE,MARTINSBURG,WV,25401,"GRIFFITH ENERGY SERVICES INC BOYD AVE WV.BOYD AVE, MARTINSBURG WEST VIRGINIA 25401 (JEFFERSON)",0,C,,110012291545
25414GRFFTMARTI,-77.87100000000001,39.287,False,54,037,972501,54,54037,54037972501,1400000US54037972501,GRIFFITH ENERGY SERVICES INC-CHARLESTOWN,110066 MIDDLEWAY PIKE,CHARLES TOWN,WV,25414,"GRIFFITH ENERGY SERVICES INC-CHARLESTOWN.110066 MIDDLEWAY PIKE, CHARLES TOWN WEST VIRGINIA 25414 (JEFFERSON)",0,C,,110015583732
25678RWLSLRTE49,-82.18700000000001,37.65,False,54,059,957500,54,54059,54059957500,1400000US54059957500,RAWL SALES & PROCESSING CO,RT 49 S,LOBATA,WV,25678,"RAWL SALES & PROCESSING CO.RT 49 S, LOBATA WEST VIRGINIA 25678 (MINGO)",0,C,,
25865GRVFRRTE54,-81.372,37.674,False,54,081,001100,54,54081,54081001100,1400000US54081001100,GRAVEFORK COAL HANDLING FACILITY,RT 54,HOTCHKISS,WV,25920,"GRAVEFORK COAL HANDLING FACILITY.RT 54, HOTCHKISS WEST VIRGINIA 25920 (RALEIGH)",0,C,,
25915LFTFRRTE33,-81.292,37.629,False,54,081,000900,54,54081,54081000900,1400000US54081000900,EAST GULF PREPARATION PLANT,RT 33 6001 COAL CITY RD,RHODELL,WV,25915,"EAST GULF PREPARATION PLANT.RT 33 6001 COAL CITY RD, RHODELL WEST VIRGINIA 25915 (RALEIGH)",0,C,,110013795358
24957MRCNFMCLAU,-80.398,37.866,False,54,025,950400,54,54025,54025950400,1400000US54025950400,AMERICAN FOAM TECHNOLOGIES INC,473 MCLAUGHLIN LN,MAXWELTON,WV,24957,"AMERICAN FOAM TECHNOLOGIES INC.473 MCLAUGHLIN LN, MAXWELTON WEST VIRGINIA 24957 (GREENBRIER)",0,C,,110020516280
2497WLLGHN4GRAS,-80.661,37.879,False,54,025,950400,54,54025,54025950400,1400000US54025950400,ALLEGHENY WOOD PRODUCTS INC MILL 10,400 GRASSY MEADOWS RD,SMOOT,WV,24977,"ALLEGHENY WOOD PRODUCTS INC MILL 10.400 GRASSY MEADOWS RD, SMOOT WEST VIRGINIA 24977 (GREENBRIER)",0,C,,110070069346
25209MRFRKMARFR,-81.512,37.944,False,54,081,001200,54,54081,54081001200,1400000US54081001200,MARFORK COAL CO,MARFORK RD RT 3/1,PETTUS,WV,25209,"MARFORK COAL CO.MARFORK RD RT 3/1, PETTUS WEST VIRGINIA 25209 (RALEIGH)",0,C,,
25140GLSCLRT3NE,-81.523,37.876,False,54,081,001200,54,54081,54081001200,1400000US54081001200,GOALS COAL CO,COUNTY RTE 3 NEAR SUNDIAL,NAOMA,WV,25140,"GOALS COAL CO.COUNTY RTE 3 NEAR SUNDIAL, NAOMA WEST VIRGINIA 25140 (RALEIGH)",0,C,,110006859220
26155LNXSSSTATE,-80.859,39.65,False,54,103,030700,54,54051,54103030700,1400000US54103030700,LANXESS CORP - NEW MARTINSVILLE,STATE RT 2,NEW MARTINSVILLE,WV,26155,"LANXESS CORP - NEW MARTINSVILLE.STATE RT 2, NEW MARTINSVILLE WEST VIRGINIA 26155 (MARSHALL)",1,C,,110000608030
2615WPLWSS42STE,-80.934,39.607,False,54,103,030700,54,54103,54103030700,1400000US54103030700,PAUL WISSMACH GLASS CO,420 STEPHEN ST,PADEN CITY,WV,26159,"PAUL WISSMACH GLASS CO.420 STEPHEN ST, PADEN CITY WEST VIRGINIA 26159 (WETZEL)",0,C,,110067392663
26285LLGHNCUNTY,-79.98,38.93,False,54,083,965900,54,54083,54083965900,1400000US54083965900,ALLEGHENY WOOD PRODUCTS INC MILL 3,RT 151 W OLD RT 33,NORTON,WV,26285,"ALLEGHENY WOOD PRODUCTS INC MILL 3.RT 151 W OLD RT 33, NORTON WEST VIRGINIA 26285 (RANDOLPH)",0,C,,110022522493
26554DNMNNMILLF,-80.215,39.472,False,54,049,020400,54,54049,54049020400,1400000US54049020400,DANA MINING CO INC MILL FALL RUN MINE,MILL FALL RUN RD,MONONGAH,WV,26554,"DANA MINING CO INC MILL FALL RUN MINE.MILL FALL RUN RD, MONONGAH WEST VIRGINIA 26554 (MARION)",0,C,,110025331193
2580WTRXMN351RA,-81.176,37.81,False,54,081,001500,54,54081,54081001500,1400000US54081001500,TEREX MINING SHM,351 RAGLAND ROAD,BECKLEY,WV,25801,"TEREX MINING SHM.351 RAGLAND ROAD, BECKLEY WEST VIRGINIA 25801 (RALEIGH)",0,C,,110039497176
2580WNWRVR212RE,-81.17699999999999,37.808,False,54,081,001500,54,54081,54081001500,1400000US54081001500,ALLEGHENY WOOD PRODUCTS INC MILL 8,212 RESOURCE DR,BECKLEY,WV,25801,"ALLEGHENY WOOD PRODUCTS INC MILL 8.212 RESOURCE DR, BECKLEY WEST VIRGINIA 25801 (RALEIGH)",0,C,,110057222465
2581WFDRLCPBX12,-81.12899999999999,37.817,False,54,081,000802,54,54081,54081000802,1400000US54081000802,FEDERAL CORRECTIONAL INSTITUTION BECKLEY,1600 INDUSTRIAL PARK ROAD,BEAVER,WV,25813,"FEDERAL CORRECTIONAL INSTITUTION BECKLEY.1600 INDUSTRIAL PARK ROAD, BEAVER WEST VIRGINIA 25813 (RALEIGH)",0,F,,110005568821
2635WFDRLCPBX5X,-80.783,38.916,False,54,021,967700,54,54021,54021967700,1400000US54021967700,FEDERAL CORRECTIONAL INSTITUTION - GILMER,201 FCI LANE,GLENVILLE,WV,26351,"FEDERAL CORRECTIONAL INSTITUTION - GILMER.201 FCI LANE, GLENVILLE WEST VIRGINIA 26351 (GILMER)",0,F,,110032827966
2650WFCMRG446GR,-79.952,39.606,False,54,061,011000,54,54061,54061011000,1400000US54061011000,FCI MORGANTOWN,446 GREENBAG RD,MORGANTOWN,WV,26501,"FCI MORGANTOWN.446 GREENBAG RD, MORGANTOWN WEST VIRGINIA 26501 (MONONGALIA)",0,F,,110055497840
2681WSNVYN63HED,-79.275,38.57,False,54,071,970600,54,54071,54071970600,1400000US54071970600,US NAVY INFORMATION OPERATIONS COMMAND SUGAR GROVE RANGE,63 HEDRICK DR,SUGAR GROVE,WV,26815,"US NAVY INFORMATION OPERATIONS COMMAND SUGAR GROVE RANGE.63 HEDRICK DR, SUGAR GROVE WEST VIRGINIA 26815 (PENDLETON)",1,F,,110039498175
26847DLLPL115PT,-79.12899999999999,38.986999999999995,False,54,023,969600,54,54023,54023969600,1400000US54023969600,ADELL POLYMERS,115 POTOMAC AVE,PETERSBURG,WV,26847,"ADELL POLYMERS.115 POTOMAC AVE, PETERSBURG WEST VIRGINIA 26847 (GRANT)",0,C,,110001932231
25801PTRLM218BU,-81.199,37.765,False,54,081,000200,54,54081,54081000200,1400000US54081000200,PILOT THOMAS LOGISTICS- BECKLEY,218 BUSINESS ST,BECKLEY,WV,25801,"PILOT THOMAS LOGISTICS- BECKLEY.218 BUSINESS ST, BECKLEY WEST VIRGINIA 25801 (RALEIGH)",0,C,,110013807470
26508PTRLM494FU,-79.97399999999999,39.573,False,54,061,011804,54,54061,54061011804,1400000US54061011804,PETROLEUM PRODUCTS MORGANTOWN BULK PLANT,494 FOUR H CAMP RD,MORGANTOWN,WV,26508,"PETROLEUM PRODUCTS MORGANTOWN BULK PLANT.494 FOUR H CAMP RD, MORGANTOWN WEST VIRGINIA 26508 (MONONGALIA)",0,C,,110046424473
2542WHRPRS44KNC,-77.788,39.306999999999995,False,54,037,972601,54,54037,54037972601,1400000US54037972601,US CBP ADVANCED TRAINING CENTER # WV0002,440 KOONCE ROAD,HARPERS FERRY,WV,25425,"US CBP ADVANCED TRAINING CENTER # WV0002.440 KOONCE ROAD, HARPERS FERRY WEST VIRGINIA 25425 (JEFFERSON)",0,F,,110039589371
2624WCSCLK822PA,-79.847,38.957,False,54,083,966200,54,54083,54083966200,1400000US54083966200,CSC ELKINS RMC,822 PARSONS RD,ELKINS,WV,26241,"CSC ELKINS RMC.822 PARSONS RD, ELKINS WEST VIRGINIA 26241 (RANDOLPH)",0,C,,110055497813
2604WTHMRSSR2XX,-80.604,39.824,False,54,051,020800,54,54051,54051020800,1400000US54051020800,THE MARSHALL COUNTY COAL CO,S.R.-2,MOUNDSVILLE,WV,26041,"THE MARSHALL COUNTY COAL CO.S.R.-2, MOUNDSVILLE WEST VIRGINIA 26041 (MARSHALL)",0,C,,110054621012
2630WSKNLM298WI,-80.391,39.289,False,54,033,030601,54,54033,54033030601,1400000US54033030601,SKANA ALUMINUM CO,298 WILSONBURG RD,CLARKSBURG,WV,26301,"SKANA ALUMINUM CO.298 WILSONBURG RD, CLARKSBURG WEST VIRGINIA 26301 (HARRISON)",0,C,,110070551010
2637WMLTCH1PPLA,-80.388,39.107,False,54,041,967300,54,54041,54041967300,1400000US54041967300,MULTI-CHEM GROUP JANE LEW WV FACILITY,100 POPLAR STREET,JANE LEW,WV,26378,"MULTI-CHEM GROUP JANE LEW WV FACILITY.100 POPLAR STREET, JANE LEW WEST VIRGINIA 26378 (LEWIS)",0,C,,110042192935
2643WTHHRRPRSPE,-80.351,39.407,False,54,033,031800,54,54033,54033031800,1400000US54033031800,THE HARRISON COUNTY COAL CO,PROSPECT VALLEY ROAD,SHINNSTON,WV,26431,"THE HARRISON COUNTY COAL CO.PROSPECT VALLEY ROAD, SHINNSTON WEST VIRGINIA 26431 (HARRISON)",0,C,,110060259875
2658WTHMRN151JH,-80.362,39.585,False,54,049,021700,54,54049,54049021700,1400000US54049021700,THE MARION COUNTY COAL CO,151 JOHNNY CAKE ROAD,MANNINGTON,WV,26585,"THE MARION COUNTY COAL CO.151 JOHNNY CAKE ROAD, MANNINGTON WEST VIRGINIA 26585 (MARION)",0,C,,110060280011
2542WXPPRB164EY,-77.79899999999999,39.313,False,54,037,972602,54,54037,54037972602,1400000US54037972602,OX PAPERBOARD LLC,164 EYSTER RD,HARPERS FERRY,WV,25425,"OX PAPERBOARD LLC.164 EYSTER RD, HARPERS FERRY WEST VIRGINIA 25425 (JEFFERSON)",0,C,,110043796256
2587WFFNTY48AFF,-81.22800000000001,37.711,False,54,081,001002,54,54081,54081001002,1400000US54081001002,AFFINITY PREPARATION PLANT & REFUSE AREA,111 AFFINITY COMPLEX RD,SOPHIA,WV,25921,"AFFINITY PREPARATION PLANT & REFUSE AREA.111 AFFINITY COMPLEX RD, SOPHIA WEST VIRGINIA 25921 (RALEIGH)",0,C,,110064456510
2618WKRRYM848DU,-81.667,39.265,False,54,107,010902,54,54107,54107010902,1400000US54107010902,KURARAY AMERICA INC-WASHINGTON WV,8480 DUPONT RD,WASHINGTON,WV,26181,"KURARAY AMERICA INC-WASHINGTON WV.8480 DUPONT RD, WASHINGTON WEST VIRGINIA 26181 (WOOD)",0,C,,110060291964
2625WCSTLTINDUS,-79.916,39.0,False,54,001,965800,54,54001,54001965800,1400000US54001965800,HOOVER TREATED WOOD PRODUCTS INC,257 INDUSTRIAL PARK RD,BELINGTON,WV,26250,"HOOVER TREATED WOOD PRODUCTS INC.257 INDUSTRIAL PARK RD, BELINGTON WEST VIRGINIA 26250 (BARBOUR)",0,C,,110010858919
2637WLLGHNHC79B,-80.622,39.52,False,54,103,030500,54,54103,54103030500,1400000US54103030500,ALLEGHENY WOOD PRODUCTS INC MILL #11,HC  79 BOX 50,JACKSONBURG,WV,26377,"ALLEGHENY WOOD PRODUCTS INC MILL #11.HC  79 BOX 50, JACKSONBURG WEST VIRGINIA 26377 (WETZEL)",0,C,,110010875062
2641WCSCPN178RI,-81.023,39.275,False,54,085,962300,54,54085,54085962300,1400000US54085962300,CSC PENNSBORO RMC,178 RITCHIE CENTER DR,PENNSBORO,WV,26415,"CSC PENNSBORO RMC.178 RITCHIE CENTER DR, PENNSBORO WEST VIRGINIA 26415 (RITCHIE)",0,C,,110070247037
26102BTNRG516CA,-81.558,39.248,True,54,107,000901,54,54107,54107000901,1400000US54107000901,B-T ENERGY CORP,516 CAMDEN ST,PARKERSBURG,WV,26102,"B-T ENERGY CORP 516 CAMDEN ST, PARKERSBURG, WV, 26102",0,C,,
26102MNTNS300BR,-81.558,39.248,True,54,107,000901,54,54107,54107000901,1400000US54107000901,"MOUNTAIN STATE STEEL CASTINGS, INC","300 BROADWAY AVE EXTENSION, NORTH",PARKERSBURG,WV,26102,"MOUNTAIN STATE STEEL CASTINGS, INC 300 BROADWAY AVE EXTENSION, NORTH, PARKERSBURG, WV, 26102",0,C,,
26301WLLSLRT20S,-80.319,39.25,True,54,033,030500,54,54029,54033030500,1400000US54033030500,WELLSLEE COCA-COLA,RTE 20 S,CLARKSBURG,WV,26301,"WELLSLEE COCA-COLA RTE 20 S, CLARKSBURG, WV, 26301",0,C,,
